<?xml version='1.0' encoding='UTF-8'?>
<osm generator="JOSM" version="0.6">
  <node action="modify" changeset="99999" id="-1" lat="47.11403" lon="17.5507" timestamp="" uid="4579407" user="KAMI" version="99999">
    <tag k="name" v="Tesco"/>
    <tag k="addr:city" v="Ajka"/>
    <tag k="addr:postcode" v="8400"/>
    <tag k="addr:street" v="Fő út"/>
    <tag k="addr:housenumber" v="66"/>
    <tag k="branch" v="Ajka Hipermarket"/>
    <tag k="website" v="https://www.tesco.hu/aruhazak/aruhaz/tesco-ajka-hipermarket"/>
    <tag k="payment:cash" v="yes"/>
    <tag k="youtube" v="https://www.youtube.com/user/TescoMagyarorszag"/>
    <tag k="shop" v="supermarket"/>
    <tag k="brand" v="Tesco"/>
    <tag k="facebook" v="https://www.facebook.com/tescoaruhazak/"/>
    <tag k="website" v="https://www.tesco.hu"/>
    <tag k="payment:debit_cards" v="yes"/>
    <tag k="operator" v="Tesco Global Áruházak Zrt."/>
  </node>
  <way action="modify" changeset="1" id="327581057" timestamp="1514218676000000000" uid="4579407" user="KAMI" version="5">
    <nd ref="3343920811"/>
    <nd ref="3343920812"/>
    <nd ref="3343920813"/>
    <nd ref="3343920814"/>
    <nd ref="3343920815"/>
    <nd ref="3343920816"/>
    <nd ref="3343920817"/>
    <nd ref="3343920818"/>
    <nd ref="3343920819"/>
    <nd ref="3343920820"/>
    <nd ref="3343920811"/>
    <tag k="name" v="Tesco"/>
    <tag k="addr:city" v="Albertirsa"/>
    <tag k="addr:postcode" v="2730"/>
    <tag k="addr:street" v="Vasút utca"/>
    <tag k="addr:housenumber" v="4"/>
    <tag k="branch" v="Albertirsa Szupermarket"/>
    <tag k="website" v="https://www.tesco.hu/aruhazak/aruhaz/tesco-albertirsa-szupermarket"/>
    <tag k="payment:cash" v="yes"/>
    <tag k="youtube" v="https://www.youtube.com/user/TescoMagyarorszag"/>
    <tag k="shop" v="supermarket"/>
    <tag k="brand" v="Tesco"/>
    <tag k="facebook" v="https://www.facebook.com/tescoaruhazak/"/>
    <tag k="website" v="https://www.tesco.hu"/>
    <tag k="payment:debit_cards" v="yes"/>
    <tag k="operator" v="Tesco Global Áruházak Zrt."/>
  </way>
  <node action="modify" changeset="99999" id="-3" lat="47.499511" lon="19.087589" timestamp="" uid="4579407" user="KAMI" version="99999">
    <tag k="name" v="Tesco"/>
    <tag k="addr:city" v="Budapest"/>
    <tag k="addr:postcode" v="1087"/>
    <tag k="addr:street" v="Kerepesi utca"/>
    <tag k="addr:housenumber" v="9-11"/>
    <tag k="branch" v="Arena Plaza Hipermarket"/>
    <tag k="website" v="https://www.tesco.hu/aruhazak/aruhaz/tesco-arena-plaza-hipermarket"/>
    <tag k="payment:cash" v="yes"/>
    <tag k="youtube" v="https://www.youtube.com/user/TescoMagyarorszag"/>
    <tag k="shop" v="supermarket"/>
    <tag k="brand" v="Tesco"/>
    <tag k="facebook" v="https://www.facebook.com/tescoaruhazak/"/>
    <tag k="website" v="https://www.tesco.hu"/>
    <tag k="payment:debit_cards" v="yes"/>
    <tag k="operator" v="Tesco Global Áruházak Zrt."/>
  </node>
  <way action="modify" changeset="1" id="121249543" timestamp="1514218567000000000" uid="4579407" user="KAMI" version="6">
    <nd ref="1357856294"/>
    <nd ref="1357856310"/>
    <nd ref="1357856315"/>
    <nd ref="1357856270"/>
    <nd ref="1357856267"/>
    <nd ref="1357856298"/>
    <nd ref="1357856294"/>
    <tag k="name" v="Tesco"/>
    <tag k="addr:city" v="Baja"/>
    <tag k="addr:postcode" v="6500"/>
    <tag k="addr:street" v="Gránátos utca"/>
    <tag k="addr:housenumber" v="11"/>
    <tag k="branch" v="Baja Hipermarket"/>
    <tag k="website" v="https://www.tesco.hu/aruhazak/aruhaz/tesco-baja-hipermarket"/>
    <tag k="payment:cash" v="yes"/>
    <tag k="youtube" v="https://www.youtube.com/user/TescoMagyarorszag"/>
    <tag k="shop" v="supermarket"/>
    <tag k="brand" v="Tesco"/>
    <tag k="facebook" v="https://www.facebook.com/tescoaruhazak/"/>
    <tag k="website" v="https://www.tesco.hu"/>
    <tag k="payment:debit_cards" v="yes"/>
    <tag k="operator" v="Tesco Global Áruházak Zrt."/>
  </way>
  <node action="modify" changeset="99999" id="-5" lat="48.085762" lon="19.298772" timestamp="" uid="4579407" user="KAMI" version="99999">
    <tag k="name" v="Tesco"/>
    <tag k="addr:city" v="Balassagyarmat"/>
    <tag k="addr:postcode" v="2660"/>
    <tag k="addr:street" v="Mikszáth Kálmán utca"/>
    <tag k="addr:housenumber" v="56"/>
    <tag k="branch" v="Balassagyarmat Hipermarket"/>
    <tag k="website" v="https://www.tesco.hu/aruhazak/aruhaz/tesco-balassagyarmat-hipermarket"/>
    <tag k="payment:cash" v="yes"/>
    <tag k="youtube" v="https://www.youtube.com/user/TescoMagyarorszag"/>
    <tag k="shop" v="supermarket"/>
    <tag k="brand" v="Tesco"/>
    <tag k="facebook" v="https://www.facebook.com/tescoaruhazak/"/>
    <tag k="website" v="https://www.tesco.hu"/>
    <tag k="payment:debit_cards" v="yes"/>
    <tag k="operator" v="Tesco Global Áruházak Zrt."/>
  </node>
  <node action="modify" changeset="99999" id="-6" lat="46.774142" lon="17.651166" timestamp="" uid="4579407" user="KAMI" version="99999">
    <tag k="name" v="Tesco"/>
    <tag k="addr:city" v="Balatonboglár"/>
    <tag k="addr:postcode" v="8630"/>
    <tag k="addr:street" v="Klapka utca"/>
    <tag k="addr:housenumber" v="30"/>
    <tag k="branch" v="Balatonboglár Hipermarket"/>
    <tag k="website" v="https://www.tesco.hu/aruhazak/aruhaz/tesco-balatonboglar-hipermarket"/>
    <tag k="payment:cash" v="yes"/>
    <tag k="youtube" v="https://www.youtube.com/user/TescoMagyarorszag"/>
    <tag k="shop" v="supermarket"/>
    <tag k="brand" v="Tesco"/>
    <tag k="facebook" v="https://www.facebook.com/tescoaruhazak/"/>
    <tag k="website" v="https://www.tesco.hu"/>
    <tag k="payment:debit_cards" v="yes"/>
    <tag k="operator" v="Tesco Global Áruházak Zrt."/>
  </node>
  <node action="modify" changeset="99999" id="-7" lat="46.94749" lon="17.87612" timestamp="" uid="4579407" user="KAMI" version="99999">
    <tag k="name" v="Tesco"/>
    <tag k="addr:city" v="Balatonfüred"/>
    <tag k="addr:postcode" v="8230"/>
    <tag k="addr:street" v="Széchenyi utca"/>
    <tag k="addr:housenumber" v="55"/>
    <tag k="branch" v="Balatonfüred Hipermarket"/>
    <tag k="phone" v="+36208211311"/>
    <tag k="website" v="https://www.tesco.hu/aruhazak/aruhaz/tesco-balatonfured-hipermarket"/>
    <tag k="payment:cash" v="yes"/>
    <tag k="youtube" v="https://www.youtube.com/user/TescoMagyarorszag"/>
    <tag k="shop" v="supermarket"/>
    <tag k="brand" v="Tesco"/>
    <tag k="facebook" v="https://www.facebook.com/tescoaruhazak/"/>
    <tag k="website" v="https://www.tesco.hu"/>
    <tag k="payment:debit_cards" v="yes"/>
    <tag k="operator" v="Tesco Global Áruházak Zrt."/>
  </node>
  <node action="modify" changeset="99999" id="-8" lat="47.561947" lon="19.023736" timestamp="" uid="4579407" user="KAMI" version="99999">
    <tag k="name" v="Tesco"/>
    <tag k="addr:city" v="Budapest"/>
    <tag k="addr:postcode" v="1037"/>
    <tag k="addr:street" v="Bécsi út"/>
    <tag k="addr:housenumber" v="258"/>
    <tag k="branch" v="Bécsi út Hipermarket"/>
    <tag k="website" v="https://www.tesco.hu/aruhazak/aruhaz/tesco-becsi-ut-hipermarket"/>
    <tag k="payment:cash" v="yes"/>
    <tag k="youtube" v="https://www.youtube.com/user/TescoMagyarorszag"/>
    <tag k="shop" v="supermarket"/>
    <tag k="brand" v="Tesco"/>
    <tag k="facebook" v="https://www.facebook.com/tescoaruhazak/"/>
    <tag k="website" v="https://www.tesco.hu"/>
    <tag k="payment:debit_cards" v="yes"/>
    <tag k="operator" v="Tesco Global Áruházak Zrt."/>
  </node>
  <node action="modify" changeset="99999" id="-9" lat="46.68168" lon="21.07226" timestamp="" uid="4579407" user="KAMI" version="99999">
    <tag k="name" v="Tesco"/>
    <tag k="addr:city" v="Békéscsaba"/>
    <tag k="addr:postcode" v="5600"/>
    <tag k="addr:street" v="Szarvasi út"/>
    <tag k="addr:housenumber" v="68"/>
    <tag k="branch" v="Békéscsaba Hipermarket"/>
    <tag k="website" v="https://www.tesco.hu/aruhazak/aruhaz/tesco-bekescsaba-hipermarket"/>
    <tag k="payment:cash" v="yes"/>
    <tag k="youtube" v="https://www.youtube.com/user/TescoMagyarorszag"/>
    <tag k="shop" v="supermarket"/>
    <tag k="brand" v="Tesco"/>
    <tag k="facebook" v="https://www.facebook.com/tescoaruhazak/"/>
    <tag k="website" v="https://www.tesco.hu"/>
    <tag k="payment:debit_cards" v="yes"/>
    <tag k="operator" v="Tesco Global Áruházak Zrt."/>
  </node>
  <node action="modify" changeset="99999" id="-10" lat="46.66973" lon="21.10842" timestamp="" uid="4579407" user="KAMI" version="99999">
    <tag k="name" v="Tesco"/>
    <tag k="addr:city" v="Békéscsaba"/>
    <tag k="addr:postcode" v="5600"/>
    <tag k="addr:street" v="Corvin J. utca"/>
    <tag k="addr:housenumber" v="41"/>
    <tag k="branch" v="Békéscsaba Szupermarket"/>
    <tag k="website" v="https://www.tesco.hu/aruhazak/aruhaz/tesco-bekescsaba-szupermarket"/>
    <tag k="payment:cash" v="yes"/>
    <tag k="youtube" v="https://www.youtube.com/user/TescoMagyarorszag"/>
    <tag k="shop" v="supermarket"/>
    <tag k="brand" v="Tesco"/>
    <tag k="facebook" v="https://www.facebook.com/tescoaruhazak/"/>
    <tag k="website" v="https://www.tesco.hu"/>
    <tag k="payment:debit_cards" v="yes"/>
    <tag k="operator" v="Tesco Global Áruházak Zrt."/>
  </node>
  <node action="modify" changeset="99999" id="-11" lat="47.237927" lon="21.535091" timestamp="" uid="4579407" user="KAMI" version="99999">
    <tag k="name" v="Tesco"/>
    <tag k="addr:city" v="Berettyóújfalu"/>
    <tag k="addr:postcode" v="4100"/>
    <tag k="addr:street" v="Honvéd utca"/>
    <tag k="addr:housenumber" v="13"/>
    <tag k="branch" v="Berettyóújfalu Hipermarket"/>
    <tag k="website" v="https://www.tesco.hu/aruhazak/aruhaz/tesco-berettyoujfalu-hipermarket"/>
    <tag k="payment:cash" v="yes"/>
    <tag k="youtube" v="https://www.youtube.com/user/TescoMagyarorszag"/>
    <tag k="shop" v="supermarket"/>
    <tag k="brand" v="Tesco"/>
    <tag k="facebook" v="https://www.facebook.com/tescoaruhazak/"/>
    <tag k="website" v="https://www.tesco.hu"/>
    <tag k="payment:debit_cards" v="yes"/>
    <tag k="operator" v="Tesco Global Áruházak Zrt."/>
  </node>
  <node action="modify" changeset="99999" id="-12" lat="47.50189" lon="18.62918" timestamp="" uid="4579407" user="KAMI" version="99999">
    <tag k="name" v="Tesco"/>
    <tag k="addr:city" v="Bicske"/>
    <tag k="addr:postcode" v="2060"/>
    <tag k="addr:street" v="Csabdi út"/>
    <tag k="addr:housenumber" v="4"/>
    <tag k="branch" v="Bicske Hipermarket"/>
    <tag k="website" v="https://www.tesco.hu/aruhazak/aruhaz/tesco-bicske-hipermarket"/>
    <tag k="payment:cash" v="yes"/>
    <tag k="youtube" v="https://www.youtube.com/user/TescoMagyarorszag"/>
    <tag k="shop" v="supermarket"/>
    <tag k="brand" v="Tesco"/>
    <tag k="facebook" v="https://www.facebook.com/tescoaruhazak/"/>
    <tag k="website" v="https://www.tesco.hu"/>
    <tag k="payment:debit_cards" v="yes"/>
    <tag k="operator" v="Tesco Global Áruházak Zrt."/>
  </node>
  <node action="modify" changeset="99999" id="-13" lat="46.300828" lon="18.538666" timestamp="" uid="4579407" user="KAMI" version="99999">
    <tag k="name" v="Tesco"/>
    <tag k="addr:city" v="Bonyhád"/>
    <tag k="addr:postcode" v="7150"/>
    <tag k="addr:street" v="Völgység utca"/>
    <tag k="addr:housenumber" v="8"/>
    <tag k="branch" v="Bonyhád Hipermarket"/>
    <tag k="website" v="https://www.tesco.hu/aruhazak/aruhaz/tesco-bonyhad-hipermarket"/>
    <tag k="payment:cash" v="yes"/>
    <tag k="youtube" v="https://www.youtube.com/user/TescoMagyarorszag"/>
    <tag k="shop" v="supermarket"/>
    <tag k="brand" v="Tesco"/>
    <tag k="facebook" v="https://www.facebook.com/tescoaruhazak/"/>
    <tag k="website" v="https://www.tesco.hu"/>
    <tag k="payment:debit_cards" v="yes"/>
    <tag k="operator" v="Tesco Global Áruházak Zrt."/>
  </node>
  <node action="modify" changeset="99999" id="-14" lat="47.499575" lon="18.912105" timestamp="" uid="4579407" user="KAMI" version="99999">
    <tag k="name" v="Tesco"/>
    <tag k="addr:city" v="Budakeszi"/>
    <tag k="addr:postcode" v="2092"/>
    <tag k="addr:street" v="Bianka utca"/>
    <tag k="addr:housenumber" v="1"/>
    <tag k="branch" v="Budakeszi Hipermarket"/>
    <tag k="website" v="https://www.tesco.hu/aruhazak/aruhaz/tesco-budakeszi-hipermarket"/>
    <tag k="payment:cash" v="yes"/>
    <tag k="youtube" v="https://www.youtube.com/user/TescoMagyarorszag"/>
    <tag k="shop" v="supermarket"/>
    <tag k="brand" v="Tesco"/>
    <tag k="facebook" v="https://www.facebook.com/tescoaruhazak/"/>
    <tag k="website" v="https://www.tesco.hu"/>
    <tag k="payment:debit_cards" v="yes"/>
    <tag k="operator" v="Tesco Global Áruházak Zrt."/>
  </node>
  <node action="modify" changeset="99999" id="-15" lat="47.45174" lon="18.96453" timestamp="" uid="4579407" user="KAMI" version="99999">
    <tag k="name" v="Tesco"/>
    <tag k="addr:city" v="Budaörs"/>
    <tag k="addr:postcode" v="2040"/>
    <tag k="addr:street" v="Kinizsi út"/>
    <tag k="addr:housenumber" v="1"/>
    <tag k="branch" v="Budaörs Hipermarket"/>
    <tag k="website" v="https://www.tesco.hu/aruhazak/aruhaz/tesco-budaors-hipermarket"/>
    <tag k="payment:cash" v="yes"/>
    <tag k="youtube" v="https://www.youtube.com/user/TescoMagyarorszag"/>
    <tag k="shop" v="supermarket"/>
    <tag k="brand" v="Tesco"/>
    <tag k="facebook" v="https://www.facebook.com/tescoaruhazak/"/>
    <tag k="website" v="https://www.tesco.hu"/>
    <tag k="payment:debit_cards" v="yes"/>
    <tag k="operator" v="Tesco Global Áruházak Zrt."/>
  </node>
  <node action="modify" changeset="99999" id="-16" lat="47.40759" lon="19.0198" timestamp="" uid="4579407" user="KAMI" version="99999">
    <tag k="name" v="Tesco"/>
    <tag k="addr:city" v="Budapest"/>
    <tag k="addr:postcode" v="1223"/>
    <tag k="addr:street" v="Nagytétényi út"/>
    <tag k="addr:housenumber" v="35"/>
    <tag k="branch" v="Campona Hipermarket"/>
    <tag k="website" v="https://www.tesco.hu/aruhazak/aruhaz/tesco-campona-hipermarket"/>
    <tag k="payment:cash" v="yes"/>
    <tag k="youtube" v="https://www.youtube.com/user/TescoMagyarorszag"/>
    <tag k="shop" v="supermarket"/>
    <tag k="brand" v="Tesco"/>
    <tag k="facebook" v="https://www.facebook.com/tescoaruhazak/"/>
    <tag k="website" v="https://www.tesco.hu"/>
    <tag k="payment:debit_cards" v="yes"/>
    <tag k="operator" v="Tesco Global Áruházak Zrt."/>
  </node>
  <node action="modify" changeset="99999" id="-17" lat="47.18303" lon="19.79737" timestamp="" uid="4579407" user="KAMI" version="99999">
    <tag k="name" v="Tesco"/>
    <tag k="addr:city" v="Cegléd"/>
    <tag k="addr:postcode" v="2700"/>
    <tag k="addr:street" v="Malomtó szél"/>
    <tag k="addr:housenumber" v="30"/>
    <tag k="branch" v="Cegléd Hipermarket"/>
    <tag k="website" v="https://www.tesco.hu/aruhazak/aruhaz/tesco-cegled-hipermarket"/>
    <tag k="payment:cash" v="yes"/>
    <tag k="youtube" v="https://www.youtube.com/user/TescoMagyarorszag"/>
    <tag k="shop" v="supermarket"/>
    <tag k="brand" v="Tesco"/>
    <tag k="facebook" v="https://www.facebook.com/tescoaruhazak/"/>
    <tag k="website" v="https://www.tesco.hu"/>
    <tag k="payment:debit_cards" v="yes"/>
    <tag k="operator" v="Tesco Global Áruházak Zrt."/>
  </node>
  <node action="modify" changeset="99999" id="-18" lat="47.252067" lon="17.152364" timestamp="" uid="4579407" user="KAMI" version="99999">
    <tag k="name" v="Tesco"/>
    <tag k="addr:city" v="Celldömölk"/>
    <tag k="addr:postcode" v="9500"/>
    <tag k="addr:street" v="Sági utca"/>
    <tag k="addr:housenumber" v="41"/>
    <tag k="branch" v="Celldömölk Szupermarket"/>
    <tag k="website" v="https://www.tesco.hu/aruhazak/aruhaz/tesco-celldomolk-szupermarket"/>
    <tag k="payment:cash" v="yes"/>
    <tag k="youtube" v="https://www.youtube.com/user/TescoMagyarorszag"/>
    <tag k="shop" v="supermarket"/>
    <tag k="brand" v="Tesco"/>
    <tag k="facebook" v="https://www.facebook.com/tescoaruhazak/"/>
    <tag k="website" v="https://www.tesco.hu"/>
    <tag k="payment:debit_cards" v="yes"/>
    <tag k="operator" v="Tesco Global Áruházak Zrt."/>
  </node>
  <node action="modify" changeset="1" id="3995421197" lat="47.41378" lon="19.05747" timestamp="1454938225000000000" uid="4579407" user="KAMI" version="1">
    <tag k="name" v="Tesco"/>
    <tag k="addr:city" v="Budapest"/>
    <tag k="addr:postcode" v="1214"/>
    <tag k="addr:street" v="XXI. II. Rákóczi Ferenc utca"/>
    <tag k="addr:housenumber" v="191"/>
    <tag k="branch" v="Csepel Hipermarket"/>
    <tag k="website" v="https://www.tesco.hu/aruhazak/aruhaz/tesco-csepel-hipermarket"/>
    <tag k="payment:cash" v="yes"/>
    <tag k="youtube" v="https://www.youtube.com/user/TescoMagyarorszag"/>
    <tag k="shop" v="supermarket"/>
    <tag k="brand" v="Tesco"/>
    <tag k="facebook" v="https://www.facebook.com/tescoaruhazak/"/>
    <tag k="website" v="https://www.tesco.hu"/>
    <tag k="payment:debit_cards" v="yes"/>
    <tag k="operator" v="Tesco Global Áruházak Zrt."/>
  </node>
  <node action="modify" changeset="99999" id="-20" lat="47.60834" lon="17.24369" timestamp="" uid="4579407" user="KAMI" version="99999">
    <tag k="name" v="Tesco"/>
    <tag k="addr:city" v="Csorna"/>
    <tag k="addr:postcode" v="9300"/>
    <tag k="addr:street" v="Bartók Béla utca"/>
    <tag k="addr:housenumber" v="3/c"/>
    <tag k="branch" v="Csorna Hipermarket"/>
    <tag k="website" v="https://www.tesco.hu/aruhazak/aruhaz/tesco-csorna-hipermarket"/>
    <tag k="payment:cash" v="yes"/>
    <tag k="youtube" v="https://www.youtube.com/user/TescoMagyarorszag"/>
    <tag k="shop" v="supermarket"/>
    <tag k="brand" v="Tesco"/>
    <tag k="facebook" v="https://www.facebook.com/tescoaruhazak/"/>
    <tag k="website" v="https://www.tesco.hu"/>
    <tag k="payment:debit_cards" v="yes"/>
    <tag k="operator" v="Tesco Global Áruházak Zrt."/>
  </node>
  <node action="modify" changeset="99999" id="-21" lat="47.19386" lon="19.3222" timestamp="" uid="4579407" user="KAMI" version="99999">
    <tag k="name" v="Tesco"/>
    <tag k="addr:city" v="Dabas"/>
    <tag k="addr:postcode" v="2370"/>
    <tag k="addr:conscriptionnumber" v="2256/15"/>
    <tag k="branch" v="Dabas Hipermarket"/>
    <tag k="website" v="https://www.tesco.hu/aruhazak/aruhaz/tesco-dabas-hipermarket"/>
    <tag k="payment:cash" v="yes"/>
    <tag k="youtube" v="https://www.youtube.com/user/TescoMagyarorszag"/>
    <tag k="shop" v="supermarket"/>
    <tag k="brand" v="Tesco"/>
    <tag k="facebook" v="https://www.facebook.com/tescoaruhazak/"/>
    <tag k="website" v="https://www.tesco.hu"/>
    <tag k="payment:debit_cards" v="yes"/>
    <tag k="operator" v="Tesco Global Áruházak Zrt."/>
  </node>
  <node action="modify" changeset="99999" id="-22" lat="47.597959" lon="21.576505" timestamp="" uid="4579407" user="KAMI" version="99999">
    <tag k="name" v="Tesco"/>
    <tag k="addr:city" v="Debrecen"/>
    <tag k="addr:postcode" v="4225"/>
    <tag k="addr:street" v="Szentgyörgyfalvi utca"/>
    <tag k="addr:housenumber" v="9"/>
    <tag k="branch" v="Debrecen Szupermarket"/>
    <tag k="website" v="https://www.tesco.hu/aruhazak/aruhaz/tesco-debrecen-szupermarket"/>
    <tag k="payment:cash" v="yes"/>
    <tag k="youtube" v="https://www.youtube.com/user/TescoMagyarorszag"/>
    <tag k="shop" v="supermarket"/>
    <tag k="brand" v="Tesco"/>
    <tag k="facebook" v="https://www.facebook.com/tescoaruhazak/"/>
    <tag k="website" v="https://www.tesco.hu"/>
    <tag k="payment:debit_cards" v="yes"/>
    <tag k="operator" v="Tesco Global Áruházak Zrt."/>
  </node>
  <node action="modify" changeset="99999" id="-23" lat="46.386521" lon="18.139758" timestamp="" uid="4579407" user="KAMI" version="99999">
    <tag k="name" v="Tesco"/>
    <tag k="addr:city" v="Dombóvár"/>
    <tag k="addr:postcode" v="7200"/>
    <tag k="addr:street" v="Köztársaság utca"/>
    <tag k="addr:housenumber" v="7"/>
    <tag k="branch" v="Dombóvár Hipermarket"/>
    <tag k="website" v="https://www.tesco.hu/aruhazak/aruhaz/tesco-dombovar-hipermarket"/>
    <tag k="payment:cash" v="yes"/>
    <tag k="youtube" v="https://www.youtube.com/user/TescoMagyarorszag"/>
    <tag k="shop" v="supermarket"/>
    <tag k="brand" v="Tesco"/>
    <tag k="facebook" v="https://www.facebook.com/tescoaruhazak/"/>
    <tag k="website" v="https://www.tesco.hu"/>
    <tag k="payment:debit_cards" v="yes"/>
    <tag k="operator" v="Tesco Global Áruházak Zrt."/>
  </node>
  <node action="modify" changeset="99999" id="-24" lat="47.714043" lon="18.7399" timestamp="" uid="4579407" user="KAMI" version="99999">
    <tag k="name" v="Tesco"/>
    <tag k="addr:city" v="Dorog"/>
    <tag k="addr:postcode" v="2510"/>
    <tag k="addr:street" v="Eötvös József utca"/>
    <tag k="addr:housenumber" v="39"/>
    <tag k="branch" v="Dorog Szupermarket"/>
    <tag k="website" v="https://www.tesco.hu/aruhazak/aruhaz/tesco-dorog-szupermarket"/>
    <tag k="payment:cash" v="yes"/>
    <tag k="youtube" v="https://www.youtube.com/user/TescoMagyarorszag"/>
    <tag k="shop" v="supermarket"/>
    <tag k="brand" v="Tesco"/>
    <tag k="facebook" v="https://www.facebook.com/tescoaruhazak/"/>
    <tag k="website" v="https://www.tesco.hu"/>
    <tag k="payment:debit_cards" v="yes"/>
    <tag k="operator" v="Tesco Global Áruházak Zrt."/>
  </node>
  <node action="modify" changeset="99999" id="-25" lat="47.34529" lon="19.11844" timestamp="" uid="4579407" user="KAMI" version="99999">
    <tag k="name" v="Tesco"/>
    <tag k="addr:city" v="Dunaharaszti"/>
    <tag k="addr:postcode" v="2330"/>
    <tag k="addr:street" v="Némedi út"/>
    <tag k="addr:housenumber" v="69"/>
    <tag k="branch" v="Dunaharaszti Hipermarket"/>
    <tag k="website" v="https://www.tesco.hu/aruhazak/aruhaz/tesco-dunaharaszti-hipermarket"/>
    <tag k="payment:cash" v="yes"/>
    <tag k="youtube" v="https://www.youtube.com/user/TescoMagyarorszag"/>
    <tag k="shop" v="supermarket"/>
    <tag k="brand" v="Tesco"/>
    <tag k="facebook" v="https://www.facebook.com/tescoaruhazak/"/>
    <tag k="website" v="https://www.tesco.hu"/>
    <tag k="payment:debit_cards" v="yes"/>
    <tag k="operator" v="Tesco Global Áruházak Zrt."/>
  </node>
  <node action="modify" changeset="99999" id="-26" lat="47.362607" lon="19.088659" timestamp="" uid="4579407" user="KAMI" version="99999">
    <tag k="name" v="Tesco"/>
    <tag k="addr:city" v="Dunaharaszti"/>
    <tag k="addr:postcode" v="2330"/>
    <tag k="addr:street" v="Fő utca"/>
    <tag k="addr:housenumber" v="56"/>
    <tag k="branch" v="Dunaharaszti Szupermarket"/>
    <tag k="website" v="https://www.tesco.hu/aruhazak/aruhaz/tesco-dunaharaszti-szupermarket"/>
    <tag k="payment:cash" v="yes"/>
    <tag k="youtube" v="https://www.youtube.com/user/TescoMagyarorszag"/>
    <tag k="shop" v="supermarket"/>
    <tag k="brand" v="Tesco"/>
    <tag k="facebook" v="https://www.facebook.com/tescoaruhazak/"/>
    <tag k="website" v="https://www.tesco.hu"/>
    <tag k="payment:debit_cards" v="yes"/>
    <tag k="operator" v="Tesco Global Áruházak Zrt."/>
  </node>
  <way action="modify" changeset="1" id="305263988" timestamp="1514218667000000000" uid="4579407" user="KAMI" version="8">
    <nd ref="3098643682"/>
    <nd ref="3108278657"/>
    <nd ref="3108278656"/>
    <nd ref="3098643683"/>
    <nd ref="3319390279"/>
    <nd ref="3319390242"/>
    <nd ref="3319390241"/>
    <nd ref="3319390276"/>
    <nd ref="3098643684"/>
    <nd ref="3098643685"/>
    <nd ref="3108278659"/>
    <nd ref="3108278660"/>
    <nd ref="3108278661"/>
    <nd ref="3108278658"/>
    <nd ref="3098643682"/>
    <tag k="name" v="Tesco"/>
    <tag k="addr:city" v="Dunakeszi"/>
    <tag k="addr:postcode" v="2120"/>
    <tag k="addr:street" v="Fő út"/>
    <tag k="addr:housenumber" v="190"/>
    <tag k="branch" v="Dunakeszi Hipermarket"/>
    <tag k="website" v="https://www.tesco.hu/aruhazak/aruhaz/tesco-dunakeszi-hipermarket"/>
    <tag k="payment:cash" v="yes"/>
    <tag k="youtube" v="https://www.youtube.com/user/TescoMagyarorszag"/>
    <tag k="shop" v="supermarket"/>
    <tag k="brand" v="Tesco"/>
    <tag k="facebook" v="https://www.facebook.com/tescoaruhazak/"/>
    <tag k="website" v="https://www.tesco.hu"/>
    <tag k="payment:debit_cards" v="yes"/>
    <tag k="operator" v="Tesco Global Áruházak Zrt."/>
  </way>
  <node action="modify" changeset="99999" id="-28" lat="47.618813" lon="19.166518" timestamp="" uid="4579407" user="KAMI" version="99999">
    <tag k="name" v="Tesco"/>
    <tag k="addr:city" v="Dunakeszi"/>
    <tag k="addr:postcode" v="2120"/>
    <tag k="addr:street" v="Fóti út"/>
    <tag k="addr:housenumber" v="120"/>
    <tag k="branch" v="Dunakeszi-Fót Hipermarket "/>
    <tag k="website" v="https://www.tesco.hu/aruhazak/aruhaz/tesco-dunakeszi-fot-hipermarket"/>
    <tag k="payment:cash" v="yes"/>
    <tag k="youtube" v="https://www.youtube.com/user/TescoMagyarorszag"/>
    <tag k="shop" v="supermarket"/>
    <tag k="brand" v="Tesco"/>
    <tag k="facebook" v="https://www.facebook.com/tescoaruhazak/"/>
    <tag k="website" v="https://www.tesco.hu"/>
    <tag k="payment:debit_cards" v="yes"/>
    <tag k="operator" v="Tesco Global Áruházak Zrt."/>
  </node>
  <way action="modify" changeset="1" id="144206066" timestamp="1514218576000000000" uid="4579407" user="KAMI" version="5">
    <nd ref="1577944364"/>
    <nd ref="1577944353"/>
    <nd ref="1577944335"/>
    <nd ref="1577944358"/>
    <nd ref="1577944364"/>
    <tag k="name" v="Tesco"/>
    <tag k="addr:city" v="Dunaújváros"/>
    <tag k="addr:postcode" v="2400"/>
    <tag k="addr:street" v="Aranyvölgyi út"/>
    <tag k="addr:housenumber" v="6"/>
    <tag k="branch" v="Dunaújváros Hipermarket"/>
    <tag k="website" v="https://www.tesco.hu/aruhazak/aruhaz/tesco-dunaujvaros-hipermarket"/>
    <tag k="payment:cash" v="yes"/>
    <tag k="youtube" v="https://www.youtube.com/user/TescoMagyarorszag"/>
    <tag k="shop" v="supermarket"/>
    <tag k="brand" v="Tesco"/>
    <tag k="facebook" v="https://www.facebook.com/tescoaruhazak/"/>
    <tag k="website" v="https://www.tesco.hu"/>
    <tag k="payment:debit_cards" v="yes"/>
    <tag k="operator" v="Tesco Global Áruházak Zrt."/>
  </way>
  <node action="modify" changeset="99999" id="-30" lat="47.92336" lon="20.36957" timestamp="" uid="4579407" user="KAMI" version="99999">
    <tag k="name" v="Tesco"/>
    <tag k="addr:city" v="Eger"/>
    <tag k="addr:postcode" v="3300"/>
    <tag k="addr:street" v="Rákóczi út"/>
    <tag k="addr:housenumber" v="100"/>
    <tag k="branch" v="Eger Hipermarket"/>
    <tag k="website" v="https://www.tesco.hu/aruhazak/aruhaz/tesco-eger-hipermarket"/>
    <tag k="payment:cash" v="yes"/>
    <tag k="youtube" v="https://www.youtube.com/user/TescoMagyarorszag"/>
    <tag k="shop" v="supermarket"/>
    <tag k="brand" v="Tesco"/>
    <tag k="facebook" v="https://www.facebook.com/tescoaruhazak/"/>
    <tag k="website" v="https://www.tesco.hu"/>
    <tag k="payment:debit_cards" v="yes"/>
    <tag k="operator" v="Tesco Global Áruházak Zrt."/>
  </node>
  <node action="modify" changeset="99999" id="-31" lat="47.899073" lon="20.368551" timestamp="" uid="4579407" user="KAMI" version="99999">
    <tag k="name" v="Tesco"/>
    <tag k="addr:city" v="Eger"/>
    <tag k="addr:postcode" v="3300"/>
    <tag k="addr:street" v="Törvényház utca"/>
    <tag k="addr:housenumber" v="4"/>
    <tag k="branch" v="Eger-Agria Park Szupermarket"/>
    <tag k="website" v="https://www.tesco.hu/aruhazak/aruhaz/tesco-eger-agria-park-szupermarket"/>
    <tag k="payment:cash" v="yes"/>
    <tag k="youtube" v="https://www.youtube.com/user/TescoMagyarorszag"/>
    <tag k="shop" v="supermarket"/>
    <tag k="brand" v="Tesco"/>
    <tag k="facebook" v="https://www.facebook.com/tescoaruhazak/"/>
    <tag k="website" v="https://www.tesco.hu"/>
    <tag k="payment:debit_cards" v="yes"/>
    <tag k="operator" v="Tesco Global Áruházak Zrt."/>
  </node>
  <node action="modify" changeset="99999" id="-32" lat="47.37832" lon="18.93679" timestamp="" uid="4579407" user="KAMI" version="99999">
    <tag k="name" v="Tesco"/>
    <tag k="addr:city" v="Érd"/>
    <tag k="addr:postcode" v="2030"/>
    <tag k="addr:street" v="Budafoki út"/>
    <tag k="addr:housenumber" v="2-4"/>
    <tag k="branch" v="Érd Hipermarket"/>
    <tag k="website" v="https://www.tesco.hu/aruhazak/aruhaz/tesco-erd-hipermarket"/>
    <tag k="payment:cash" v="yes"/>
    <tag k="youtube" v="https://www.youtube.com/user/TescoMagyarorszag"/>
    <tag k="shop" v="supermarket"/>
    <tag k="brand" v="Tesco"/>
    <tag k="facebook" v="https://www.facebook.com/tescoaruhazak/"/>
    <tag k="website" v="https://www.tesco.hu"/>
    <tag k="payment:debit_cards" v="yes"/>
    <tag k="operator" v="Tesco Global Áruházak Zrt."/>
  </node>
  <way action="modify" changeset="1" id="35160671" timestamp="1505247928000000000" uid="4579407" user="KAMI" version="7">
    <nd ref="412409514"/>
    <nd ref="412409515"/>
    <nd ref="412409516"/>
    <nd ref="412409517"/>
    <nd ref="4774382800"/>
    <nd ref="412409514"/>
    <tag k="name" v="Tesco"/>
    <tag k="addr:city" v="Esztergom"/>
    <tag k="addr:postcode" v="2500"/>
    <tag k="addr:street" v="Mátyás király utca"/>
    <tag k="addr:housenumber" v="30"/>
    <tag k="branch" v="Esztergom Hipermarket"/>
    <tag k="website" v="https://www.tesco.hu/aruhazak/aruhaz/tesco-esztergom-hipermarket"/>
    <tag k="payment:cash" v="yes"/>
    <tag k="youtube" v="https://www.youtube.com/user/TescoMagyarorszag"/>
    <tag k="shop" v="supermarket"/>
    <tag k="brand" v="Tesco"/>
    <tag k="facebook" v="https://www.facebook.com/tescoaruhazak/"/>
    <tag k="website" v="https://www.tesco.hu"/>
    <tag k="payment:debit_cards" v="yes"/>
    <tag k="operator" v="Tesco Global Áruházak Zrt."/>
  </way>
  <node action="modify" changeset="99999" id="-34" lat="47.570648" lon="19.079046" timestamp="" uid="4579407" user="KAMI" version="99999">
    <tag k="name" v="Tesco"/>
    <tag k="addr:city" v="Budapest"/>
    <tag k="addr:postcode" v="1044"/>
    <tag k="addr:street" v="Garam utca"/>
    <tag k="addr:housenumber" v="3"/>
    <tag k="branch" v="Garam utca Hipermarket"/>
    <tag k="website" v="https://www.tesco.hu/aruhazak/aruhaz/tesco-garam-utca-hipermarket"/>
    <tag k="payment:cash" v="yes"/>
    <tag k="youtube" v="https://www.youtube.com/user/TescoMagyarorszag"/>
    <tag k="shop" v="supermarket"/>
    <tag k="brand" v="Tesco"/>
    <tag k="facebook" v="https://www.facebook.com/tescoaruhazak/"/>
    <tag k="website" v="https://www.tesco.hu"/>
    <tag k="payment:debit_cards" v="yes"/>
    <tag k="operator" v="Tesco Global Áruházak Zrt."/>
  </node>
  <node action="modify" changeset="99999" id="-35" lat="47.61007" lon="19.33841" timestamp="" uid="4579407" user="KAMI" version="99999">
    <tag k="name" v="Tesco"/>
    <tag k="addr:city" v="Gödöllő"/>
    <tag k="addr:postcode" v="2100"/>
    <tag k="addr:street" v="Thegze Lajos utca"/>
    <tag k="addr:housenumber" v="2"/>
    <tag k="branch" v="Gödöllő Hipermarket"/>
    <tag k="website" v="https://www.tesco.hu/aruhazak/aruhaz/tesco-godollo-hipermarket"/>
    <tag k="payment:cash" v="yes"/>
    <tag k="youtube" v="https://www.youtube.com/user/TescoMagyarorszag"/>
    <tag k="shop" v="supermarket"/>
    <tag k="brand" v="Tesco"/>
    <tag k="facebook" v="https://www.facebook.com/tescoaruhazak/"/>
    <tag k="website" v="https://www.tesco.hu"/>
    <tag k="payment:debit_cards" v="yes"/>
    <tag k="operator" v="Tesco Global Áruházak Zrt."/>
  </node>
  <node action="modify" changeset="99999" id="-36" lat="47.417682" lon="19.407297" timestamp="" uid="4579407" user="KAMI" version="99999">
    <tag k="name" v="Tesco"/>
    <tag k="addr:city" v="Gyömrő"/>
    <tag k="addr:postcode" v="2230"/>
    <tag k="addr:street" v="Mendei utca"/>
    <tag k="addr:housenumber" v="2"/>
    <tag k="branch" v="Gyömrő Szupermarket"/>
    <tag k="website" v="https://www.tesco.hu/aruhazak/aruhaz/tesco-gyomro-szupermarket"/>
    <tag k="payment:cash" v="yes"/>
    <tag k="youtube" v="https://www.youtube.com/user/TescoMagyarorszag"/>
    <tag k="shop" v="supermarket"/>
    <tag k="brand" v="Tesco"/>
    <tag k="facebook" v="https://www.facebook.com/tescoaruhazak/"/>
    <tag k="website" v="https://www.tesco.hu"/>
    <tag k="payment:debit_cards" v="yes"/>
    <tag k="operator" v="Tesco Global Áruházak Zrt."/>
  </node>
  <node action="modify" changeset="99999" id="-37" lat="47.76873" lon="19.91499" timestamp="" uid="4579407" user="KAMI" version="99999">
    <tag k="name" v="Tesco"/>
    <tag k="addr:city" v="Gyöngyös"/>
    <tag k="addr:postcode" v="3200"/>
    <tag k="addr:street" v="Vásár utca"/>
    <tag k="addr:housenumber" v="2"/>
    <tag k="branch" v="Gyöngyös Hipermarket"/>
    <tag k="website" v="https://www.tesco.hu/aruhazak/aruhaz/tesco-gyongyos-hipermarket"/>
    <tag k="payment:cash" v="yes"/>
    <tag k="youtube" v="https://www.youtube.com/user/TescoMagyarorszag"/>
    <tag k="shop" v="supermarket"/>
    <tag k="brand" v="Tesco"/>
    <tag k="facebook" v="https://www.facebook.com/tescoaruhazak/"/>
    <tag k="website" v="https://www.tesco.hu"/>
    <tag k="payment:debit_cards" v="yes"/>
    <tag k="operator" v="Tesco Global Áruházak Zrt."/>
  </node>
  <way action="modify" changeset="1" id="202423006" timestamp="1514218595000000000" uid="4579407" user="KAMI" version="4">
    <nd ref="2123905217"/>
    <nd ref="2123905170"/>
    <nd ref="2123905106"/>
    <nd ref="2123905098"/>
    <nd ref="2123905210"/>
    <nd ref="2123905173"/>
    <nd ref="2787656063"/>
    <nd ref="2123905217"/>
    <tag k="name" v="Tesco"/>
    <tag k="addr:city" v="Győr"/>
    <tag k="addr:postcode" v="9024"/>
    <tag k="addr:street" v="Királyszék utca"/>
    <tag k="addr:housenumber" v="33"/>
    <tag k="branch" v="Győr Hipermarket"/>
    <tag k="website" v="https://www.tesco.hu/aruhazak/aruhaz/tesco-gyor-hipermarket"/>
    <tag k="payment:cash" v="yes"/>
    <tag k="youtube" v="https://www.youtube.com/user/TescoMagyarorszag"/>
    <tag k="shop" v="supermarket"/>
    <tag k="brand" v="Tesco"/>
    <tag k="facebook" v="https://www.facebook.com/tescoaruhazak/"/>
    <tag k="website" v="https://www.tesco.hu"/>
    <tag k="payment:debit_cards" v="yes"/>
    <tag k="operator" v="Tesco Global Áruházak Zrt."/>
  </way>
  <node action="modify" changeset="99999" id="-39" lat="47.66434" lon="17.63517" timestamp="" uid="4579407" user="KAMI" version="99999">
    <tag k="name" v="Tesco"/>
    <tag k="addr:city" v="Győr"/>
    <tag k="addr:postcode" v="9024"/>
    <tag k="addr:street" v="Mécs L. utca"/>
    <tag k="addr:housenumber" v="4"/>
    <tag k="branch" v="Győr Szupermarket - Mécs L. utca"/>
    <tag k="website" v="https://www.tesco.hu/aruhazak/aruhaz/tesco-gyor-szupermarket-mecs-l-utca"/>
    <tag k="payment:cash" v="yes"/>
    <tag k="youtube" v="https://www.youtube.com/user/TescoMagyarorszag"/>
    <tag k="shop" v="supermarket"/>
    <tag k="brand" v="Tesco"/>
    <tag k="facebook" v="https://www.facebook.com/tescoaruhazak/"/>
    <tag k="website" v="https://www.tesco.hu"/>
    <tag k="payment:debit_cards" v="yes"/>
    <tag k="operator" v="Tesco Global Áruházak Zrt."/>
  </node>
  <node action="modify" changeset="99999" id="-40" lat="47.67734" lon="17.65491" timestamp="" uid="4579407" user="KAMI" version="99999">
    <tag k="name" v="Tesco"/>
    <tag k="addr:city" v="Győr"/>
    <tag k="addr:postcode" v="9023"/>
    <tag k="addr:street" v="Szigethy A. utca"/>
    <tag k="addr:housenumber" v="112"/>
    <tag k="branch" v="Győr Szupermarket - Szigethy A. utca"/>
    <tag k="website" v="https://www.tesco.hu/aruhazak/aruhaz/tesco-gyor-szupermarket-szigethy-a-utca"/>
    <tag k="payment:cash" v="yes"/>
    <tag k="youtube" v="https://www.youtube.com/user/TescoMagyarorszag"/>
    <tag k="shop" v="supermarket"/>
    <tag k="brand" v="Tesco"/>
    <tag k="facebook" v="https://www.facebook.com/tescoaruhazak/"/>
    <tag k="website" v="https://www.tesco.hu"/>
    <tag k="payment:debit_cards" v="yes"/>
    <tag k="operator" v="Tesco Global Áruházak Zrt."/>
  </node>
  <node action="modify" changeset="99999" id="-41" lat="46.64181" lon="21.25977" timestamp="" uid="4579407" user="KAMI" version="99999">
    <tag k="name" v="Tesco"/>
    <tag k="addr:city" v="Gyula"/>
    <tag k="addr:postcode" v="5700"/>
    <tag k="addr:street" v="Csabai út"/>
    <tag k="addr:housenumber" v="3"/>
    <tag k="branch" v="Gyula Hipermarket"/>
    <tag k="website" v="https://www.tesco.hu/aruhazak/aruhaz/tesco-gyula-hipermarket"/>
    <tag k="payment:cash" v="yes"/>
    <tag k="youtube" v="https://www.youtube.com/user/TescoMagyarorszag"/>
    <tag k="shop" v="supermarket"/>
    <tag k="brand" v="Tesco"/>
    <tag k="facebook" v="https://www.facebook.com/tescoaruhazak/"/>
    <tag k="website" v="https://www.tesco.hu"/>
    <tag k="payment:debit_cards" v="yes"/>
    <tag k="operator" v="Tesco Global Áruházak Zrt."/>
  </node>
  <node action="modify" changeset="99999" id="-42" lat="47.43573" lon="21.37838" timestamp="" uid="4579407" user="KAMI" version="99999">
    <tag k="name" v="Tesco"/>
    <tag k="addr:city" v="Hajdúszoboszló"/>
    <tag k="addr:postcode" v="4200"/>
    <tag k="addr:street" v="Kabai út"/>
    <tag k="addr:conscriptionnumber" v="0228/2"/>
    <tag k="branch" v="Hajdúszoboszló Hipermarket"/>
    <tag k="website" v="https://www.tesco.hu/aruhazak/aruhaz/tesco-hajduszoboszlo-hipermarket"/>
    <tag k="payment:cash" v="yes"/>
    <tag k="youtube" v="https://www.youtube.com/user/TescoMagyarorszag"/>
    <tag k="shop" v="supermarket"/>
    <tag k="brand" v="Tesco"/>
    <tag k="facebook" v="https://www.facebook.com/tescoaruhazak/"/>
    <tag k="website" v="https://www.tesco.hu"/>
    <tag k="payment:debit_cards" v="yes"/>
    <tag k="operator" v="Tesco Global Áruházak Zrt."/>
  </node>
  <node action="modify" changeset="99999" id="-43" lat="47.678319" lon="19.665527" timestamp="" uid="4579407" user="KAMI" version="99999">
    <tag k="name" v="Tesco"/>
    <tag k="addr:city" v="Hatvan"/>
    <tag k="addr:postcode" v="3000"/>
    <tag k="addr:street" v="Bibó István út"/>
    <tag k="addr:housenumber" v="1"/>
    <tag k="branch" v="Hatvan Hipermarket"/>
    <tag k="website" v="https://www.tesco.hu/aruhazak/aruhaz/tesco-hatvan-hipermarket"/>
    <tag k="payment:cash" v="yes"/>
    <tag k="youtube" v="https://www.youtube.com/user/TescoMagyarorszag"/>
    <tag k="shop" v="supermarket"/>
    <tag k="brand" v="Tesco"/>
    <tag k="facebook" v="https://www.facebook.com/tescoaruhazak/"/>
    <tag k="website" v="https://www.tesco.hu"/>
    <tag k="payment:debit_cards" v="yes"/>
    <tag k="operator" v="Tesco Global Áruházak Zrt."/>
  </node>
  <node action="modify" changeset="99999" id="-44" lat="46.41121" lon="20.33149" timestamp="" uid="4579407" user="KAMI" version="99999">
    <tag k="name" v="Tesco"/>
    <tag k="addr:city" v="Hódmezővásárhely"/>
    <tag k="addr:postcode" v="6800"/>
    <tag k="addr:street" v="Hódtó utca"/>
    <tag k="addr:housenumber" v="17"/>
    <tag k="branch" v="Hódmezővásárhely Hipermarket"/>
    <tag k="website" v="https://www.tesco.hu/aruhazak/aruhaz/tesco-hodmezovasarhely-hipermarket"/>
    <tag k="payment:cash" v="yes"/>
    <tag k="youtube" v="https://www.youtube.com/user/TescoMagyarorszag"/>
    <tag k="shop" v="supermarket"/>
    <tag k="brand" v="Tesco"/>
    <tag k="facebook" v="https://www.facebook.com/tescoaruhazak/"/>
    <tag k="website" v="https://www.tesco.hu"/>
    <tag k="payment:debit_cards" v="yes"/>
    <tag k="operator" v="Tesco Global Áruházak Zrt."/>
  </node>
  <node action="modify" changeset="99999" id="-45" lat="47.539188" lon="19.396541" timestamp="" uid="4579407" user="KAMI" version="99999">
    <tag k="name" v="Tesco"/>
    <tag k="addr:city" v="Isaszeg"/>
    <tag k="addr:postcode" v="2117"/>
    <tag k="addr:street" v="Aulich utca"/>
    <tag k="addr:housenumber" v="23"/>
    <tag k="branch" v="Isaszeg Szupermarket"/>
    <tag k="website" v="https://www.tesco.hu/aruhazak/aruhaz/tesco-isaszeg-szupermarket"/>
    <tag k="payment:cash" v="yes"/>
    <tag k="youtube" v="https://www.youtube.com/user/TescoMagyarorszag"/>
    <tag k="shop" v="supermarket"/>
    <tag k="brand" v="Tesco"/>
    <tag k="facebook" v="https://www.facebook.com/tescoaruhazak/"/>
    <tag k="website" v="https://www.tesco.hu"/>
    <tag k="payment:debit_cards" v="yes"/>
    <tag k="operator" v="Tesco Global Áruházak Zrt."/>
  </node>
  <node action="modify" changeset="99999" id="-46" lat="47.49039" lon="19.89552" timestamp="" uid="4579407" user="KAMI" version="99999">
    <tag k="name" v="Tesco"/>
    <tag k="addr:city" v="Jászberény"/>
    <tag k="addr:postcode" v="5100"/>
    <tag k="addr:street" v="Nagykátai út"/>
    <tag k="addr:housenumber" v="2/a"/>
    <tag k="branch" v="Jászberény Hipermarket"/>
    <tag k="website" v="https://www.tesco.hu/aruhazak/aruhaz/tesco-jaszbereny-hipermarket"/>
    <tag k="payment:cash" v="yes"/>
    <tag k="youtube" v="https://www.youtube.com/user/TescoMagyarorszag"/>
    <tag k="shop" v="supermarket"/>
    <tag k="brand" v="Tesco"/>
    <tag k="facebook" v="https://www.facebook.com/tescoaruhazak/"/>
    <tag k="website" v="https://www.tesco.hu"/>
    <tag k="payment:debit_cards" v="yes"/>
    <tag k="operator" v="Tesco Global Áruházak Zrt."/>
  </node>
  <node action="modify" changeset="99999" id="-47" lat="46.52029" lon="18.97875" timestamp="" uid="4579407" user="KAMI" version="99999">
    <tag k="name" v="Tesco"/>
    <tag k="addr:city" v="Kalocsa"/>
    <tag k="addr:postcode" v="6300"/>
    <tag k="addr:street" v="Bátyai út"/>
    <tag k="addr:housenumber" v="8-10"/>
    <tag k="branch" v="Kalocsa Hipermarket"/>
    <tag k="website" v="https://www.tesco.hu/aruhazak/aruhaz/tesco-kalocsa-hipermarket"/>
    <tag k="payment:cash" v="yes"/>
    <tag k="youtube" v="https://www.youtube.com/user/TescoMagyarorszag"/>
    <tag k="shop" v="supermarket"/>
    <tag k="brand" v="Tesco"/>
    <tag k="facebook" v="https://www.facebook.com/tescoaruhazak/"/>
    <tag k="website" v="https://www.tesco.hu"/>
    <tag k="payment:debit_cards" v="yes"/>
    <tag k="operator" v="Tesco Global Áruházak Zrt."/>
  </node>
  <way action="modify" changeset="1" id="30924458" timestamp="1456363369000000000" uid="4579407" user="KAMI" version="4">
    <nd ref="343761502"/>
    <nd ref="343761506"/>
    <nd ref="343761512"/>
    <nd ref="343761518"/>
    <nd ref="359153917"/>
    <nd ref="343761523"/>
    <nd ref="343761502"/>
    <tag k="name" v="Tesco"/>
    <tag k="addr:city" v="Kaposvár"/>
    <tag k="addr:postcode" v="7400"/>
    <tag k="addr:street" v="Berzsenyi út"/>
    <tag k="addr:housenumber" v="13"/>
    <tag k="branch" v="Kaposvár Hipermarket"/>
    <tag k="website" v="https://www.tesco.hu/aruhazak/aruhaz/tesco-kaposvar-hipermarket"/>
    <tag k="payment:cash" v="yes"/>
    <tag k="youtube" v="https://www.youtube.com/user/TescoMagyarorszag"/>
    <tag k="shop" v="supermarket"/>
    <tag k="brand" v="Tesco"/>
    <tag k="facebook" v="https://www.facebook.com/tescoaruhazak/"/>
    <tag k="website" v="https://www.tesco.hu"/>
    <tag k="payment:debit_cards" v="yes"/>
    <tag k="operator" v="Tesco Global Áruházak Zrt."/>
  </way>
  <node action="modify" changeset="99999" id="-49" lat="47.304462" lon="20.904128" timestamp="" uid="4579407" user="KAMI" version="99999">
    <tag k="name" v="Tesco"/>
    <tag k="addr:city" v="Karcag"/>
    <tag k="addr:postcode" v="5300"/>
    <tag k="addr:street" v="Kisújszállási utca"/>
    <tag k="addr:housenumber" v="34"/>
    <tag k="branch" v="Karcag Hipermarket"/>
    <tag k="website" v="https://www.tesco.hu/aruhazak/aruhaz/tesco-karcag-hipermarket"/>
    <tag k="payment:cash" v="yes"/>
    <tag k="youtube" v="https://www.youtube.com/user/TescoMagyarorszag"/>
    <tag k="shop" v="supermarket"/>
    <tag k="brand" v="Tesco"/>
    <tag k="facebook" v="https://www.facebook.com/tescoaruhazak/"/>
    <tag k="website" v="https://www.tesco.hu"/>
    <tag k="payment:debit_cards" v="yes"/>
    <tag k="operator" v="Tesco Global Áruházak Zrt."/>
  </node>
  <node action="modify" changeset="99999" id="-50" lat="48.26069" lon="20.61753" timestamp="" uid="4579407" user="KAMI" version="99999">
    <tag k="name" v="Tesco"/>
    <tag k="addr:city" v="Kazincbarcika"/>
    <tag k="addr:postcode" v="3700"/>
    <tag k="addr:street" v="Attila utca"/>
    <tag k="addr:housenumber" v="10/b"/>
    <tag k="branch" v="Kazincbarcika Hipermarket"/>
    <tag k="website" v="https://www.tesco.hu/aruhazak/aruhaz/tesco-kazincbarcika-hipermarket"/>
    <tag k="payment:cash" v="yes"/>
    <tag k="youtube" v="https://www.youtube.com/user/TescoMagyarorszag"/>
    <tag k="shop" v="supermarket"/>
    <tag k="brand" v="Tesco"/>
    <tag k="facebook" v="https://www.facebook.com/tescoaruhazak/"/>
    <tag k="website" v="https://www.tesco.hu"/>
    <tag k="payment:debit_cards" v="yes"/>
    <tag k="operator" v="Tesco Global Áruházak Zrt."/>
  </node>
  <way action="modify" changeset="1" id="180176086" timestamp="1514218588000000000" uid="4579407" user="KAMI" version="5">
    <nd ref="1906068501"/>
    <nd ref="1906068485"/>
    <nd ref="1906068487"/>
    <nd ref="1906068497"/>
    <nd ref="1906068505"/>
    <nd ref="1906068501"/>
    <tag k="name" v="Tesco"/>
    <tag k="addr:city" v="Kecskemét"/>
    <tag k="addr:postcode" v="6000"/>
    <tag k="branch" v="Kecskemét Hipermarket"/>
    <tag k="website" v="https://www.tesco.hu/aruhazak/aruhaz/tesco-kecskemet-hipermarket"/>
    <tag k="payment:cash" v="yes"/>
    <tag k="youtube" v="https://www.youtube.com/user/TescoMagyarorszag"/>
    <tag k="shop" v="supermarket"/>
    <tag k="brand" v="Tesco"/>
    <tag k="facebook" v="https://www.facebook.com/tescoaruhazak/"/>
    <tag k="website" v="https://www.tesco.hu"/>
    <tag k="payment:debit_cards" v="yes"/>
    <tag k="operator" v="Tesco Global Áruházak Zrt."/>
  </way>
  <node action="modify" changeset="99999" id="-52" lat="46.8953" lon="19.66589" timestamp="" uid="4579407" user="KAMI" version="99999">
    <tag k="name" v="Tesco"/>
    <tag k="addr:city" v="Kecskemét"/>
    <tag k="addr:postcode" v="6000"/>
    <tag k="addr:street" v="Izsáki út"/>
    <tag k="addr:housenumber" v="12/b"/>
    <tag k="branch" v="Kecskemét Target Center Hipermarket"/>
    <tag k="website" v="https://www.tesco.hu/aruhazak/aruhaz/tesco-kecskemet-target-center-hipermarket"/>
    <tag k="payment:cash" v="yes"/>
    <tag k="youtube" v="https://www.youtube.com/user/TescoMagyarorszag"/>
    <tag k="shop" v="supermarket"/>
    <tag k="brand" v="Tesco"/>
    <tag k="facebook" v="https://www.facebook.com/tescoaruhazak/"/>
    <tag k="website" v="https://www.tesco.hu"/>
    <tag k="payment:debit_cards" v="yes"/>
    <tag k="operator" v="Tesco Global Áruházak Zrt."/>
  </node>
  <node action="modify" changeset="99999" id="-53" lat="46.77787" lon="17.25936" timestamp="" uid="4579407" user="KAMI" version="99999">
    <tag k="name" v="Tesco"/>
    <tag k="addr:city" v="Keszthely"/>
    <tag k="addr:postcode" v="8360"/>
    <tag k="addr:street" v="Csapás utca"/>
    <tag k="addr:housenumber" v="27"/>
    <tag k="branch" v="Keszthely Hipermarket"/>
    <tag k="website" v="https://www.tesco.hu/aruhazak/aruhaz/tesco-keszthely-hipermarket"/>
    <tag k="payment:cash" v="yes"/>
    <tag k="youtube" v="https://www.youtube.com/user/TescoMagyarorszag"/>
    <tag k="shop" v="supermarket"/>
    <tag k="brand" v="Tesco"/>
    <tag k="facebook" v="https://www.facebook.com/tescoaruhazak/"/>
    <tag k="website" v="https://www.tesco.hu"/>
    <tag k="payment:debit_cards" v="yes"/>
    <tag k="operator" v="Tesco Global Áruházak Zrt."/>
  </node>
  <node action="modify" changeset="99999" id="-54" lat="46.62712" lon="19.2946" timestamp="" uid="4579407" user="KAMI" version="99999">
    <tag k="name" v="Tesco"/>
    <tag k="addr:city" v="Kiskőrös"/>
    <tag k="addr:postcode" v="6200"/>
    <tag k="addr:street" v="Kossuth Lajos utca"/>
    <tag k="addr:housenumber" v="61"/>
    <tag k="branch" v="Kiskőrös Hipermarket"/>
    <tag k="website" v="https://www.tesco.hu/aruhazak/aruhaz/tesco-kiskoros-hipermarket"/>
    <tag k="payment:cash" v="yes"/>
    <tag k="youtube" v="https://www.youtube.com/user/TescoMagyarorszag"/>
    <tag k="shop" v="supermarket"/>
    <tag k="brand" v="Tesco"/>
    <tag k="facebook" v="https://www.facebook.com/tescoaruhazak/"/>
    <tag k="website" v="https://www.tesco.hu"/>
    <tag k="payment:debit_cards" v="yes"/>
    <tag k="operator" v="Tesco Global Áruházak Zrt."/>
  </node>
  <way action="modify" changeset="1" id="53199695" timestamp="1514218549000000000" uid="4579407" user="KAMI" version="3">
    <nd ref="673334413"/>
    <nd ref="673334401"/>
    <nd ref="673334403"/>
    <nd ref="673334411"/>
    <nd ref="673334413"/>
    <tag k="name" v="Tesco"/>
    <tag k="addr:city" v="Kiskunfélegyháza"/>
    <tag k="addr:postcode" v="6100"/>
    <tag k="addr:street" v="IX. körzet"/>
    <tag k="addr:housenumber" v="8/b"/>
    <tag k="branch" v="Kiskunfélegyháza Hipermarket"/>
    <tag k="website" v="https://www.tesco.hu/aruhazak/aruhaz/tesco-kiskunfelegyhaza-hipermarket"/>
    <tag k="payment:cash" v="yes"/>
    <tag k="youtube" v="https://www.youtube.com/user/TescoMagyarorszag"/>
    <tag k="shop" v="supermarket"/>
    <tag k="brand" v="Tesco"/>
    <tag k="facebook" v="https://www.facebook.com/tescoaruhazak/"/>
    <tag k="website" v="https://www.tesco.hu"/>
    <tag k="payment:debit_cards" v="yes"/>
    <tag k="operator" v="Tesco Global Áruházak Zrt."/>
  </way>
  <node action="modify" changeset="99999" id="-56" lat="46.41961" lon="19.49858" timestamp="" uid="4579407" user="KAMI" version="99999">
    <tag k="name" v="Tesco"/>
    <tag k="addr:city" v="Kiskunhalas"/>
    <tag k="addr:postcode" v="6400"/>
    <tag k="addr:street" v="Fejérföld utca"/>
    <tag k="addr:housenumber" v="24"/>
    <tag k="branch" v="Kiskunhalas Hipermarket"/>
    <tag k="website" v="https://www.tesco.hu/aruhazak/aruhaz/tesco-kiskunhalas-hipermarket"/>
    <tag k="payment:cash" v="yes"/>
    <tag k="youtube" v="https://www.youtube.com/user/TescoMagyarorszag"/>
    <tag k="shop" v="supermarket"/>
    <tag k="brand" v="Tesco"/>
    <tag k="facebook" v="https://www.facebook.com/tescoaruhazak/"/>
    <tag k="website" v="https://www.tesco.hu"/>
    <tag k="payment:debit_cards" v="yes"/>
    <tag k="operator" v="Tesco Global Áruházak Zrt."/>
  </node>
  <node action="modify" changeset="99999" id="-57" lat="47.202183" lon="19.011076" timestamp="" uid="4579407" user="KAMI" version="99999">
    <tag k="name" v="Tesco"/>
    <tag k="addr:city" v="Kiskunlacháza"/>
    <tag k="addr:postcode" v="2340"/>
    <tag k="addr:street" v="Dózsa György utca"/>
    <tag k="addr:housenumber" v="1/a"/>
    <tag k="branch" v="Kiskunlacháza Szupermarket"/>
    <tag k="website" v="https://www.tesco.hu/aruhazak/aruhaz/tesco-kiskunlachaza-szupermarket"/>
    <tag k="payment:cash" v="yes"/>
    <tag k="youtube" v="https://www.youtube.com/user/TescoMagyarorszag"/>
    <tag k="shop" v="supermarket"/>
    <tag k="brand" v="Tesco"/>
    <tag k="facebook" v="https://www.facebook.com/tescoaruhazak/"/>
    <tag k="website" v="https://www.tesco.hu"/>
    <tag k="payment:debit_cards" v="yes"/>
    <tag k="operator" v="Tesco Global Áruházak Zrt."/>
  </node>
  <node action="modify" changeset="99999" id="-58" lat="48.23162" lon="22.06468" timestamp="" uid="4579407" user="KAMI" version="99999">
    <tag k="name" v="Tesco"/>
    <tag k="addr:city" v="Kisvárda"/>
    <tag k="addr:postcode" v="4600"/>
    <tag k="addr:street" v="Városmajor út"/>
    <tag k="addr:housenumber" v="72"/>
    <tag k="branch" v="Kisvárda Hipermarket"/>
    <tag k="website" v="https://www.tesco.hu/aruhazak/aruhaz/tesco-kisvarda-hipermarket"/>
    <tag k="payment:cash" v="yes"/>
    <tag k="youtube" v="https://www.youtube.com/user/TescoMagyarorszag"/>
    <tag k="shop" v="supermarket"/>
    <tag k="brand" v="Tesco"/>
    <tag k="facebook" v="https://www.facebook.com/tescoaruhazak/"/>
    <tag k="website" v="https://www.tesco.hu"/>
    <tag k="payment:debit_cards" v="yes"/>
    <tag k="operator" v="Tesco Global Áruházak Zrt."/>
  </node>
  <node action="modify" changeset="99999" id="-59" lat="47.461838" lon="19.14893" timestamp="" uid="4579407" user="KAMI" version="99999">
    <tag k="name" v="Tesco"/>
    <tag k="addr:city" v="Budapest"/>
    <tag k="addr:postcode" v="1191"/>
    <tag k="addr:street" v="Vak Bottyán utca"/>
    <tag k="addr:housenumber" v="75/b"/>
    <tag k="branch" v="Köki Terminál Hipermarket"/>
    <tag k="website" v="https://www.tesco.hu/aruhazak/aruhaz/tesco-koki-terminal-hipermarket"/>
    <tag k="payment:cash" v="yes"/>
    <tag k="youtube" v="https://www.youtube.com/user/TescoMagyarorszag"/>
    <tag k="shop" v="supermarket"/>
    <tag k="brand" v="Tesco"/>
    <tag k="facebook" v="https://www.facebook.com/tescoaruhazak/"/>
    <tag k="website" v="https://www.tesco.hu"/>
    <tag k="payment:debit_cards" v="yes"/>
    <tag k="operator" v="Tesco Global Áruházak Zrt."/>
  </node>
  <node action="modify" changeset="99999" id="-60" lat="47.747767" lon="18.118396" timestamp="" uid="4579407" user="KAMI" version="99999">
    <tag k="name" v="Tesco"/>
    <tag k="addr:city" v="Komárom"/>
    <tag k="addr:postcode" v="2900"/>
    <tag k="addr:street" v="Bajcsy-Zsilinszky Endre utca"/>
    <tag k="addr:housenumber" v="7"/>
    <tag k="branch" v="Komárom Hipermarket"/>
    <tag k="website" v="https://www.tesco.hu/aruhazak/aruhaz/tesco-komarom-hipermarket"/>
    <tag k="payment:cash" v="yes"/>
    <tag k="youtube" v="https://www.youtube.com/user/TescoMagyarorszag"/>
    <tag k="shop" v="supermarket"/>
    <tag k="brand" v="Tesco"/>
    <tag k="facebook" v="https://www.facebook.com/tescoaruhazak/"/>
    <tag k="website" v="https://www.tesco.hu"/>
    <tag k="payment:debit_cards" v="yes"/>
    <tag k="operator" v="Tesco Global Áruházak Zrt."/>
  </node>
  <node action="modify" changeset="99999" id="-61" lat="46.19166" lon="18.2597" timestamp="" uid="4579407" user="KAMI" version="99999">
    <tag k="name" v="Tesco"/>
    <tag k="addr:city" v="Komló"/>
    <tag k="addr:postcode" v="7300"/>
    <tag k="addr:street" v="Kossuth Lajos utca"/>
    <tag k="addr:housenumber" v="54-56"/>
    <tag k="branch" v="Komló Hipermarket"/>
    <tag k="website" v="https://www.tesco.hu/aruhazak/aruhaz/tesco-komlo-hipermarket"/>
    <tag k="payment:cash" v="yes"/>
    <tag k="youtube" v="https://www.youtube.com/user/TescoMagyarorszag"/>
    <tag k="shop" v="supermarket"/>
    <tag k="brand" v="Tesco"/>
    <tag k="facebook" v="https://www.facebook.com/tescoaruhazak/"/>
    <tag k="website" v="https://www.tesco.hu"/>
    <tag k="payment:debit_cards" v="yes"/>
    <tag k="operator" v="Tesco Global Áruházak Zrt."/>
  </node>
  <node action="modify" changeset="99999" id="-62" lat="47.015106" lon="16.61298" timestamp="" uid="4579407" user="KAMI" version="99999">
    <tag k="name" v="Tesco"/>
    <tag k="addr:city" v="Körmend"/>
    <tag k="addr:postcode" v="9900"/>
    <tag k="addr:street" v="Sport utca"/>
    <tag k="addr:housenumber" v="5"/>
    <tag k="branch" v="Körmend Hipermarket"/>
    <tag k="website" v="https://www.tesco.hu/aruhazak/aruhaz/tesco-kormend-hipermarket"/>
    <tag k="payment:cash" v="yes"/>
    <tag k="youtube" v="https://www.youtube.com/user/TescoMagyarorszag"/>
    <tag k="shop" v="supermarket"/>
    <tag k="brand" v="Tesco"/>
    <tag k="facebook" v="https://www.facebook.com/tescoaruhazak/"/>
    <tag k="website" v="https://www.tesco.hu"/>
    <tag k="payment:debit_cards" v="yes"/>
    <tag k="operator" v="Tesco Global Áruházak Zrt."/>
  </node>
  <node action="modify" changeset="99999" id="-63" lat="47.380164" lon="16.554264" timestamp="" uid="4579407" user="KAMI" version="99999">
    <tag k="name" v="Tesco"/>
    <tag k="addr:city" v="Kőszeg"/>
    <tag k="addr:postcode" v="9730"/>
    <tag k="addr:street" v="Pogányi út"/>
    <tag k="addr:housenumber" v="7"/>
    <tag k="branch" v="Kőszeg Hipermarket"/>
    <tag k="website" v="https://www.tesco.hu/aruhazak/aruhaz/tesco-koszeg-hipermarket"/>
    <tag k="payment:cash" v="yes"/>
    <tag k="youtube" v="https://www.youtube.com/user/TescoMagyarorszag"/>
    <tag k="shop" v="supermarket"/>
    <tag k="brand" v="Tesco"/>
    <tag k="facebook" v="https://www.facebook.com/tescoaruhazak/"/>
    <tag k="website" v="https://www.tesco.hu"/>
    <tag k="payment:debit_cards" v="yes"/>
    <tag k="operator" v="Tesco Global Áruházak Zrt."/>
  </node>
  <node action="modify" changeset="1" id="1839858422" lat="47.02245" lon="19.11131" timestamp="1504867692000000000" uid="4579407" user="KAMI" version="2">
    <tag k="name" v="Tesco"/>
    <tag k="addr:city" v="Kunszentmiklós"/>
    <tag k="addr:postcode" v="6090"/>
    <tag k="addr:street" v="Rákóczi F. utca"/>
    <tag k="addr:housenumber" v="57/a"/>
    <tag k="branch" v="Kunszentmiklós Szupermarket"/>
    <tag k="website" v="https://www.tesco.hu/aruhazak/aruhaz/tesco-kunszentmiklos-szupermarket"/>
    <tag k="payment:cash" v="yes"/>
    <tag k="youtube" v="https://www.youtube.com/user/TescoMagyarorszag"/>
    <tag k="shop" v="supermarket"/>
    <tag k="brand" v="Tesco"/>
    <tag k="facebook" v="https://www.facebook.com/tescoaruhazak/"/>
    <tag k="website" v="https://www.tesco.hu"/>
    <tag k="payment:debit_cards" v="yes"/>
    <tag k="operator" v="Tesco Global Áruházak Zrt."/>
  </node>
  <node action="modify" changeset="99999" id="-65" lat="46.21512" lon="20.50084" timestamp="" uid="4579407" user="KAMI" version="99999">
    <tag k="name" v="Tesco"/>
    <tag k="addr:city" v="Makó"/>
    <tag k="addr:postcode" v="6900"/>
    <tag k="addr:street" v="Aradi út"/>
    <tag k="addr:housenumber" v="103"/>
    <tag k="branch" v="Makó Hipermarket"/>
    <tag k="website" v="https://www.tesco.hu/aruhazak/aruhaz/tesco-mako-hipermarket"/>
    <tag k="payment:cash" v="yes"/>
    <tag k="youtube" v="https://www.youtube.com/user/TescoMagyarorszag"/>
    <tag k="shop" v="supermarket"/>
    <tag k="brand" v="Tesco"/>
    <tag k="facebook" v="https://www.facebook.com/tescoaruhazak/"/>
    <tag k="website" v="https://www.tesco.hu"/>
    <tag k="payment:debit_cards" v="yes"/>
    <tag k="operator" v="Tesco Global Áruházak Zrt."/>
  </node>
  <node action="modify" changeset="99999" id="-66" lat="46.604892" lon="17.403303" timestamp="" uid="4579407" user="KAMI" version="99999">
    <tag k="name" v="Tesco"/>
    <tag k="addr:city" v="Marcali"/>
    <tag k="addr:postcode" v="8700"/>
    <tag k="addr:street" v="Noszlopy utca"/>
    <tag k="addr:housenumber" v="177"/>
    <tag k="branch" v="Marcali Hipermarket"/>
    <tag k="website" v="https://www.tesco.hu/aruhazak/aruhaz/tesco-marcali-hipermarket"/>
    <tag k="payment:cash" v="yes"/>
    <tag k="youtube" v="https://www.youtube.com/user/TescoMagyarorszag"/>
    <tag k="shop" v="supermarket"/>
    <tag k="brand" v="Tesco"/>
    <tag k="facebook" v="https://www.facebook.com/tescoaruhazak/"/>
    <tag k="website" v="https://www.tesco.hu"/>
    <tag k="payment:debit_cards" v="yes"/>
    <tag k="operator" v="Tesco Global Áruházak Zrt."/>
  </node>
  <node action="modify" changeset="99999" id="-67" lat="47.41629" lon="19.25304" timestamp="" uid="4579407" user="KAMI" version="99999">
    <tag k="name" v="Tesco"/>
    <tag k="addr:city" v="Vecsés"/>
    <tag k="addr:postcode" v="2220"/>
    <tag k="addr:street" v="Fő út"/>
    <tag k="addr:housenumber" v="246-248"/>
    <tag k="branch" v="Market Central Ferihegy Hipermarket"/>
    <tag k="website" v="https://www.tesco.hu/aruhazak/aruhaz/tesco-market-central-ferihegy-hipermarket"/>
    <tag k="payment:cash" v="yes"/>
    <tag k="youtube" v="https://www.youtube.com/user/TescoMagyarorszag"/>
    <tag k="shop" v="supermarket"/>
    <tag k="brand" v="Tesco"/>
    <tag k="facebook" v="https://www.facebook.com/tescoaruhazak/"/>
    <tag k="website" v="https://www.tesco.hu"/>
    <tag k="payment:debit_cards" v="yes"/>
    <tag k="operator" v="Tesco Global Áruházak Zrt."/>
  </node>
  <node action="modify" changeset="99999" id="-68" lat="47.94777" lon="22.32446" timestamp="" uid="4579407" user="KAMI" version="99999">
    <tag k="name" v="Tesco"/>
    <tag k="addr:city" v="Mátészalka"/>
    <tag k="addr:postcode" v="4700"/>
    <tag k="addr:street" v="Alkotmány út"/>
    <tag k="addr:housenumber" v="1/a"/>
    <tag k="branch" v="Mátészalka Hipermarket"/>
    <tag k="website" v="https://www.tesco.hu/aruhazak/aruhaz/tesco-mateszalka-hipermarket"/>
    <tag k="payment:cash" v="yes"/>
    <tag k="youtube" v="https://www.youtube.com/user/TescoMagyarorszag"/>
    <tag k="shop" v="supermarket"/>
    <tag k="brand" v="Tesco"/>
    <tag k="facebook" v="https://www.facebook.com/tescoaruhazak/"/>
    <tag k="website" v="https://www.tesco.hu"/>
    <tag k="payment:debit_cards" v="yes"/>
    <tag k="operator" v="Tesco Global Áruházak Zrt."/>
  </node>
  <node action="modify" changeset="99999" id="-69" lat="46.822415" lon="21.030657" timestamp="" uid="4579407" user="KAMI" version="99999">
    <tag k="name" v="Tesco"/>
    <tag k="addr:city" v="Mezőberény"/>
    <tag k="addr:postcode" v="5650"/>
    <tag k="addr:street" v="Békési utca"/>
    <tag k="addr:housenumber" v="18"/>
    <tag k="branch" v="Mezőberény Szupermarket"/>
    <tag k="website" v="https://www.tesco.hu/aruhazak/aruhaz/tesco-mezobereny-szupermarket"/>
    <tag k="payment:cash" v="yes"/>
    <tag k="youtube" v="https://www.youtube.com/user/TescoMagyarorszag"/>
    <tag k="shop" v="supermarket"/>
    <tag k="brand" v="Tesco"/>
    <tag k="facebook" v="https://www.facebook.com/tescoaruhazak/"/>
    <tag k="website" v="https://www.tesco.hu"/>
    <tag k="payment:debit_cards" v="yes"/>
    <tag k="operator" v="Tesco Global Áruházak Zrt."/>
  </node>
  <node action="modify" changeset="99999" id="-70" lat="47.80985" lon="20.54863" timestamp="" uid="4579407" user="KAMI" version="99999">
    <tag k="name" v="Tesco"/>
    <tag k="addr:city" v="Mezőkövesd"/>
    <tag k="addr:postcode" v="3400"/>
    <tag k="addr:street" v="Egri utca"/>
    <tag k="addr:housenumber" v="51"/>
    <tag k="branch" v="Mezőkövesd Hipermarket"/>
    <tag k="website" v="https://www.tesco.hu/aruhazak/aruhaz/tesco-mezokovesd-hipermarket"/>
    <tag k="payment:cash" v="yes"/>
    <tag k="youtube" v="https://www.youtube.com/user/TescoMagyarorszag"/>
    <tag k="shop" v="supermarket"/>
    <tag k="brand" v="Tesco"/>
    <tag k="facebook" v="https://www.facebook.com/tescoaruhazak/"/>
    <tag k="website" v="https://www.tesco.hu"/>
    <tag k="payment:debit_cards" v="yes"/>
    <tag k="operator" v="Tesco Global Áruházak Zrt."/>
  </node>
  <node action="modify" changeset="99999" id="-71" lat="48.0742" lon="20.77957" timestamp="" uid="4579407" user="KAMI" version="99999">
    <tag k="name" v="Tesco"/>
    <tag k="addr:city" v="Miskolc"/>
    <tag k="addr:postcode" v="3529"/>
    <tag k="addr:street" v="Mésztelep utca"/>
    <tag k="addr:housenumber" v="1/a"/>
    <tag k="branch" v="Miskolc Avas Hipermarket"/>
    <tag k="website" v="https://www.tesco.hu/aruhazak/aruhaz/tesco-miskolc-avas-hipermarket"/>
    <tag k="payment:cash" v="yes"/>
    <tag k="youtube" v="https://www.youtube.com/user/TescoMagyarorszag"/>
    <tag k="shop" v="supermarket"/>
    <tag k="brand" v="Tesco"/>
    <tag k="facebook" v="https://www.facebook.com/tescoaruhazak/"/>
    <tag k="website" v="https://www.tesco.hu"/>
    <tag k="payment:debit_cards" v="yes"/>
    <tag k="operator" v="Tesco Global Áruházak Zrt."/>
  </node>
  <node action="modify" changeset="99999" id="-72" lat="48.104545" lon="20.764525" timestamp="" uid="4579407" user="KAMI" version="99999">
    <tag k="name" v="Tesco"/>
    <tag k="addr:city" v="Miskolc"/>
    <tag k="addr:postcode" v="3531"/>
    <tag k="addr:street" v="Nagyváthy J. utca"/>
    <tag k="addr:housenumber" v="1"/>
    <tag k="branch" v="Miskolc Szupermarket"/>
    <tag k="website" v="https://www.tesco.hu/aruhazak/aruhaz/tesco-miskolc-szupermarket"/>
    <tag k="payment:cash" v="yes"/>
    <tag k="youtube" v="https://www.youtube.com/user/TescoMagyarorszag"/>
    <tag k="shop" v="supermarket"/>
    <tag k="brand" v="Tesco"/>
    <tag k="facebook" v="https://www.facebook.com/tescoaruhazak/"/>
    <tag k="website" v="https://www.tesco.hu"/>
    <tag k="payment:debit_cards" v="yes"/>
    <tag k="operator" v="Tesco Global Áruházak Zrt."/>
  </node>
  <node action="modify" changeset="99999" id="-73" lat="45.99658" lon="18.65647" timestamp="" uid="4579407" user="KAMI" version="99999">
    <tag k="name" v="Tesco"/>
    <tag k="addr:city" v="Mohács"/>
    <tag k="addr:postcode" v="7700"/>
    <tag k="addr:street" v="Pécsi út"/>
    <tag k="addr:housenumber" v="61"/>
    <tag k="branch" v="Mohács Hipermarket"/>
    <tag k="website" v="https://www.tesco.hu/aruhazak/aruhaz/tesco-mohacs-hipermarket"/>
    <tag k="payment:cash" v="yes"/>
    <tag k="youtube" v="https://www.youtube.com/user/TescoMagyarorszag"/>
    <tag k="shop" v="supermarket"/>
    <tag k="brand" v="Tesco"/>
    <tag k="facebook" v="https://www.facebook.com/tescoaruhazak/"/>
    <tag k="website" v="https://www.tesco.hu"/>
    <tag k="payment:debit_cards" v="yes"/>
    <tag k="operator" v="Tesco Global Áruházak Zrt."/>
  </node>
  <node action="modify" changeset="99999" id="-74" lat="47.348884" lon="19.411082" timestamp="" uid="4579407" user="KAMI" version="99999">
    <tag k="name" v="Tesco"/>
    <tag k="addr:city" v="Monor"/>
    <tag k="addr:postcode" v="2200"/>
    <tag k="addr:street" v="4-es főút"/>
    <tag k="branch" v="Monor Hipermarket"/>
    <tag k="website" v="https://www.tesco.hu/aruhazak/aruhaz/tesco-monor-hipermarket"/>
    <tag k="payment:cash" v="yes"/>
    <tag k="youtube" v="https://www.youtube.com/user/TescoMagyarorszag"/>
    <tag k="shop" v="supermarket"/>
    <tag k="brand" v="Tesco"/>
    <tag k="facebook" v="https://www.facebook.com/tescoaruhazak/"/>
    <tag k="website" v="https://www.tesco.hu"/>
    <tag k="payment:debit_cards" v="yes"/>
    <tag k="operator" v="Tesco Global Áruházak Zrt."/>
  </node>
  <node action="modify" changeset="99999" id="-75" lat="47.875059" lon="17.264083" timestamp="" uid="4579407" user="KAMI" version="99999">
    <tag k="name" v="Tesco"/>
    <tag k="addr:city" v="Mosonmagyaróvár"/>
    <tag k="addr:postcode" v="9200"/>
    <tag k="addr:street" v="Királyhidai utca"/>
    <tag k="addr:housenumber" v="42"/>
    <tag k="branch" v="Mosonmagyaróvár Hipermarket"/>
    <tag k="website" v="https://www.tesco.hu/aruhazak/aruhaz/tesco-mosonmagyarovar-hipermarket"/>
    <tag k="payment:cash" v="yes"/>
    <tag k="youtube" v="https://www.youtube.com/user/TescoMagyarorszag"/>
    <tag k="shop" v="supermarket"/>
    <tag k="brand" v="Tesco"/>
    <tag k="facebook" v="https://www.facebook.com/tescoaruhazak/"/>
    <tag k="website" v="https://www.tesco.hu"/>
    <tag k="payment:debit_cards" v="yes"/>
    <tag k="operator" v="Tesco Global Áruházak Zrt."/>
  </node>
  <node action="modify" changeset="99999" id="-76" lat="46.227932" lon="17.384212" timestamp="" uid="4579407" user="KAMI" version="99999">
    <tag k="name" v="Tesco"/>
    <tag k="addr:city" v="Nagyatád"/>
    <tag k="addr:postcode" v="7500"/>
    <tag k="addr:street" v="Szabadság utca"/>
    <tag k="addr:housenumber" v="38"/>
    <tag k="branch" v="Nagyatád Hipermarket"/>
    <tag k="website" v="https://www.tesco.hu/aruhazak/aruhaz/tesco-nagyatad-hipermarket"/>
    <tag k="payment:cash" v="yes"/>
    <tag k="youtube" v="https://www.youtube.com/user/TescoMagyarorszag"/>
    <tag k="shop" v="supermarket"/>
    <tag k="brand" v="Tesco"/>
    <tag k="facebook" v="https://www.facebook.com/tescoaruhazak/"/>
    <tag k="website" v="https://www.tesco.hu"/>
    <tag k="payment:debit_cards" v="yes"/>
    <tag k="operator" v="Tesco Global Áruházak Zrt."/>
  </node>
  <node action="modify" changeset="99999" id="-77" lat="46.4633" lon="17.01218" timestamp="" uid="4579407" user="KAMI" version="99999">
    <tag k="name" v="Tesco"/>
    <tag k="addr:city" v="Nagykanizsa"/>
    <tag k="addr:postcode" v="8800"/>
    <tag k="addr:street" v="Boszorkány utca"/>
    <tag k="addr:housenumber" v="2"/>
    <tag k="branch" v="Nagykanizsa Hipermarket"/>
    <tag k="website" v="https://www.tesco.hu/aruhazak/aruhaz/tesco-nagykanizsa-hipermarket"/>
    <tag k="payment:cash" v="yes"/>
    <tag k="youtube" v="https://www.youtube.com/user/TescoMagyarorszag"/>
    <tag k="shop" v="supermarket"/>
    <tag k="brand" v="Tesco"/>
    <tag k="facebook" v="https://www.facebook.com/tescoaruhazak/"/>
    <tag k="website" v="https://www.tesco.hu"/>
    <tag k="payment:debit_cards" v="yes"/>
    <tag k="operator" v="Tesco Global Áruházak Zrt."/>
  </node>
  <node action="modify" changeset="99999" id="-78" lat="47.04389" lon="19.78378" timestamp="" uid="4579407" user="KAMI" version="99999">
    <tag k="name" v="Tesco"/>
    <tag k="addr:city" v="Nagykőrös"/>
    <tag k="addr:postcode" v="2750"/>
    <tag k="addr:street" v="Ceglédi utca"/>
    <tag k="addr:housenumber" v="32"/>
    <tag k="branch" v="Nagykőrös Hipermarket"/>
    <tag k="website" v="https://www.tesco.hu/aruhazak/aruhaz/tesco-nagykoros-hipermarket"/>
    <tag k="payment:cash" v="yes"/>
    <tag k="youtube" v="https://www.youtube.com/user/TescoMagyarorszag"/>
    <tag k="shop" v="supermarket"/>
    <tag k="brand" v="Tesco"/>
    <tag k="facebook" v="https://www.facebook.com/tescoaruhazak/"/>
    <tag k="website" v="https://www.tesco.hu"/>
    <tag k="payment:debit_cards" v="yes"/>
    <tag k="operator" v="Tesco Global Áruházak Zrt."/>
  </node>
  <node action="modify" changeset="99999" id="-79" lat="47.8325" lon="22.1159" timestamp="" uid="4579407" user="KAMI" version="99999">
    <tag k="name" v="Tesco"/>
    <tag k="addr:city" v="Nyírbátor"/>
    <tag k="addr:postcode" v="4300"/>
    <tag k="addr:street" v="Debreceni utca"/>
    <tag k="addr:housenumber" v="71"/>
    <tag k="branch" v="Nyírbátor Hipermarket"/>
    <tag k="website" v="https://www.tesco.hu/aruhazak/aruhaz/tesco-nyirbator-hipermarket"/>
    <tag k="payment:cash" v="yes"/>
    <tag k="youtube" v="https://www.youtube.com/user/TescoMagyarorszag"/>
    <tag k="shop" v="supermarket"/>
    <tag k="brand" v="Tesco"/>
    <tag k="facebook" v="https://www.facebook.com/tescoaruhazak/"/>
    <tag k="website" v="https://www.tesco.hu"/>
    <tag k="payment:debit_cards" v="yes"/>
    <tag k="operator" v="Tesco Global Áruházak Zrt."/>
  </node>
  <node action="modify" changeset="99999" id="-80" lat="47.97031" lon="21.73859" timestamp="" uid="4579407" user="KAMI" version="99999">
    <tag k="name" v="Tesco"/>
    <tag k="addr:city" v="Nyíregyháza"/>
    <tag k="addr:postcode" v="4400"/>
    <tag k="addr:street" v="Pazonyi út"/>
    <tag k="addr:housenumber" v="36"/>
    <tag k="branch" v="Nyíregyháza Hipermarket"/>
    <tag k="website" v="https://www.tesco.hu/aruhazak/aruhaz/tesco-nyiregyhaza-hipermarket"/>
    <tag k="payment:cash" v="yes"/>
    <tag k="youtube" v="https://www.youtube.com/user/TescoMagyarorszag"/>
    <tag k="shop" v="supermarket"/>
    <tag k="brand" v="Tesco"/>
    <tag k="facebook" v="https://www.facebook.com/tescoaruhazak/"/>
    <tag k="website" v="https://www.tesco.hu"/>
    <tag k="payment:debit_cards" v="yes"/>
    <tag k="operator" v="Tesco Global Áruházak Zrt."/>
  </node>
  <node action="modify" changeset="99999" id="-81" lat="47.957879" lon="21.72076" timestamp="" uid="4579407" user="KAMI" version="99999">
    <tag k="name" v="Tesco"/>
    <tag k="addr:city" v="Nyíregyháza"/>
    <tag k="addr:postcode" v="4400"/>
    <tag k="addr:street" v="Váy Ádám körút"/>
    <tag k="addr:housenumber" v="20"/>
    <tag k="branch" v="Nyíregyháza Szupermarket"/>
    <tag k="website" v="https://www.tesco.hu/aruhazak/aruhaz/tesco-nyiregyhaza-szupermarket"/>
    <tag k="payment:cash" v="yes"/>
    <tag k="youtube" v="https://www.youtube.com/user/TescoMagyarorszag"/>
    <tag k="shop" v="supermarket"/>
    <tag k="brand" v="Tesco"/>
    <tag k="facebook" v="https://www.facebook.com/tescoaruhazak/"/>
    <tag k="website" v="https://www.tesco.hu"/>
    <tag k="payment:debit_cards" v="yes"/>
    <tag k="operator" v="Tesco Global Áruházak Zrt."/>
  </node>
  <node action="modify" changeset="99999" id="-82" lat="47.290712" lon="19.230039" timestamp="" uid="4579407" user="KAMI" version="99999">
    <tag k="name" v="Tesco"/>
    <tag k="addr:city" v="Ócsa"/>
    <tag k="addr:postcode" v="2364"/>
    <tag k="addr:street" v="Kiss János utca"/>
    <tag k="addr:housenumber" v="4/d"/>
    <tag k="branch" v="Ócsa Szupermarket"/>
    <tag k="website" v="https://www.tesco.hu/aruhazak/aruhaz/tesco-ocsa-szupermarket"/>
    <tag k="payment:cash" v="yes"/>
    <tag k="youtube" v="https://www.youtube.com/user/TescoMagyarorszag"/>
    <tag k="shop" v="supermarket"/>
    <tag k="brand" v="Tesco"/>
    <tag k="facebook" v="https://www.facebook.com/tescoaruhazak/"/>
    <tag k="website" v="https://www.tesco.hu"/>
    <tag k="payment:debit_cards" v="yes"/>
    <tag k="operator" v="Tesco Global Áruházak Zrt."/>
  </node>
  <node action="modify" changeset="99999" id="-83" lat="46.54839" lon="20.64807" timestamp="" uid="4579407" user="KAMI" version="99999">
    <tag k="name" v="Tesco"/>
    <tag k="addr:city" v="Orosháza"/>
    <tag k="addr:postcode" v="5900"/>
    <tag k="addr:street" v="Vásárhely utca"/>
    <tag k="addr:housenumber" v="23/a"/>
    <tag k="branch" v="Orosháza Hipermarket"/>
    <tag k="website" v="https://www.tesco.hu/aruhazak/aruhaz/tesco-oroshaza-hipermarket"/>
    <tag k="payment:cash" v="yes"/>
    <tag k="youtube" v="https://www.youtube.com/user/TescoMagyarorszag"/>
    <tag k="shop" v="supermarket"/>
    <tag k="brand" v="Tesco"/>
    <tag k="facebook" v="https://www.facebook.com/tescoaruhazak/"/>
    <tag k="website" v="https://www.tesco.hu"/>
    <tag k="payment:debit_cards" v="yes"/>
    <tag k="operator" v="Tesco Global Áruházak Zrt."/>
  </node>
  <node action="modify" changeset="99999" id="-84" lat="47.495415" lon="18.319788" timestamp="" uid="4579407" user="KAMI" version="99999">
    <tag k="name" v="Tesco"/>
    <tag k="addr:city" v="Oroszlány"/>
    <tag k="addr:postcode" v="2840"/>
    <tag k="addr:street" v="Környei út"/>
    <tag k="addr:housenumber" v="3-5"/>
    <tag k="branch" v="Oroszlány Hipermarket"/>
    <tag k="website" v="https://www.tesco.hu/aruhazak/aruhaz/tesco-oroszlany-hipermarket"/>
    <tag k="payment:cash" v="yes"/>
    <tag k="youtube" v="https://www.youtube.com/user/TescoMagyarorszag"/>
    <tag k="shop" v="supermarket"/>
    <tag k="brand" v="Tesco"/>
    <tag k="facebook" v="https://www.facebook.com/tescoaruhazak/"/>
    <tag k="website" v="https://www.tesco.hu"/>
    <tag k="payment:debit_cards" v="yes"/>
    <tag k="operator" v="Tesco Global Áruházak Zrt."/>
  </node>
  <node action="modify" changeset="99999" id="-85" lat="48.22362" lon="20.2757" timestamp="" uid="4579407" user="KAMI" version="99999">
    <tag k="name" v="Tesco"/>
    <tag k="addr:city" v="Ózd"/>
    <tag k="addr:postcode" v="3600"/>
    <tag k="addr:street" v="Brassói utca"/>
    <tag k="addr:housenumber" v="3"/>
    <tag k="branch" v="Ózd Hipermarket"/>
    <tag k="website" v="https://www.tesco.hu/aruhazak/aruhaz/tesco-ozd-hipermarket"/>
    <tag k="payment:cash" v="yes"/>
    <tag k="youtube" v="https://www.youtube.com/user/TescoMagyarorszag"/>
    <tag k="shop" v="supermarket"/>
    <tag k="brand" v="Tesco"/>
    <tag k="facebook" v="https://www.facebook.com/tescoaruhazak/"/>
    <tag k="website" v="https://www.tesco.hu"/>
    <tag k="payment:debit_cards" v="yes"/>
    <tag k="operator" v="Tesco Global Áruházak Zrt."/>
  </node>
  <node action="modify" changeset="99999" id="-86" lat="46.61864" lon="18.8565" timestamp="" uid="4579407" user="KAMI" version="99999">
    <tag k="name" v="Tesco"/>
    <tag k="addr:city" v="Paks"/>
    <tag k="addr:postcode" v="7030"/>
    <tag k="addr:street" v="Tolnai út"/>
    <tag k="addr:housenumber" v="2"/>
    <tag k="branch" v="Paks Hipermarket"/>
    <tag k="website" v="https://www.tesco.hu/aruhazak/aruhaz/tesco-paks-hipermarket"/>
    <tag k="payment:cash" v="yes"/>
    <tag k="youtube" v="https://www.youtube.com/user/TescoMagyarorszag"/>
    <tag k="shop" v="supermarket"/>
    <tag k="brand" v="Tesco"/>
    <tag k="facebook" v="https://www.facebook.com/tescoaruhazak/"/>
    <tag k="website" v="https://www.tesco.hu"/>
    <tag k="payment:debit_cards" v="yes"/>
    <tag k="operator" v="Tesco Global Áruházak Zrt."/>
  </node>
  <node action="modify" changeset="99999" id="-87" lat="47.32195" lon="17.44972" timestamp="" uid="4579407" user="KAMI" version="99999">
    <tag k="name" v="Tesco"/>
    <tag k="addr:city" v="Pápa"/>
    <tag k="addr:postcode" v="8500"/>
    <tag k="addr:street" v="Celli út"/>
    <tag k="addr:housenumber" v="92"/>
    <tag k="branch" v="Pápa Hipermarket"/>
    <tag k="website" v="https://www.tesco.hu/aruhazak/aruhaz/tesco-papa-hipermarket"/>
    <tag k="payment:cash" v="yes"/>
    <tag k="youtube" v="https://www.youtube.com/user/TescoMagyarorszag"/>
    <tag k="shop" v="supermarket"/>
    <tag k="brand" v="Tesco"/>
    <tag k="facebook" v="https://www.facebook.com/tescoaruhazak/"/>
    <tag k="website" v="https://www.tesco.hu"/>
    <tag k="payment:debit_cards" v="yes"/>
    <tag k="operator" v="Tesco Global Áruházak Zrt."/>
  </node>
  <way action="modify" changeset="1" id="35096466" timestamp="1514218544000000000" uid="4579407" user="KAMI" version="5">
    <nd ref="411729597"/>
    <nd ref="1798706254"/>
    <nd ref="1798706268"/>
    <nd ref="411729598"/>
    <nd ref="411729599"/>
    <nd ref="411729600"/>
    <nd ref="411729597"/>
    <tag k="name" v="Tesco"/>
    <tag k="addr:city" v="Pécs"/>
    <tag k="addr:postcode" v="7630"/>
    <tag k="addr:street" v="Budai Vám"/>
    <tag k="addr:housenumber" v="1"/>
    <tag k="branch" v="Pécs Budai Vám Hipermarket "/>
    <tag k="website" v="https://www.tesco.hu/aruhazak/aruhaz/tesco-pecs-budai-vam-hipermarket"/>
    <tag k="payment:cash" v="yes"/>
    <tag k="youtube" v="https://www.youtube.com/user/TescoMagyarorszag"/>
    <tag k="shop" v="supermarket"/>
    <tag k="brand" v="Tesco"/>
    <tag k="facebook" v="https://www.facebook.com/tescoaruhazak/"/>
    <tag k="website" v="https://www.tesco.hu"/>
    <tag k="payment:debit_cards" v="yes"/>
    <tag k="operator" v="Tesco Global Áruházak Zrt."/>
  </way>
  <way action="modify" changeset="1" id="35096529" timestamp="1504870096000000000" uid="4579407" user="KAMI" version="9">
    <nd ref="411730223"/>
    <nd ref="2525213051"/>
    <nd ref="2525413354"/>
    <nd ref="2525212908"/>
    <nd ref="1122370844"/>
    <nd ref="2525413348"/>
    <nd ref="411730224"/>
    <nd ref="3214835085"/>
    <nd ref="411730225"/>
    <nd ref="411730226"/>
    <nd ref="411730227"/>
    <nd ref="2525213060"/>
    <nd ref="411730223"/>
    <tag k="name" v="Tesco"/>
    <tag k="addr:city" v="Pécs"/>
    <tag k="addr:postcode" v="7634"/>
    <tag k="addr:street" v="Makay István utca"/>
    <tag k="addr:housenumber" v="5"/>
    <tag k="branch" v="Pécs Hipermarket"/>
    <tag k="website" v="https://www.tesco.hu/aruhazak/aruhaz/tesco-pecs-hipermarket"/>
    <tag k="payment:cash" v="yes"/>
    <tag k="youtube" v="https://www.youtube.com/user/TescoMagyarorszag"/>
    <tag k="shop" v="supermarket"/>
    <tag k="brand" v="Tesco"/>
    <tag k="facebook" v="https://www.facebook.com/tescoaruhazak/"/>
    <tag k="website" v="https://www.tesco.hu"/>
    <tag k="payment:debit_cards" v="yes"/>
    <tag k="operator" v="Tesco Global Áruházak Zrt."/>
  </way>
  <node action="modify" changeset="99999" id="-90" lat="46.036271" lon="18.233785" timestamp="" uid="4579407" user="KAMI" version="99999">
    <tag k="name" v="Tesco"/>
    <tag k="addr:city" v="Pécs"/>
    <tag k="addr:postcode" v="7631"/>
    <tag k="addr:street" v="Kincses utca"/>
    <tag k="addr:housenumber" v="1"/>
    <tag k="branch" v="Pécs Kertváros Hipermarket"/>
    <tag k="website" v="https://www.tesco.hu/aruhazak/aruhaz/tesco-pecs-kertvaros-hipermarket"/>
    <tag k="payment:cash" v="yes"/>
    <tag k="youtube" v="https://www.youtube.com/user/TescoMagyarorszag"/>
    <tag k="shop" v="supermarket"/>
    <tag k="brand" v="Tesco"/>
    <tag k="facebook" v="https://www.facebook.com/tescoaruhazak/"/>
    <tag k="website" v="https://www.tesco.hu"/>
    <tag k="payment:debit_cards" v="yes"/>
    <tag k="operator" v="Tesco Global Áruházak Zrt."/>
  </node>
  <node action="modify" changeset="99999" id="-91" lat="46.041412" lon="18.216728" timestamp="" uid="4579407" user="KAMI" version="99999">
    <tag k="name" v="Tesco"/>
    <tag k="addr:city" v="Pécs"/>
    <tag k="addr:postcode" v="7632"/>
    <tag k="addr:street" v="Maléter Pál út"/>
    <tag k="addr:housenumber" v="2"/>
    <tag k="branch" v="Pécs Szupermarket"/>
    <tag k="website" v="https://www.tesco.hu/aruhazak/aruhaz/tesco-pecs-szupermarket"/>
    <tag k="payment:cash" v="yes"/>
    <tag k="youtube" v="https://www.youtube.com/user/TescoMagyarorszag"/>
    <tag k="shop" v="supermarket"/>
    <tag k="brand" v="Tesco"/>
    <tag k="facebook" v="https://www.facebook.com/tescoaruhazak/"/>
    <tag k="website" v="https://www.tesco.hu"/>
    <tag k="payment:debit_cards" v="yes"/>
    <tag k="operator" v="Tesco Global Áruházak Zrt."/>
  </node>
  <way action="modify" changeset="1" id="127526158" timestamp="1514266501000000000" uid="4579407" user="KAMI" version="9">
    <nd ref="1411203450"/>
    <nd ref="1411203454"/>
    <nd ref="1411203452"/>
    <nd ref="1411203457"/>
    <nd ref="2512158117"/>
    <nd ref="1411203450"/>
    <tag k="name" v="Tesco"/>
    <tag k="addr:city" v="Budapest"/>
    <tag k="addr:postcode" v="1202"/>
    <tag k="addr:street" v="Mártírok út"/>
    <tag k="addr:housenumber" v="281"/>
    <tag k="branch" v="Pesterzsébet Hipermarket"/>
    <tag k="website" v="https://www.tesco.hu/aruhazak/aruhaz/tesco-pesterzsebet-hipermarket"/>
    <tag k="payment:cash" v="yes"/>
    <tag k="youtube" v="https://www.youtube.com/user/TescoMagyarorszag"/>
    <tag k="shop" v="supermarket"/>
    <tag k="brand" v="Tesco"/>
    <tag k="facebook" v="https://www.facebook.com/tescoaruhazak/"/>
    <tag k="website" v="https://www.tesco.hu"/>
    <tag k="payment:debit_cards" v="yes"/>
    <tag k="operator" v="Tesco Global Áruházak Zrt."/>
  </way>
  <node action="modify" changeset="99999" id="-93" lat="47.48402" lon="19.22858" timestamp="" uid="4579407" user="KAMI" version="99999">
    <tag k="name" v="Tesco"/>
    <tag k="addr:city" v="Budapest"/>
    <tag k="addr:postcode" v="1173"/>
    <tag k="addr:street" v="Pesti út"/>
    <tag k="addr:housenumber" v="5"/>
    <tag k="branch" v="Pesti út Hipermarket"/>
    <tag k="website" v="https://www.tesco.hu/aruhazak/aruhaz/tesco-pesti-ut-hipermarket"/>
    <tag k="payment:cash" v="yes"/>
    <tag k="youtube" v="https://www.youtube.com/user/TescoMagyarorszag"/>
    <tag k="shop" v="supermarket"/>
    <tag k="brand" v="Tesco"/>
    <tag k="facebook" v="https://www.facebook.com/tescoaruhazak/"/>
    <tag k="website" v="https://www.tesco.hu"/>
    <tag k="payment:debit_cards" v="yes"/>
    <tag k="operator" v="Tesco Global Áruházak Zrt."/>
  </node>
  <node action="modify" changeset="99999" id="-94" lat="47.288339" lon="19.542838" timestamp="" uid="4579407" user="KAMI" version="99999">
    <tag k="name" v="Tesco"/>
    <tag k="addr:city" v="Pilis"/>
    <tag k="addr:postcode" v="2721"/>
    <tag k="addr:street" v="Kossuth Lajos utca"/>
    <tag k="addr:housenumber" v="2/h"/>
    <tag k="branch" v="Pilis Szupermarket"/>
    <tag k="website" v="https://www.tesco.hu/aruhazak/aruhaz/tesco-pilis-szupermarket"/>
    <tag k="payment:cash" v="yes"/>
    <tag k="youtube" v="https://www.youtube.com/user/TescoMagyarorszag"/>
    <tag k="shop" v="supermarket"/>
    <tag k="brand" v="Tesco"/>
    <tag k="facebook" v="https://www.facebook.com/tescoaruhazak/"/>
    <tag k="website" v="https://www.tesco.hu"/>
    <tag k="payment:debit_cards" v="yes"/>
    <tag k="operator" v="Tesco Global Áruházak Zrt."/>
  </node>
  <node action="modify" changeset="1" id="483596662" lat="47.55178" lon="19.13936" timestamp="1500144480000000000" uid="4579407" user="KAMI" version="6">
    <tag k="name" v="Tesco"/>
    <tag k="addr:city" v="Budapest"/>
    <tag k="addr:postcode" v="1152"/>
    <tag k="addr:street" v="Szentmihályi út"/>
    <tag k="addr:housenumber" v="131"/>
    <tag k="branch" v="Pólus Hipermarket"/>
    <tag k="website" v="https://www.tesco.hu/aruhazak/aruhaz/tesco-polus-hipermarket"/>
    <tag k="payment:cash" v="yes"/>
    <tag k="youtube" v="https://www.youtube.com/user/TescoMagyarorszag"/>
    <tag k="shop" v="supermarket"/>
    <tag k="brand" v="Tesco"/>
    <tag k="facebook" v="https://www.facebook.com/tescoaruhazak/"/>
    <tag k="website" v="https://www.tesco.hu"/>
    <tag k="payment:debit_cards" v="yes"/>
    <tag k="operator" v="Tesco Global Áruházak Zrt."/>
  </node>
  <node action="modify" changeset="1" id="324584681" lat="47.172843" lon="18.943118" timestamp="1500984414000000000" uid="4579407" user="KAMI" version="4">
    <tag k="name" v="Tesco"/>
    <tag k="addr:city" v="Ráckeve"/>
    <tag k="addr:postcode" v="2300"/>
    <tag k="addr:street" v="Kossuth Lajos utca"/>
    <tag k="addr:housenumber" v="98-100"/>
    <tag k="branch" v="Ráckeve Szupermarket"/>
    <tag k="website" v="https://www.tesco.hu/aruhazak/aruhaz/tesco-rackeve-szupermarket"/>
    <tag k="payment:cash" v="yes"/>
    <tag k="youtube" v="https://www.youtube.com/user/TescoMagyarorszag"/>
    <tag k="shop" v="supermarket"/>
    <tag k="brand" v="Tesco"/>
    <tag k="facebook" v="https://www.facebook.com/tescoaruhazak/"/>
    <tag k="website" v="https://www.tesco.hu"/>
    <tag k="payment:debit_cards" v="yes"/>
    <tag k="operator" v="Tesco Global Áruházak Zrt."/>
  </node>
  <node action="modify" changeset="99999" id="-97" lat="48.07685" lon="19.78778" timestamp="" uid="4579407" user="KAMI" version="99999">
    <tag k="name" v="Tesco"/>
    <tag k="addr:city" v="Salgótarján"/>
    <tag k="addr:postcode" v="3100"/>
    <tag k="addr:street" v="Rákóczi út"/>
    <tag k="addr:housenumber" v="143"/>
    <tag k="branch" v="Salgótarján Hipermarket"/>
    <tag k="website" v="https://www.tesco.hu/aruhazak/aruhaz/tesco-salgotarjan-hipermarket"/>
    <tag k="payment:cash" v="yes"/>
    <tag k="youtube" v="https://www.youtube.com/user/TescoMagyarorszag"/>
    <tag k="shop" v="supermarket"/>
    <tag k="brand" v="Tesco"/>
    <tag k="facebook" v="https://www.facebook.com/tescoaruhazak/"/>
    <tag k="website" v="https://www.tesco.hu"/>
    <tag k="payment:debit_cards" v="yes"/>
    <tag k="operator" v="Tesco Global Áruházak Zrt."/>
  </node>
  <node action="modify" changeset="1" id="4933471676" lat="46.894851" lon="18.615906" timestamp="1506348339000000000" uid="4579407" user="KAMI" version="3">
    <tag k="name" v="Tesco"/>
    <tag k="addr:city" v="Sárbogárd"/>
    <tag k="addr:postcode" v="7000"/>
    <tag k="addr:street" v="Ady Endre út"/>
    <tag k="addr:housenumber" v="19"/>
    <tag k="branch" v="Sárbogárd Hipermarket"/>
    <tag k="website" v="https://www.tesco.hu/aruhazak/aruhaz/tesco-sarbogard-hipermarket"/>
    <tag k="payment:cash" v="yes"/>
    <tag k="youtube" v="https://www.youtube.com/user/TescoMagyarorszag"/>
    <tag k="shop" v="supermarket"/>
    <tag k="brand" v="Tesco"/>
    <tag k="facebook" v="https://www.facebook.com/tescoaruhazak/"/>
    <tag k="website" v="https://www.tesco.hu"/>
    <tag k="payment:debit_cards" v="yes"/>
    <tag k="operator" v="Tesco Global Áruházak Zrt."/>
  </node>
  <node action="modify" changeset="99999" id="-99" lat="46.745858" lon="21.386024" timestamp="" uid="4579407" user="KAMI" version="99999">
    <tag k="name" v="Tesco"/>
    <tag k="addr:city" v="Sarkad"/>
    <tag k="addr:postcode" v="5720"/>
    <tag k="addr:street" v="Szalontai utca"/>
    <tag k="addr:housenumber" v="3-7"/>
    <tag k="branch" v="Sarkad Szupermarket"/>
    <tag k="website" v="https://www.tesco.hu/aruhazak/aruhaz/tesco-sarkad-szupermarket"/>
    <tag k="payment:cash" v="yes"/>
    <tag k="youtube" v="https://www.youtube.com/user/TescoMagyarorszag"/>
    <tag k="shop" v="supermarket"/>
    <tag k="brand" v="Tesco"/>
    <tag k="facebook" v="https://www.facebook.com/tescoaruhazak/"/>
    <tag k="website" v="https://www.tesco.hu"/>
    <tag k="payment:debit_cards" v="yes"/>
    <tag k="operator" v="Tesco Global Áruházak Zrt."/>
  </node>
  <node action="modify" changeset="99999" id="-100" lat="47.2479" lon="16.950943" timestamp="" uid="4579407" user="KAMI" version="99999">
    <tag k="name" v="Tesco"/>
    <tag k="addr:city" v="Sárvár"/>
    <tag k="addr:postcode" v="9600"/>
    <tag k="addr:street" v="Rákóczi utca"/>
    <tag k="addr:housenumber" v="83"/>
    <tag k="branch" v="Sárvár Hipermarket"/>
    <tag k="website" v="https://www.tesco.hu/aruhazak/aruhaz/tesco-sarvar-hipermarket"/>
    <tag k="payment:cash" v="yes"/>
    <tag k="youtube" v="https://www.youtube.com/user/TescoMagyarorszag"/>
    <tag k="shop" v="supermarket"/>
    <tag k="brand" v="Tesco"/>
    <tag k="facebook" v="https://www.facebook.com/tescoaruhazak/"/>
    <tag k="website" v="https://www.tesco.hu"/>
    <tag k="payment:debit_cards" v="yes"/>
    <tag k="operator" v="Tesco Global Áruházak Zrt."/>
  </node>
  <node action="modify" changeset="99999" id="-101" lat="48.41498" lon="21.64459" timestamp="" uid="4579407" user="KAMI" version="99999">
    <tag k="name" v="Tesco"/>
    <tag k="addr:city" v="Sátoraljaújhely"/>
    <tag k="addr:postcode" v="3980"/>
    <tag k="addr:street" v="Kazinczy F. utca"/>
    <tag k="addr:housenumber" v="105"/>
    <tag k="branch" v="Sátoraljaújhely Hipermarket"/>
    <tag k="website" v="https://www.tesco.hu/aruhazak/aruhaz/tesco-satoraljaujhely-hipermarket"/>
    <tag k="payment:cash" v="yes"/>
    <tag k="youtube" v="https://www.youtube.com/user/TescoMagyarorszag"/>
    <tag k="shop" v="supermarket"/>
    <tag k="brand" v="Tesco"/>
    <tag k="facebook" v="https://www.facebook.com/tescoaruhazak/"/>
    <tag k="website" v="https://www.tesco.hu"/>
    <tag k="payment:debit_cards" v="yes"/>
    <tag k="operator" v="Tesco Global Áruházak Zrt."/>
  </node>
  <node action="modify" changeset="99999" id="-102" lat="45.85761" lon="18.2776" timestamp="" uid="4579407" user="KAMI" version="99999">
    <tag k="name" v="Tesco"/>
    <tag k="addr:city" v="Siklós"/>
    <tag k="addr:postcode" v="7800"/>
    <tag k="addr:street" v="Harkányi utca"/>
    <tag k="addr:housenumber" v="55"/>
    <tag k="branch" v="Siklós Hipermarket"/>
    <tag k="website" v="https://www.tesco.hu/aruhazak/aruhaz/tesco-siklos-hipermarket"/>
    <tag k="payment:cash" v="yes"/>
    <tag k="youtube" v="https://www.youtube.com/user/TescoMagyarorszag"/>
    <tag k="shop" v="supermarket"/>
    <tag k="brand" v="Tesco"/>
    <tag k="facebook" v="https://www.facebook.com/tescoaruhazak/"/>
    <tag k="website" v="https://www.tesco.hu"/>
    <tag k="payment:debit_cards" v="yes"/>
    <tag k="operator" v="Tesco Global Áruházak Zrt."/>
  </node>
  <node action="modify" changeset="99999" id="-103" lat="46.89398" lon="18.05721" timestamp="" uid="4579407" user="KAMI" version="99999">
    <tag k="name" v="Tesco"/>
    <tag k="addr:city" v="Siófok"/>
    <tag k="addr:postcode" v="8611"/>
    <tag k="addr:street" v="Vak Bottyán utca"/>
    <tag k="addr:housenumber" v="27"/>
    <tag k="branch" v="Siófok Hipermarket"/>
    <tag k="website" v="https://www.tesco.hu/aruhazak/aruhaz/tesco-siofok-hipermarket"/>
    <tag k="payment:cash" v="yes"/>
    <tag k="youtube" v="https://www.youtube.com/user/TescoMagyarorszag"/>
    <tag k="shop" v="supermarket"/>
    <tag k="brand" v="Tesco"/>
    <tag k="facebook" v="https://www.facebook.com/tescoaruhazak/"/>
    <tag k="website" v="https://www.tesco.hu"/>
    <tag k="payment:debit_cards" v="yes"/>
    <tag k="operator" v="Tesco Global Áruházak Zrt."/>
  </node>
  <node action="modify" changeset="99999" id="-104" lat="47.67104" lon="16.61223" timestamp="" uid="4579407" user="KAMI" version="99999">
    <tag k="name" v="Tesco"/>
    <tag k="addr:city" v="Sopron"/>
    <tag k="addr:postcode" v="9400"/>
    <tag k="addr:street" v="Ipar körút"/>
    <tag k="addr:housenumber" v="30"/>
    <tag k="branch" v="Sopron Hipermarket"/>
    <tag k="website" v="https://www.tesco.hu/aruhazak/aruhaz/tesco-sopron-hipermarket"/>
    <tag k="payment:cash" v="yes"/>
    <tag k="youtube" v="https://www.youtube.com/user/TescoMagyarorszag"/>
    <tag k="shop" v="supermarket"/>
    <tag k="brand" v="Tesco"/>
    <tag k="facebook" v="https://www.facebook.com/tescoaruhazak/"/>
    <tag k="website" v="https://www.tesco.hu"/>
    <tag k="payment:debit_cards" v="yes"/>
    <tag k="operator" v="Tesco Global Áruházak Zrt."/>
  </node>
  <way action="modify" changeset="1" id="131174319" timestamp="1513988508000000000" uid="4579407" user="KAMI" version="12">
    <nd ref="2882038003"/>
    <nd ref="2882038001"/>
    <nd ref="2331715757"/>
    <nd ref="2882037975"/>
    <nd ref="2882037941"/>
    <nd ref="2882037932"/>
    <nd ref="2163897416"/>
    <nd ref="2882037929"/>
    <nd ref="2882037930"/>
    <nd ref="2882037931"/>
    <nd ref="2882037937"/>
    <nd ref="2882037940"/>
    <nd ref="2882037948"/>
    <nd ref="2613357241"/>
    <nd ref="2882037983"/>
    <nd ref="2882037987"/>
    <nd ref="2882037998"/>
    <nd ref="2331715760"/>
    <nd ref="2882038000"/>
    <nd ref="2163897417"/>
    <nd ref="2882038006"/>
    <nd ref="2649876585"/>
    <nd ref="2163897424"/>
    <nd ref="2163897423"/>
    <nd ref="2163897422"/>
    <nd ref="2163897421"/>
    <nd ref="2163897420"/>
    <nd ref="2163897419"/>
    <nd ref="2882038004"/>
    <nd ref="2882038003"/>
    <tag k="name" v="Tesco"/>
    <tag k="addr:city" v="Budapest"/>
    <tag k="addr:postcode" v="1097"/>
    <tag k="addr:street" v="Koppány utca"/>
    <tag k="addr:housenumber" v="2-4"/>
    <tag k="branch" v="Soroksári úti Hipermarket"/>
    <tag k="website" v="https://www.tesco.hu/aruhazak/aruhaz/tesco-soroksari-uti-hipermarket"/>
    <tag k="payment:cash" v="yes"/>
    <tag k="youtube" v="https://www.youtube.com/user/TescoMagyarorszag"/>
    <tag k="shop" v="supermarket"/>
    <tag k="brand" v="Tesco"/>
    <tag k="facebook" v="https://www.facebook.com/tescoaruhazak/"/>
    <tag k="website" v="https://www.tesco.hu"/>
    <tag k="payment:debit_cards" v="yes"/>
    <tag k="operator" v="Tesco Global Áruházak Zrt."/>
  </way>
  <node action="modify" changeset="99999" id="-106" lat="47.450169" lon="19.534197" timestamp="" uid="4579407" user="KAMI" version="99999">
    <tag k="name" v="Tesco"/>
    <tag k="addr:city" v="Sülysáp"/>
    <tag k="addr:postcode" v="2241"/>
    <tag k="addr:street" v="Szent István tér"/>
    <tag k="addr:housenumber" v="6"/>
    <tag k="branch" v="Sülysáp Szupermarket"/>
    <tag k="website" v="https://www.tesco.hu/aruhazak/aruhaz/tesco-sulysap-szupermarket"/>
    <tag k="payment:cash" v="yes"/>
    <tag k="youtube" v="https://www.youtube.com/user/TescoMagyarorszag"/>
    <tag k="shop" v="supermarket"/>
    <tag k="brand" v="Tesco"/>
    <tag k="facebook" v="https://www.facebook.com/tescoaruhazak/"/>
    <tag k="website" v="https://www.tesco.hu"/>
    <tag k="payment:debit_cards" v="yes"/>
    <tag k="operator" v="Tesco Global Áruházak Zrt."/>
  </node>
  <way action="modify" changeset="1" id="175650667" timestamp="1514218586000000000" uid="4579407" user="KAMI" version="3">
    <nd ref="1862167450"/>
    <nd ref="1862167481"/>
    <nd ref="1862167534"/>
    <nd ref="1862167454"/>
    <nd ref="1862167417"/>
    <nd ref="1862167519"/>
    <nd ref="1862167542"/>
    <nd ref="1862167489"/>
    <nd ref="1862167495"/>
    <nd ref="1862167415"/>
    <nd ref="1862167450"/>
    <tag k="name" v="Tesco"/>
    <tag k="addr:city" v="Sümeg"/>
    <tag k="addr:postcode" v="8330"/>
    <tag k="addr:street" v="Baglyasszél utca"/>
    <tag k="addr:housenumber" v="2"/>
    <tag k="branch" v="Sümeg Szupermarket"/>
    <tag k="website" v="https://www.tesco.hu/aruhazak/aruhaz/tesco-sumeg-szupermarket"/>
    <tag k="payment:cash" v="yes"/>
    <tag k="youtube" v="https://www.youtube.com/user/TescoMagyarorszag"/>
    <tag k="shop" v="supermarket"/>
    <tag k="brand" v="Tesco"/>
    <tag k="facebook" v="https://www.facebook.com/tescoaruhazak/"/>
    <tag k="website" v="https://www.tesco.hu"/>
    <tag k="payment:debit_cards" v="yes"/>
    <tag k="operator" v="Tesco Global Áruházak Zrt."/>
  </way>
  <node action="modify" changeset="99999" id="-108" lat="46.85407" lon="20.57265" timestamp="" uid="4579407" user="KAMI" version="99999">
    <tag k="name" v="Tesco"/>
    <tag k="addr:city" v="Szarvas"/>
    <tag k="addr:postcode" v="5540"/>
    <tag k="addr:street" v="Csabai út"/>
    <tag k="addr:housenumber" v="9"/>
    <tag k="branch" v="Szarvas Hipermarket"/>
    <tag k="website" v="https://www.tesco.hu/aruhazak/aruhaz/tesco-szarvas-hipermarket"/>
    <tag k="payment:cash" v="yes"/>
    <tag k="youtube" v="https://www.youtube.com/user/TescoMagyarorszag"/>
    <tag k="shop" v="supermarket"/>
    <tag k="brand" v="Tesco"/>
    <tag k="facebook" v="https://www.facebook.com/tescoaruhazak/"/>
    <tag k="website" v="https://www.tesco.hu"/>
    <tag k="payment:debit_cards" v="yes"/>
    <tag k="operator" v="Tesco Global Áruházak Zrt."/>
  </node>
  <node action="modify" changeset="99999" id="-109" lat="47.31531" lon="18.91263" timestamp="" uid="4579407" user="KAMI" version="99999">
    <tag k="name" v="Tesco"/>
    <tag k="addr:city" v="Százhalombatta"/>
    <tag k="addr:postcode" v="2440"/>
    <tag k="addr:street" v="Damjanich utca"/>
    <tag k="addr:housenumber" v="29"/>
    <tag k="branch" v="Százhalombatta Hipermarket"/>
    <tag k="website" v="https://www.tesco.hu/aruhazak/aruhaz/tesco-szazhalombatta-hipermarket"/>
    <tag k="payment:cash" v="yes"/>
    <tag k="youtube" v="https://www.youtube.com/user/TescoMagyarorszag"/>
    <tag k="shop" v="supermarket"/>
    <tag k="brand" v="Tesco"/>
    <tag k="facebook" v="https://www.facebook.com/tescoaruhazak/"/>
    <tag k="website" v="https://www.tesco.hu"/>
    <tag k="payment:debit_cards" v="yes"/>
    <tag k="operator" v="Tesco Global Áruházak Zrt."/>
  </node>
  <node action="modify" changeset="99999" id="-110" lat="46.272332" lon="20.150705" timestamp="" uid="4579407" user="KAMI" version="99999">
    <tag k="name" v="Tesco"/>
    <tag k="addr:city" v="Szeged"/>
    <tag k="addr:postcode" v="6723"/>
    <tag k="addr:street" v="Makkosházi körút"/>
    <tag k="addr:housenumber" v="4"/>
    <tag k="branch" v="Szeged - Makkosházi krt. Szupermarket"/>
    <tag k="website" v="https://www.tesco.hu/aruhazak/aruhaz/tesco-szeged-makkoshazi-krt-szupermarket"/>
    <tag k="payment:cash" v="yes"/>
    <tag k="youtube" v="https://www.youtube.com/user/TescoMagyarorszag"/>
    <tag k="shop" v="supermarket"/>
    <tag k="brand" v="Tesco"/>
    <tag k="facebook" v="https://www.facebook.com/tescoaruhazak/"/>
    <tag k="website" v="https://www.tesco.hu"/>
    <tag k="payment:debit_cards" v="yes"/>
    <tag k="operator" v="Tesco Global Áruházak Zrt."/>
  </node>
  <node action="modify" changeset="99999" id="-111" lat="46.24039" lon="20.120195" timestamp="" uid="4579407" user="KAMI" version="99999">
    <tag k="name" v="Tesco"/>
    <tag k="addr:city" v="Szeged"/>
    <tag k="addr:postcode" v="6725"/>
    <tag k="addr:street" v="Szabadkai utca"/>
    <tag k="addr:housenumber" v="7"/>
    <tag k="branch" v="Szeged - Móraváros Hipermarket"/>
    <tag k="website" v="https://www.tesco.hu/aruhazak/aruhaz/tesco-szeged-moravaros-hipermarket"/>
    <tag k="payment:cash" v="yes"/>
    <tag k="youtube" v="https://www.youtube.com/user/TescoMagyarorszag"/>
    <tag k="shop" v="supermarket"/>
    <tag k="brand" v="Tesco"/>
    <tag k="facebook" v="https://www.facebook.com/tescoaruhazak/"/>
    <tag k="website" v="https://www.tesco.hu"/>
    <tag k="payment:debit_cards" v="yes"/>
    <tag k="operator" v="Tesco Global Áruházak Zrt."/>
  </node>
  <node action="modify" changeset="1" id="2433857103" lat="46.259524" lon="20.171357" timestamp="1471973929000000000" uid="4579407" user="KAMI" version="4">
    <tag k="name" v="Tesco"/>
    <tag k="addr:city" v="Szeged"/>
    <tag k="addr:postcode" v="6723"/>
    <tag k="addr:street" v="Etelka sor"/>
    <tag k="addr:housenumber" v="1"/>
    <tag k="branch" v="Szeged - Tisza Center Szupermarket"/>
    <tag k="website" v="https://www.tesco.hu/aruhazak/aruhaz/tesco-szeged-tisza-center-szupermarket"/>
    <tag k="payment:cash" v="yes"/>
    <tag k="youtube" v="https://www.youtube.com/user/TescoMagyarorszag"/>
    <tag k="shop" v="supermarket"/>
    <tag k="brand" v="Tesco"/>
    <tag k="facebook" v="https://www.facebook.com/tescoaruhazak/"/>
    <tag k="website" v="https://www.tesco.hu"/>
    <tag k="payment:debit_cards" v="yes"/>
    <tag k="operator" v="Tesco Global Áruházak Zrt."/>
  </node>
  <node action="modify" changeset="99999" id="-113" lat="47.20885" lon="18.42542" timestamp="" uid="4579407" user="KAMI" version="99999">
    <tag k="name" v="Tesco"/>
    <tag k="addr:city" v="Székesfehérvár"/>
    <tag k="addr:postcode" v="8000"/>
    <tag k="addr:street" v="Aszalvölgyi út"/>
    <tag k="addr:housenumber" v="1"/>
    <tag k="branch" v="Székesfehérvár Hipermarket"/>
    <tag k="website" v="https://www.tesco.hu/aruhazak/aruhaz/tesco-szekesfehervar-hipermarket"/>
    <tag k="payment:cash" v="yes"/>
    <tag k="youtube" v="https://www.youtube.com/user/TescoMagyarorszag"/>
    <tag k="shop" v="supermarket"/>
    <tag k="brand" v="Tesco"/>
    <tag k="facebook" v="https://www.facebook.com/tescoaruhazak/"/>
    <tag k="website" v="https://www.tesco.hu"/>
    <tag k="payment:debit_cards" v="yes"/>
    <tag k="operator" v="Tesco Global Áruházak Zrt."/>
  </node>
  <node action="modify" changeset="1" id="4939280411" lat="47.18991" lon="18.40468" timestamp="2017-08-08 00:07:04+02:00" uid="4579407" user="KAMI" version="2">
    <tag k="name" v="Tesco"/>
    <tag k="addr:city" v="Székesfehérvár"/>
    <tag k="addr:postcode" v="8000"/>
    <tag k="addr:street" v="Palotai út"/>
    <tag k="addr:housenumber" v="6"/>
    <tag k="branch" v="Székesfehérvár Palota Hipermarket"/>
    <tag k="website" v="https://www.tesco.hu/aruhazak/aruhaz/tesco-szekesfehervar-palota-hipermarket"/>
    <tag k="payment:cash" v="yes"/>
    <tag k="youtube" v="https://www.youtube.com/user/TescoMagyarorszag"/>
    <tag k="shop" v="supermarket"/>
    <tag k="brand" v="Tesco"/>
    <tag k="facebook" v="https://www.facebook.com/tescoaruhazak/"/>
    <tag k="website" v="https://www.tesco.hu"/>
    <tag k="payment:debit_cards" v="yes"/>
    <tag k="operator" v="Tesco Global Áruházak Zrt."/>
  </node>
  <node action="modify" changeset="99999" id="-115" lat="46.33098" lon="18.70021" timestamp="" uid="4579407" user="KAMI" version="99999">
    <tag k="name" v="Tesco"/>
    <tag k="addr:city" v="Szekszárd"/>
    <tag k="addr:postcode" v="7100"/>
    <tag k="addr:street" v="Tartsay Vilmos utca"/>
    <tag k="addr:housenumber" v="40"/>
    <tag k="branch" v="Szekszárd Hipermarket"/>
    <tag k="website" v="https://www.tesco.hu/aruhazak/aruhaz/tesco-szekszard-hipermarket"/>
    <tag k="payment:cash" v="yes"/>
    <tag k="youtube" v="https://www.youtube.com/user/TescoMagyarorszag"/>
    <tag k="shop" v="supermarket"/>
    <tag k="brand" v="Tesco"/>
    <tag k="facebook" v="https://www.facebook.com/tescoaruhazak/"/>
    <tag k="website" v="https://www.tesco.hu"/>
    <tag k="payment:debit_cards" v="yes"/>
    <tag k="operator" v="Tesco Global Áruházak Zrt."/>
  </node>
  <node action="modify" changeset="1" id="2923512776" lat="46.347375" lon="18.703217" timestamp="1504875210000000000" uid="4579407" user="KAMI" version="7">
    <tag k="name" v="Tesco"/>
    <tag k="addr:city" v="Szekszárd"/>
    <tag k="addr:postcode" v="7100"/>
    <tag k="addr:street" v="Arany János utca"/>
    <tag k="addr:housenumber" v="31"/>
    <tag k="branch" v="Szekszárd Szupermarket"/>
    <tag k="website" v="https://www.tesco.hu/aruhazak/aruhaz/tesco-szekszard-szupermarket"/>
    <tag k="payment:cash" v="yes"/>
    <tag k="youtube" v="https://www.youtube.com/user/TescoMagyarorszag"/>
    <tag k="shop" v="supermarket"/>
    <tag k="brand" v="Tesco"/>
    <tag k="facebook" v="https://www.facebook.com/tescoaruhazak/"/>
    <tag k="website" v="https://www.tesco.hu"/>
    <tag k="payment:debit_cards" v="yes"/>
    <tag k="operator" v="Tesco Global Áruházak Zrt."/>
  </node>
  <node action="modify" changeset="99999" id="-117" lat="46.66754" lon="20.23365" timestamp="" uid="4579407" user="KAMI" version="99999">
    <tag k="name" v="Tesco"/>
    <tag k="addr:city" v="Szentes"/>
    <tag k="addr:postcode" v="6600"/>
    <tag k="branch" v="Szentes Hipermarket"/>
    <tag k="website" v="https://www.tesco.hu/aruhazak/aruhaz/tesco-szentes-hipermarket"/>
    <tag k="payment:cash" v="yes"/>
    <tag k="youtube" v="https://www.youtube.com/user/TescoMagyarorszag"/>
    <tag k="shop" v="supermarket"/>
    <tag k="brand" v="Tesco"/>
    <tag k="facebook" v="https://www.facebook.com/tescoaruhazak/"/>
    <tag k="website" v="https://www.tesco.hu"/>
    <tag k="payment:debit_cards" v="yes"/>
    <tag k="operator" v="Tesco Global Áruházak Zrt."/>
  </node>
  <node action="modify" changeset="99999" id="-118" lat="48.154679" lon="21.199208" timestamp="" uid="4579407" user="KAMI" version="99999">
    <tag k="name" v="Tesco"/>
    <tag k="addr:city" v="Szerencs"/>
    <tag k="addr:postcode" v="3900"/>
    <tag k="addr:street" v="Gyár utca"/>
    <tag k="addr:housenumber" v="40"/>
    <tag k="branch" v="Szerencs Hipermarket"/>
    <tag k="website" v="https://www.tesco.hu/aruhazak/aruhaz/tesco-szerencs-hipermarket"/>
    <tag k="payment:cash" v="yes"/>
    <tag k="youtube" v="https://www.youtube.com/user/TescoMagyarorszag"/>
    <tag k="shop" v="supermarket"/>
    <tag k="brand" v="Tesco"/>
    <tag k="facebook" v="https://www.facebook.com/tescoaruhazak/"/>
    <tag k="website" v="https://www.tesco.hu"/>
    <tag k="payment:debit_cards" v="yes"/>
    <tag k="operator" v="Tesco Global Áruházak Zrt."/>
  </node>
  <way action="modify" changeset="1" id="244391894" timestamp="1514218630000000000" uid="4579407" user="KAMI" version="3">
    <nd ref="2553427471"/>
    <nd ref="2553427444"/>
    <nd ref="2553427419"/>
    <nd ref="2553427406"/>
    <nd ref="2517170242"/>
    <nd ref="2517170243"/>
    <nd ref="2517170244"/>
    <nd ref="2517170245"/>
    <nd ref="2553427471"/>
    <tag k="name" v="Tesco"/>
    <tag k="addr:city" v="Szigetvár"/>
    <tag k="addr:postcode" v="7900"/>
    <tag k="addr:street" v="Almáspatak utca"/>
    <tag k="addr:housenumber" v="7"/>
    <tag k="branch" v="Szigetvár Hipermarket"/>
    <tag k="website" v="https://www.tesco.hu/aruhazak/aruhaz/tesco-szigetvar-hipermarket"/>
    <tag k="payment:cash" v="yes"/>
    <tag k="youtube" v="https://www.youtube.com/user/TescoMagyarorszag"/>
    <tag k="shop" v="supermarket"/>
    <tag k="brand" v="Tesco"/>
    <tag k="facebook" v="https://www.facebook.com/tescoaruhazak/"/>
    <tag k="website" v="https://www.tesco.hu"/>
    <tag k="payment:debit_cards" v="yes"/>
    <tag k="operator" v="Tesco Global Áruházak Zrt."/>
  </way>
  <node action="modify" changeset="99999" id="-120" lat="47.133019" lon="20.217163" timestamp="" uid="4579407" user="KAMI" version="99999">
    <tag k="name" v="Tesco"/>
    <tag k="addr:city" v="Szolnok"/>
    <tag k="addr:postcode" v="5008"/>
    <tag k="addr:street" v="Karinthy Frigyes út"/>
    <tag k="addr:housenumber" v="38"/>
    <tag k="branch" v="Szolnok - Szandaszőlős Szupermarket"/>
    <tag k="website" v="https://www.tesco.hu/aruhazak/aruhaz/tesco-szolnok-szandaszolos-szupermarket"/>
    <tag k="payment:cash" v="yes"/>
    <tag k="youtube" v="https://www.youtube.com/user/TescoMagyarorszag"/>
    <tag k="shop" v="supermarket"/>
    <tag k="brand" v="Tesco"/>
    <tag k="facebook" v="https://www.facebook.com/tescoaruhazak/"/>
    <tag k="website" v="https://www.tesco.hu"/>
    <tag k="payment:debit_cards" v="yes"/>
    <tag k="operator" v="Tesco Global Áruházak Zrt."/>
  </node>
  <node action="modify" changeset="99999" id="-121" lat="47.19384" lon="20.18197" timestamp="" uid="4579407" user="KAMI" version="99999">
    <tag k="name" v="Tesco"/>
    <tag k="addr:city" v="Szolnok"/>
    <tag k="addr:postcode" v="5000"/>
    <tag k="addr:street" v="Széchenyi István körút"/>
    <tag k="addr:housenumber" v="133"/>
    <tag k="branch" v="Szolnok Szupermarket"/>
    <tag k="website" v="https://www.tesco.hu/aruhazak/aruhaz/tesco-szolnok-szupermarket"/>
    <tag k="payment:cash" v="yes"/>
    <tag k="youtube" v="https://www.youtube.com/user/TescoMagyarorszag"/>
    <tag k="shop" v="supermarket"/>
    <tag k="brand" v="Tesco"/>
    <tag k="facebook" v="https://www.facebook.com/tescoaruhazak/"/>
    <tag k="website" v="https://www.tesco.hu"/>
    <tag k="payment:debit_cards" v="yes"/>
    <tag k="operator" v="Tesco Global Áruházak Zrt."/>
  </node>
  <way action="modify" changeset="1" id="201603992" timestamp="1514218595000000000" uid="4579407" user="KAMI" version="10">
    <nd ref="2116355382"/>
    <nd ref="2116355352"/>
    <nd ref="2116355369"/>
    <nd ref="2116355322"/>
    <nd ref="2116355323"/>
    <nd ref="2116355313"/>
    <nd ref="2116355330"/>
    <nd ref="2116355361"/>
    <nd ref="2116355348"/>
    <nd ref="2116355382"/>
    <tag k="name" v="Tesco"/>
    <tag k="addr:city" v="Szombathely"/>
    <tag k="addr:postcode" v="9700"/>
    <tag k="addr:street" v="Zanati utca"/>
    <tag k="addr:housenumber" v="70"/>
    <tag k="branch" v="Szombathely Hipermarket"/>
    <tag k="website" v="https://www.tesco.hu/aruhazak/aruhaz/tesco-szombathely-hipermarket"/>
    <tag k="payment:cash" v="yes"/>
    <tag k="youtube" v="https://www.youtube.com/user/TescoMagyarorszag"/>
    <tag k="shop" v="supermarket"/>
    <tag k="brand" v="Tesco"/>
    <tag k="facebook" v="https://www.facebook.com/tescoaruhazak/"/>
    <tag k="website" v="https://www.tesco.hu"/>
    <tag k="payment:debit_cards" v="yes"/>
    <tag k="operator" v="Tesco Global Áruházak Zrt."/>
  </way>
  <way action="modify" changeset="1" id="230567153" timestamp="1514218619000000000" uid="4579407" user="KAMI" version="5">
    <nd ref="2390589149"/>
    <nd ref="2390589147"/>
    <nd ref="2390589148"/>
    <nd ref="2390589150"/>
    <nd ref="3541474324"/>
    <nd ref="3541474323"/>
    <nd ref="2390589149"/>
    <tag k="name" v="Tesco"/>
    <tag k="addr:city" v="Szombathely"/>
    <tag k="addr:postcode" v="9700"/>
    <tag k="addr:street" v="Gazdag E. utca"/>
    <tag k="addr:housenumber" v="10"/>
    <tag k="branch" v="Szombathely Szupermarket"/>
    <tag k="website" v="https://www.tesco.hu/aruhazak/aruhaz/tesco-szombathely-szupermarket"/>
    <tag k="payment:cash" v="yes"/>
    <tag k="youtube" v="https://www.youtube.com/user/TescoMagyarorszag"/>
    <tag k="shop" v="supermarket"/>
    <tag k="brand" v="Tesco"/>
    <tag k="facebook" v="https://www.facebook.com/tescoaruhazak/"/>
    <tag k="website" v="https://www.tesco.hu"/>
    <tag k="payment:debit_cards" v="yes"/>
    <tag k="operator" v="Tesco Global Áruházak Zrt."/>
  </way>
  <node action="modify" changeset="99999" id="-124" lat="47.67785" lon="17.64127" timestamp="" uid="4579407" user="KAMI" version="99999">
    <tag k="name" v="Tesco"/>
    <tag k="addr:city" v="Győr"/>
    <tag k="addr:postcode" v="9024"/>
    <tag k="addr:street" v="Herman O. utca"/>
    <tag k="addr:housenumber" v="22/a"/>
    <tag k="branch" v="Szupermarket Győr - Herman Ottó utca"/>
    <tag k="website" v="https://www.tesco.hu/aruhazak/aruhaz/tesco-szupermarket-gyor-herman-otto-utca"/>
    <tag k="payment:cash" v="yes"/>
    <tag k="youtube" v="https://www.youtube.com/user/TescoMagyarorszag"/>
    <tag k="shop" v="supermarket"/>
    <tag k="brand" v="Tesco"/>
    <tag k="facebook" v="https://www.facebook.com/tescoaruhazak/"/>
    <tag k="website" v="https://www.tesco.hu"/>
    <tag k="payment:debit_cards" v="yes"/>
    <tag k="operator" v="Tesco Global Áruházak Zrt."/>
  </node>
  <node action="modify" changeset="99999" id="-125" lat="47.87646" lon="17.27123" timestamp="" uid="4579407" user="KAMI" version="99999">
    <tag k="name" v="Tesco"/>
    <tag k="addr:city" v="Mosonmagyaróvár"/>
    <tag k="addr:postcode" v="9200"/>
    <tag k="addr:street" v="Magyar utca"/>
    <tag k="addr:housenumber" v="32-34"/>
    <tag k="branch" v="Szupermarket Móvár - Magyar utca"/>
    <tag k="website" v="https://www.tesco.hu/aruhazak/aruhaz/tesco-szupermarket-movar-magyar-utca"/>
    <tag k="payment:cash" v="yes"/>
    <tag k="youtube" v="https://www.youtube.com/user/TescoMagyarorszag"/>
    <tag k="shop" v="supermarket"/>
    <tag k="brand" v="Tesco"/>
    <tag k="facebook" v="https://www.facebook.com/tescoaruhazak/"/>
    <tag k="website" v="https://www.tesco.hu"/>
    <tag k="payment:debit_cards" v="yes"/>
    <tag k="operator" v="Tesco Global Áruházak Zrt."/>
  </node>
  <node action="modify" changeset="99999" id="-126" lat="47.751501" lon="19.077565" timestamp="" uid="4579407" user="KAMI" version="99999">
    <tag k="name" v="Tesco"/>
    <tag k="addr:city" v="Tahitótfalu"/>
    <tag k="addr:postcode" v="2022"/>
    <tag k="addr:street" v="Szentendrei út"/>
    <tag k="addr:housenumber" v="5-15"/>
    <tag k="branch" v="Tahitótfalu Szupermarket"/>
    <tag k="website" v="https://www.tesco.hu/aruhazak/aruhaz/tesco-tahitotfalu-szupermarket"/>
    <tag k="payment:cash" v="yes"/>
    <tag k="youtube" v="https://www.youtube.com/user/TescoMagyarorszag"/>
    <tag k="shop" v="supermarket"/>
    <tag k="brand" v="Tesco"/>
    <tag k="facebook" v="https://www.facebook.com/tescoaruhazak/"/>
    <tag k="website" v="https://www.tesco.hu"/>
    <tag k="payment:debit_cards" v="yes"/>
    <tag k="operator" v="Tesco Global Áruházak Zrt."/>
  </node>
  <way action="modify" changeset="1" id="156320663" timestamp="1514218578000000000" uid="4579407" user="KAMI" version="12">
    <nd ref="1685838929"/>
    <nd ref="1685838926"/>
    <nd ref="1685838960"/>
    <nd ref="1685838955"/>
    <nd ref="1685839014"/>
    <nd ref="1685839029"/>
    <nd ref="1685838929"/>
    <tag k="name" v="Tesco"/>
    <tag k="addr:city" v="Tapolca"/>
    <tag k="addr:postcode" v="8300"/>
    <tag k="addr:street" v="Veszprémi út"/>
    <tag k="addr:housenumber" v="5"/>
    <tag k="branch" v="Tapolca Hipermarket"/>
    <tag k="website" v="https://www.tesco.hu/aruhazak/aruhaz/tesco-tapolca-hipermarket"/>
    <tag k="payment:cash" v="yes"/>
    <tag k="youtube" v="https://www.youtube.com/user/TescoMagyarorszag"/>
    <tag k="shop" v="supermarket"/>
    <tag k="brand" v="Tesco"/>
    <tag k="facebook" v="https://www.facebook.com/tescoaruhazak/"/>
    <tag k="website" v="https://www.tesco.hu"/>
    <tag k="payment:debit_cards" v="yes"/>
    <tag k="operator" v="Tesco Global Áruházak Zrt."/>
  </way>
  <node action="modify" changeset="99999" id="-128" lat="47.629653" lon="18.313544" timestamp="" uid="4579407" user="KAMI" version="99999">
    <tag k="name" v="Tesco"/>
    <tag k="addr:city" v="Tata"/>
    <tag k="addr:postcode" v="2890"/>
    <tag k="addr:street" v="Ring utca"/>
    <tag k="addr:housenumber" v="1"/>
    <tag k="branch" v="Tata Hipermarket"/>
    <tag k="website" v="https://www.tesco.hu/aruhazak/aruhaz/tesco-tata-hipermarket"/>
    <tag k="payment:cash" v="yes"/>
    <tag k="youtube" v="https://www.youtube.com/user/TescoMagyarorszag"/>
    <tag k="shop" v="supermarket"/>
    <tag k="brand" v="Tesco"/>
    <tag k="facebook" v="https://www.facebook.com/tescoaruhazak/"/>
    <tag k="website" v="https://www.tesco.hu"/>
    <tag k="payment:debit_cards" v="yes"/>
    <tag k="operator" v="Tesco Global Áruházak Zrt."/>
  </node>
  <node action="modify" changeset="99999" id="-129" lat="47.57035" lon="18.40925" timestamp="" uid="4579407" user="KAMI" version="99999">
    <tag k="name" v="Tesco"/>
    <tag k="addr:city" v="Tatabánya"/>
    <tag k="addr:postcode" v="2800"/>
    <tag k="addr:street" v="Bláthy Ottó utca"/>
    <tag k="addr:housenumber" v="1"/>
    <tag k="branch" v="Tatabánya Hipermarket"/>
    <tag k="website" v="https://www.tesco.hu/aruhazak/aruhaz/tesco-tatabanya-hipermarket"/>
    <tag k="payment:cash" v="yes"/>
    <tag k="youtube" v="https://www.youtube.com/user/TescoMagyarorszag"/>
    <tag k="shop" v="supermarket"/>
    <tag k="brand" v="Tesco"/>
    <tag k="facebook" v="https://www.facebook.com/tescoaruhazak/"/>
    <tag k="website" v="https://www.tesco.hu"/>
    <tag k="payment:debit_cards" v="yes"/>
    <tag k="operator" v="Tesco Global Áruházak Zrt."/>
  </node>
  <node action="modify" changeset="99999" id="-130" lat="47.605526" lon="20.759053" timestamp="" uid="4579407" user="KAMI" version="99999">
    <tag k="name" v="Tesco"/>
    <tag k="addr:city" v="Tiszafüred"/>
    <tag k="addr:postcode" v="5350"/>
    <tag k="addr:street" v="Madách Imre utca"/>
    <tag k="addr:housenumber" v="2"/>
    <tag k="branch" v="Tiszafüred Hipermarket"/>
    <tag k="website" v="https://www.tesco.hu/aruhazak/aruhaz/tesco-tiszafured-hipermarket"/>
    <tag k="payment:cash" v="yes"/>
    <tag k="youtube" v="https://www.youtube.com/user/TescoMagyarorszag"/>
    <tag k="shop" v="supermarket"/>
    <tag k="brand" v="Tesco"/>
    <tag k="facebook" v="https://www.facebook.com/tescoaruhazak/"/>
    <tag k="website" v="https://www.tesco.hu"/>
    <tag k="payment:debit_cards" v="yes"/>
    <tag k="operator" v="Tesco Global Áruházak Zrt."/>
  </node>
  <node action="modify" changeset="99999" id="-131" lat="47.93075" lon="21.02533" timestamp="" uid="4579407" user="KAMI" version="99999">
    <tag k="name" v="Tesco"/>
    <tag k="addr:city" v="Tiszaújváros"/>
    <tag k="addr:postcode" v="3580"/>
    <tag k="addr:street" v="Örösi út"/>
    <tag k="addr:housenumber" v="1/a"/>
    <tag k="branch" v="Tiszaújváros Hipermarket"/>
    <tag k="website" v="https://www.tesco.hu/aruhazak/aruhaz/tesco-tiszaujvaros-hipermarket"/>
    <tag k="payment:cash" v="yes"/>
    <tag k="youtube" v="https://www.youtube.com/user/TescoMagyarorszag"/>
    <tag k="shop" v="supermarket"/>
    <tag k="brand" v="Tesco"/>
    <tag k="facebook" v="https://www.facebook.com/tescoaruhazak/"/>
    <tag k="website" v="https://www.tesco.hu"/>
    <tag k="payment:debit_cards" v="yes"/>
    <tag k="operator" v="Tesco Global Áruházak Zrt."/>
  </node>
  <node action="modify" changeset="99999" id="-132" lat="47.33609" lon="18.99791" timestamp="" uid="4579407" user="KAMI" version="99999">
    <tag k="name" v="Tesco"/>
    <tag k="addr:city" v="Tököl"/>
    <tag k="addr:postcode" v="2316"/>
    <tag k="addr:street" v="Hermina utca"/>
    <tag k="addr:housenumber" v="1-3"/>
    <tag k="branch" v="Tököl Hipermarket"/>
    <tag k="website" v="https://www.tesco.hu/aruhazak/aruhaz/tesco-tokol-hipermarket"/>
    <tag k="payment:cash" v="yes"/>
    <tag k="youtube" v="https://www.youtube.com/user/TescoMagyarorszag"/>
    <tag k="shop" v="supermarket"/>
    <tag k="brand" v="Tesco"/>
    <tag k="facebook" v="https://www.facebook.com/tescoaruhazak/"/>
    <tag k="website" v="https://www.tesco.hu"/>
    <tag k="payment:debit_cards" v="yes"/>
    <tag k="operator" v="Tesco Global Áruházak Zrt."/>
  </node>
  <node action="modify" changeset="1" id="4933472305" lat="47.110169" lon="20.734781" timestamp="1506337228000000000" uid="4579407" user="KAMI" version="3">
    <tag k="name" v="Tesco"/>
    <tag k="addr:city" v="Túrkeve"/>
    <tag k="addr:postcode" v="5420"/>
    <tag k="addr:street" v="Kabai út"/>
    <tag k="addr:housenumber" v="2"/>
    <tag k="branch" v="Túrkeve Szupermarket"/>
    <tag k="website" v="https://www.tesco.hu/aruhazak/aruhaz/tesco-turkeve-szupermarket"/>
    <tag k="payment:cash" v="yes"/>
    <tag k="youtube" v="https://www.youtube.com/user/TescoMagyarorszag"/>
    <tag k="shop" v="supermarket"/>
    <tag k="brand" v="Tesco"/>
    <tag k="facebook" v="https://www.facebook.com/tescoaruhazak/"/>
    <tag k="website" v="https://www.tesco.hu"/>
    <tag k="payment:debit_cards" v="yes"/>
    <tag k="operator" v="Tesco Global Áruházak Zrt."/>
  </node>
  <node action="modify" changeset="99999" id="-134" lat="47.46099" lon="19.05213" timestamp="" uid="4579407" user="KAMI" version="99999">
    <tag k="name" v="Tesco"/>
    <tag k="addr:city" v="Budapest"/>
    <tag k="addr:postcode" v="1117"/>
    <tag k="addr:street" v="Hengermalom utca"/>
    <tag k="addr:housenumber" v="19-21"/>
    <tag k="branch" v="Új Buda Center Hipermarket"/>
    <tag k="website" v="https://www.tesco.hu/aruhazak/aruhaz/tesco-uj-buda-center-hipermarket"/>
    <tag k="payment:cash" v="yes"/>
    <tag k="youtube" v="https://www.youtube.com/user/TescoMagyarorszag"/>
    <tag k="shop" v="supermarket"/>
    <tag k="brand" v="Tesco"/>
    <tag k="facebook" v="https://www.facebook.com/tescoaruhazak/"/>
    <tag k="website" v="https://www.tesco.hu"/>
    <tag k="payment:debit_cards" v="yes"/>
    <tag k="operator" v="Tesco Global Áruházak Zrt."/>
  </node>
  <node action="modify" changeset="99999" id="-135" lat="47.379696" lon="19.352202" timestamp="" uid="4579407" user="KAMI" version="99999">
    <tag k="name" v="Tesco"/>
    <tag k="addr:city" v="Üllő"/>
    <tag k="addr:postcode" v="2225"/>
    <tag k="addr:street" v="K-Sped körút"/>
    <tag k="addr:housenumber" v="2"/>
    <tag k="branch" v="Üllő Szupermarket"/>
    <tag k="website" v="https://www.tesco.hu/aruhazak/aruhaz/tesco-ullo-szupermarket"/>
    <tag k="payment:cash" v="yes"/>
    <tag k="youtube" v="https://www.youtube.com/user/TescoMagyarorszag"/>
    <tag k="shop" v="supermarket"/>
    <tag k="brand" v="Tesco"/>
    <tag k="facebook" v="https://www.facebook.com/tescoaruhazak/"/>
    <tag k="website" v="https://www.tesco.hu"/>
    <tag k="payment:debit_cards" v="yes"/>
    <tag k="operator" v="Tesco Global Áruházak Zrt."/>
  </node>
  <node action="modify" changeset="99999" id="-136" lat="47.755025" lon="19.14622" timestamp="" uid="4579407" user="KAMI" version="99999">
    <tag k="name" v="Tesco"/>
    <tag k="addr:city" v="Vác"/>
    <tag k="addr:postcode" v="2600"/>
    <tag k="addr:street" v="Deres utca"/>
    <tag k="addr:housenumber" v="2"/>
    <tag k="branch" v="Vác Hipermarket"/>
    <tag k="website" v="https://www.tesco.hu/aruhazak/aruhaz/tesco-vac-hipermarket"/>
    <tag k="payment:cash" v="yes"/>
    <tag k="youtube" v="https://www.youtube.com/user/TescoMagyarorszag"/>
    <tag k="shop" v="supermarket"/>
    <tag k="brand" v="Tesco"/>
    <tag k="facebook" v="https://www.facebook.com/tescoaruhazak/"/>
    <tag k="website" v="https://www.tesco.hu"/>
    <tag k="payment:debit_cards" v="yes"/>
    <tag k="operator" v="Tesco Global Áruházak Zrt."/>
  </node>
  <way action="modify" changeset="1" id="139564826" timestamp="1514218573000000000" uid="4579407" user="KAMI" version="3">
    <nd ref="1529883486"/>
    <nd ref="1529883484"/>
    <nd ref="1529883485"/>
    <nd ref="1529883488"/>
    <nd ref="1529883486"/>
    <tag k="name" v="Tesco"/>
    <tag k="addr:city" v="Várpalota"/>
    <tag k="addr:postcode" v="8100"/>
    <tag k="addr:street" v="Fehérvári út"/>
    <tag k="addr:housenumber" v="17"/>
    <tag k="branch" v="Várpalota Hipermarket"/>
    <tag k="website" v="https://www.tesco.hu/aruhazak/aruhaz/tesco-varpalota-hipermarket"/>
    <tag k="payment:cash" v="yes"/>
    <tag k="youtube" v="https://www.youtube.com/user/TescoMagyarorszag"/>
    <tag k="shop" v="supermarket"/>
    <tag k="brand" v="Tesco"/>
    <tag k="facebook" v="https://www.facebook.com/tescoaruhazak/"/>
    <tag k="website" v="https://www.tesco.hu"/>
    <tag k="payment:debit_cards" v="yes"/>
    <tag k="operator" v="Tesco Global Áruházak Zrt."/>
  </way>
  <way action="modify" changeset="1" id="300664504" timestamp="1514218664000000000" uid="4579407" user="KAMI" version="8">
    <nd ref="3047635303"/>
    <nd ref="3105406008"/>
    <nd ref="3047635304"/>
    <nd ref="3047635305"/>
    <nd ref="3047635306"/>
    <nd ref="3047635307"/>
    <nd ref="3047635308"/>
    <nd ref="3047635309"/>
    <nd ref="3047635310"/>
    <nd ref="3047635303"/>
    <tag k="name" v="Tesco"/>
    <tag k="addr:city" v="Vásárosnamény"/>
    <tag k="addr:postcode" v="4800"/>
    <tag k="addr:street" v="Beregszászi út"/>
    <tag k="addr:housenumber" v="1/b"/>
    <tag k="branch" v="Vásárosnamény Szupermarket"/>
    <tag k="website" v="https://www.tesco.hu/aruhazak/aruhaz/tesco-vasarosnameny-szupermarket"/>
    <tag k="payment:cash" v="yes"/>
    <tag k="youtube" v="https://www.youtube.com/user/TescoMagyarorszag"/>
    <tag k="shop" v="supermarket"/>
    <tag k="brand" v="Tesco"/>
    <tag k="facebook" v="https://www.facebook.com/tescoaruhazak/"/>
    <tag k="website" v="https://www.tesco.hu"/>
    <tag k="payment:debit_cards" v="yes"/>
    <tag k="operator" v="Tesco Global Áruházak Zrt."/>
  </way>
  <node action="modify" changeset="99999" id="-139" lat="47.10369" lon="17.93406" timestamp="" uid="4579407" user="KAMI" version="99999">
    <tag k="name" v="Tesco"/>
    <tag k="addr:city" v="Veszprém"/>
    <tag k="addr:postcode" v="8200"/>
    <tag k="addr:street" v="Külső-Kádártai út"/>
    <tag k="addr:housenumber" v="3"/>
    <tag k="branch" v="Veszprém Hipermarket"/>
    <tag k="website" v="https://www.tesco.hu/aruhazak/aruhaz/tesco-veszprem-hipermarket"/>
    <tag k="payment:cash" v="yes"/>
    <tag k="youtube" v="https://www.youtube.com/user/TescoMagyarorszag"/>
    <tag k="shop" v="supermarket"/>
    <tag k="brand" v="Tesco"/>
    <tag k="facebook" v="https://www.facebook.com/tescoaruhazak/"/>
    <tag k="website" v="https://www.tesco.hu"/>
    <tag k="payment:debit_cards" v="yes"/>
    <tag k="operator" v="Tesco Global Áruházak Zrt."/>
  </node>
  <node action="modify" changeset="99999" id="-140" lat="47.085369" lon="17.912944" timestamp="" uid="4579407" user="KAMI" version="99999">
    <tag k="name" v="Tesco"/>
    <tag k="addr:city" v="Veszprém"/>
    <tag k="addr:postcode" v="8200"/>
    <tag k="addr:street" v="Mártírok utca"/>
    <tag k="addr:housenumber" v="13"/>
    <tag k="branch" v="Veszprém Szupermarket"/>
    <tag k="website" v="https://www.tesco.hu/aruhazak/aruhaz/tesco-veszprem-szupermarket"/>
    <tag k="payment:cash" v="yes"/>
    <tag k="youtube" v="https://www.youtube.com/user/TescoMagyarorszag"/>
    <tag k="shop" v="supermarket"/>
    <tag k="brand" v="Tesco"/>
    <tag k="facebook" v="https://www.facebook.com/tescoaruhazak/"/>
    <tag k="website" v="https://www.tesco.hu"/>
    <tag k="payment:debit_cards" v="yes"/>
    <tag k="operator" v="Tesco Global Áruházak Zrt."/>
  </node>
  <node action="modify" changeset="99999" id="-141" lat="46.84427" lon="16.86112" timestamp="" uid="4579407" user="KAMI" version="99999">
    <tag k="name" v="Tesco"/>
    <tag k="addr:city" v="Zalaegerszeg"/>
    <tag k="addr:postcode" v="8900"/>
    <tag k="addr:street" v="Sport utca"/>
    <tag k="addr:housenumber" v="1"/>
    <tag k="branch" v="Zalaegerszeg Hipermarket"/>
    <tag k="website" v="https://www.tesco.hu/aruhazak/aruhaz/tesco-zalaegerszeg-hipermarket"/>
    <tag k="payment:cash" v="yes"/>
    <tag k="youtube" v="https://www.youtube.com/user/TescoMagyarorszag"/>
    <tag k="shop" v="supermarket"/>
    <tag k="brand" v="Tesco"/>
    <tag k="facebook" v="https://www.facebook.com/tescoaruhazak/"/>
    <tag k="website" v="https://www.tesco.hu"/>
    <tag k="payment:debit_cards" v="yes"/>
    <tag k="operator" v="Tesco Global Áruházak Zrt."/>
  </node>
  <node action="modify" changeset="99999" id="-142" lat="47.2647" lon="17.87792" timestamp="" uid="4579407" user="KAMI" version="99999">
    <tag k="name" v="Tesco"/>
    <tag k="addr:city" v="Zirc"/>
    <tag k="addr:postcode" v="8420"/>
    <tag k="addr:street" v="Állomás utca"/>
    <tag k="addr:housenumber" v="5"/>
    <tag k="branch" v="Zirc Szupermarket"/>
    <tag k="website" v="https://www.tesco.hu/aruhazak/aruhaz/tesco-zirc-szupermarket"/>
    <tag k="payment:cash" v="yes"/>
    <tag k="youtube" v="https://www.youtube.com/user/TescoMagyarorszag"/>
    <tag k="shop" v="supermarket"/>
    <tag k="brand" v="Tesco"/>
    <tag k="facebook" v="https://www.facebook.com/tescoaruhazak/"/>
    <tag k="website" v="https://www.tesco.hu"/>
    <tag k="payment:debit_cards" v="yes"/>
    <tag k="operator" v="Tesco Global Áruházak Zrt."/>
  </node>
</osm>
