<?xml version='1.0' encoding='UTF-8'?>
<osm generator="JOSM" version="0.6">
  <!-- OSM link: https://osm.org/node/2085348929 -->
  <!-- Original coordinates: POINT (47.64582 19.02069) -->
  <node action="modify" changeset="1" id="2085348929" lat="47.64582" lon="19.02069" timestamp="2018-03-17T16:1942Z" uid="4579407" user="KAMI" version="5">
    <tag k="brand" v="dm"/>
    <tag k="facebook" v="https://www.facebook.com/dm.Magyarorszag"/>
    <tag k="wheelchair" v="yes"/>
    <tag k="addr:postcode" v="2013"/>
    <tag k="opening_hours" v="Mo-Fr 08:00-20:00; Sa 08:00-18:00; Su 09:00-13:00; PH off"/>
    <tag k="website" v="https://www.dm.hu"/>
    <tag k="youtube" v="https://www.youtube.com/user/dmMagyarorszag"/>
    <tag k="shop" v="chemist"/>
    <tag k="addr:street" v="Huszár út"/>
    <tag k="payment:debit_cards" v="yes"/>
    <tag k="payment:cash" v="yes"/>
    <tag k="operator" v="dm Kft."/>
    <tag k="instagram" v="https://www.instagram.com/dm_magyarorszag/"/>
    <tag k="addr:housenumber" v="25"/>
    <tag k="addr:city" v="Pomáz"/>
    <tag k="name" v="dm"/>
    <tag k="source" v="website"/>
  </node>
  <!-- Original coordinates: POINT (47.51362 19.0595) -->
  <node action="modify" changeset="99999" id="-2" lat="47.51362" lon="19.0595" timestamp="" uid="4579407" user="KAMI" version="99999">
    <tag k="brand" v="dm"/>
    <tag k="youtube" v="https://www.youtube.com/user/dmMagyarorszag"/>
    <tag k="facebook" v="https://www.facebook.com/dm.Magyarorszag"/>
    <tag k="shop" v="chemist"/>
    <tag k="payment:debit_cards" v="yes"/>
    <tag k="payment:cash" v="yes"/>
    <tag k="operator" v="dm Kft."/>
    <tag k="addr:postcode" v="1062"/>
    <tag k="instagram" v="https://www.instagram.com/dm_magyarorszag/"/>
    <tag k="website" v="https://www.dm.hu"/>
    <tag k="addr:housenumber" v="1-3"/>
    <tag k="addr:city" v="Budapest"/>
    <tag k="name" v="dm"/>
    <tag k="source" v="website"/>
    <tag k="addr:street" v="Váci út"/>
  </node>
  <!-- OSM link: https://osm.org/node/2990690415 -->
  <!-- Original coordinates: POINT (47.37922 18.92509) -->
  <node action="modify" changeset="1" id="2990690415" lat="47.37922" lon="18.92509" timestamp="2016-04-09T12:2855Z" uid="4579407" user="KAMI" version="3">
    <tag k="brand" v="dm"/>
    <tag k="facebook" v="https://www.facebook.com/dm.Magyarorszag"/>
    <tag k="addr:postcode" v="2030"/>
    <tag k="website" v="https://www.dm.hu"/>
    <tag k="youtube" v="https://www.youtube.com/user/dmMagyarorszag"/>
    <tag k="shop" v="chemist"/>
    <tag k="addr:street" v="Budai út"/>
    <tag k="payment:debit_cards" v="yes"/>
    <tag k="payment:cash" v="yes"/>
    <tag k="operator" v="dm Kft."/>
    <tag k="instagram" v="https://www.instagram.com/dm_magyarorszag/"/>
    <tag k="addr:housenumber" v="13"/>
    <tag k="addr:city" v="Érd"/>
    <tag k="name" v="dm"/>
    <tag k="source" v="website"/>
  </node>
  <!-- OSM link: https://osm.org/node/2694483503 -->
  <!-- Original coordinates: POINT (47.50867 19.05517) -->
  <node action="modify" changeset="1" id="2694483503" lat="47.50867" lon="19.05517" timestamp="2016-07-08T10:3904Z" uid="4579407" user="KAMI" version="3">
    <tag k="brand" v="dm"/>
    <tag k="facebook" v="https://www.facebook.com/dm.Magyarorszag"/>
    <tag k="entrance" v="main"/>
    <tag k="addr:postcode" v="1065"/>
    <tag k="website" v="https://www.dm.hu"/>
    <tag k="youtube" v="https://www.youtube.com/user/dmMagyarorszag"/>
    <tag k="shop" v="chemist"/>
    <tag k="addr:street" v="Bajcsy Zsilinszky út"/>
    <tag k="payment:debit_cards" v="yes"/>
    <tag k="payment:cash" v="yes"/>
    <tag k="operator" v="dm Kft."/>
    <tag k="instagram" v="https://www.instagram.com/dm_magyarorszag/"/>
    <tag k="addr:housenumber" v="59"/>
    <tag k="addr:city" v="Budapest"/>
    <tag k="name" v="dm"/>
    <tag k="source" v="website"/>
  </node>
  <!-- OSM link: https://osm.org/node/1985549495 -->
  <!-- Original coordinates: POINT (47.50797 19.05926) -->
  <node action="modify" changeset="1" id="1985549495" lat="47.50797" lon="19.05926" timestamp="2017-08-31T07:1132Z" uid="4579407" user="KAMI" version="8">
    <tag k="brand" v="dm"/>
    <tag k="youtube" v="https://www.youtube.com/user/dmMagyarorszag"/>
    <tag k="facebook" v="https://www.facebook.com/dm.Magyarorszag"/>
    <tag k="payment:debit_cards" v="yes"/>
    <tag k="wheelchair" v="yes"/>
    <tag k="operator" v="dm Kft."/>
    <tag k="entrance" v="main"/>
    <tag k="name" v="dm"/>
    <tag k="addr:postcode" v="1066"/>
    <tag k="opening_hours" v="Mo-Fr 08:00-19:00; Sa 09:00-14:00"/>
    <tag k="instagram" v="https://www.instagram.com/dm_magyarorszag/"/>
    <tag k="website" v="https://www.dm.hu"/>
    <tag k="payment:cash" v="yes"/>
    <tag k="addr:housenumber" v="46"/>
    <tag k="addr:city" v="Budapest"/>
    <tag k="shop" v="chemist"/>
    <tag k="source" v="website"/>
    <tag k="addr:street" v="Teréz körút"/>
  </node>
  <!-- OSM link: https://osm.org/node/2703090505 -->
  <!-- Original coordinates: POINT (47.48868 19.0603) -->
  <node action="modify" changeset="1" id="2703090505" lat="47.48868" lon="19.0603" timestamp="2016-04-29T08:3652Z" uid="4579407" user="KAMI" version="5">
    <tag k="brand" v="dm"/>
    <tag k="facebook" v="https://www.facebook.com/dm.Magyarorszag"/>
    <tag k="wheelchair" v="no"/>
    <tag k="addr:postcode" v="1053"/>
    <tag k="opening_hours" v="Mo-Fr 08:00-19:30; Sa 08:00-16:00"/>
    <tag k="website" v="https://www.dm.hu"/>
    <tag k="youtube" v="https://www.youtube.com/user/dmMagyarorszag"/>
    <tag k="shop" v="chemist"/>
    <tag k="addr:street" v="Királyi Pál utca"/>
    <tag k="payment:debit_cards" v="yes"/>
    <tag k="payment:cash" v="yes"/>
    <tag k="operator" v="dm Kft."/>
    <tag k="instagram" v="https://www.instagram.com/dm_magyarorszag/"/>
    <tag k="addr:housenumber" v="20"/>
    <tag k="addr:city" v="Budapest"/>
    <tag k="name" v="dm"/>
    <tag k="source" v="website"/>
  </node>
  <!-- OSM link: https://osm.org/node/3988399112 -->
  <!-- Original coordinates: POINT (47.51227 19.05057) -->
  <node action="modify" changeset="1" id="3988399112" lat="47.51227" lon="19.05057" timestamp="2016-02-04T17:1109Z" uid="4579407" user="KAMI" version="1">
    <tag k="brand" v="dm"/>
    <tag k="facebook" v="https://www.facebook.com/dm.Magyarorszag"/>
    <tag k="phone" v="+36 1 3540232"/>
    <tag k="addr:postcode" v="1055"/>
    <tag k="opening_hours" v="Mo-Fr 08:00-20:00; Sa 08:00-18:00"/>
    <tag k="website" v="https://www.dm.hu"/>
    <tag k="youtube" v="https://www.youtube.com/user/dmMagyarorszag"/>
    <tag k="shop" v="chemist"/>
    <tag k="addr:street" v="Szent István körút"/>
    <tag k="payment:debit_cards" v="yes"/>
    <tag k="payment:cash" v="yes"/>
    <tag k="operator" v="dm Kft."/>
    <tag k="instagram" v="https://www.instagram.com/dm_magyarorszag/"/>
    <tag k="addr:housenumber" v="11"/>
    <tag k="addr:city" v="Budapest"/>
    <tag k="name" v="dm"/>
    <tag k="source" v="website"/>
  </node>
  <!-- OSM link: https://osm.org/node/2406418904 -->
  <!-- Original coordinates: POINT (47.50009 19.05993) -->
  <node action="modify" changeset="1" id="2406418904" lat="47.50009" lon="19.05993" timestamp="2015-08-26T08:5504Z" uid="4579407" user="KAMI" version="4">
    <tag k="brand" v="dm"/>
    <tag k="youtube" v="https://www.youtube.com/user/dmMagyarorszag"/>
    <tag k="facebook" v="https://www.facebook.com/dm.Magyarorszag"/>
    <tag k="payment:debit_cards" v="yes"/>
    <tag k="wheelchair" v="no"/>
    <tag k="operator" v="dm Kft."/>
    <tag k="name" v="dm"/>
    <tag k="addr:postcode" v="1061"/>
    <tag k="opening_hours" v="Mo-Fr 08:00-20:00; Sa 09:00-15:00"/>
    <tag k="instagram" v="https://www.instagram.com/dm_magyarorszag/"/>
    <tag k="website" v="https://www.dm.hu"/>
    <tag k="payment:cash" v="yes"/>
    <tag k="addr:housenumber" v="34"/>
    <tag k="addr:country" v="HU"/>
    <tag k="addr:city" v="Budapest"/>
    <tag k="shop" v="chemist"/>
    <tag k="source" v="website"/>
    <tag k="addr:street" v="Király utca"/>
  </node>
  <!-- OSM link: https://osm.org/node/3152350961 -->
  <!-- Original coordinates: POINT (47.50338 19.06081) -->
  <node action="modify" changeset="1" id="3152350961" lat="47.50338" lon="19.06081" timestamp="2015-03-15T09:2754Z" uid="4579407" user="KAMI" version="2">
    <tag k="brand" v="dm"/>
    <tag k="facebook" v="https://www.facebook.com/dm.Magyarorszag"/>
    <tag k="wheelchair" v="no"/>
    <tag k="addr:postcode" v="1066"/>
    <tag k="website" v="https://www.dm.hu"/>
    <tag k="youtube" v="https://www.youtube.com/user/dmMagyarorszag"/>
    <tag k="shop" v="chemist"/>
    <tag k="addr:street" v="Andrássy utca"/>
    <tag k="payment:debit_cards" v="yes"/>
    <tag k="payment:cash" v="yes"/>
    <tag k="operator" v="dm Kft."/>
    <tag k="instagram" v="https://www.instagram.com/dm_magyarorszag/"/>
    <tag k="addr:housenumber" v="35"/>
    <tag k="addr:city" v="Budapest"/>
    <tag k="name" v="dm"/>
    <tag k="source" v="website"/>
  </node>
  <!-- Original coordinates: POINT (47.50616 19.03808) -->
  <node action="modify" changeset="99999" id="-10" lat="47.50616" lon="19.03808" timestamp="" uid="4579407" user="KAMI" version="99999">
    <tag k="brand" v="dm"/>
    <tag k="youtube" v="https://www.youtube.com/user/dmMagyarorszag"/>
    <tag k="facebook" v="https://www.facebook.com/dm.Magyarorszag"/>
    <tag k="shop" v="chemist"/>
    <tag k="payment:debit_cards" v="yes"/>
    <tag k="payment:cash" v="yes"/>
    <tag k="operator" v="dm Kft."/>
    <tag k="addr:postcode" v="1011"/>
    <tag k="instagram" v="https://www.instagram.com/dm_magyarorszag/"/>
    <tag k="website" v="https://www.dm.hu"/>
    <tag k="addr:housenumber" v="5-6"/>
    <tag k="addr:city" v="Budapest"/>
    <tag k="name" v="dm"/>
    <tag k="source" v="website"/>
    <tag k="addr:street" v="Batthyány tér"/>
  </node>
  <!-- OSM link: https://osm.org/node/2505409780 -->
  <!-- Original coordinates: POINT (47.49998 19.02562) -->
  <node action="modify" changeset="1" id="2505409780" lat="47.49998" lon="19.02562" timestamp="2017-01-30T11:4103Z" uid="4579407" user="KAMI" version="4">
    <tag k="brand" v="dm"/>
    <tag k="facebook" v="https://www.facebook.com/dm.Magyarorszag"/>
    <tag k="wheelchair" v="yes"/>
    <tag k="addr:postcode" v="1012"/>
    <tag k="website" v="https://www.dm.hu"/>
    <tag k="youtube" v="https://www.youtube.com/user/dmMagyarorszag"/>
    <tag k="shop" v="chemist"/>
    <tag k="addr:street" v="Krisztina körút"/>
    <tag k="payment:debit_cards" v="yes"/>
    <tag k="payment:cash" v="yes"/>
    <tag k="operator" v="dm Kft."/>
    <tag k="instagram" v="https://www.instagram.com/dm_magyarorszag/"/>
    <tag k="addr:housenumber" v="39/b"/>
    <tag k="addr:city" v="Budapest"/>
    <tag k="name" v="dm"/>
    <tag k="source" v="website"/>
  </node>
  <!-- OSM link: https://osm.org/node/5272001914 -->
  <!-- Original coordinates: POINT (47.4967653 19.0317985) -->
  <node action="modify" changeset="1" id="5272001914" lat="47.4967653" lon="19.0317985" timestamp="2018-01-09T16:0116Z" uid="4579407" user="KAMI" version="2">
    <tag k="brand" v="dm"/>
    <tag k="facebook" v="https://www.facebook.com/dm.Magyarorszag"/>
    <tag k="addr:postcode" v="1013"/>
    <tag k="opening_hours" v="Mo-Fr 07:00-19:00; Sa 09:00-17:00"/>
    <tag k="website" v="https://www.dm.hu"/>
    <tag k="ref:dm" v="363"/>
    <tag k="youtube" v="https://www.youtube.com/user/dmMagyarorszag"/>
    <tag k="shop" v="chemist"/>
    <tag k="addr:street" v="Krisztina krt."/>
    <tag k="payment:debit_cards" v="yes"/>
    <tag k="payment:cash" v="yes"/>
    <tag k="operator" v="dm Kft."/>
    <tag k="instagram" v="https://www.instagram.com/dm_magyarorszag/"/>
    <tag k="addr:housenumber" v="65-67"/>
    <tag k="addr:city" v="Budapest"/>
    <tag k="name" v="dm"/>
    <tag k="source" v="website"/>
  </node>
  <!-- OSM link: https://osm.org/node/1962347687 -->
  <!-- Original coordinates: POINT (47.53768 18.96638) -->
  <node action="modify" changeset="1" id="1962347687" lat="47.53768" lon="18.96638" timestamp="2015-05-10T20:5956Z" uid="4579407" user="KAMI" version="6">
    <tag k="brand" v="dm"/>
    <tag k="facebook" v="https://www.facebook.com/dm.Magyarorszag"/>
    <tag k="wheelchair" v="yes"/>
    <tag k="addr:postcode" v="1021"/>
    <tag k="opening_hours" v="Mo-Fr 08:00-21:00; Sa 08:00-20:00"/>
    <tag k="website" v="https://www.dm.hu"/>
    <tag k="youtube" v="https://www.youtube.com/user/dmMagyarorszag"/>
    <tag k="shop" v="chemist"/>
    <tag k="addr:street" v="Hűvösvölgyi út"/>
    <tag k="payment:debit_cards" v="yes"/>
    <tag k="payment:cash" v="yes"/>
    <tag k="operator" v="dm Kft."/>
    <tag k="instagram" v="https://www.instagram.com/dm_magyarorszag/"/>
    <tag k="addr:housenumber" v="138"/>
    <tag k="addr:city" v="Budapest"/>
    <tag k="name" v="dm"/>
    <tag k="source" v="website"/>
  </node>
  <!-- OSM link: https://osm.org/node/2628339258 -->
  <!-- Original coordinates: POINT (47.52717 19.03827) -->
  <node action="modify" changeset="1" id="2628339258" lat="47.52717" lon="19.03827" timestamp="2017-08-22T18:3202Z" uid="4579407" user="KAMI" version="6">
    <tag k="brand" v="dm"/>
    <tag k="facebook" v="https://www.facebook.com/dm.Magyarorszag"/>
    <tag k="wheelchair" v="yes"/>
    <tag k="addr:postcode" v="1023"/>
    <tag k="website" v="https://www.dm.hu"/>
    <tag k="youtube" v="https://www.youtube.com/user/dmMagyarorszag"/>
    <tag k="shop" v="chemist"/>
    <tag k="addr:street" v="Bécsi út"/>
    <tag k="payment:debit_cards" v="yes"/>
    <tag k="payment:cash" v="yes"/>
    <tag k="operator" v="dm Kft."/>
    <tag k="instagram" v="https://www.instagram.com/dm_magyarorszag/"/>
    <tag k="addr:housenumber" v="33-35"/>
    <tag k="addr:city" v="Budapest"/>
    <tag k="name" v="dm"/>
    <tag k="source" v="website"/>
  </node>
  <!-- Original coordinates: POINT (47.5089792 19.0266523) -->
  <node action="modify" changeset="99999" id="-15" lat="47.5089792" lon="19.0266523" timestamp="" uid="4579407" user="KAMI" version="99999">
    <tag k="brand" v="dm"/>
    <tag k="youtube" v="https://www.youtube.com/user/dmMagyarorszag"/>
    <tag k="facebook" v="https://www.facebook.com/dm.Magyarorszag"/>
    <tag k="shop" v="chemist"/>
    <tag k="payment:debit_cards" v="yes"/>
    <tag k="payment:cash" v="yes"/>
    <tag k="operator" v="dm Kft."/>
    <tag k="addr:postcode" v="1024"/>
    <tag k="instagram" v="https://www.instagram.com/dm_magyarorszag/"/>
    <tag k="website" v="https://www.dm.hu"/>
    <tag k="addr:housenumber" v="1-5"/>
    <tag k="addr:city" v="Budapest"/>
    <tag k="name" v="dm"/>
    <tag k="source" v="website"/>
    <tag k="addr:street" v="Lövőház utca"/>
  </node>
  <!-- Original coordinates: POINT (47.5290574 19.005256) -->
  <node action="modify" changeset="99999" id="-16" lat="47.5290574" lon="19.005256" timestamp="" uid="4579407" user="KAMI" version="99999">
    <tag k="brand" v="dm"/>
    <tag k="youtube" v="https://www.youtube.com/user/dmMagyarorszag"/>
    <tag k="facebook" v="https://www.facebook.com/dm.Magyarorszag"/>
    <tag k="shop" v="chemist"/>
    <tag k="payment:debit_cards" v="yes"/>
    <tag k="payment:cash" v="yes"/>
    <tag k="operator" v="dm Kft."/>
    <tag k="addr:postcode" v="1025"/>
    <tag k="instagram" v="https://www.instagram.com/dm_magyarorszag/"/>
    <tag k="website" v="https://www.dm.hu"/>
    <tag k="addr:housenumber" v="87-91"/>
    <tag k="addr:city" v="Budapest"/>
    <tag k="name" v="dm"/>
    <tag k="source" v="website"/>
    <tag k="addr:street" v="Törökvész út"/>
  </node>
  <!-- Original coordinates: POINT (47.51631 18.9999) -->
  <node action="modify" changeset="99999" id="-17" lat="47.51631" lon="18.9999" timestamp="" uid="4579407" user="KAMI" version="99999">
    <tag k="brand" v="dm"/>
    <tag k="youtube" v="https://www.youtube.com/user/dmMagyarorszag"/>
    <tag k="facebook" v="https://www.facebook.com/dm.Magyarorszag"/>
    <tag k="shop" v="chemist"/>
    <tag k="payment:debit_cards" v="yes"/>
    <tag k="payment:cash" v="yes"/>
    <tag k="operator" v="dm Kft."/>
    <tag k="addr:postcode" v="1026"/>
    <tag k="instagram" v="https://www.instagram.com/dm_magyarorszag/"/>
    <tag k="website" v="https://www.dm.hu"/>
    <tag k="addr:housenumber" v="2"/>
    <tag k="addr:city" v="Budapest"/>
    <tag k="name" v="dm"/>
    <tag k="source" v="website"/>
    <tag k="addr:street" v="Pázsit u."/>
  </node>
  <!-- Original coordinates: POINT (47.5225816 19.0147754) -->
  <node action="modify" changeset="99999" id="-18" lat="47.5225816" lon="19.0147754" timestamp="" uid="4579407" user="KAMI" version="99999">
    <tag k="brand" v="dm"/>
    <tag k="youtube" v="https://www.youtube.com/user/dmMagyarorszag"/>
    <tag k="facebook" v="https://www.facebook.com/dm.Magyarorszag"/>
    <tag k="shop" v="chemist"/>
    <tag k="payment:debit_cards" v="yes"/>
    <tag k="payment:cash" v="yes"/>
    <tag k="operator" v="dm Kft."/>
    <tag k="addr:postcode" v="1026"/>
    <tag k="instagram" v="https://www.instagram.com/dm_magyarorszag/"/>
    <tag k="website" v="https://www.dm.hu"/>
    <tag k="addr:housenumber" v="74-78"/>
    <tag k="addr:city" v="Budapest"/>
    <tag k="name" v="dm"/>
    <tag k="source" v="website"/>
    <tag k="addr:street" v="Gábor Áron utca"/>
  </node>
  <!-- Original coordinates: POINT (47.5109 19.03223) -->
  <node action="modify" changeset="99999" id="-19" lat="47.5109" lon="19.03223" timestamp="" uid="4579407" user="KAMI" version="99999">
    <tag k="brand" v="dm"/>
    <tag k="youtube" v="https://www.youtube.com/user/dmMagyarorszag"/>
    <tag k="facebook" v="https://www.facebook.com/dm.Magyarorszag"/>
    <tag k="shop" v="chemist"/>
    <tag k="payment:debit_cards" v="yes"/>
    <tag k="payment:cash" v="yes"/>
    <tag k="operator" v="dm Kft."/>
    <tag k="addr:postcode" v="1027"/>
    <tag k="instagram" v="https://www.instagram.com/dm_magyarorszag/"/>
    <tag k="website" v="https://www.dm.hu"/>
    <tag k="addr:housenumber" v="50-52"/>
    <tag k="addr:city" v="Budapest"/>
    <tag k="name" v="dm"/>
    <tag k="source" v="website"/>
    <tag k="addr:street" v="Margit körút"/>
  </node>
  <!-- Original coordinates: POINT (47.5471467 19.0276188) -->
  <node action="modify" changeset="99999" id="-20" lat="47.5471467" lon="19.0276188" timestamp="" uid="4579407" user="KAMI" version="99999">
    <tag k="brand" v="dm"/>
    <tag k="youtube" v="https://www.youtube.com/user/dmMagyarorszag"/>
    <tag k="facebook" v="https://www.facebook.com/dm.Magyarorszag"/>
    <tag k="shop" v="chemist"/>
    <tag k="payment:debit_cards" v="yes"/>
    <tag k="payment:cash" v="yes"/>
    <tag k="operator" v="dm Kft."/>
    <tag k="addr:postcode" v="1037"/>
    <tag k="instagram" v="https://www.instagram.com/dm_magyarorszag/"/>
    <tag k="website" v="https://www.dm.hu"/>
    <tag k="addr:housenumber" v="154"/>
    <tag k="addr:city" v="Budapest"/>
    <tag k="name" v="dm"/>
    <tag k="source" v="website"/>
    <tag k="addr:street" v="Bécsi út"/>
  </node>
  <!-- Original coordinates: POINT (47.5438008 19.028565) -->
  <node action="modify" changeset="99999" id="-21" lat="47.5438008" lon="19.028565" timestamp="" uid="4579407" user="KAMI" version="99999">
    <tag k="brand" v="dm"/>
    <tag k="youtube" v="https://www.youtube.com/user/dmMagyarorszag"/>
    <tag k="facebook" v="https://www.facebook.com/dm.Magyarorszag"/>
    <tag k="shop" v="chemist"/>
    <tag k="payment:debit_cards" v="yes"/>
    <tag k="payment:cash" v="yes"/>
    <tag k="operator" v="dm Kft."/>
    <tag k="addr:postcode" v="1037"/>
    <tag k="instagram" v="https://www.instagram.com/dm_magyarorszag/"/>
    <tag k="website" v="https://www.dm.hu"/>
    <tag k="addr:housenumber" v="136"/>
    <tag k="addr:city" v="Budapest"/>
    <tag k="name" v="dm"/>
    <tag k="source" v="website"/>
    <tag k="addr:street" v="Bécsi út"/>
  </node>
  <!-- OSM link: https://osm.org/node/1243010278 -->
  <!-- Original coordinates: POINT (47.59814 19.05152) -->
  <node action="modify" changeset="1" id="1243010278" lat="47.59814" lon="19.05152" timestamp="2015-03-15T09:2755Z" uid="4579407" user="KAMI" version="2">
    <tag k="brand" v="dm"/>
    <tag k="facebook" v="https://www.facebook.com/dm.Magyarorszag"/>
    <tag k="addr:postcode" v="1039"/>
    <tag k="website" v="https://www.dm.hu"/>
    <tag k="youtube" v="https://www.youtube.com/user/dmMagyarorszag"/>
    <tag k="shop" v="chemist"/>
    <tag k="addr:street" v="Csobánka tér"/>
    <tag k="payment:debit_cards" v="yes"/>
    <tag k="payment:cash" v="yes"/>
    <tag k="operator" v="dm Kft."/>
    <tag k="instagram" v="https://www.instagram.com/dm_magyarorszag/"/>
    <tag k="addr:housenumber" v="1"/>
    <tag k="addr:city" v="Budapest"/>
    <tag k="name" v="dm"/>
    <tag k="source" v="website"/>
  </node>
  <!-- Original coordinates: POINT (47.5811642 19.0498929) -->
  <node action="modify" changeset="99999" id="-23" lat="47.5811642" lon="19.0498929" timestamp="" uid="4579407" user="KAMI" version="99999">
    <tag k="brand" v="dm"/>
    <tag k="youtube" v="https://www.youtube.com/user/dmMagyarorszag"/>
    <tag k="facebook" v="https://www.facebook.com/dm.Magyarorszag"/>
    <tag k="shop" v="chemist"/>
    <tag k="payment:debit_cards" v="yes"/>
    <tag k="payment:cash" v="yes"/>
    <tag k="operator" v="dm Kft."/>
    <tag k="addr:postcode" v="1039"/>
    <tag k="instagram" v="https://www.instagram.com/dm_magyarorszag/"/>
    <tag k="website" v="https://www.dm.hu"/>
    <tag k="addr:housenumber" v="36"/>
    <tag k="addr:city" v="Budapest"/>
    <tag k="name" v="dm"/>
    <tag k="source" v="website"/>
    <tag k="addr:street" v="Rákóczi út"/>
  </node>
  <!-- OSM link: https://osm.org/node/4333483893 -->
  <!-- Original coordinates: POINT (47.59827 19.0577) -->
  <node action="modify" changeset="1" id="4333483893" lat="47.59827" lon="19.0577" timestamp="2016-08-31T10:1111Z" uid="4579407" user="KAMI" version="3">
    <tag k="brand" v="dm"/>
    <tag k="facebook" v="https://www.facebook.com/dm.Magyarorszag"/>
    <tag k="addr:postcode" v="1039"/>
    <tag k="website" v="https://www.dm.hu"/>
    <tag k="addr:country" v="HU"/>
    <tag k="youtube" v="https://www.youtube.com/user/dmMagyarorszag"/>
    <tag k="shop" v="chemist"/>
    <tag k="addr:street" v="Heltai Jenő tér"/>
    <tag k="payment:debit_cards" v="yes"/>
    <tag k="payment:cash" v="yes"/>
    <tag k="operator" v="dm Kft."/>
    <tag k="instagram" v="https://www.instagram.com/dm_magyarorszag/"/>
    <tag k="addr:housenumber" v="1-3"/>
    <tag k="addr:city" v="Budapest"/>
    <tag k="name" v="dm"/>
    <tag k="source" v="website"/>
  </node>
  <!-- Original coordinates: POINT (47.5610646 19.1068556) -->
  <node action="modify" changeset="99999" id="-25" lat="47.5610646" lon="19.1068556" timestamp="" uid="4579407" user="KAMI" version="99999">
    <tag k="brand" v="dm"/>
    <tag k="youtube" v="https://www.youtube.com/user/dmMagyarorszag"/>
    <tag k="facebook" v="https://www.facebook.com/dm.Magyarorszag"/>
    <tag k="shop" v="chemist"/>
    <tag k="payment:debit_cards" v="yes"/>
    <tag k="payment:cash" v="yes"/>
    <tag k="operator" v="dm Kft."/>
    <tag k="addr:postcode" v="1042"/>
    <tag k="instagram" v="https://www.instagram.com/dm_magyarorszag/"/>
    <tag k="website" v="https://www.dm.hu"/>
    <tag k="addr:housenumber" v="183-185"/>
    <tag k="addr:city" v="Budapest"/>
    <tag k="name" v="dm"/>
    <tag k="source" v="website"/>
    <tag k="addr:street" v="Árpád út"/>
  </node>
  <!-- OSM link: https://osm.org/node/3206824819 -->
  <!-- Original coordinates: POINT (47.55732 19.10019) -->
  <node action="modify" changeset="1" id="3206824819" lat="47.55732" lon="19.10019" timestamp="2017-10-23T16:1858Z" uid="4579407" user="KAMI" version="6">
    <tag k="brand" v="dm"/>
    <tag k="facebook" v="https://www.facebook.com/dm.Magyarorszag"/>
    <tag k="wheelchair" v="yes"/>
    <tag k="phone" v="+3613990096"/>
    <tag k="addr:postcode" v="1045"/>
    <tag k="opening_hours" v="Mo-Fr 08:00-19:00; Sa 08:00-15:00"/>
    <tag k="website" v="https://www.dm.hu"/>
    <tag k="youtube" v="https://www.youtube.com/user/dmMagyarorszag"/>
    <tag k="shop" v="chemist"/>
    <tag k="addr:street" v="Rózsa utca"/>
    <tag k="payment:debit_cards" v="yes"/>
    <tag k="payment:cash" v="yes"/>
    <tag k="operator" v="dm Kft."/>
    <tag k="instagram" v="https://www.instagram.com/dm_magyarorszag/"/>
    <tag k="addr:housenumber" v="16-18"/>
    <tag k="addr:city" v="Budapest"/>
    <tag k="name" v="dm"/>
    <tag k="source" v="website"/>
  </node>
  <!-- Original coordinates: POINT (47.58048 19.1146) -->
  <node action="modify" changeset="99999" id="-27" lat="47.58048" lon="19.1146" timestamp="" uid="4579407" user="KAMI" version="99999">
    <tag k="brand" v="dm"/>
    <tag k="youtube" v="https://www.youtube.com/user/dmMagyarorszag"/>
    <tag k="facebook" v="https://www.facebook.com/dm.Magyarorszag"/>
    <tag k="shop" v="chemist"/>
    <tag k="payment:debit_cards" v="yes"/>
    <tag k="payment:cash" v="yes"/>
    <tag k="operator" v="dm Kft."/>
    <tag k="addr:postcode" v="1048"/>
    <tag k="instagram" v="https://www.instagram.com/dm_magyarorszag/"/>
    <tag k="website" v="https://www.dm.hu"/>
    <tag k="addr:housenumber" v="3"/>
    <tag k="addr:city" v="Budapest"/>
    <tag k="name" v="dm"/>
    <tag k="source" v="website"/>
    <tag k="addr:street" v="Lóverseny tér"/>
  </node>
  <!-- OSM link: https://osm.org/node/1769352314 -->
  <!-- Original coordinates: POINT (47.50251 19.05308) -->
  <node action="modify" changeset="1" id="1769352314" lat="47.50251" lon="19.05308" timestamp="2015-03-15T09:2754Z" uid="4579407" user="KAMI" version="4">
    <tag k="brand" v="dm"/>
    <tag k="youtube" v="https://www.youtube.com/user/dmMagyarorszag"/>
    <tag k="ref:vatin" v="HU11181530244"/>
    <tag k="facebook" v="https://www.facebook.com/dm.Magyarorszag"/>
    <tag k="shop" v="chemist"/>
    <tag k="payment:debit_cards" v="yes"/>
    <tag k="wheelchair" v="no"/>
    <tag k="operator" v="dm Kft."/>
    <tag k="addr:postcode" v="1051"/>
    <tag k="instagram" v="https://www.instagram.com/dm_magyarorszag/"/>
    <tag k="website" v="https://www.dm.hu"/>
    <tag k="payment:cash" v="yes"/>
    <tag k="addr:housenumber" v="30"/>
    <tag k="addr:country" v="HU"/>
    <tag k="addr:city" v="Budapest"/>
    <tag k="name" v="dm"/>
    <tag k="source" v="website"/>
    <tag k="addr:street" v="Arany János utca"/>
  </node>
  <!-- OSM link: https://osm.org/node/1932510449 -->
  <!-- Original coordinates: POINT (47.49626 19.05736) -->
  <node action="modify" changeset="1" id="1932510449" lat="47.49626" lon="19.05736" timestamp="2016-07-14T20:4840Z" uid="4579407" user="KAMI" version="9">
    <tag k="brand" v="dm"/>
    <tag k="facebook" v="https://www.facebook.com/dm.Magyarorszag"/>
    <tag k="wheelchair" v="no"/>
    <tag k="addr:postcode" v="1052"/>
    <tag k="opening_hours" v="Mo-Fr 08:00-21:00; Sa 09:00-20:00; Su 09:00-19:00"/>
    <tag k="website" v="https://www.dm.hu"/>
    <tag k="youtube" v="https://www.youtube.com/user/dmMagyarorszag"/>
    <tag k="shop" v="chemist"/>
    <tag k="addr:street" v="Károly körút"/>
    <tag k="payment:debit_cards" v="yes"/>
    <tag k="payment:cash" v="yes"/>
    <tag k="operator" v="dm Kft."/>
    <tag k="instagram" v="https://www.instagram.com/dm_magyarorszag/"/>
    <tag k="addr:housenumber" v="26"/>
    <tag k="addr:city" v="Budapest"/>
    <tag k="name" v="dm"/>
    <tag k="source" v="website"/>
  </node>
  <!-- Original coordinates: POINT (47.4936041 19.0552508) -->
  <node action="modify" changeset="99999" id="-30" lat="47.4936041" lon="19.0552508" timestamp="" uid="4579407" user="KAMI" version="99999">
    <tag k="brand" v="dm"/>
    <tag k="youtube" v="https://www.youtube.com/user/dmMagyarorszag"/>
    <tag k="facebook" v="https://www.facebook.com/dm.Magyarorszag"/>
    <tag k="shop" v="chemist"/>
    <tag k="payment:debit_cards" v="yes"/>
    <tag k="payment:cash" v="yes"/>
    <tag k="operator" v="dm Kft."/>
    <tag k="addr:postcode" v="1052"/>
    <tag k="instagram" v="https://www.instagram.com/dm_magyarorszag/"/>
    <tag k="website" v="https://www.dm.hu"/>
    <tag k="addr:housenumber" v="3"/>
    <tag k="addr:city" v="Budapest"/>
    <tag k="name" v="dm"/>
    <tag k="source" v="website"/>
    <tag k="addr:street" v="Petőfi Sándor utca"/>
  </node>
  <!-- OSM link: https://osm.org/node/2694431959 -->
  <!-- Original coordinates: POINT (47.49671 19.05386) -->
  <node action="modify" changeset="1" id="2694431959" lat="47.49671" lon="19.05386" timestamp="2015-11-04T15:1255Z" uid="4579407" user="KAMI" version="5">
    <tag k="brand" v="dm"/>
    <tag k="facebook" v="https://www.facebook.com/dm.Magyarorszag"/>
    <tag k="wheelchair" v="yes"/>
    <tag k="addr:postcode" v="1052"/>
    <tag k="website" v="https://www.dm.hu"/>
    <tag k="youtube" v="https://www.youtube.com/user/dmMagyarorszag"/>
    <tag k="shop" v="chemist"/>
    <tag k="addr:street" v="Sütő u."/>
    <tag k="payment:debit_cards" v="yes"/>
    <tag k="payment:cash" v="yes"/>
    <tag k="operator" v="dm Kft."/>
    <tag k="instagram" v="https://www.instagram.com/dm_magyarorszag/"/>
    <tag k="addr:housenumber" v="2"/>
    <tag k="addr:city" v="Budapest"/>
    <tag k="name" v="dm"/>
    <tag k="source" v="website"/>
  </node>
  <!-- Original coordinates: POINT (47.50627 19.076) -->
  <node action="modify" changeset="99999" id="-32" lat="47.50627" lon="19.076" timestamp="" uid="4579407" user="KAMI" version="99999">
    <tag k="brand" v="dm"/>
    <tag k="youtube" v="https://www.youtube.com/user/dmMagyarorszag"/>
    <tag k="facebook" v="https://www.facebook.com/dm.Magyarorszag"/>
    <tag k="shop" v="chemist"/>
    <tag k="payment:debit_cards" v="yes"/>
    <tag k="payment:cash" v="yes"/>
    <tag k="operator" v="dm Kft."/>
    <tag k="addr:postcode" v="1071"/>
    <tag k="instagram" v="https://www.instagram.com/dm_magyarorszag/"/>
    <tag k="website" v="https://www.dm.hu"/>
    <tag k="addr:housenumber" v="11-15"/>
    <tag k="addr:city" v="Budapest"/>
    <tag k="name" v="dm"/>
    <tag k="source" v="website"/>
    <tag k="addr:street" v="Damjanich utca"/>
  </node>
  <!-- Original coordinates: POINT (47.5038325 19.0853581) -->
  <node action="modify" changeset="99999" id="-33" lat="47.5038325" lon="19.0853581" timestamp="" uid="4579407" user="KAMI" version="99999">
    <tag k="brand" v="dm"/>
    <tag k="youtube" v="https://www.youtube.com/user/dmMagyarorszag"/>
    <tag k="facebook" v="https://www.facebook.com/dm.Magyarorszag"/>
    <tag k="shop" v="chemist"/>
    <tag k="payment:debit_cards" v="yes"/>
    <tag k="payment:cash" v="yes"/>
    <tag k="operator" v="dm Kft."/>
    <tag k="addr:postcode" v="1078"/>
    <tag k="instagram" v="https://www.instagram.com/dm_magyarorszag/"/>
    <tag k="website" v="https://www.dm.hu"/>
    <tag k="addr:housenumber" v="20"/>
    <tag k="addr:city" v="Budapest"/>
    <tag k="name" v="dm"/>
    <tag k="source" v="website"/>
    <tag k="addr:street" v="Garay tér"/>
  </node>
  <!-- Original coordinates: POINT (47.49576 19.0723) -->
  <node action="modify" changeset="99999" id="-34" lat="47.49576" lon="19.0723" timestamp="" uid="4579407" user="KAMI" version="99999">
    <tag k="brand" v="dm"/>
    <tag k="youtube" v="https://www.youtube.com/user/dmMagyarorszag"/>
    <tag k="facebook" v="https://www.facebook.com/dm.Magyarorszag"/>
    <tag k="shop" v="chemist"/>
    <tag k="payment:debit_cards" v="yes"/>
    <tag k="payment:cash" v="yes"/>
    <tag k="operator" v="dm Kft."/>
    <tag k="addr:postcode" v="1081"/>
    <tag k="instagram" v="https://www.instagram.com/dm_magyarorszag/"/>
    <tag k="website" v="https://www.dm.hu"/>
    <tag k="addr:housenumber" v="13"/>
    <tag k="addr:city" v="Budapest"/>
    <tag k="name" v="dm"/>
    <tag k="source" v="website"/>
    <tag k="addr:street" v="Népszínház utca"/>
  </node>
  <!-- Original coordinates: POINT (47.4862591 19.0738342) -->
  <node action="modify" changeset="99999" id="-35" lat="47.4862591" lon="19.0738342" timestamp="" uid="4579407" user="KAMI" version="99999">
    <tag k="brand" v="dm"/>
    <tag k="youtube" v="https://www.youtube.com/user/dmMagyarorszag"/>
    <tag k="facebook" v="https://www.facebook.com/dm.Magyarorszag"/>
    <tag k="shop" v="chemist"/>
    <tag k="payment:debit_cards" v="yes"/>
    <tag k="payment:cash" v="yes"/>
    <tag k="operator" v="dm Kft."/>
    <tag k="addr:postcode" v="1082"/>
    <tag k="instagram" v="https://www.instagram.com/dm_magyarorszag/"/>
    <tag k="website" v="https://www.dm.hu"/>
    <tag k="addr:housenumber" v="32-38"/>
    <tag k="addr:city" v="Budapest"/>
    <tag k="name" v="dm"/>
    <tag k="source" v="website"/>
    <tag k="addr:street" v="Kisfaludy u."/>
  </node>
  <!-- Original coordinates: POINT (47.48916 19.08041) -->
  <node action="modify" changeset="99999" id="-36" lat="47.48916" lon="19.08041" timestamp="" uid="4579407" user="KAMI" version="99999">
    <tag k="brand" v="dm"/>
    <tag k="youtube" v="https://www.youtube.com/user/dmMagyarorszag"/>
    <tag k="facebook" v="https://www.facebook.com/dm.Magyarorszag"/>
    <tag k="shop" v="chemist"/>
    <tag k="payment:debit_cards" v="yes"/>
    <tag k="payment:cash" v="yes"/>
    <tag k="operator" v="dm Kft."/>
    <tag k="addr:postcode" v="1082"/>
    <tag k="instagram" v="https://www.instagram.com/dm_magyarorszag/"/>
    <tag k="website" v="https://www.dm.hu"/>
    <tag k="addr:housenumber" v="98"/>
    <tag k="addr:city" v="Budapest"/>
    <tag k="name" v="dm"/>
    <tag k="source" v="website"/>
    <tag k="addr:street" v="Baross utca"/>
  </node>
  <!-- OSM link: https://osm.org/node/3617062467 -->
  <!-- Original coordinates: POINT (47.49047 19.07091) -->
  <node action="modify" changeset="1" id="3617062467" lat="47.49047" lon="19.07091" timestamp="2017-03-20T13:5110Z" uid="4579407" user="KAMI" version="2">
    <tag k="brand" v="dm"/>
    <tag k="facebook" v="https://www.facebook.com/dm.Magyarorszag"/>
    <tag k="wheelchair" v="no"/>
    <tag k="addr:postcode" v="1085"/>
    <tag k="opening_hours" v="Mo-Fr 08:00-20:00; Sa 09:00-18:00"/>
    <tag k="website" v="https://www.dm.hu"/>
    <tag k="youtube" v="https://www.youtube.com/user/dmMagyarorszag"/>
    <tag k="shop" v="chemist"/>
    <tag k="level" v="0"/>
    <tag k="addr:street" v="József körút"/>
    <tag k="payment:debit_cards" v="yes"/>
    <tag k="payment:cash" v="yes"/>
    <tag k="operator" v="dm Kft."/>
    <tag k="instagram" v="https://www.instagram.com/dm_magyarorszag/"/>
    <tag k="addr:housenumber" v="46"/>
    <tag k="addr:city" v="Budapest"/>
    <tag k="name" v="dm"/>
    <tag k="source" v="website"/>
  </node>
  <!-- Original coordinates: POINT (47.498083 19.093535) -->
  <node action="modify" changeset="99999" id="-38" lat="47.498083" lon="19.093535" timestamp="" uid="4579407" user="KAMI" version="99999">
    <tag k="brand" v="dm"/>
    <tag k="youtube" v="https://www.youtube.com/user/dmMagyarorszag"/>
    <tag k="facebook" v="https://www.facebook.com/dm.Magyarorszag"/>
    <tag k="shop" v="chemist"/>
    <tag k="payment:debit_cards" v="yes"/>
    <tag k="payment:cash" v="yes"/>
    <tag k="operator" v="dm Kft."/>
    <tag k="addr:postcode" v="1087"/>
    <tag k="instagram" v="https://www.instagram.com/dm_magyarorszag/"/>
    <tag k="website" v="https://www.dm.hu"/>
    <tag k="addr:housenumber" v="9"/>
    <tag k="addr:city" v="Budapest"/>
    <tag k="name" v="dm"/>
    <tag k="source" v="website"/>
    <tag k="addr:street" v="Kerepesi út"/>
  </node>
  <!-- OSM link: https://osm.org/node/1513116365 -->
  <!-- Original coordinates: POINT (47.48135 19.06757) -->
  <node action="modify" changeset="1" id="1513116365" lat="47.48135" lon="19.06757" timestamp="2018-02-04T11:4022Z" uid="4579407" user="KAMI" version="7">
    <tag k="brand" v="dm"/>
    <tag k="facebook" v="https://www.facebook.com/dm.Magyarorszag"/>
    <tag k="wheelchair" v="yes"/>
    <tag k="addr:postcode" v="1092"/>
    <tag k="opening_hours" v="Mo-Fr 08:00-19:00; Sa 09:00-14:00"/>
    <tag k="website" v="https://www.dm.hu"/>
    <tag k="youtube" v="https://www.youtube.com/user/dmMagyarorszag"/>
    <tag k="shop" v="chemist"/>
    <tag k="addr:street" v="Ferenc körút"/>
    <tag k="payment:debit_cards" v="yes"/>
    <tag k="payment:cash" v="yes"/>
    <tag k="operator" v="dm Kft."/>
    <tag k="instagram" v="https://www.instagram.com/dm_magyarorszag/"/>
    <tag k="addr:housenumber" v="2-4"/>
    <tag k="addr:city" v="Budapest"/>
    <tag k="name" v="dm"/>
    <tag k="source" v="website"/>
  </node>
  <!-- OSM link: https://osm.org/node/1518706812 -->
  <!-- Original coordinates: POINT (47.47913 19.073) -->
  <node action="modify" changeset="1" id="1518706812" lat="47.47913" lon="19.073" timestamp="2018-05-10T11:5209Z" uid="4579407" user="KAMI" version="8">
    <tag k="brand" v="dm"/>
    <tag k="phone" v="+36304014650"/>
    <tag k="youtube" v="https://www.youtube.com/user/dmMagyarorszag"/>
    <tag k="facebook" v="https://www.facebook.com/dm.Magyarorszag"/>
    <tag k="payment:debit_cards" v="yes"/>
    <tag k="wheelchair" v="yes"/>
    <tag k="operator" v="dm Kft."/>
    <tag k="name" v="dm"/>
    <tag k="addr:postcode" v="1095"/>
    <tag k="opening_hours" v="Mo-Fr 08:00-20:00; Sa 08:00-18:00"/>
    <tag k="instagram" v="https://www.instagram.com/dm_magyarorszag/"/>
    <tag k="website" v="https://www.dm.hu"/>
    <tag k="payment:cash" v="yes"/>
    <tag k="addr:housenumber" v="40-44"/>
    <tag k="addr:city" v="Budapest"/>
    <tag k="shop" v="chemist"/>
    <tag k="source" v="website"/>
    <tag k="addr:street" v="Mester utca"/>
  </node>
  <!-- Original coordinates: POINT (47.453767 19.0885113) -->
  <node action="modify" changeset="99999" id="-41" lat="47.453767" lon="19.0885113" timestamp="" uid="4579407" user="KAMI" version="99999">
    <tag k="brand" v="dm"/>
    <tag k="youtube" v="https://www.youtube.com/user/dmMagyarorszag"/>
    <tag k="facebook" v="https://www.facebook.com/dm.Magyarorszag"/>
    <tag k="shop" v="chemist"/>
    <tag k="payment:debit_cards" v="yes"/>
    <tag k="payment:cash" v="yes"/>
    <tag k="operator" v="dm Kft."/>
    <tag k="addr:postcode" v="1097"/>
    <tag k="instagram" v="https://www.instagram.com/dm_magyarorszag/"/>
    <tag k="website" v="https://www.dm.hu"/>
    <tag k="addr:housenumber" v="138-142"/>
    <tag k="addr:city" v="Budapest"/>
    <tag k="name" v="dm"/>
    <tag k="source" v="website"/>
    <tag k="addr:street" v="Soroksári út"/>
  </node>
  <!-- Original coordinates: POINT (47.4701036 19.0846317) -->
  <node action="modify" changeset="99999" id="-42" lat="47.4701036" lon="19.0846317" timestamp="" uid="4579407" user="KAMI" version="99999">
    <tag k="brand" v="dm"/>
    <tag k="youtube" v="https://www.youtube.com/user/dmMagyarorszag"/>
    <tag k="facebook" v="https://www.facebook.com/dm.Magyarorszag"/>
    <tag k="shop" v="chemist"/>
    <tag k="payment:debit_cards" v="yes"/>
    <tag k="payment:cash" v="yes"/>
    <tag k="operator" v="dm Kft."/>
    <tag k="addr:postcode" v="1097"/>
    <tag k="instagram" v="https://www.instagram.com/dm_magyarorszag/"/>
    <tag k="website" v="https://www.dm.hu"/>
    <tag k="addr:housenumber" v="12-14"/>
    <tag k="addr:city" v="Budapest"/>
    <tag k="name" v="dm"/>
    <tag k="source" v="website"/>
    <tag k="addr:street" v="Könyves Kálmán körút"/>
  </node>
  <!-- Original coordinates: POINT (47.46223 19.11476) -->
  <node action="modify" changeset="99999" id="-43" lat="47.46223" lon="19.11476" timestamp="" uid="4579407" user="KAMI" version="99999">
    <tag k="brand" v="dm"/>
    <tag k="youtube" v="https://www.youtube.com/user/dmMagyarorszag"/>
    <tag k="facebook" v="https://www.facebook.com/dm.Magyarorszag"/>
    <tag k="shop" v="chemist"/>
    <tag k="payment:debit_cards" v="yes"/>
    <tag k="payment:cash" v="yes"/>
    <tag k="operator" v="dm Kft."/>
    <tag k="addr:postcode" v="1098"/>
    <tag k="instagram" v="https://www.instagram.com/dm_magyarorszag/"/>
    <tag k="website" v="https://www.dm.hu"/>
    <tag k="addr:housenumber" v="7"/>
    <tag k="addr:city" v="Budapest"/>
    <tag k="name" v="dm"/>
    <tag k="source" v="website"/>
    <tag k="addr:street" v="Napfény utca"/>
  </node>
  <!-- Original coordinates: POINT (47.48415 19.12839) -->
  <node action="modify" changeset="99999" id="-44" lat="47.48415" lon="19.12839" timestamp="" uid="4579407" user="KAMI" version="99999">
    <tag k="brand" v="dm"/>
    <tag k="youtube" v="https://www.youtube.com/user/dmMagyarorszag"/>
    <tag k="facebook" v="https://www.facebook.com/dm.Magyarorszag"/>
    <tag k="shop" v="chemist"/>
    <tag k="payment:debit_cards" v="yes"/>
    <tag k="payment:cash" v="yes"/>
    <tag k="operator" v="dm Kft."/>
    <tag k="addr:postcode" v="1102"/>
    <tag k="instagram" v="https://www.instagram.com/dm_magyarorszag/"/>
    <tag k="website" v="https://www.dm.hu"/>
    <tag k="addr:housenumber" v="5"/>
    <tag k="addr:city" v="Budapest"/>
    <tag k="name" v="dm"/>
    <tag k="source" v="website"/>
    <tag k="addr:street" v="Liget tér"/>
  </node>
  <!-- OSM link: https://osm.org/node/2579720784 -->
  <!-- Original coordinates: POINT (47.46663 19.15753) -->
  <node action="modify" changeset="1" id="2579720784" lat="47.46663" lon="19.15753" timestamp="2015-12-01T18:1551Z" uid="4579407" user="KAMI" version="4">
    <tag k="brand" v="dm"/>
    <tag k="facebook" v="https://www.facebook.com/dm.Magyarorszag"/>
    <tag k="wheelchair" v="yes"/>
    <tag k="entrance" v="yes"/>
    <tag k="addr:postcode" v="1103"/>
    <tag k="website" v="https://www.dm.hu"/>
    <tag k="youtube" v="https://www.youtube.com/user/dmMagyarorszag"/>
    <tag k="shop" v="chemist"/>
    <tag k="addr:street" v="Gyömrői út"/>
    <tag k="payment:debit_cards" v="yes"/>
    <tag k="payment:cash" v="yes"/>
    <tag k="operator" v="dm Kft."/>
    <tag k="instagram" v="https://www.instagram.com/dm_magyarorszag/"/>
    <tag k="addr:housenumber" v="99"/>
    <tag k="addr:city" v="Budapest"/>
    <tag k="name" v="dm"/>
    <tag k="source" v="website"/>
  </node>
  <!-- OSM link: https://osm.org/node/2454567864 -->
  <!-- Original coordinates: POINT (47.50369 19.15153) -->
  <node action="modify" changeset="1" id="2454567864" lat="47.50369" lon="19.15153" timestamp="2017-09-02T05:1836Z" uid="4579407" user="KAMI" version="3">
    <tag k="brand" v="dm"/>
    <tag k="facebook" v="https://www.facebook.com/dm.Magyarorszag"/>
    <tag k="wheelchair" v="limited"/>
    <tag k="addr:postcode" v="1106"/>
    <tag k="website" v="https://www.dm.hu"/>
    <tag k="youtube" v="https://www.youtube.com/user/dmMagyarorszag"/>
    <tag k="shop" v="chemist"/>
    <tag k="addr:street" v="Kerepesi út"/>
    <tag k="payment:debit_cards" v="yes"/>
    <tag k="payment:cash" v="yes"/>
    <tag k="operator" v="dm Kft."/>
    <tag k="instagram" v="https://www.instagram.com/dm_magyarorszag/"/>
    <tag k="addr:housenumber" v="73"/>
    <tag k="addr:city" v="Budapest"/>
    <tag k="name" v="dm"/>
    <tag k="source" v="website"/>
  </node>
  <!-- Original coordinates: POINT (47.50276 19.13995) -->
  <node action="modify" changeset="99999" id="-47" lat="47.50276" lon="19.13995" timestamp="" uid="4579407" user="KAMI" version="99999">
    <tag k="brand" v="dm"/>
    <tag k="youtube" v="https://www.youtube.com/user/dmMagyarorszag"/>
    <tag k="facebook" v="https://www.facebook.com/dm.Magyarorszag"/>
    <tag k="shop" v="chemist"/>
    <tag k="payment:debit_cards" v="yes"/>
    <tag k="payment:cash" v="yes"/>
    <tag k="operator" v="dm Kft."/>
    <tag k="addr:postcode" v="1106"/>
    <tag k="instagram" v="https://www.instagram.com/dm_magyarorszag/"/>
    <tag k="website" v="https://www.dm.hu"/>
    <tag k="addr:housenumber" v="25"/>
    <tag k="addr:city" v="Budapest"/>
    <tag k="name" v="dm"/>
    <tag k="source" v="website"/>
    <tag k="addr:street" v="Őrs Vezér tér"/>
  </node>
  <!-- OSM link: https://osm.org/node/1502799480 -->
  <!-- Original coordinates: POINT (47.47704 19.04556) -->
  <node action="modify" changeset="1" id="1502799480" lat="47.47704" lon="19.04556" timestamp="2015-03-15T09:2752Z" uid="4579407" user="KAMI" version="4">
    <tag k="brand" v="dm"/>
    <tag k="facebook" v="https://www.facebook.com/dm.Magyarorszag"/>
    <tag k="wheelchair" v="no"/>
    <tag k="addr:postcode" v="1114"/>
    <tag k="opening_hours" v="Mo-Fr 08:00-19:00; Sa 08:00-14:00"/>
    <tag k="website" v="https://www.dm.hu"/>
    <tag k="youtube" v="https://www.youtube.com/user/dmMagyarorszag"/>
    <tag k="shop" v="chemist"/>
    <tag k="addr:street" v="Bartók Béla út"/>
    <tag k="payment:debit_cards" v="yes"/>
    <tag k="payment:cash" v="yes"/>
    <tag k="operator" v="dm Kft."/>
    <tag k="instagram" v="https://www.instagram.com/dm_magyarorszag/"/>
    <tag k="addr:housenumber" v="62-64"/>
    <tag k="addr:city" v="Budapest"/>
    <tag k="name" v="dm"/>
    <tag k="source" v="website"/>
  </node>
  <!-- OSM link: https://osm.org/node/3066772166 -->
  <!-- Original coordinates: POINT (47.48292 19.05271) -->
  <node action="modify" changeset="1" id="3066772166" lat="47.48292" lon="19.05271" timestamp="2017-12-28T00:2406Z" uid="4579407" user="KAMI" version="7">
    <tag k="brand" v="dm"/>
    <tag k="facebook" v="https://www.facebook.com/dm.Magyarorszag"/>
    <tag k="wheelchair" v="limited"/>
    <tag k="addr:postcode" v="1114"/>
    <tag k="website" v="https://www.dm.hu"/>
    <tag k="youtube" v="https://www.youtube.com/user/dmMagyarorszag"/>
    <tag k="shop" v="chemist"/>
    <tag k="toilets:wheelchair" v="no"/>
    <tag k="addr:street" v="Bartók Béla út"/>
    <tag k="payment:debit_cards" v="yes"/>
    <tag k="payment:cash" v="yes"/>
    <tag k="operator" v="dm Kft."/>
    <tag k="instagram" v="https://www.instagram.com/dm_magyarorszag/"/>
    <tag k="addr:housenumber" v="3-5"/>
    <tag k="addr:city" v="Budapest"/>
    <tag k="name" v="dm"/>
    <tag k="source" v="website"/>
  </node>
  <!-- Original coordinates: POINT (47.45045 19.03828) -->
  <node action="modify" changeset="99999" id="-50" lat="47.45045" lon="19.03828" timestamp="" uid="4579407" user="KAMI" version="99999">
    <tag k="brand" v="dm"/>
    <tag k="youtube" v="https://www.youtube.com/user/dmMagyarorszag"/>
    <tag k="facebook" v="https://www.facebook.com/dm.Magyarorszag"/>
    <tag k="shop" v="chemist"/>
    <tag k="payment:debit_cards" v="yes"/>
    <tag k="payment:cash" v="yes"/>
    <tag k="operator" v="dm Kft."/>
    <tag k="addr:postcode" v="1116"/>
    <tag k="instagram" v="https://www.instagram.com/dm_magyarorszag/"/>
    <tag k="website" v="https://www.dm.hu"/>
    <tag k="addr:housenumber" v="170-176"/>
    <tag k="addr:city" v="Budapest"/>
    <tag k="name" v="dm"/>
    <tag k="source" v="website"/>
    <tag k="addr:street" v="Fehérvári út"/>
  </node>
  <!-- Original coordinates: POINT (47.4358 19.04109) -->
  <node action="modify" changeset="99999" id="-51" lat="47.4358" lon="19.04109" timestamp="" uid="4579407" user="KAMI" version="99999">
    <tag k="brand" v="dm"/>
    <tag k="youtube" v="https://www.youtube.com/user/dmMagyarorszag"/>
    <tag k="facebook" v="https://www.facebook.com/dm.Magyarorszag"/>
    <tag k="shop" v="chemist"/>
    <tag k="payment:debit_cards" v="yes"/>
    <tag k="payment:cash" v="yes"/>
    <tag k="operator" v="dm Kft."/>
    <tag k="addr:postcode" v="1116"/>
    <tag k="instagram" v="https://www.instagram.com/dm_magyarorszag/"/>
    <tag k="website" v="https://www.dm.hu"/>
    <tag k="addr:housenumber" v="19"/>
    <tag k="addr:city" v="Budapest"/>
    <tag k="name" v="dm"/>
    <tag k="source" v="website"/>
    <tag k="addr:street" v="Hunyadi János utca"/>
  </node>
  <!-- Original coordinates: POINT (47.4742 19.04862) -->
  <node action="modify" changeset="99999" id="-52" lat="47.4742" lon="19.04862" timestamp="" uid="4579407" user="KAMI" version="99999">
    <tag k="brand" v="dm"/>
    <tag k="youtube" v="https://www.youtube.com/user/dmMagyarorszag"/>
    <tag k="facebook" v="https://www.facebook.com/dm.Magyarorszag"/>
    <tag k="shop" v="chemist"/>
    <tag k="payment:debit_cards" v="yes"/>
    <tag k="payment:cash" v="yes"/>
    <tag k="operator" v="dm Kft."/>
    <tag k="addr:postcode" v="1117"/>
    <tag k="instagram" v="https://www.instagram.com/dm_magyarorszag/"/>
    <tag k="website" v="https://www.dm.hu"/>
    <tag k="addr:housenumber" v="6-10"/>
    <tag k="addr:city" v="Budapest"/>
    <tag k="name" v="dm"/>
    <tag k="source" v="website"/>
    <tag k="addr:street" v="Október 23. u."/>
  </node>
  <!-- Original coordinates: POINT (47.46074 19.05131) -->
  <node action="modify" changeset="99999" id="-53" lat="47.46074" lon="19.05131" timestamp="" uid="4579407" user="KAMI" version="99999">
    <tag k="brand" v="dm"/>
    <tag k="youtube" v="https://www.youtube.com/user/dmMagyarorszag"/>
    <tag k="facebook" v="https://www.facebook.com/dm.Magyarorszag"/>
    <tag k="shop" v="chemist"/>
    <tag k="payment:debit_cards" v="yes"/>
    <tag k="payment:cash" v="yes"/>
    <tag k="operator" v="dm Kft."/>
    <tag k="addr:postcode" v="1117"/>
    <tag k="instagram" v="https://www.instagram.com/dm_magyarorszag/"/>
    <tag k="website" v="https://www.dm.hu"/>
    <tag k="addr:housenumber" v="19-21"/>
    <tag k="addr:city" v="Budapest"/>
    <tag k="name" v="dm"/>
    <tag k="source" v="website"/>
    <tag k="addr:street" v="Hengermalom út"/>
  </node>
  <!-- OSM link: https://osm.org/node/4576234912 -->
  <!-- Original coordinates: POINT (47.46643 19.00563) -->
  <node action="modify" changeset="1" id="4576234912" lat="47.46643" lon="19.00563" timestamp="2018-03-01T19:3802Z" uid="4579407" user="KAMI" version="2">
    <tag k="brand" v="dm"/>
    <tag k="youtube" v="https://www.youtube.com/user/dmMagyarorszag"/>
    <tag k="facebook" v="https://www.facebook.com/dm.Magyarorszag"/>
    <tag k="shop" v="chemist"/>
    <tag k="payment:debit_cards" v="yes"/>
    <tag k="payment:cash" v="yes"/>
    <tag k="operator" v="dm Kft."/>
    <tag k="addr:postcode" v="1118"/>
    <tag k="contact:website" v="http://www.elevencenter.hu/ec/11.html"/>
    <tag k="website" v="https://www.dm.hu"/>
    <tag k="addr:housenumber" v="7"/>
    <tag k="addr:city" v="Budapest"/>
    <tag k="name" v="dm"/>
    <tag k="fixme" v="position"/>
    <tag k="source" v="website"/>
    <tag k="level" v="1"/>
    <tag k="addr:street" v="Rétköz utca"/>
    <tag k="instagram" v="https://www.instagram.com/dm_magyarorszag/"/>
  </node>
  <!-- OSM link: https://osm.org/node/3213150854 -->
  <!-- Original coordinates: POINT (47.49123 19.01212) -->
  <node action="modify" changeset="1" id="3213150854" lat="47.49123" lon="19.01212" timestamp="2015-12-13T11:5543Z" uid="4579407" user="KAMI" version="3">
    <tag k="brand" v="dm"/>
    <tag k="facebook" v="https://www.facebook.com/dm.Magyarorszag"/>
    <tag k="wheelchair" v="yes"/>
    <tag k="addr:postcode" v="1124"/>
    <tag k="website" v="https://www.dm.hu"/>
    <tag k="youtube" v="https://www.youtube.com/user/dmMagyarorszag"/>
    <tag k="shop" v="chemist"/>
    <tag k="addr:street" v="Apor Vilmos tér"/>
    <tag k="payment:debit_cards" v="yes"/>
    <tag k="payment:cash" v="yes"/>
    <tag k="operator" v="dm Kft."/>
    <tag k="instagram" v="https://www.instagram.com/dm_magyarorszag/"/>
    <tag k="addr:housenumber" v="11"/>
    <tag k="addr:city" v="Budapest"/>
    <tag k="name" v="dm"/>
    <tag k="source" v="website"/>
  </node>
  <!-- Original coordinates: POINT (47.49247 19.01677) -->
  <node action="modify" changeset="99999" id="-56" lat="47.49247" lon="19.01677" timestamp="" uid="4579407" user="KAMI" version="99999">
    <tag k="brand" v="dm"/>
    <tag k="youtube" v="https://www.youtube.com/user/dmMagyarorszag"/>
    <tag k="facebook" v="https://www.facebook.com/dm.Magyarorszag"/>
    <tag k="shop" v="chemist"/>
    <tag k="payment:debit_cards" v="yes"/>
    <tag k="payment:cash" v="yes"/>
    <tag k="operator" v="dm Kft."/>
    <tag k="addr:postcode" v="1126"/>
    <tag k="instagram" v="https://www.instagram.com/dm_magyarorszag/"/>
    <tag k="website" v="https://www.dm.hu"/>
    <tag k="addr:housenumber" v="36/a"/>
    <tag k="addr:city" v="Budapest"/>
    <tag k="name" v="dm"/>
    <tag k="source" v="website"/>
    <tag k="addr:street" v="Böszörményi út"/>
  </node>
  <!-- Original coordinates: POINT (47.49033 19.02373) -->
  <node action="modify" changeset="99999" id="-57" lat="47.49033" lon="19.02373" timestamp="" uid="4579407" user="KAMI" version="99999">
    <tag k="brand" v="dm"/>
    <tag k="youtube" v="https://www.youtube.com/user/dmMagyarorszag"/>
    <tag k="facebook" v="https://www.facebook.com/dm.Magyarorszag"/>
    <tag k="shop" v="chemist"/>
    <tag k="payment:debit_cards" v="yes"/>
    <tag k="payment:cash" v="yes"/>
    <tag k="operator" v="dm Kft."/>
    <tag k="addr:postcode" v="1126"/>
    <tag k="instagram" v="https://www.instagram.com/dm_magyarorszag/"/>
    <tag k="website" v="https://www.dm.hu"/>
    <tag k="addr:housenumber" v="12"/>
    <tag k="addr:city" v="Budapest"/>
    <tag k="name" v="dm"/>
    <tag k="source" v="website"/>
    <tag k="addr:street" v="Nagy Jenő utca"/>
  </node>
  <!-- OSM link: https://osm.org/node/2629248450 -->
  <!-- Original coordinates: POINT (47.51459 19.05853) -->
  <node action="modify" changeset="1" id="2629248450" lat="47.51459" lon="19.05853" timestamp="2015-03-15T09:2754Z" uid="4579407" user="KAMI" version="2">
    <tag k="brand" v="dm"/>
    <tag k="facebook" v="https://www.facebook.com/dm.Magyarorszag"/>
    <tag k="addr:postcode" v="1132"/>
    <tag k="opening_hours" v="Mo-Fr 08:00-19:00; Sa 08:00-14:00"/>
    <tag k="website" v="https://www.dm.hu"/>
    <tag k="youtube" v="https://www.youtube.com/user/dmMagyarorszag"/>
    <tag k="shop" v="chemist"/>
    <tag k="addr:street" v="Váci út"/>
    <tag k="payment:debit_cards" v="yes"/>
    <tag k="payment:cash" v="yes"/>
    <tag k="operator" v="dm Kft."/>
    <tag k="instagram" v="https://www.instagram.com/dm_magyarorszag/"/>
    <tag k="addr:housenumber" v="20-26"/>
    <tag k="addr:city" v="Budapest"/>
    <tag k="name" v="dm"/>
    <tag k="source" v="website"/>
  </node>
  <!-- Original coordinates: POINT (47.5548714 19.0797415) -->
  <node action="modify" changeset="99999" id="-59" lat="47.5548714" lon="19.0797415" timestamp="" uid="4579407" user="KAMI" version="99999">
    <tag k="brand" v="dm"/>
    <tag k="youtube" v="https://www.youtube.com/user/dmMagyarorszag"/>
    <tag k="facebook" v="https://www.facebook.com/dm.Magyarorszag"/>
    <tag k="shop" v="chemist"/>
    <tag k="payment:debit_cards" v="yes"/>
    <tag k="payment:cash" v="yes"/>
    <tag k="operator" v="dm Kft."/>
    <tag k="addr:postcode" v="1138"/>
    <tag k="instagram" v="https://www.instagram.com/dm_magyarorszag/"/>
    <tag k="website" v="https://www.dm.hu"/>
    <tag k="addr:housenumber" v="3"/>
    <tag k="addr:city" v="Budapest"/>
    <tag k="name" v="dm"/>
    <tag k="source" v="website"/>
    <tag k="addr:street" v="Gács utca"/>
  </node>
  <!-- Original coordinates: POINT (47.5493498 19.0728936) -->
  <node action="modify" changeset="99999" id="-60" lat="47.5493498" lon="19.0728936" timestamp="" uid="4579407" user="KAMI" version="99999">
    <tag k="brand" v="dm"/>
    <tag k="youtube" v="https://www.youtube.com/user/dmMagyarorszag"/>
    <tag k="facebook" v="https://www.facebook.com/dm.Magyarorszag"/>
    <tag k="shop" v="chemist"/>
    <tag k="payment:debit_cards" v="yes"/>
    <tag k="payment:cash" v="yes"/>
    <tag k="operator" v="dm Kft."/>
    <tag k="addr:postcode" v="1138"/>
    <tag k="instagram" v="https://www.instagram.com/dm_magyarorszag/"/>
    <tag k="website" v="https://www.dm.hu"/>
    <tag k="addr:housenumber" v="178"/>
    <tag k="addr:city" v="Budapest"/>
    <tag k="name" v="dm"/>
    <tag k="source" v="website"/>
    <tag k="addr:street" v="Váci út"/>
  </node>
  <!-- OSM link: https://osm.org/node/5137524931 -->
  <!-- Original coordinates: POINT (47.50451 19.09284) -->
  <node action="modify" changeset="1" id="5137524931" lat="47.50451" lon="19.09284" timestamp="2017-11-04T12:5046Z" uid="4579407" user="KAMI" version="2">
    <tag k="brand" v="dm"/>
    <tag k="facebook" v="https://www.facebook.com/dm.Magyarorszag"/>
    <tag k="wheelchair" v="yes"/>
    <tag k="addr:postcode" v="1146"/>
    <tag k="website" v="https://www.dm.hu"/>
    <tag k="youtube" v="https://www.youtube.com/user/dmMagyarorszag"/>
    <tag k="shop" v="chemist"/>
    <tag k="addr:street" v="Szabó József utca"/>
    <tag k="payment:debit_cards" v="yes"/>
    <tag k="payment:cash" v="yes"/>
    <tag k="operator" v="dm Kft."/>
    <tag k="instagram" v="https://www.instagram.com/dm_magyarorszag/"/>
    <tag k="addr:housenumber" v="6"/>
    <tag k="addr:city" v="Budapest"/>
    <tag k="name" v="dm"/>
    <tag k="source" v="website"/>
  </node>
  <!-- OSM link: https://osm.org/node/3101662829 -->
  <!-- Original coordinates: POINT (47.52096 19.11449) -->
  <node action="modify" changeset="1" id="3101662829" lat="47.52096" lon="19.11449" timestamp="2015-09-17T04:4424Z" uid="4579407" user="KAMI" version="4">
    <tag k="brand" v="dm"/>
    <tag k="facebook" v="https://www.facebook.com/dm.Magyarorszag"/>
    <tag k="wheelchair" v="no"/>
    <tag k="addr:postcode" v="1141"/>
    <tag k="opening_hours" v="Mo-Fr 07:00-18:00; Sa 07:00-14:00"/>
    <tag k="website" v="https://www.dm.hu"/>
    <tag k="youtube" v="https://www.youtube.com/user/dmMagyarorszag"/>
    <tag k="shop" v="chemist"/>
    <tag k="addr:street" v="Csömöri út"/>
    <tag k="payment:debit_cards" v="yes"/>
    <tag k="payment:cash" v="yes"/>
    <tag k="operator" v="dm Kft."/>
    <tag k="instagram" v="https://www.instagram.com/dm_magyarorszag/"/>
    <tag k="addr:housenumber" v="9-11"/>
    <tag k="addr:city" v="Budapest"/>
    <tag k="name" v="dm"/>
    <tag k="source" v="website"/>
  </node>
  <!-- OSM link: https://osm.org/node/3046779034 -->
  <!-- Original coordinates: POINT (47.51961 19.09111) -->
  <node action="modify" changeset="1" id="3046779034" lat="47.51961" lon="19.09111" timestamp="2018-05-10T12:4257Z" uid="4579407" user="KAMI" version="7">
    <tag k="brand" v="dm"/>
    <tag k="payment:credit_cards" v="yes"/>
    <tag k="youtube" v="https://www.youtube.com/user/dmMagyarorszag"/>
    <tag k="facebook" v="https://www.facebook.com/dm.Magyarorszag"/>
    <tag k="shop" v="chemist"/>
    <tag k="payment:debit_cards" v="yes"/>
    <tag k="payment:cash" v="yes"/>
    <tag k="operator" v="dm Kft."/>
    <tag k="phone" v="+36308869747"/>
    <tag k="addr:postcode" v="1145"/>
    <tag k="opening_hours" v="Mo-Fr 07:00-19:00; Sa 08:00-14:00"/>
    <tag k="instagram" v="https://www.instagram.com/dm_magyarorszag/"/>
    <tag k="website" v="https://www.dm.hu"/>
    <tag k="wheelchair" v="yes"/>
    <tag k="addr:housenumber" v="70"/>
    <tag k="addr:city" v="Budapest"/>
    <tag k="name" v="dm"/>
    <tag k="source" v="website"/>
    <tag k="addr:street" v="Mexikói út"/>
  </node>
  <!-- OSM link: https://osm.org/node/5217787995 -->
  <!-- Original coordinates: POINT (47.504326 19.1379327) -->
  <node action="modify" changeset="1" id="5217787995" lat="47.504326" lon="19.1379327" timestamp="2017-11-08T10:1440Z" uid="4579407" user="KAMI" version="1">
    <tag k="brand" v="dm"/>
    <tag k="facebook" v="https://www.facebook.com/dm.Magyarorszag"/>
    <tag k="addr:postcode" v="1144"/>
    <tag k="opening_hours" v="Mo-Su 10:00-20:00"/>
    <tag k="website" v="https://www.dm.hu"/>
    <tag k="youtube" v="https://www.youtube.com/user/dmMagyarorszag"/>
    <tag k="shop" v="chemist"/>
    <tag k="addr:street" v="Örs Vezér tér"/>
    <tag k="payment:debit_cards" v="yes"/>
    <tag k="payment:cash" v="yes"/>
    <tag k="operator" v="dm Kft."/>
    <tag k="instagram" v="https://www.instagram.com/dm_magyarorszag/"/>
    <tag k="addr:housenumber" v="24"/>
    <tag k="addr:city" v="Budapest"/>
    <tag k="name" v="dm"/>
    <tag k="source" v="website"/>
  </node>
  <!-- Original coordinates: POINT (47.5529725 19.1417485) -->
  <node action="modify" changeset="99999" id="-65" lat="47.5529725" lon="19.1417485" timestamp="" uid="4579407" user="KAMI" version="99999">
    <tag k="brand" v="dm"/>
    <tag k="youtube" v="https://www.youtube.com/user/dmMagyarorszag"/>
    <tag k="facebook" v="https://www.facebook.com/dm.Magyarorszag"/>
    <tag k="shop" v="chemist"/>
    <tag k="payment:debit_cards" v="yes"/>
    <tag k="payment:cash" v="yes"/>
    <tag k="operator" v="dm Kft."/>
    <tag k="addr:postcode" v="1152"/>
    <tag k="instagram" v="https://www.instagram.com/dm_magyarorszag/"/>
    <tag k="website" v="https://www.dm.hu"/>
    <tag k="addr:housenumber" v="131"/>
    <tag k="addr:city" v="Budapest"/>
    <tag k="name" v="dm"/>
    <tag k="source" v="website"/>
    <tag k="addr:street" v="Szentmihályi út"/>
  </node>
  <!-- OSM link: https://osm.org/node/4339675746 -->
  <!-- Original coordinates: POINT (47.54026 19.14365) -->
  <node action="modify" changeset="1" id="4339675746" lat="47.54026" lon="19.14365" timestamp="2016-12-18T13:4252Z" uid="4579407" user="KAMI" version="2">
    <tag k="brand" v="dm"/>
    <tag k="facebook" v="https://www.facebook.com/dm.Magyarorszag"/>
    <tag k="addr:postcode" v="1157"/>
    <tag k="opening_hours" v="Mo-Fr 08:00-19:00; Sa 08:00-13:00"/>
    <tag k="website" v="https://www.dm.hu"/>
    <tag k="youtube" v="https://www.youtube.com/user/dmMagyarorszag"/>
    <tag k="shop" v="chemist"/>
    <tag k="addr:street" v="Zsókavár utca"/>
    <tag k="payment:debit_cards" v="yes"/>
    <tag k="payment:cash" v="yes"/>
    <tag k="operator" v="dm Kft."/>
    <tag k="instagram" v="https://www.instagram.com/dm_magyarorszag/"/>
    <tag k="addr:housenumber" v="45"/>
    <tag k="addr:city" v="Budapest"/>
    <tag k="name" v="dm"/>
    <tag k="source" v="website"/>
  </node>
  <!-- OSM link: https://osm.org/node/3123653829 -->
  <!-- Original coordinates: POINT (47.47959 19.25754) -->
  <node action="modify" changeset="1" id="3123653829" lat="47.47959" lon="19.25754" timestamp="2016-04-29T09:1623Z" uid="4579407" user="KAMI" version="4">
    <tag k="brand" v="dm"/>
    <tag k="facebook" v="https://www.facebook.com/dm.Magyarorszag"/>
    <tag k="phone" v="+3612530210"/>
    <tag k="addr:postcode" v="1173"/>
    <tag k="opening_hours" v="Mo-Fr 08:00-19:00; Sa 08:00-14:00"/>
    <tag k="website" v="https://www.dm.hu"/>
    <tag k="youtube" v="https://www.youtube.com/user/dmMagyarorszag"/>
    <tag k="shop" v="chemist"/>
    <tag k="addr:street" v="Pesti út"/>
    <tag k="payment:debit_cards" v="yes"/>
    <tag k="payment:cash" v="yes"/>
    <tag k="operator" v="dm Kft."/>
    <tag k="instagram" v="https://www.instagram.com/dm_magyarorszag/"/>
    <tag k="addr:housenumber" v="172"/>
    <tag k="addr:city" v="Budapest"/>
    <tag k="name" v="dm"/>
    <tag k="source" v="website"/>
  </node>
  <!-- Original coordinates: POINT (47.4332335 19.2017797) -->
  <node action="modify" changeset="99999" id="-68" lat="47.4332335" lon="19.2017797" timestamp="" uid="4579407" user="KAMI" version="99999">
    <tag k="brand" v="dm"/>
    <tag k="youtube" v="https://www.youtube.com/user/dmMagyarorszag"/>
    <tag k="facebook" v="https://www.facebook.com/dm.Magyarorszag"/>
    <tag k="shop" v="chemist"/>
    <tag k="payment:debit_cards" v="yes"/>
    <tag k="payment:cash" v="yes"/>
    <tag k="operator" v="dm Kft."/>
    <tag k="addr:postcode" v="1182"/>
    <tag k="instagram" v="https://www.instagram.com/dm_magyarorszag/"/>
    <tag k="website" v="https://www.dm.hu"/>
    <tag k="addr:housenumber" v="661"/>
    <tag k="addr:city" v="Budapest"/>
    <tag k="name" v="dm"/>
    <tag k="source" v="website"/>
    <tag k="addr:street" v="Üllői út"/>
  </node>
  <!-- OSM link: https://osm.org/node/5350807332 -->
  <!-- Original coordinates: POINT (47.43273 19.17798) -->
  <node action="modify" changeset="1" id="5350807332" lat="47.43273" lon="19.17798" timestamp="2018-01-20T10:2457Z" uid="4579407" user="KAMI" version="1">
    <tag k="brand" v="dm"/>
    <tag k="facebook" v="https://www.facebook.com/dm.Magyarorszag"/>
    <tag k="addr:postcode" v="1186"/>
    <tag k="website" v="https://www.dm.hu"/>
    <tag k="youtube" v="https://www.youtube.com/user/dmMagyarorszag"/>
    <tag k="shop" v="chemist"/>
    <tag k="addr:street" v="Sallai Imre u."/>
    <tag k="payment:debit_cards" v="yes"/>
    <tag k="payment:cash" v="yes"/>
    <tag k="operator" v="dm Kft."/>
    <tag k="instagram" v="https://www.instagram.com/dm_magyarorszag/"/>
    <tag k="addr:housenumber" v="15/b"/>
    <tag k="addr:city" v="Budapest"/>
    <tag k="name" v="dm"/>
    <tag k="source" v="website"/>
  </node>
  <!-- Original coordinates: POINT (47.44024 19.18629) -->
  <node action="modify" changeset="99999" id="-70" lat="47.44024" lon="19.18629" timestamp="" uid="4579407" user="KAMI" version="99999">
    <tag k="brand" v="dm"/>
    <tag k="youtube" v="https://www.youtube.com/user/dmMagyarorszag"/>
    <tag k="facebook" v="https://www.facebook.com/dm.Magyarorszag"/>
    <tag k="shop" v="chemist"/>
    <tag k="payment:debit_cards" v="yes"/>
    <tag k="payment:cash" v="yes"/>
    <tag k="operator" v="dm Kft."/>
    <tag k="addr:postcode" v="1183"/>
    <tag k="instagram" v="https://www.instagram.com/dm_magyarorszag/"/>
    <tag k="website" v="https://www.dm.hu"/>
    <tag k="addr:housenumber" v="448"/>
    <tag k="addr:city" v="Budapest"/>
    <tag k="name" v="dm"/>
    <tag k="source" v="website"/>
    <tag k="addr:street" v="Üllői út"/>
  </node>
  <!-- OSM link: https://osm.org/node/5383448107 -->
  <!-- Original coordinates: POINT (47.46242 19.14787) -->
  <node action="modify" changeset="1" id="5383448107" lat="47.46242" lon="19.14787" timestamp="2018-06-10T20:0454Z" uid="4579407" user="KAMI" version="2">
    <tag k="brand" v="dm"/>
    <tag k="facebook" v="https://www.facebook.com/dm.Magyarorszag"/>
    <tag k="addr:postcode" v="1191"/>
    <tag k="opening_hours" v="Mo-Th 09:00-20:00; Fr,Sa 09:00-21:00; Su 09:00-18:00"/>
    <tag k="website" v="https://www.dm.hu"/>
    <tag k="youtube" v="https://www.youtube.com/user/dmMagyarorszag"/>
    <tag k="shop" v="chemist"/>
    <tag k="level" v="0"/>
    <tag k="addr:street" v="Vak Bottyán utca"/>
    <tag k="payment:debit_cards" v="yes"/>
    <tag k="payment:cash" v="yes"/>
    <tag k="operator" v="dm Kft."/>
    <tag k="instagram" v="https://www.instagram.com/dm_magyarorszag/"/>
    <tag k="addr:housenumber" v="75"/>
    <tag k="addr:city" v="Budapest"/>
    <tag k="name" v="dm"/>
    <tag k="source" v="website"/>
  </node>
  <!-- OSM link: https://osm.org/node/4541392370 -->
  <!-- Original coordinates: POINT (47.45431 19.15118) -->
  <node action="modify" changeset="1" id="4541392370" lat="47.45431" lon="19.15118" timestamp="2016-12-06T14:4731Z" uid="4579407" user="KAMI" version="1">
    <tag k="brand" v="dm"/>
    <tag k="facebook" v="https://www.facebook.com/dm.Magyarorszag"/>
    <tag k="addr:postcode" v="1194"/>
    <tag k="opening_hours" v="10-20"/>
    <tag k="website" v="https://www.dm.hu"/>
    <tag k="youtube" v="https://www.youtube.com/user/dmMagyarorszag"/>
    <tag k="shop" v="chemist"/>
    <tag k="addr:street" v="Árpád utca"/>
    <tag k="payment:debit_cards" v="yes"/>
    <tag k="payment:cash" v="yes"/>
    <tag k="operator" v="dm Kft."/>
    <tag k="instagram" v="https://www.instagram.com/dm_magyarorszag/"/>
    <tag k="addr:housenumber" v="4"/>
    <tag k="addr:city" v="Budapest"/>
    <tag k="name" v="dm"/>
    <tag k="source" v="website"/>
  </node>
  <!-- Original coordinates: POINT (47.4388 19.10083) -->
  <node action="modify" changeset="99999" id="-73" lat="47.4388" lon="19.10083" timestamp="" uid="4579407" user="KAMI" version="99999">
    <tag k="brand" v="dm"/>
    <tag k="youtube" v="https://www.youtube.com/user/dmMagyarorszag"/>
    <tag k="facebook" v="https://www.facebook.com/dm.Magyarorszag"/>
    <tag k="shop" v="chemist"/>
    <tag k="payment:debit_cards" v="yes"/>
    <tag k="payment:cash" v="yes"/>
    <tag k="operator" v="dm Kft."/>
    <tag k="addr:postcode" v="1203"/>
    <tag k="instagram" v="https://www.instagram.com/dm_magyarorszag/"/>
    <tag k="website" v="https://www.dm.hu"/>
    <tag k="addr:housenumber" v="1/a"/>
    <tag k="addr:city" v="Budapest"/>
    <tag k="name" v="dm"/>
    <tag k="source" v="website"/>
    <tag k="addr:street" v="Széchenyi út"/>
  </node>
  <!-- OSM link: https://osm.org/node/3995421205 -->
  <!-- Original coordinates: POINT (47.426 19.06987) -->
  <node action="modify" changeset="1" id="3995421205" lat="47.426" lon="19.06987" timestamp="2016-02-08T13:3026Z" uid="4579407" user="KAMI" version="1">
    <tag k="brand" v="dm"/>
    <tag k="facebook" v="https://www.facebook.com/dm.Magyarorszag"/>
    <tag k="phone" v="+3612780060"/>
    <tag k="addr:postcode" v="1211"/>
    <tag k="opening_hours" v="Mo-Fr 08:00-20:00, Sa 08:00-17:00"/>
    <tag k="website" v="https://www.dm.hu"/>
    <tag k="youtube" v="https://www.youtube.com/user/dmMagyarorszag"/>
    <tag k="shop" v="chemist"/>
    <tag k="addr:street" v="Kossuth Lajos utca"/>
    <tag k="payment:debit_cards" v="yes"/>
    <tag k="payment:cash" v="yes"/>
    <tag k="operator" v="dm Kft."/>
    <tag k="instagram" v="https://www.instagram.com/dm_magyarorszag/"/>
    <tag k="addr:housenumber" v="89"/>
    <tag k="addr:city" v="Budapest"/>
    <tag k="name" v="dm"/>
    <tag k="source" v="website"/>
  </node>
  <!-- OSM link: https://osm.org/way/103953119 -->
  <!-- Original coordinates: POINT (47.42787 19.03875) -->
  <way action="modify" changeset="1" id="103953119" timestamp="2017-09-19T18:1157Z" uid="4579407" user="KAMI" version="3">
    <nd ref="1199877833"/>
    <nd ref="1199877815"/>
    <nd ref="1199877836"/>
    <nd ref="5115838565"/>
    <nd ref="1199877831"/>
    <nd ref="1199877833"/>
    <tag k="brand" v="dm"/>
    <tag k="facebook" v="https://www.facebook.com/dm.Magyarorszag"/>
    <tag k="addr:postcode" v="1221"/>
    <tag k="website" v="https://www.dm.hu"/>
    <tag k="building" v="yes"/>
    <tag k="youtube" v="https://www.youtube.com/user/dmMagyarorszag"/>
    <tag k="shop" v="chemist"/>
    <tag k="addr:street" v="Mária Terézia utca"/>
    <tag k="payment:debit_cards" v="yes"/>
    <tag k="payment:cash" v="yes"/>
    <tag k="operator" v="dm Kft."/>
    <tag k="instagram" v="https://www.instagram.com/dm_magyarorszag/"/>
    <tag k="addr:housenumber" v="9"/>
    <tag k="addr:city" v="Budapest"/>
    <tag k="name" v="dm"/>
    <tag k="source" v="website"/>
  </way>
  <!-- Original coordinates: POINT (47.4067895 19.0174905) -->
  <node action="modify" changeset="99999" id="-76" lat="47.4067895" lon="19.0174905" timestamp="" uid="4579407" user="KAMI" version="99999">
    <tag k="brand" v="dm"/>
    <tag k="youtube" v="https://www.youtube.com/user/dmMagyarorszag"/>
    <tag k="facebook" v="https://www.facebook.com/dm.Magyarorszag"/>
    <tag k="shop" v="chemist"/>
    <tag k="payment:debit_cards" v="yes"/>
    <tag k="payment:cash" v="yes"/>
    <tag k="operator" v="dm Kft."/>
    <tag k="addr:postcode" v="1223"/>
    <tag k="instagram" v="https://www.instagram.com/dm_magyarorszag/"/>
    <tag k="website" v="https://www.dm.hu"/>
    <tag k="addr:housenumber" v="27-47"/>
    <tag k="addr:city" v="Budapest"/>
    <tag k="name" v="dm"/>
    <tag k="source" v="website"/>
    <tag k="addr:street" v="Nagytétényi út"/>
  </node>
  <!-- OSM link: https://osm.org/node/2291468802 -->
  <!-- Original coordinates: POINT (47.4149388 19.1598579) -->
  <node action="modify" changeset="1" id="2291468802" lat="47.4149388" lon="19.1598579" timestamp="2018-05-10T13:1212Z" uid="4579407" user="KAMI" version="7">
    <tag k="brand" v="dm"/>
    <tag k="facebook" v="https://www.facebook.com/dm.Magyarorszag"/>
    <tag k="wheelchair" v="yes"/>
    <tag k="phone" v="+36304125237"/>
    <tag k="addr:postcode" v="1238"/>
    <tag k="opening_hours" v="Mo-Sa 09:00-20:00; Su 09:00-19:00"/>
    <tag k="website" v="https://www.dm.hu"/>
    <tag k="shop" v="chemist"/>
    <tag k="youtube" v="https://www.youtube.com/user/dmMagyarorszag"/>
    <tag k="addr:street" v="Bevásárló utca"/>
    <tag k="payment:visa" v="yes"/>
    <tag k="ref" v="340"/>
    <tag k="payment:debit_cards" v="yes"/>
    <tag k="payment:cash" v="yes"/>
    <tag k="operator" v="dm Kft."/>
    <tag k="instagram" v="https://www.instagram.com/dm_magyarorszag/"/>
    <tag k="payment:maestro" v="yes"/>
    <tag k="payment:mastercard" v="yes"/>
    <tag k="addr:housenumber" v="4"/>
    <tag k="addr:city" v="Budapest"/>
    <tag k="name" v="dm"/>
    <tag k="source" v="website"/>
  </node>
  <!-- Original coordinates: POINT (47.39938 19.11436) -->
  <node action="modify" changeset="99999" id="-78" lat="47.39938" lon="19.11436" timestamp="" uid="4579407" user="KAMI" version="99999">
    <tag k="brand" v="dm"/>
    <tag k="youtube" v="https://www.youtube.com/user/dmMagyarorszag"/>
    <tag k="facebook" v="https://www.facebook.com/dm.Magyarorszag"/>
    <tag k="shop" v="chemist"/>
    <tag k="payment:debit_cards" v="yes"/>
    <tag k="payment:cash" v="yes"/>
    <tag k="operator" v="dm Kft."/>
    <tag k="addr:postcode" v="1238"/>
    <tag k="instagram" v="https://www.instagram.com/dm_magyarorszag/"/>
    <tag k="website" v="https://www.dm.hu"/>
    <tag k="addr:housenumber" v="160"/>
    <tag k="addr:city" v="Budapest"/>
    <tag k="name" v="dm"/>
    <tag k="source" v="website"/>
    <tag k="addr:street" v="Grassalkovich út"/>
  </node>
  <!-- OSM link: https://osm.org/node/1859323723 -->
  <!-- Original coordinates: POINT (47.66176 19.0755) -->
  <node action="modify" changeset="1" id="1859323723" lat="47.66176" lon="19.0755" timestamp="2017-08-23T11:1651Z" uid="4579407" user="KAMI" version="4">
    <tag k="brand" v="dm"/>
    <tag k="facebook" v="https://www.facebook.com/dm.Magyarorszag"/>
    <tag k="wheelchair" v="yes"/>
    <tag k="addr:postcode" v="2000"/>
    <tag k="website" v="https://www.dm.hu"/>
    <tag k="youtube" v="https://www.youtube.com/user/dmMagyarorszag"/>
    <tag k="shop" v="chemist"/>
    <tag k="addr:street" v="Dunakanyar körút"/>
    <tag k="payment:debit_cards" v="yes"/>
    <tag k="payment:cash" v="yes"/>
    <tag k="operator" v="dm Kft."/>
    <tag k="instagram" v="https://www.instagram.com/dm_magyarorszag/"/>
    <tag k="addr:housenumber" v="2"/>
    <tag k="addr:city" v="Szentendre"/>
    <tag k="name" v="dm"/>
    <tag k="source" v="website"/>
  </node>
  <!-- OSM link: https://osm.org/node/4907029901 -->
  <!-- Original coordinates: POINT (47.64529 19.06801) -->
  <node action="modify" changeset="1" id="4907029901" lat="47.64529" lon="19.06801" timestamp="2017-06-10T05:0820Z" uid="4579407" user="KAMI" version="1">
    <tag k="brand" v="dm"/>
    <tag k="facebook" v="https://www.facebook.com/dm.Magyarorszag"/>
    <tag k="addr:postcode" v="2000"/>
    <tag k="website" v="https://www.dm.hu"/>
    <tag k="youtube" v="https://www.youtube.com/user/dmMagyarorszag"/>
    <tag k="shop" v="chemist"/>
    <tag k="addr:street" v="Dobogókői út"/>
    <tag k="payment:debit_cards" v="yes"/>
    <tag k="payment:cash" v="yes"/>
    <tag k="operator" v="dm Kft."/>
    <tag k="instagram" v="https://www.instagram.com/dm_magyarorszag/"/>
    <tag k="addr:housenumber" v="1"/>
    <tag k="addr:city" v="Szentendre"/>
    <tag k="name" v="dm"/>
    <tag k="source" v="website"/>
  </node>
  <!-- Original coordinates: POINT (47.4138281 18.8828425) -->
  <node action="modify" changeset="99999" id="-81" lat="47.4138281" lon="18.8828425" timestamp="" uid="4579407" user="KAMI" version="99999">
    <tag k="brand" v="dm"/>
    <tag k="youtube" v="https://www.youtube.com/user/dmMagyarorszag"/>
    <tag k="facebook" v="https://www.facebook.com/dm.Magyarorszag"/>
    <tag k="shop" v="chemist"/>
    <tag k="payment:debit_cards" v="yes"/>
    <tag k="payment:cash" v="yes"/>
    <tag k="operator" v="dm Kft."/>
    <tag k="addr:postcode" v="2030"/>
    <tag k="instagram" v="https://www.instagram.com/dm_magyarorszag/"/>
    <tag k="website" v="https://www.dm.hu"/>
    <tag k="addr:city" v="Érd"/>
    <tag k="name" v="dm"/>
    <tag k="source" v="website"/>
    <tag k="addr:street" v="Iparos út"/>
  </node>
  <!-- OSM link: https://osm.org/node/4055189789 -->
  <!-- Original coordinates: POINT (47.37756 18.93766) -->
  <node action="modify" changeset="1" id="4055189789" lat="47.37756" lon="18.93766" timestamp="2016-03-11T18:3343Z" uid="4579407" user="KAMI" version="1">
    <tag k="brand" v="dm"/>
    <tag k="facebook" v="https://www.facebook.com/dm.Magyarorszag"/>
    <tag k="addr:postcode" v="2030"/>
    <tag k="website" v="https://www.dm.hu"/>
    <tag k="youtube" v="https://www.youtube.com/user/dmMagyarorszag"/>
    <tag k="shop" v="chemist"/>
    <tag k="addr:street" v="Budafoki út"/>
    <tag k="payment:debit_cards" v="yes"/>
    <tag k="payment:cash" v="yes"/>
    <tag k="operator" v="dm Kft."/>
    <tag k="instagram" v="https://www.instagram.com/dm_magyarorszag/"/>
    <tag k="addr:housenumber" v="2-4"/>
    <tag k="addr:city" v="Érd"/>
    <tag k="name" v="dm"/>
    <tag k="source" v="website"/>
  </node>
  <!-- OSM link: https://osm.org/node/5185654633 -->
  <!-- Original coordinates: POINT (47.45429 18.97466) -->
  <node action="modify" changeset="1" id="5185654633" lat="47.45429" lon="18.97466" timestamp="2017-12-16T22:0525Z" uid="4579407" user="KAMI" version="2">
    <tag k="brand" v="dm"/>
    <tag k="facebook" v="https://www.facebook.com/dm.Magyarorszag"/>
    <tag k="addr:postcode" v="2040"/>
    <tag k="website" v="https://www.dm.hu"/>
    <tag k="youtube" v="https://www.youtube.com/user/dmMagyarorszag"/>
    <tag k="shop" v="chemist"/>
    <tag k="addr:street" v="Malomkő utca"/>
    <tag k="payment:debit_cards" v="yes"/>
    <tag k="payment:cash" v="yes"/>
    <tag k="operator" v="dm Kft."/>
    <tag k="instagram" v="https://www.instagram.com/dm_magyarorszag/"/>
    <tag k="addr:housenumber" v="7"/>
    <tag k="addr:city" v="Budaörs"/>
    <tag k="name" v="dm"/>
    <tag k="source" v="website"/>
  </node>
  <!-- OSM link: https://osm.org/node/4957499419 -->
  <!-- Original coordinates: POINT (47.46111 18.95892) -->
  <node action="modify" changeset="1" id="4957499419" lat="47.46111" lon="18.95892" timestamp="2017-10-17T16:4822Z" uid="4579407" user="KAMI" version="3">
    <tag k="brand" v="dm"/>
    <tag k="facebook" v="https://www.facebook.com/dm.Magyarorszag"/>
    <tag k="wheelchair" v="yes"/>
    <tag k="addr:postcode" v="2040"/>
    <tag k="website" v="https://www.dm.hu"/>
    <tag k="youtube" v="https://www.youtube.com/user/dmMagyarorszag"/>
    <tag k="shop" v="chemist"/>
    <tag k="addr:street" v="Szabadság út"/>
    <tag k="payment:debit_cards" v="yes"/>
    <tag k="payment:cash" v="yes"/>
    <tag k="operator" v="dm Kft."/>
    <tag k="instagram" v="https://www.instagram.com/dm_magyarorszag/"/>
    <tag k="addr:housenumber" v="40"/>
    <tag k="addr:city" v="Budaörs"/>
    <tag k="name" v="dm"/>
    <tag k="source" v="website"/>
  </node>
  <!-- OSM link: https://osm.org/node/4128498142 -->
  <!-- Original coordinates: POINT (47.40415 18.94672) -->
  <node action="modify" changeset="1" id="4128498142" lat="47.40415" lon="18.94672" timestamp="2016-04-17T18:4139Z" uid="4579407" user="KAMI" version="1">
    <tag k="brand" v="dm"/>
    <tag k="facebook" v="https://www.facebook.com/dm.Magyarorszag"/>
    <tag k="addr:postcode" v="2049"/>
    <tag k="website" v="https://www.dm.hu"/>
    <tag k="youtube" v="https://www.youtube.com/user/dmMagyarorszag"/>
    <tag k="shop" v="chemist"/>
    <tag k="addr:street" v="Balatoni út"/>
    <tag k="payment:debit_cards" v="yes"/>
    <tag k="payment:cash" v="yes"/>
    <tag k="operator" v="dm Kft."/>
    <tag k="instagram" v="https://www.instagram.com/dm_magyarorszag/"/>
    <tag k="addr:housenumber" v="2/a"/>
    <tag k="addr:city" v="Diósd"/>
    <tag k="name" v="dm"/>
    <tag k="source" v="website"/>
  </node>
  <!-- Original coordinates: POINT (47.4647246 18.8882917) -->
  <node action="modify" changeset="99999" id="-86" lat="47.4647246" lon="18.8882917" timestamp="" uid="4579407" user="KAMI" version="99999">
    <tag k="brand" v="dm"/>
    <tag k="youtube" v="https://www.youtube.com/user/dmMagyarorszag"/>
    <tag k="facebook" v="https://www.facebook.com/dm.Magyarorszag"/>
    <tag k="shop" v="chemist"/>
    <tag k="payment:debit_cards" v="yes"/>
    <tag k="payment:cash" v="yes"/>
    <tag k="operator" v="dm Kft."/>
    <tag k="addr:postcode" v="2051"/>
    <tag k="instagram" v="https://www.instagram.com/dm_magyarorszag/"/>
    <tag k="website" v="https://www.dm.hu"/>
    <tag k="addr:housenumber" v="4"/>
    <tag k="addr:city" v="Biatorbágy"/>
    <tag k="name" v="dm"/>
    <tag k="source" v="website"/>
    <tag k="addr:street" v="Budaörsi út"/>
  </node>
  <!-- OSM link: https://osm.org/node/4143054259 -->
  <!-- Original coordinates: POINT (47.49131 18.63528) -->
  <node action="modify" changeset="1" id="4143054259" lat="47.49131" lon="18.63528" timestamp="2016-04-23T16:3818Z" uid="4579407" user="KAMI" version="1">
    <tag k="brand" v="dm"/>
    <tag k="facebook" v="https://www.facebook.com/dm.Magyarorszag"/>
    <tag k="addr:postcode" v="2060"/>
    <tag k="website" v="https://www.dm.hu"/>
    <tag k="youtube" v="https://www.youtube.com/user/dmMagyarorszag"/>
    <tag k="shop" v="chemist"/>
    <tag k="addr:street" v="Kossuth tér"/>
    <tag k="payment:debit_cards" v="yes"/>
    <tag k="payment:cash" v="yes"/>
    <tag k="operator" v="dm Kft."/>
    <tag k="instagram" v="https://www.instagram.com/dm_magyarorszag/"/>
    <tag k="addr:housenumber" v="1"/>
    <tag k="addr:city" v="Bicske"/>
    <tag k="name" v="dm"/>
    <tag k="source" v="website"/>
  </node>
  <!-- Original coordinates: POINT (47.59821 18.92808) -->
  <node action="modify" changeset="99999" id="-88" lat="47.59821" lon="18.92808" timestamp="" uid="4579407" user="KAMI" version="99999">
    <tag k="brand" v="dm"/>
    <tag k="youtube" v="https://www.youtube.com/user/dmMagyarorszag"/>
    <tag k="facebook" v="https://www.facebook.com/dm.Magyarorszag"/>
    <tag k="shop" v="chemist"/>
    <tag k="payment:debit_cards" v="yes"/>
    <tag k="payment:cash" v="yes"/>
    <tag k="operator" v="dm Kft."/>
    <tag k="addr:postcode" v="2083"/>
    <tag k="instagram" v="https://www.instagram.com/dm_magyarorszag/"/>
    <tag k="website" v="https://www.dm.hu"/>
    <tag k="addr:housenumber" v="100"/>
    <tag k="addr:city" v="Solymár"/>
    <tag k="name" v="dm"/>
    <tag k="source" v="website"/>
    <tag k="addr:street" v="Tersztyánszky út"/>
  </node>
  <!-- Original coordinates: POINT (47.61832 18.91354) -->
  <node action="modify" changeset="99999" id="-89" lat="47.61832" lon="18.91354" timestamp="" uid="4579407" user="KAMI" version="99999">
    <tag k="brand" v="dm"/>
    <tag k="youtube" v="https://www.youtube.com/user/dmMagyarorszag"/>
    <tag k="facebook" v="https://www.facebook.com/dm.Magyarorszag"/>
    <tag k="shop" v="chemist"/>
    <tag k="payment:debit_cards" v="yes"/>
    <tag k="payment:cash" v="yes"/>
    <tag k="operator" v="dm Kft."/>
    <tag k="addr:postcode" v="2085"/>
    <tag k="instagram" v="https://www.instagram.com/dm_magyarorszag/"/>
    <tag k="website" v="https://www.dm.hu"/>
    <tag k="addr:housenumber" v="33"/>
    <tag k="addr:city" v="Pilisvörösvár"/>
    <tag k="name" v="dm"/>
    <tag k="source" v="website"/>
    <tag k="addr:street" v="Fő út"/>
  </node>
  <!-- OSM link: https://osm.org/node/3033893437 -->
  <!-- Original coordinates: POINT (47.60772 19.3393) -->
  <node action="modify" changeset="1" id="3033893437" lat="47.60772" lon="19.3393" timestamp="2015-03-15T09:2756Z" uid="4579407" user="KAMI" version="3">
    <tag k="brand" v="dm"/>
    <tag k="facebook" v="https://www.facebook.com/dm.Magyarorszag"/>
    <tag k="addr:postcode" v="2100"/>
    <tag k="website" v="https://www.dm.hu"/>
    <tag k="youtube" v="https://www.youtube.com/user/dmMagyarorszag"/>
    <tag k="shop" v="chemist"/>
    <tag k="addr:street" v="Bossányi Krisztina u."/>
    <tag k="payment:debit_cards" v="yes"/>
    <tag k="payment:cash" v="yes"/>
    <tag k="operator" v="dm Kft."/>
    <tag k="instagram" v="https://www.instagram.com/dm_magyarorszag/"/>
    <tag k="addr:housenumber" v="2"/>
    <tag k="addr:city" v="Gödöllő"/>
    <tag k="name" v="dm"/>
    <tag k="source" v="website"/>
  </node>
  <!-- OSM link: https://osm.org/node/2776876486 -->
  <!-- Original coordinates: POINT (47.59997 19.34636) -->
  <node action="modify" changeset="1" id="2776876486" lat="47.59997" lon="19.34636" timestamp="2015-03-15T09:2756Z" uid="4579407" user="KAMI" version="2">
    <tag k="brand" v="dm"/>
    <tag k="facebook" v="https://www.facebook.com/dm.Magyarorszag"/>
    <tag k="addr:postcode" v="2100"/>
    <tag k="website" v="https://www.dm.hu"/>
    <tag k="youtube" v="https://www.youtube.com/user/dmMagyarorszag"/>
    <tag k="shop" v="chemist"/>
    <tag k="addr:street" v="Kossuth Lajos utca"/>
    <tag k="payment:debit_cards" v="yes"/>
    <tag k="payment:cash" v="yes"/>
    <tag k="operator" v="dm Kft."/>
    <tag k="instagram" v="https://www.instagram.com/dm_magyarorszag/"/>
    <tag k="addr:housenumber" v="13"/>
    <tag k="addr:city" v="Gödöllő"/>
    <tag k="name" v="dm"/>
    <tag k="source" v="website"/>
  </node>
  <!-- OSM link: https://osm.org/node/4849602737 -->
  <!-- Original coordinates: POINT (47.52976 19.3966) -->
  <node action="modify" changeset="1" id="4849602737" lat="47.52976" lon="19.3966" timestamp="2017-05-12T12:5211Z" uid="4579407" user="KAMI" version="1">
    <tag k="brand" v="dm"/>
    <tag k="facebook" v="https://www.facebook.com/dm.Magyarorszag"/>
    <tag k="addr:postcode" v="2117"/>
    <tag k="website" v="https://www.dm.hu"/>
    <tag k="youtube" v="https://www.youtube.com/user/dmMagyarorszag"/>
    <tag k="shop" v="chemist"/>
    <tag k="addr:street" v="Rákóczi út"/>
    <tag k="payment:debit_cards" v="yes"/>
    <tag k="payment:cash" v="yes"/>
    <tag k="operator" v="dm Kft."/>
    <tag k="instagram" v="https://www.instagram.com/dm_magyarorszag/"/>
    <tag k="addr:housenumber" v="21"/>
    <tag k="addr:city" v="Isaszeg"/>
    <tag k="name" v="dm"/>
    <tag k="source" v="website"/>
  </node>
  <!-- OSM link: https://osm.org/node/4549559934 -->
  <!-- Original coordinates: POINT (47.65558 19.12972) -->
  <node action="modify" changeset="1" id="4549559934" lat="47.65558" lon="19.12972" timestamp="2016-12-11T17:1731Z" uid="4579407" user="KAMI" version="1">
    <tag k="brand" v="dm"/>
    <tag k="facebook" v="https://www.facebook.com/dm.Magyarorszag"/>
    <tag k="addr:postcode" v="2120"/>
    <tag k="website" v="https://www.dm.hu"/>
    <tag k="youtube" v="https://www.youtube.com/user/dmMagyarorszag"/>
    <tag k="shop" v="chemist"/>
    <tag k="addr:street" v="Fő út"/>
    <tag k="payment:debit_cards" v="yes"/>
    <tag k="payment:cash" v="yes"/>
    <tag k="operator" v="dm Kft."/>
    <tag k="instagram" v="https://www.instagram.com/dm_magyarorszag/"/>
    <tag k="addr:housenumber" v="190"/>
    <tag k="addr:city" v="Dunakesz"/>
    <tag k="name" v="dm"/>
    <tag k="source" v="website"/>
  </node>
  <!-- OSM link: https://osm.org/node/3470089223 -->
  <!-- Original coordinates: POINT (47.64208 19.12641) -->
  <node action="modify" changeset="1" id="3470089223" lat="47.64208" lon="19.12641" timestamp="2015-04-21T19:0759Z" uid="4579407" user="KAMI" version="1">
    <tag k="source:date" v="2013-06-16"/>
    <tag k="url" v="http://turistautak.hu/poi.php?id=155008"/>
    <tag k="facebook" v="https://www.facebook.com/dm.Magyarorszag"/>
    <tag k="brand" v="dm"/>
    <tag k="addr:postcode" v="2120"/>
    <tag k="website" v="https://www.dm.hu"/>
    <tag k="youtube" v="https://www.youtube.com/user/dmMagyarorszag"/>
    <tag k="shop" v="chemist"/>
    <tag k="addr:street" v="Cassalgrande tér"/>
    <tag k="payment:debit_cards" v="yes"/>
    <tag k="payment:cash" v="yes"/>
    <tag k="operator" v="dm Kft."/>
    <tag k="instagram" v="https://www.instagram.com/dm_magyarorszag/"/>
    <tag k="addr:housenumber" v="2"/>
    <tag k="addr:city" v="Dunakesz"/>
    <tag k="name" v="dm"/>
    <tag k="source" v="website"/>
  </node>
  <!-- Original coordinates: POINT (47.60977 19.11937) -->
  <node action="modify" changeset="99999" id="-95" lat="47.60977" lon="19.11937" timestamp="" uid="4579407" user="KAMI" version="99999">
    <tag k="brand" v="dm"/>
    <tag k="youtube" v="https://www.youtube.com/user/dmMagyarorszag"/>
    <tag k="facebook" v="https://www.facebook.com/dm.Magyarorszag"/>
    <tag k="shop" v="chemist"/>
    <tag k="payment:debit_cards" v="yes"/>
    <tag k="payment:cash" v="yes"/>
    <tag k="operator" v="dm Kft."/>
    <tag k="addr:postcode" v="2120"/>
    <tag k="instagram" v="https://www.instagram.com/dm_magyarorszag/"/>
    <tag k="website" v="https://www.dm.hu"/>
    <tag k="addr:housenumber" v="8"/>
    <tag k="addr:city" v="Dunakesz"/>
    <tag k="name" v="dm"/>
    <tag k="source" v="website"/>
    <tag k="addr:street" v="Nádas utca"/>
  </node>
  <!-- Original coordinates: POINT (47.5408332 19.2535981) -->
  <node action="modify" changeset="99999" id="-96" lat="47.5408332" lon="19.2535981" timestamp="" uid="4579407" user="KAMI" version="99999">
    <tag k="brand" v="dm"/>
    <tag k="youtube" v="https://www.youtube.com/user/dmMagyarorszag"/>
    <tag k="facebook" v="https://www.facebook.com/dm.Magyarorszag"/>
    <tag k="shop" v="chemist"/>
    <tag k="payment:debit_cards" v="yes"/>
    <tag k="payment:cash" v="yes"/>
    <tag k="operator" v="dm Kft."/>
    <tag k="addr:postcode" v="2143"/>
    <tag k="instagram" v="https://www.instagram.com/dm_magyarorszag/"/>
    <tag k="website" v="https://www.dm.hu"/>
    <tag k="addr:housenumber" v="2"/>
    <tag k="addr:city" v="Kistarcsa"/>
    <tag k="name" v="dm"/>
    <tag k="source" v="website"/>
    <tag k="addr:street" v="Kistarcsa Semmelweis tér"/>
  </node>
  <!-- Original coordinates: POINT (47.35049 19.44595) -->
  <node action="modify" changeset="99999" id="-97" lat="47.35049" lon="19.44595" timestamp="" uid="4579407" user="KAMI" version="99999">
    <tag k="brand" v="dm"/>
    <tag k="youtube" v="https://www.youtube.com/user/dmMagyarorszag"/>
    <tag k="facebook" v="https://www.facebook.com/dm.Magyarorszag"/>
    <tag k="shop" v="chemist"/>
    <tag k="payment:debit_cards" v="yes"/>
    <tag k="payment:cash" v="yes"/>
    <tag k="operator" v="dm Kft."/>
    <tag k="addr:postcode" v="2200"/>
    <tag k="instagram" v="https://www.instagram.com/dm_magyarorszag/"/>
    <tag k="website" v="https://www.dm.hu"/>
    <tag k="addr:housenumber" v="75"/>
    <tag k="addr:city" v="Monor"/>
    <tag k="name" v="dm"/>
    <tag k="source" v="website"/>
    <tag k="addr:street" v="Kossuth Lajos u."/>
  </node>
  <!-- OSM link: https://osm.org/node/5337357855 -->
  <!-- Original coordinates: POINT (47.41631 19.24911) -->
  <node action="modify" changeset="1" id="5337357855" lat="47.41631" lon="19.24911" timestamp="2018-01-13T17:4529Z" uid="4579407" user="KAMI" version="2">
    <tag k="brand" v="dm"/>
    <tag k="facebook" v="https://www.facebook.com/dm.Magyarorszag"/>
    <tag k="addr:postcode" v="2220"/>
    <tag k="website" v="https://www.dm.hu"/>
    <tag k="youtube" v="https://www.youtube.com/user/dmMagyarorszag"/>
    <tag k="shop" v="chemist"/>
    <tag k="addr:street" v="Fő út"/>
    <tag k="payment:debit_cards" v="yes"/>
    <tag k="payment:cash" v="yes"/>
    <tag k="operator" v="dm Kft."/>
    <tag k="instagram" v="https://www.instagram.com/dm_magyarorszag/"/>
    <tag k="addr:housenumber" v="246-248"/>
    <tag k="addr:city" v="Vecsés"/>
    <tag k="name" v="dm"/>
    <tag k="source" v="website"/>
  </node>
  <!-- Original coordinates: POINT (47.16089 18.94527) -->
  <node action="modify" changeset="99999" id="-99" lat="47.16089" lon="18.94527" timestamp="" uid="4579407" user="KAMI" version="99999">
    <tag k="brand" v="dm"/>
    <tag k="youtube" v="https://www.youtube.com/user/dmMagyarorszag"/>
    <tag k="facebook" v="https://www.facebook.com/dm.Magyarorszag"/>
    <tag k="shop" v="chemist"/>
    <tag k="payment:debit_cards" v="yes"/>
    <tag k="payment:cash" v="yes"/>
    <tag k="operator" v="dm Kft."/>
    <tag k="addr:postcode" v="2300"/>
    <tag k="instagram" v="https://www.instagram.com/dm_magyarorszag/"/>
    <tag k="website" v="https://www.dm.hu"/>
    <tag k="addr:housenumber" v="23"/>
    <tag k="addr:city" v="Ráckeve"/>
    <tag k="name" v="dm"/>
    <tag k="source" v="website"/>
    <tag k="addr:street" v="Kossuth utca"/>
  </node>
  <!-- Original coordinates: POINT (47.33891 19.03491) -->
  <node action="modify" changeset="99999" id="-100" lat="47.33891" lon="19.03491" timestamp="" uid="4579407" user="KAMI" version="99999">
    <tag k="brand" v="dm"/>
    <tag k="youtube" v="https://www.youtube.com/user/dmMagyarorszag"/>
    <tag k="facebook" v="https://www.facebook.com/dm.Magyarorszag"/>
    <tag k="shop" v="chemist"/>
    <tag k="payment:debit_cards" v="yes"/>
    <tag k="payment:cash" v="yes"/>
    <tag k="operator" v="dm Kft."/>
    <tag k="addr:postcode" v="2310"/>
    <tag k="instagram" v="https://www.instagram.com/dm_magyarorszag/"/>
    <tag k="website" v="https://www.dm.hu"/>
    <tag k="addr:city" v="Szigetszentmiklós"/>
    <tag k="name" v="dm"/>
    <tag k="source" v="website"/>
    <tag k="addr:street" v="Szentmiklósi út"/>
  </node>
  <!-- OSM link: https://osm.org/node/4277217247 -->
  <!-- Original coordinates: POINT (47.33807 18.9959) -->
  <node action="modify" changeset="1" id="4277217247" lat="47.33807" lon="18.9959" timestamp="2016-07-01T21:4641Z" uid="4579407" user="KAMI" version="1">
    <tag k="brand" v="dm"/>
    <tag k="facebook" v="https://www.facebook.com/dm.Magyarorszag"/>
    <tag k="addr:postcode" v="2316"/>
    <tag k="website" v="https://www.dm.hu"/>
    <tag k="youtube" v="https://www.youtube.com/user/dmMagyarorszag"/>
    <tag k="shop" v="chemist"/>
    <tag k="addr:street" v="Hermina út"/>
    <tag k="payment:debit_cards" v="yes"/>
    <tag k="payment:cash" v="yes"/>
    <tag k="operator" v="dm Kft."/>
    <tag k="instagram" v="https://www.instagram.com/dm_magyarorszag/"/>
    <tag k="addr:housenumber" v="032"/>
    <tag k="addr:city" v="Tököl"/>
    <tag k="name" v="dm"/>
    <tag k="source" v="website"/>
  </node>
  <!-- OSM link: https://osm.org/node/3465808612 -->
  <!-- Original coordinates: POINT (47.34442 19.11919) -->
  <node action="modify" changeset="1" id="3465808612" lat="47.34442" lon="19.11919" timestamp="2015-04-19T17:5058Z" uid="4579407" user="KAMI" version="1">
    <tag k="source:date" v="2011-06-24"/>
    <tag k="url" v="http://turistautak.hu/poi.php?id=112688"/>
    <tag k="facebook" v="https://www.facebook.com/dm.Magyarorszag"/>
    <tag k="brand" v="dm"/>
    <tag k="addr:postcode" v="2330"/>
    <tag k="website" v="https://www.dm.hu"/>
    <tag k="youtube" v="https://www.youtube.com/user/dmMagyarorszag"/>
    <tag k="shop" v="chemist"/>
    <tag k="addr:street" v="Alsónémedi út"/>
    <tag k="payment:debit_cards" v="yes"/>
    <tag k="payment:cash" v="yes"/>
    <tag k="operator" v="dm Kft."/>
    <tag k="instagram" v="https://www.instagram.com/dm_magyarorszag/"/>
    <tag k="addr:city" v="Dunaharaszt"/>
    <tag k="name" v="dm"/>
    <tag k="source" v="website"/>
  </node>
  <!-- OSM link: https://osm.org/node/2295820414 -->
  <!-- Original coordinates: POINT (47.35475 19.09187) -->
  <node action="modify" changeset="1" id="2295820414" lat="47.35475" lon="19.09187" timestamp="2018-02-16T15:2716Z" uid="4579407" user="KAMI" version="7">
    <tag k="brand" v="dm"/>
    <tag k="fax" v="+36 23 516-193"/>
    <tag k="youtube" v="https://www.youtube.com/user/dmMagyarorszag"/>
    <tag k="facebook" v="https://www.facebook.com/dm.Magyarorszag"/>
    <tag k="email" v="info@dm-drogeriemarkt.hu"/>
    <tag k="payment:debit_cards" v="yes"/>
    <tag k="payment:cash" v="yes"/>
    <tag k="operator" v="dm Kft."/>
    <tag k="shop" v="chemist"/>
    <tag k="phone" v="+36 24 537-605"/>
    <tag k="addr:postcode" v="2330"/>
    <tag k="instagram" v="https://www.instagram.com/dm_magyarorszag/"/>
    <tag k="website" v="https://www.dm.hu"/>
    <tag k="addr:housenumber" v="5"/>
    <tag k="addr:city" v="Dunaharaszt"/>
    <tag k="name" v="dm"/>
    <tag k="source" v="website"/>
    <tag k="addr:street" v="Baktay tér"/>
  </node>
  <!-- OSM link: https://osm.org/way/305320550 -->
  <!-- Original coordinates: POINT (47.29329 19.22729) -->
  <way action="modify" changeset="1" id="305320550" timestamp="2015-08-05T09:4911Z" uid="4579407" user="KAMI" version="3">
    <nd ref="3099311515"/>
    <nd ref="3099311518"/>
    <nd ref="3099311517"/>
    <nd ref="3099311516"/>
    <nd ref="3099311519"/>
    <nd ref="3535145006"/>
    <nd ref="3099311514"/>
    <nd ref="3099311513"/>
    <nd ref="3099311520"/>
    <nd ref="3535145022"/>
    <nd ref="3099311515"/>
    <tag k="brand" v="dm"/>
    <tag k="facebook" v="https://www.facebook.com/dm.Magyarorszag"/>
    <tag k="addr:postcode" v="2364"/>
    <tag k="website" v="https://www.dm.hu"/>
    <tag k="building" v="yes"/>
    <tag k="youtube" v="https://www.youtube.com/user/dmMagyarorszag"/>
    <tag k="shop" v="chemist"/>
    <tag k="addr:street" v="Szabadság tér"/>
    <tag k="payment:debit_cards" v="yes"/>
    <tag k="payment:cash" v="yes"/>
    <tag k="operator" v="dm Kft."/>
    <tag k="instagram" v="https://www.instagram.com/dm_magyarorszag/"/>
    <tag k="addr:housenumber" v="3"/>
    <tag k="addr:city" v="Ócsa"/>
    <tag k="name" v="dm"/>
    <tag k="source" v="website"/>
  </way>
  <!-- OSM link: https://osm.org/way/363391533 -->
  <!-- Original coordinates: POINT (46.96344 18.9364) -->
  <way action="modify" changeset="1" id="363391533" timestamp="2016-01-29T14:1627Z" uid="4579407" user="KAMI" version="2">
    <nd ref="3675606258"/>
    <nd ref="3675606246"/>
    <nd ref="3675606252"/>
    <nd ref="3675606267"/>
    <nd ref="3675606258"/>
    <tag k="brand" v="dm"/>
    <tag k="facebook" v="https://www.facebook.com/dm.Magyarorszag"/>
    <tag k="addr:postcode" v="2400"/>
    <tag k="website" v="https://www.dm.hu"/>
    <tag k="building" v="yes"/>
    <tag k="youtube" v="https://www.youtube.com/user/dmMagyarorszag"/>
    <tag k="shop" v="chemist"/>
    <tag k="addr:street" v="Dózsa György utca"/>
    <tag k="payment:debit_cards" v="yes"/>
    <tag k="payment:cash" v="yes"/>
    <tag k="operator" v="dm Kft."/>
    <tag k="instagram" v="https://www.instagram.com/dm_magyarorszag/"/>
    <tag k="addr:housenumber" v="4/b"/>
    <tag k="addr:city" v="Dunaújváros"/>
    <tag k="name" v="dm"/>
    <tag k="source" v="website"/>
  </way>
  <!-- Original coordinates: POINT (46.96093 18.91964) -->
  <node action="modify" changeset="99999" id="-106" lat="46.96093" lon="18.91964" timestamp="" uid="4579407" user="KAMI" version="99999">
    <tag k="brand" v="dm"/>
    <tag k="youtube" v="https://www.youtube.com/user/dmMagyarorszag"/>
    <tag k="facebook" v="https://www.facebook.com/dm.Magyarorszag"/>
    <tag k="shop" v="chemist"/>
    <tag k="payment:debit_cards" v="yes"/>
    <tag k="payment:cash" v="yes"/>
    <tag k="operator" v="dm Kft."/>
    <tag k="addr:postcode" v="2400"/>
    <tag k="instagram" v="https://www.instagram.com/dm_magyarorszag/"/>
    <tag k="website" v="https://www.dm.hu"/>
    <tag k="addr:housenumber" v="1"/>
    <tag k="addr:city" v="Dunaújváros"/>
    <tag k="name" v="dm"/>
    <tag k="source" v="website"/>
    <tag k="addr:street" v="Béke körút"/>
  </node>
  <!-- OSM link: https://osm.org/node/5316270422 -->
  <!-- Original coordinates: POINT (47.32203 18.90091) -->
  <node action="modify" changeset="1" id="5316270422" lat="47.32203" lon="18.90091" timestamp="2018-04-04T12:5000Z" uid="4579407" user="KAMI" version="2">
    <tag k="brand" v="dm"/>
    <tag k="facebook" v="https://www.facebook.com/dm.Magyarorszag"/>
    <tag k="phone" v="+36304125356"/>
    <tag k="addr:postcode" v="2440"/>
    <tag k="opening_hours" v="Mo-Fr 08:00-19:00; Sa 08:00-15:00; Su 09:00-13:00"/>
    <tag k="website" v="https://www.dm.hu"/>
    <tag k="youtube" v="https://www.youtube.com/user/dmMagyarorszag"/>
    <tag k="shop" v="chemist"/>
    <tag k="addr:street" v="Vörösmarty út"/>
    <tag k="ref" v="240"/>
    <tag k="payment:debit_cards" v="yes"/>
    <tag k="payment:cash" v="yes"/>
    <tag k="operator" v="dm Kft."/>
    <tag k="instagram" v="https://www.instagram.com/dm_magyarorszag/"/>
    <tag k="addr:housenumber" v="2"/>
    <tag k="addr:city" v="Százhalombatta"/>
    <tag k="name" v="dm"/>
    <tag k="source" v="website"/>
  </node>
  <!-- OSM link: https://osm.org/way/219400696 -->
  <!-- Original coordinates: POINT (47.20756 18.62923) -->
  <way action="modify" changeset="1" id="219400696" timestamp="2015-03-15T09:2747Z" uid="4579407" user="KAMI" version="2">
    <nd ref="1704149847"/>
    <nd ref="2285636902"/>
    <nd ref="2285636898"/>
    <nd ref="2285636897"/>
    <nd ref="1704149847"/>
    <tag k="brand" v="dm"/>
    <tag k="facebook" v="https://www.facebook.com/dm.Magyarorszag"/>
    <tag k="addr:postcode" v="2483"/>
    <tag k="website" v="https://www.dm.hu"/>
    <tag k="building" v="yes"/>
    <tag k="youtube" v="https://www.youtube.com/user/dmMagyarorszag"/>
    <tag k="shop" v="chemist"/>
    <tag k="addr:street" v="Szabadság út"/>
    <tag k="payment:debit_cards" v="yes"/>
    <tag k="payment:cash" v="yes"/>
    <tag k="operator" v="dm Kft."/>
    <tag k="instagram" v="https://www.instagram.com/dm_magyarorszag/"/>
    <tag k="addr:housenumber" v="10"/>
    <tag k="addr:city" v="Gárdony"/>
    <tag k="name" v="dm"/>
    <tag k="source" v="website"/>
  </way>
  <!-- OSM link: https://osm.org/node/5047896413 -->
  <!-- Original coordinates: POINT (47.17207 19.79677) -->
  <node action="modify" changeset="1" id="5047896413" lat="47.17207" lon="19.79677" timestamp="2017-08-21T10:3448Z" uid="4579407" user="KAMI" version="1">
    <tag k="brand" v="dm"/>
    <tag k="facebook" v="https://www.facebook.com/dm.Magyarorszag"/>
    <tag k="addr:postcode" v="2700"/>
    <tag k="opening_hours" v="Mo-Fr 08:00-19:00; Sa 08:00-14:00"/>
    <tag k="website" v="https://www.dm.hu"/>
    <tag k="youtube" v="https://www.youtube.com/user/dmMagyarorszag"/>
    <tag k="shop" v="chemist"/>
    <tag k="addr:street" v="Kossuth F. u"/>
    <tag k="payment:debit_cards" v="yes"/>
    <tag k="payment:cash" v="yes"/>
    <tag k="operator" v="dm Kft."/>
    <tag k="instagram" v="https://www.instagram.com/dm_magyarorszag/"/>
    <tag k="addr:housenumber" v="6"/>
    <tag k="addr:city" v="Cegléd"/>
    <tag k="name" v="dm"/>
    <tag k="source" v="website"/>
  </node>
  <!-- OSM link: https://osm.org/node/3351945039 -->
  <!-- Original coordinates: POINT (47.24392 19.61224) -->
  <node action="modify" changeset="1" id="3351945039" lat="47.24392" lon="19.61224" timestamp="2015-02-15T13:5642Z" uid="4579407" user="KAMI" version="1">
    <tag k="brand" v="dm"/>
    <tag k="facebook" v="https://www.facebook.com/dm.Magyarorszag"/>
    <tag k="addr:postcode" v="2730"/>
    <tag k="website" v="https://www.dm.hu"/>
    <tag k="youtube" v="https://www.youtube.com/user/dmMagyarorszag"/>
    <tag k="shop" v="chemist"/>
    <tag k="addr:street" v="Vasút út"/>
    <tag k="payment:debit_cards" v="yes"/>
    <tag k="payment:cash" v="yes"/>
    <tag k="operator" v="dm Kft."/>
    <tag k="instagram" v="https://www.instagram.com/dm_magyarorszag/"/>
    <tag k="addr:housenumber" v="4-11"/>
    <tag k="addr:city" v="Albertirsa"/>
    <tag k="name" v="dm"/>
    <tag k="source" v="website"/>
  </node>
  <!-- Original coordinates: POINT (47.03303 19.78355) -->
  <node action="modify" changeset="99999" id="-111" lat="47.03303" lon="19.78355" timestamp="" uid="4579407" user="KAMI" version="99999">
    <tag k="brand" v="dm"/>
    <tag k="youtube" v="https://www.youtube.com/user/dmMagyarorszag"/>
    <tag k="facebook" v="https://www.facebook.com/dm.Magyarorszag"/>
    <tag k="shop" v="chemist"/>
    <tag k="payment:debit_cards" v="yes"/>
    <tag k="payment:cash" v="yes"/>
    <tag k="operator" v="dm Kft."/>
    <tag k="addr:postcode" v="2750"/>
    <tag k="instagram" v="https://www.instagram.com/dm_magyarorszag/"/>
    <tag k="website" v="https://www.dm.hu"/>
    <tag k="addr:housenumber" v="1"/>
    <tag k="addr:city" v="Nagykőrös"/>
    <tag k="name" v="dm"/>
    <tag k="source" v="website"/>
    <tag k="addr:street" v="Kecskeméti utca"/>
  </node>
  <!-- OSM link: https://osm.org/node/1359142947 -->
  <!-- Original coordinates: POINT (47.58359 18.3878) -->
  <node action="modify" changeset="1" id="1359142947" lat="47.58359" lon="18.3878" timestamp="2018-01-01T21:3251Z" uid="4579407" user="KAMI" version="4">
    <tag k="brand" v="dm"/>
    <tag k="facebook" v="https://www.facebook.com/dm.Magyarorszag"/>
    <tag k="addr:postcode" v="2800"/>
    <tag k="website" v="https://www.dm.hu"/>
    <tag k="youtube" v="https://www.youtube.com/user/dmMagyarorszag"/>
    <tag k="shop" v="chemist"/>
    <tag k="addr:street" v="Vadász u."/>
    <tag k="payment:debit_cards" v="yes"/>
    <tag k="payment:cash" v="yes"/>
    <tag k="operator" v="dm Kft."/>
    <tag k="instagram" v="https://www.instagram.com/dm_magyarorszag/"/>
    <tag k="addr:housenumber" v="34"/>
    <tag k="addr:city" v="Tatabánya"/>
    <tag k="name" v="dm"/>
    <tag k="source" v="website"/>
  </node>
  <!-- Original coordinates: POINT (47.5867214 18.3940868) -->
  <node action="modify" changeset="99999" id="-113" lat="47.5867214" lon="18.3940868" timestamp="" uid="4579407" user="KAMI" version="99999">
    <tag k="brand" v="dm"/>
    <tag k="youtube" v="https://www.youtube.com/user/dmMagyarorszag"/>
    <tag k="facebook" v="https://www.facebook.com/dm.Magyarorszag"/>
    <tag k="shop" v="chemist"/>
    <tag k="payment:debit_cards" v="yes"/>
    <tag k="payment:cash" v="yes"/>
    <tag k="operator" v="dm Kft."/>
    <tag k="addr:postcode" v="2800"/>
    <tag k="instagram" v="https://www.instagram.com/dm_magyarorszag/"/>
    <tag k="website" v="https://www.dm.hu"/>
    <tag k="addr:housenumber" v="7-9"/>
    <tag k="addr:city" v="Tatabánya"/>
    <tag k="name" v="dm"/>
    <tag k="source" v="website"/>
    <tag k="addr:street" v="Győri út"/>
  </node>
  <!-- OSM link: https://osm.org/node/2434385688 -->
  <!-- Original coordinates: POINT (47.4861 18.31359) -->
  <node action="modify" changeset="1" id="2434385688" lat="47.4861" lon="18.31359" timestamp="2015-11-22T09:5401Z" uid="4579407" user="KAMI" version="3">
    <tag k="brand" v="dm"/>
    <tag k="facebook" v="https://www.facebook.com/dm.Magyarorszag"/>
    <tag k="wheelchair" v="yes"/>
    <tag k="addr:postcode" v="2840"/>
    <tag k="website" v="https://www.dm.hu"/>
    <tag k="youtube" v="https://www.youtube.com/user/dmMagyarorszag"/>
    <tag k="shop" v="chemist"/>
    <tag k="addr:street" v="Rákóczi Ferenc út"/>
    <tag k="payment:debit_cards" v="yes"/>
    <tag k="payment:cash" v="yes"/>
    <tag k="operator" v="dm Kft."/>
    <tag k="instagram" v="https://www.instagram.com/dm_magyarorszag/"/>
    <tag k="addr:housenumber" v="48"/>
    <tag k="addr:city" v="Oroszlány"/>
    <tag k="name" v="dm"/>
    <tag k="source" v="website"/>
  </node>
  <!-- Original coordinates: POINT (47.6511 18.32556) -->
  <node action="modify" changeset="99999" id="-115" lat="47.6511" lon="18.32556" timestamp="" uid="4579407" user="KAMI" version="99999">
    <tag k="brand" v="dm"/>
    <tag k="youtube" v="https://www.youtube.com/user/dmMagyarorszag"/>
    <tag k="facebook" v="https://www.facebook.com/dm.Magyarorszag"/>
    <tag k="shop" v="chemist"/>
    <tag k="payment:debit_cards" v="yes"/>
    <tag k="payment:cash" v="yes"/>
    <tag k="operator" v="dm Kft."/>
    <tag k="addr:postcode" v="2890"/>
    <tag k="instagram" v="https://www.instagram.com/dm_magyarorszag/"/>
    <tag k="website" v="https://www.dm.hu"/>
    <tag k="addr:housenumber" v="10"/>
    <tag k="addr:city" v="Tata"/>
    <tag k="name" v="dm"/>
    <tag k="source" v="website"/>
    <tag k="addr:street" v="Ady Endre út"/>
  </node>
  <!-- Original coordinates: POINT (47.66709 19.68207) -->
  <node action="modify" changeset="99999" id="-116" lat="47.66709" lon="19.68207" timestamp="" uid="4579407" user="KAMI" version="99999">
    <tag k="brand" v="dm"/>
    <tag k="youtube" v="https://www.youtube.com/user/dmMagyarorszag"/>
    <tag k="facebook" v="https://www.facebook.com/dm.Magyarorszag"/>
    <tag k="shop" v="chemist"/>
    <tag k="payment:debit_cards" v="yes"/>
    <tag k="payment:cash" v="yes"/>
    <tag k="operator" v="dm Kft."/>
    <tag k="addr:postcode" v="3000"/>
    <tag k="instagram" v="https://www.instagram.com/dm_magyarorszag/"/>
    <tag k="website" v="https://www.dm.hu"/>
    <tag k="addr:housenumber" v="18"/>
    <tag k="addr:city" v="Hatvan"/>
    <tag k="name" v="dm"/>
    <tag k="source" v="website"/>
    <tag k="addr:street" v="Kossuth tér"/>
  </node>
  <!-- Original coordinates: POINT (47.5326399 21.628941) -->
  <node action="modify" changeset="99999" id="-117" lat="47.5326399" lon="21.628941" timestamp="" uid="4579407" user="KAMI" version="99999">
    <tag k="brand" v="dm"/>
    <tag k="youtube" v="https://www.youtube.com/user/dmMagyarorszag"/>
    <tag k="facebook" v="https://www.facebook.com/dm.Magyarorszag"/>
    <tag k="shop" v="chemist"/>
    <tag k="payment:debit_cards" v="yes"/>
    <tag k="payment:cash" v="yes"/>
    <tag k="operator" v="dm Kft."/>
    <tag k="addr:postcode" v="4024"/>
    <tag k="instagram" v="https://www.instagram.com/dm_magyarorszag/"/>
    <tag k="website" v="https://www.dm.hu"/>
    <tag k="addr:housenumber" v="30"/>
    <tag k="addr:city" v="Debrecen"/>
    <tag k="name" v="dm"/>
    <tag k="source" v="website"/>
    <tag k="addr:street" v="Csapó utca"/>
  </node>
  <!-- Original coordinates: POINT (47.5348922 21.625441) -->
  <node action="modify" changeset="99999" id="-118" lat="47.5348922" lon="21.625441" timestamp="" uid="4579407" user="KAMI" version="99999">
    <tag k="brand" v="dm"/>
    <tag k="youtube" v="https://www.youtube.com/user/dmMagyarorszag"/>
    <tag k="facebook" v="https://www.facebook.com/dm.Magyarorszag"/>
    <tag k="shop" v="chemist"/>
    <tag k="payment:debit_cards" v="yes"/>
    <tag k="payment:cash" v="yes"/>
    <tag k="operator" v="dm Kft."/>
    <tag k="addr:postcode" v="4026"/>
    <tag k="instagram" v="https://www.instagram.com/dm_magyarorszag/"/>
    <tag k="website" v="https://www.dm.hu"/>
    <tag k="addr:housenumber" v="18"/>
    <tag k="addr:city" v="Debrecen"/>
    <tag k="name" v="dm"/>
    <tag k="source" v="website"/>
    <tag k="addr:street" v="Péterfia utca"/>
  </node>
  <!-- OSM link: https://osm.org/node/1944057643 -->
  <!-- Original coordinates: POINT (47.54765 21.61126) -->
  <node action="modify" changeset="1" id="1944057643" lat="47.54765" lon="21.61126" timestamp="2015-03-15T09:2755Z" uid="4579407" user="KAMI" version="2">
    <tag k="brand" v="dm"/>
    <tag k="facebook" v="https://www.facebook.com/dm.Magyarorszag"/>
    <tag k="addr:postcode" v="4032"/>
    <tag k="website" v="https://www.dm.hu"/>
    <tag k="youtube" v="https://www.youtube.com/user/dmMagyarorszag"/>
    <tag k="shop" v="chemist"/>
    <tag k="addr:street" v="56-Osok tere"/>
    <tag k="payment:debit_cards" v="yes"/>
    <tag k="payment:cash" v="yes"/>
    <tag k="operator" v="dm Kft."/>
    <tag k="instagram" v="https://www.instagram.com/dm_magyarorszag/"/>
    <tag k="addr:housenumber" v="6/a"/>
    <tag k="addr:city" v="Debrecen"/>
    <tag k="name" v="dm"/>
    <tag k="source" v="website"/>
  </node>
  <!-- Original coordinates: POINT (47.5306476 21.6077487) -->
  <node action="modify" changeset="99999" id="-120" lat="47.5306476" lon="21.6077487" timestamp="" uid="4579407" user="KAMI" version="99999">
    <tag k="brand" v="dm"/>
    <tag k="youtube" v="https://www.youtube.com/user/dmMagyarorszag"/>
    <tag k="facebook" v="https://www.facebook.com/dm.Magyarorszag"/>
    <tag k="shop" v="chemist"/>
    <tag k="payment:debit_cards" v="yes"/>
    <tag k="payment:cash" v="yes"/>
    <tag k="operator" v="dm Kft."/>
    <tag k="addr:postcode" v="4031"/>
    <tag k="instagram" v="https://www.instagram.com/dm_magyarorszag/"/>
    <tag k="website" v="https://www.dm.hu"/>
    <tag k="addr:housenumber" v="1-11"/>
    <tag k="addr:city" v="Debrecen"/>
    <tag k="name" v="dm"/>
    <tag k="source" v="website"/>
    <tag k="addr:street" v="Kishegyesi út"/>
  </node>
  <!-- OSM link: https://osm.org/way/483401860 -->
  <!-- Original coordinates: POINT (47.52289 21.60405) -->
  <way action="modify" changeset="1" id="483401860" timestamp="2017-03-29T08:3813Z" uid="4579407" user="KAMI" version="1">
    <nd ref="4761438537"/>
    <nd ref="4761445071"/>
    <nd ref="4761445072"/>
    <nd ref="4761445073"/>
    <nd ref="4761445074"/>
    <nd ref="4761438538"/>
    <nd ref="4761438537"/>
    <tag k="brand" v="dm"/>
    <tag k="facebook" v="https://www.facebook.com/dm.Magyarorszag"/>
    <tag k="addr:postcode" v="4031"/>
    <tag k="website" v="https://www.dm.hu"/>
    <tag k="building" v="yes"/>
    <tag k="youtube" v="https://www.youtube.com/user/dmMagyarorszag"/>
    <tag k="shop" v="chemist"/>
    <tag k="addr:street" v="Angyal tér"/>
    <tag k="payment:debit_cards" v="yes"/>
    <tag k="payment:cash" v="yes"/>
    <tag k="operator" v="dm Kft."/>
    <tag k="instagram" v="https://www.instagram.com/dm_magyarorszag/"/>
    <tag k="addr:housenumber" v="17"/>
    <tag k="addr:city" v="Debrecen"/>
    <tag k="name" v="dm"/>
    <tag k="source" v="website"/>
  </way>
  <!-- OSM link: https://osm.org/node/3273380782 -->
  <!-- Original coordinates: POINT (47.54322 21.58129) -->
  <node action="modify" changeset="1" id="3273380782" lat="47.54322" lon="21.58129" timestamp="2015-03-15T09:2755Z" uid="4579407" user="KAMI" version="2">
    <tag k="brand" v="dm"/>
    <tag k="facebook" v="https://www.facebook.com/dm.Magyarorszag"/>
    <tag k="addr:postcode" v="4031"/>
    <tag k="website" v="https://www.dm.hu"/>
    <tag k="youtube" v="https://www.youtube.com/user/dmMagyarorszag"/>
    <tag k="shop" v="chemist"/>
    <tag k="addr:street" v="Kishatár utca"/>
    <tag k="payment:debit_cards" v="yes"/>
    <tag k="payment:cash" v="yes"/>
    <tag k="operator" v="dm Kft."/>
    <tag k="instagram" v="https://www.instagram.com/dm_magyarorszag/"/>
    <tag k="addr:city" v="Debrecen"/>
    <tag k="name" v="dm"/>
    <tag k="source" v="website"/>
  </node>
  <!-- OSM link: https://osm.org/node/3000594595 -->
  <!-- Original coordinates: POINT (47.22015 21.53641) -->
  <node action="modify" changeset="1" id="3000594595" lat="47.22015" lon="21.53641" timestamp="2015-03-15T09:2751Z" uid="4579407" user="KAMI" version="3">
    <tag k="brand" v="dm"/>
    <tag k="facebook" v="https://www.facebook.com/dm.Magyarorszag"/>
    <tag k="addr:postcode" v="4100"/>
    <tag k="website" v="https://www.dm.hu"/>
    <tag k="youtube" v="https://www.youtube.com/user/dmMagyarorszag"/>
    <tag k="shop" v="chemist"/>
    <tag k="addr:street" v="Dózsa György út"/>
    <tag k="payment:debit_cards" v="yes"/>
    <tag k="payment:cash" v="yes"/>
    <tag k="operator" v="dm Kft."/>
    <tag k="instagram" v="https://www.instagram.com/dm_magyarorszag/"/>
    <tag k="addr:housenumber" v="21"/>
    <tag k="addr:city" v="Berettyóújfalu"/>
    <tag k="name" v="dm"/>
    <tag k="source" v="website"/>
  </node>
  <!-- OSM link: https://osm.org/node/2981765540 -->
  <!-- Original coordinates: POINT (47.31731 21.11798) -->
  <node action="modify" changeset="1" id="2981765540" lat="47.31731" lon="21.11798" timestamp="2015-11-26T21:1353Z" uid="4579407" user="KAMI" version="3">
    <tag k="brand" v="dm"/>
    <tag k="facebook" v="https://www.facebook.com/dm.Magyarorszag"/>
    <tag k="wheelchair" v="yes"/>
    <tag k="addr:postcode" v="4150"/>
    <tag k="website" v="https://www.dm.hu"/>
    <tag k="youtube" v="https://www.youtube.com/user/dmMagyarorszag"/>
    <tag k="shop" v="chemist"/>
    <tag k="addr:street" v="Bocskai út"/>
    <tag k="payment:debit_cards" v="yes"/>
    <tag k="payment:cash" v="yes"/>
    <tag k="operator" v="dm Kft."/>
    <tag k="instagram" v="https://www.instagram.com/dm_magyarorszag/"/>
    <tag k="addr:housenumber" v="1"/>
    <tag k="addr:city" v="Püspökladány"/>
    <tag k="name" v="dm"/>
    <tag k="source" v="website"/>
  </node>
  <!-- Original coordinates: POINT (47.4337163 21.3767736) -->
  <node action="modify" changeset="99999" id="-125" lat="47.4337163" lon="21.3767736" timestamp="" uid="4579407" user="KAMI" version="99999">
    <tag k="brand" v="dm"/>
    <tag k="youtube" v="https://www.youtube.com/user/dmMagyarorszag"/>
    <tag k="facebook" v="https://www.facebook.com/dm.Magyarorszag"/>
    <tag k="shop" v="chemist"/>
    <tag k="payment:debit_cards" v="yes"/>
    <tag k="payment:cash" v="yes"/>
    <tag k="operator" v="dm Kft."/>
    <tag k="addr:postcode" v="4200"/>
    <tag k="instagram" v="https://www.instagram.com/dm_magyarorszag/"/>
    <tag k="website" v="https://www.dm.hu"/>
    <tag k="addr:city" v="Hajdúszoboszló"/>
    <tag k="name" v="dm"/>
    <tag k="source" v="website"/>
    <tag k="addr:street" v="Kabai út"/>
  </node>
  <!-- Original coordinates: POINT (47.6708754 21.5093366) -->
  <node action="modify" changeset="99999" id="-126" lat="47.6708754" lon="21.5093366" timestamp="" uid="4579407" user="KAMI" version="99999">
    <tag k="brand" v="dm"/>
    <tag k="youtube" v="https://www.youtube.com/user/dmMagyarorszag"/>
    <tag k="facebook" v="https://www.facebook.com/dm.Magyarorszag"/>
    <tag k="shop" v="chemist"/>
    <tag k="payment:debit_cards" v="yes"/>
    <tag k="payment:cash" v="yes"/>
    <tag k="operator" v="dm Kft."/>
    <tag k="addr:postcode" v="4220"/>
    <tag k="instagram" v="https://www.instagram.com/dm_magyarorszag/"/>
    <tag k="website" v="https://www.dm.hu"/>
    <tag k="addr:housenumber" v="10-16"/>
    <tag k="addr:city" v="Hajdúböszörmény"/>
    <tag k="name" v="dm"/>
    <tag k="source" v="website"/>
    <tag k="addr:street" v="Kossuth utca"/>
  </node>
  <!-- Original coordinates: POINT (47.5977128 21.5787777) -->
  <node action="modify" changeset="99999" id="-127" lat="47.5977128" lon="21.5787777" timestamp="" uid="4579407" user="KAMI" version="99999">
    <tag k="brand" v="dm"/>
    <tag k="youtube" v="https://www.youtube.com/user/dmMagyarorszag"/>
    <tag k="facebook" v="https://www.facebook.com/dm.Magyarorszag"/>
    <tag k="shop" v="chemist"/>
    <tag k="payment:debit_cards" v="yes"/>
    <tag k="payment:cash" v="yes"/>
    <tag k="operator" v="dm Kft."/>
    <tag k="addr:postcode" v="4225"/>
    <tag k="instagram" v="https://www.instagram.com/dm_magyarorszag/"/>
    <tag k="website" v="https://www.dm.hu"/>
    <tag k="addr:housenumber" v="9"/>
    <tag k="addr:city" v="Debrecen"/>
    <tag k="name" v="dm"/>
    <tag k="source" v="website"/>
    <tag k="addr:street" v="Szentgyörgyfalvi u."/>
  </node>
  <!-- OSM link: https://osm.org/node/3265308881 -->
  <!-- Original coordinates: POINT (47.1802771 20.182412) -->
  <node action="modify" changeset="1" id="3265308881" lat="47.1802771" lon="20.182412" timestamp="2015-11-19T19:4156Z" uid="4579407" user="KAMI" version="3">
    <tag k="brand" v="dm"/>
    <tag k="facebook" v="https://www.facebook.com/dm.Magyarorszag"/>
    <tag k="wheelchair" v="yes"/>
    <tag k="addr:postcode" v="5000"/>
    <tag k="website" v="https://www.dm.hu"/>
    <tag k="youtube" v="https://www.youtube.com/user/dmMagyarorszag"/>
    <tag k="shop" v="chemist"/>
    <tag k="addr:street" v="Mátyás Király út"/>
    <tag k="payment:debit_cards" v="yes"/>
    <tag k="payment:cash" v="yes"/>
    <tag k="operator" v="dm Kft."/>
    <tag k="instagram" v="https://www.instagram.com/dm_magyarorszag/"/>
    <tag k="addr:housenumber" v="29"/>
    <tag k="addr:city" v="Szolnok"/>
    <tag k="name" v="dm"/>
    <tag k="source" v="website"/>
  </node>
  <!-- Original coordinates: POINT (47.17771 20.19255) -->
  <node action="modify" changeset="99999" id="-129" lat="47.17771" lon="20.19255" timestamp="" uid="4579407" user="KAMI" version="99999">
    <tag k="brand" v="dm"/>
    <tag k="youtube" v="https://www.youtube.com/user/dmMagyarorszag"/>
    <tag k="facebook" v="https://www.facebook.com/dm.Magyarorszag"/>
    <tag k="shop" v="chemist"/>
    <tag k="payment:debit_cards" v="yes"/>
    <tag k="payment:cash" v="yes"/>
    <tag k="operator" v="dm Kft."/>
    <tag k="addr:postcode" v="5000"/>
    <tag k="instagram" v="https://www.instagram.com/dm_magyarorszag/"/>
    <tag k="website" v="https://www.dm.hu"/>
    <tag k="addr:housenumber" v="15"/>
    <tag k="addr:city" v="Szolnok"/>
    <tag k="name" v="dm"/>
    <tag k="source" v="website"/>
    <tag k="addr:street" v="Ady Endre út"/>
  </node>
  <!-- OSM link: https://osm.org/way/168712782 -->
  <!-- Original coordinates: POINT (47.17597 20.19366) -->
  <way action="modify" changeset="1" id="168712782" timestamp="2015-03-15T09:2747Z" uid="4579407" user="KAMI" version="3">
    <nd ref="1799350000"/>
    <nd ref="1799352976"/>
    <nd ref="1799354597"/>
    <nd ref="1799354598"/>
    <nd ref="1799350000"/>
    <tag k="brand" v="dm"/>
    <tag k="facebook" v="https://www.facebook.com/dm.Magyarorszag"/>
    <tag k="wheelchair" v="yes"/>
    <tag k="addr:postcode" v="5000"/>
    <tag k="website" v="https://www.dm.hu"/>
    <tag k="building" v="yes"/>
    <tag k="youtube" v="https://www.youtube.com/user/dmMagyarorszag"/>
    <tag k="shop" v="chemist"/>
    <tag k="addr:street" v="Boldog Sándor István krt."/>
    <tag k="payment:debit_cards" v="yes"/>
    <tag k="payment:cash" v="yes"/>
    <tag k="operator" v="dm Kft."/>
    <tag k="instagram" v="https://www.instagram.com/dm_magyarorszag/"/>
    <tag k="addr:housenumber" v="2/a"/>
    <tag k="addr:city" v="Szolnok"/>
    <tag k="name" v="dm"/>
    <tag k="source" v="website"/>
  </way>
  <!-- OSM link: https://osm.org/node/2314622144 -->
  <!-- Original coordinates: POINT (47.50058 19.91395) -->
  <node action="modify" changeset="1" id="2314622144" lat="47.50058" lon="19.91395" timestamp="2015-03-15T09:2754Z" uid="4579407" user="KAMI" version="2">
    <tag k="brand" v="dm"/>
    <tag k="facebook" v="https://www.facebook.com/dm.Magyarorszag"/>
    <tag k="addr:postcode" v="5100"/>
    <tag k="website" v="https://www.dm.hu"/>
    <tag k="youtube" v="https://www.youtube.com/user/dmMagyarorszag"/>
    <tag k="shop" v="chemist"/>
    <tag k="addr:street" v="Szövetkezet utca"/>
    <tag k="payment:debit_cards" v="yes"/>
    <tag k="payment:cash" v="yes"/>
    <tag k="operator" v="dm Kft."/>
    <tag k="instagram" v="https://www.instagram.com/dm_magyarorszag/"/>
    <tag k="addr:housenumber" v="1"/>
    <tag k="addr:city" v="Jászberény"/>
    <tag k="name" v="dm"/>
    <tag k="source" v="website"/>
  </node>
  <!-- Original coordinates: POINT (47.4883849 19.8863768) -->
  <node action="modify" changeset="99999" id="-132" lat="47.4883849" lon="19.8863768" timestamp="" uid="4579407" user="KAMI" version="99999">
    <tag k="brand" v="dm"/>
    <tag k="youtube" v="https://www.youtube.com/user/dmMagyarorszag"/>
    <tag k="facebook" v="https://www.facebook.com/dm.Magyarorszag"/>
    <tag k="shop" v="chemist"/>
    <tag k="payment:debit_cards" v="yes"/>
    <tag k="payment:cash" v="yes"/>
    <tag k="operator" v="dm Kft."/>
    <tag k="addr:postcode" v="5100"/>
    <tag k="instagram" v="https://www.instagram.com/dm_magyarorszag/"/>
    <tag k="website" v="https://www.dm.hu"/>
    <tag k="addr:housenumber" v="22/c"/>
    <tag k="addr:city" v="Jászberény"/>
    <tag k="name" v="dm"/>
    <tag k="source" v="website"/>
    <tag k="addr:street" v="Nagykátai út"/>
  </node>
  <!-- Original coordinates: POINT (46.86233 20.54928) -->
  <node action="modify" changeset="99999" id="-133" lat="46.86233" lon="20.54928" timestamp="" uid="4579407" user="KAMI" version="99999">
    <tag k="brand" v="dm"/>
    <tag k="youtube" v="https://www.youtube.com/user/dmMagyarorszag"/>
    <tag k="facebook" v="https://www.facebook.com/dm.Magyarorszag"/>
    <tag k="shop" v="chemist"/>
    <tag k="payment:debit_cards" v="yes"/>
    <tag k="payment:cash" v="yes"/>
    <tag k="operator" v="dm Kft."/>
    <tag k="addr:postcode" v="5540"/>
    <tag k="instagram" v="https://www.instagram.com/dm_magyarorszag/"/>
    <tag k="website" v="https://www.dm.hu"/>
    <tag k="addr:housenumber" v="32"/>
    <tag k="addr:city" v="Szarvas"/>
    <tag k="name" v="dm"/>
    <tag k="source" v="website"/>
    <tag k="addr:street" v="Szabadság utca"/>
  </node>
  <!-- Original coordinates: POINT (46.67691 21.09078) -->
  <node action="modify" changeset="99999" id="-134" lat="46.67691" lon="21.09078" timestamp="" uid="4579407" user="KAMI" version="99999">
    <tag k="brand" v="dm"/>
    <tag k="youtube" v="https://www.youtube.com/user/dmMagyarorszag"/>
    <tag k="facebook" v="https://www.facebook.com/dm.Magyarorszag"/>
    <tag k="shop" v="chemist"/>
    <tag k="payment:debit_cards" v="yes"/>
    <tag k="payment:cash" v="yes"/>
    <tag k="operator" v="dm Kft."/>
    <tag k="addr:postcode" v="5600"/>
    <tag k="instagram" v="https://www.instagram.com/dm_magyarorszag/"/>
    <tag k="website" v="https://www.dm.hu"/>
    <tag k="addr:housenumber" v="37-43"/>
    <tag k="addr:city" v="Békéscsaba"/>
    <tag k="name" v="dm"/>
    <tag k="source" v="website"/>
    <tag k="addr:street" v="Andrássy út"/>
  </node>
  <!-- Original coordinates: POINT (46.6806683 21.071252) -->
  <node action="modify" changeset="99999" id="-135" lat="46.6806683" lon="21.071252" timestamp="" uid="4579407" user="KAMI" version="99999">
    <tag k="brand" v="dm"/>
    <tag k="youtube" v="https://www.youtube.com/user/dmMagyarorszag"/>
    <tag k="facebook" v="https://www.facebook.com/dm.Magyarorszag"/>
    <tag k="shop" v="chemist"/>
    <tag k="payment:debit_cards" v="yes"/>
    <tag k="payment:cash" v="yes"/>
    <tag k="operator" v="dm Kft."/>
    <tag k="addr:postcode" v="5600"/>
    <tag k="instagram" v="https://www.instagram.com/dm_magyarorszag/"/>
    <tag k="website" v="https://www.dm.hu"/>
    <tag k="addr:housenumber" v="68"/>
    <tag k="addr:city" v="Békéscsaba"/>
    <tag k="name" v="dm"/>
    <tag k="source" v="website"/>
    <tag k="addr:street" v="Szarvasi út"/>
  </node>
  <!-- Original coordinates: POINT (46.77167 21.13018) -->
  <node action="modify" changeset="99999" id="-136" lat="46.77167" lon="21.13018" timestamp="" uid="4579407" user="KAMI" version="99999">
    <tag k="brand" v="dm"/>
    <tag k="youtube" v="https://www.youtube.com/user/dmMagyarorszag"/>
    <tag k="facebook" v="https://www.facebook.com/dm.Magyarorszag"/>
    <tag k="shop" v="chemist"/>
    <tag k="payment:debit_cards" v="yes"/>
    <tag k="payment:cash" v="yes"/>
    <tag k="operator" v="dm Kft."/>
    <tag k="addr:postcode" v="5630"/>
    <tag k="instagram" v="https://www.instagram.com/dm_magyarorszag/"/>
    <tag k="website" v="https://www.dm.hu"/>
    <tag k="addr:housenumber" v="3"/>
    <tag k="addr:city" v="Békés"/>
    <tag k="name" v="dm"/>
    <tag k="source" v="website"/>
    <tag k="addr:street" v="Kossuth u."/>
  </node>
  <!-- Original coordinates: POINT (46.82395 21.0285) -->
  <node action="modify" changeset="99999" id="-137" lat="46.82395" lon="21.0285" timestamp="" uid="4579407" user="KAMI" version="99999">
    <tag k="brand" v="dm"/>
    <tag k="youtube" v="https://www.youtube.com/user/dmMagyarorszag"/>
    <tag k="facebook" v="https://www.facebook.com/dm.Magyarorszag"/>
    <tag k="shop" v="chemist"/>
    <tag k="payment:debit_cards" v="yes"/>
    <tag k="payment:cash" v="yes"/>
    <tag k="operator" v="dm Kft."/>
    <tag k="addr:postcode" v="5650"/>
    <tag k="instagram" v="https://www.instagram.com/dm_magyarorszag/"/>
    <tag k="website" v="https://www.dm.hu"/>
    <tag k="addr:housenumber" v="2"/>
    <tag k="addr:city" v="Mezőberény"/>
    <tag k="name" v="dm"/>
    <tag k="source" v="website"/>
    <tag k="addr:street" v="Kossuth tér"/>
  </node>
  <!-- OSM link: https://osm.org/node/3290273561 -->
  <!-- Original coordinates: POINT (46.64547 21.27186) -->
  <node action="modify" changeset="1" id="3290273561" lat="46.64547" lon="21.27186" timestamp="2015-09-27T22:1449Z" uid="4579407" user="KAMI" version="4">
    <tag k="brand" v="dm"/>
    <tag k="facebook" v="https://www.facebook.com/dm.Magyarorszag"/>
    <tag k="wheelchair" v="limited"/>
    <tag k="phone" v="+3666 561 080"/>
    <tag k="addr:postcode" v="5700"/>
    <tag k="website" v="https://www.dm.hu"/>
    <tag k="youtube" v="https://www.youtube.com/user/dmMagyarorszag"/>
    <tag k="shop" v="chemist"/>
    <tag k="addr:street" v="Béke sugárút"/>
    <tag k="payment:debit_cards" v="yes"/>
    <tag k="payment:cash" v="yes"/>
    <tag k="operator" v="dm Kft."/>
    <tag k="instagram" v="https://www.instagram.com/dm_magyarorszag/"/>
    <tag k="addr:housenumber" v="9-11"/>
    <tag k="addr:city" v="Gyula"/>
    <tag k="name" v="dm"/>
    <tag k="source" v="website"/>
  </node>
  <!-- Original coordinates: POINT (46.64027 21.26149) -->
  <node action="modify" changeset="99999" id="-139" lat="46.64027" lon="21.26149" timestamp="" uid="4579407" user="KAMI" version="99999">
    <tag k="brand" v="dm"/>
    <tag k="youtube" v="https://www.youtube.com/user/dmMagyarorszag"/>
    <tag k="facebook" v="https://www.facebook.com/dm.Magyarorszag"/>
    <tag k="shop" v="chemist"/>
    <tag k="payment:debit_cards" v="yes"/>
    <tag k="payment:cash" v="yes"/>
    <tag k="operator" v="dm Kft."/>
    <tag k="addr:postcode" v="5700"/>
    <tag k="instagram" v="https://www.instagram.com/dm_magyarorszag/"/>
    <tag k="website" v="https://www.dm.hu"/>
    <tag k="addr:housenumber" v="4"/>
    <tag k="addr:city" v="Gyula"/>
    <tag k="name" v="dm"/>
    <tag k="source" v="website"/>
    <tag k="addr:street" v="Kétegyházi u."/>
  </node>
  <!-- Original coordinates: POINT (46.8873852 19.63533) -->
  <node action="modify" changeset="99999" id="-140" lat="46.8873852" lon="19.63533" timestamp="" uid="4579407" user="KAMI" version="99999">
    <tag k="brand" v="dm"/>
    <tag k="youtube" v="https://www.youtube.com/user/dmMagyarorszag"/>
    <tag k="facebook" v="https://www.facebook.com/dm.Magyarorszag"/>
    <tag k="shop" v="chemist"/>
    <tag k="payment:debit_cards" v="yes"/>
    <tag k="payment:cash" v="yes"/>
    <tag k="operator" v="dm Kft."/>
    <tag k="addr:postcode" v="6000"/>
    <tag k="instagram" v="https://www.instagram.com/dm_magyarorszag/"/>
    <tag k="website" v="https://www.dm.hu"/>
    <tag k="addr:housenumber" v="2"/>
    <tag k="addr:city" v="Kecskemét"/>
    <tag k="name" v="dm"/>
    <tag k="source" v="website"/>
    <tag k="addr:street" v="Dunaföldvári út"/>
  </node>
  <!-- Original coordinates: POINT (46.91891 19.67423) -->
  <node action="modify" changeset="99999" id="-141" lat="46.91891" lon="19.67423" timestamp="" uid="4579407" user="KAMI" version="99999">
    <tag k="brand" v="dm"/>
    <tag k="youtube" v="https://www.youtube.com/user/dmMagyarorszag"/>
    <tag k="facebook" v="https://www.facebook.com/dm.Magyarorszag"/>
    <tag k="shop" v="chemist"/>
    <tag k="payment:debit_cards" v="yes"/>
    <tag k="payment:cash" v="yes"/>
    <tag k="operator" v="dm Kft."/>
    <tag k="addr:postcode" v="6000"/>
    <tag k="instagram" v="https://www.instagram.com/dm_magyarorszag/"/>
    <tag k="website" v="https://www.dm.hu"/>
    <tag k="addr:housenumber" v="5/a"/>
    <tag k="addr:city" v="Kecskemét"/>
    <tag k="name" v="dm"/>
    <tag k="source" v="website"/>
    <tag k="addr:street" v="Március 15. út"/>
  </node>
  <!-- Original coordinates: POINT (46.90471 19.6865) -->
  <node action="modify" changeset="99999" id="-142" lat="46.90471" lon="19.6865" timestamp="" uid="4579407" user="KAMI" version="99999">
    <tag k="brand" v="dm"/>
    <tag k="youtube" v="https://www.youtube.com/user/dmMagyarorszag"/>
    <tag k="facebook" v="https://www.facebook.com/dm.Magyarorszag"/>
    <tag k="shop" v="chemist"/>
    <tag k="payment:debit_cards" v="yes"/>
    <tag k="payment:cash" v="yes"/>
    <tag k="operator" v="dm Kft."/>
    <tag k="addr:postcode" v="6000"/>
    <tag k="instagram" v="https://www.instagram.com/dm_magyarorszag/"/>
    <tag k="website" v="https://www.dm.hu"/>
    <tag k="addr:housenumber" v="5-7"/>
    <tag k="addr:city" v="Kecskemét"/>
    <tag k="name" v="dm"/>
    <tag k="source" v="website"/>
    <tag k="addr:street" v="Petőfi Sándor utca"/>
  </node>
  <!-- OSM link: https://osm.org/node/2463407947 -->
  <!-- Original coordinates: POINT (46.89344 19.66617) -->
  <node action="modify" changeset="1" id="2463407947" lat="46.89344" lon="19.66617" timestamp="2015-03-15T09:2750Z" uid="4579407" user="KAMI" version="3">
    <tag k="brand" v="dm"/>
    <tag k="facebook" v="https://www.facebook.com/dm.Magyarorszag"/>
    <tag k="wheelchair" v="yes"/>
    <tag k="phone" v="+36 76 504 451"/>
    <tag k="addr:postcode" v="6000"/>
    <tag k="website" v="https://www.dm.hu"/>
    <tag k="youtube" v="https://www.youtube.com/user/dmMagyarorszag"/>
    <tag k="shop" v="chemist"/>
    <tag k="addr:street" v="Izsáki út"/>
    <tag k="payment:debit_cards" v="yes"/>
    <tag k="payment:cash" v="yes"/>
    <tag k="operator" v="dm Kft."/>
    <tag k="instagram" v="https://www.instagram.com/dm_magyarorszag/"/>
    <tag k="addr:housenumber" v="12"/>
    <tag k="addr:city" v="Kecskemét"/>
    <tag k="name" v="dm"/>
    <tag k="source" v="website"/>
  </node>
  <!-- Original coordinates: POINT (46.90745 19.68946) -->
  <node action="modify" changeset="99999" id="-144" lat="46.90745" lon="19.68946" timestamp="" uid="4579407" user="KAMI" version="99999">
    <tag k="brand" v="dm"/>
    <tag k="youtube" v="https://www.youtube.com/user/dmMagyarorszag"/>
    <tag k="facebook" v="https://www.facebook.com/dm.Magyarorszag"/>
    <tag k="shop" v="chemist"/>
    <tag k="payment:debit_cards" v="yes"/>
    <tag k="payment:cash" v="yes"/>
    <tag k="operator" v="dm Kft."/>
    <tag k="addr:postcode" v="6000"/>
    <tag k="instagram" v="https://www.instagram.com/dm_magyarorszag/"/>
    <tag k="website" v="https://www.dm.hu"/>
    <tag k="addr:housenumber" v="2"/>
    <tag k="addr:city" v="Kecskemét"/>
    <tag k="name" v="dm"/>
    <tag k="source" v="website"/>
    <tag k="addr:street" v="Korona utca"/>
  </node>
  <!-- Original coordinates: POINT (46.7117037 19.8485743) -->
  <node action="modify" changeset="99999" id="-145" lat="46.7117037" lon="19.8485743" timestamp="" uid="4579407" user="KAMI" version="99999">
    <tag k="brand" v="dm"/>
    <tag k="youtube" v="https://www.youtube.com/user/dmMagyarorszag"/>
    <tag k="facebook" v="https://www.facebook.com/dm.Magyarorszag"/>
    <tag k="shop" v="chemist"/>
    <tag k="payment:debit_cards" v="yes"/>
    <tag k="payment:cash" v="yes"/>
    <tag k="operator" v="dm Kft."/>
    <tag k="addr:postcode" v="6100"/>
    <tag k="instagram" v="https://www.instagram.com/dm_magyarorszag/"/>
    <tag k="website" v="https://www.dm.hu"/>
    <tag k="addr:housenumber" v="2"/>
    <tag k="addr:city" v="Kiskunfélegyháza"/>
    <tag k="name" v="dm"/>
    <tag k="source" v="website"/>
    <tag k="addr:street" v="Mártírok út"/>
  </node>
  <!-- OSM link: https://osm.org/node/3212962686 -->
  <!-- Original coordinates: POINT (46.65173 20.26103) -->
  <node action="modify" changeset="1" id="3212962686" lat="46.65173" lon="20.26103" timestamp="2016-07-01T22:3722Z" uid="4579407" user="KAMI" version="2">
    <tag k="brand" v="dm"/>
    <tag k="facebook" v="https://www.facebook.com/dm.Magyarorszag"/>
    <tag k="phone" v="+36 63 560 212"/>
    <tag k="addr:postcode" v="6600"/>
    <tag k="opening_hours" v="Mo-Fr 08:00-18:00; Sa 08:00-13:00; PH off"/>
    <tag k="website" v="https://www.dm.hu"/>
    <tag k="youtube" v="https://www.youtube.com/user/dmMagyarorszag"/>
    <tag k="shop" v="chemist"/>
    <tag k="addr:street" v="Kossuth utca"/>
    <tag k="payment:debit_cards" v="yes"/>
    <tag k="payment:cash" v="yes"/>
    <tag k="operator" v="dm Kft."/>
    <tag k="instagram" v="https://www.instagram.com/dm_magyarorszag/"/>
    <tag k="addr:housenumber" v="14"/>
    <tag k="addr:city" v="Szentes"/>
    <tag k="name" v="dm"/>
    <tag k="source" v="website"/>
  </node>
  <!-- Original coordinates: POINT (46.71048 20.14869) -->
  <node action="modify" changeset="99999" id="-147" lat="46.71048" lon="20.14869" timestamp="" uid="4579407" user="KAMI" version="99999">
    <tag k="brand" v="dm"/>
    <tag k="youtube" v="https://www.youtube.com/user/dmMagyarorszag"/>
    <tag k="facebook" v="https://www.facebook.com/dm.Magyarorszag"/>
    <tag k="shop" v="chemist"/>
    <tag k="payment:debit_cards" v="yes"/>
    <tag k="payment:cash" v="yes"/>
    <tag k="operator" v="dm Kft."/>
    <tag k="addr:postcode" v="6640"/>
    <tag k="instagram" v="https://www.instagram.com/dm_magyarorszag/"/>
    <tag k="website" v="https://www.dm.hu"/>
    <tag k="addr:housenumber" v="6-10"/>
    <tag k="addr:city" v="Csongrád"/>
    <tag k="name" v="dm"/>
    <tag k="source" v="website"/>
    <tag k="addr:street" v="Fő utca"/>
  </node>
  <!-- Original coordinates: POINT (46.80628 18.92488) -->
  <node action="modify" changeset="99999" id="-148" lat="46.80628" lon="18.92488" timestamp="" uid="4579407" user="KAMI" version="99999">
    <tag k="brand" v="dm"/>
    <tag k="youtube" v="https://www.youtube.com/user/dmMagyarorszag"/>
    <tag k="facebook" v="https://www.facebook.com/dm.Magyarorszag"/>
    <tag k="shop" v="chemist"/>
    <tag k="payment:debit_cards" v="yes"/>
    <tag k="payment:cash" v="yes"/>
    <tag k="operator" v="dm Kft."/>
    <tag k="addr:postcode" v="7020"/>
    <tag k="instagram" v="https://www.instagram.com/dm_magyarorszag/"/>
    <tag k="website" v="https://www.dm.hu"/>
    <tag k="addr:housenumber" v="14"/>
    <tag k="addr:city" v="Dunaföldvár"/>
    <tag k="name" v="dm"/>
    <tag k="source" v="website"/>
    <tag k="addr:street" v="Béke tér"/>
  </node>
  <!-- OSM link: https://osm.org/node/3452835444 -->
  <!-- Original coordinates: POINT (46.61575 18.84404) -->
  <node action="modify" changeset="1" id="3452835444" lat="46.61575" lon="18.84404" timestamp="2015-10-29T20:1606Z" uid="4579407" user="KAMI" version="3">
    <tag k="source:date" v="2014-02-14"/>
    <tag k="url" v="http://turistautak.hu/poi.php?id=130613"/>
    <tag k="facebook" v="https://www.facebook.com/dm.Magyarorszag"/>
    <tag k="brand" v="dm"/>
    <tag k="wheelchair" v="yes"/>
    <tag k="addr:postcode" v="7030"/>
    <tag k="website" v="https://www.dm.hu"/>
    <tag k="youtube" v="https://www.youtube.com/user/dmMagyarorszag"/>
    <tag k="shop" v="chemist"/>
    <tag k="addr:street" v="Barátság utca"/>
    <tag k="payment:debit_cards" v="yes"/>
    <tag k="payment:cash" v="yes"/>
    <tag k="operator" v="dm Kft."/>
    <tag k="instagram" v="https://www.instagram.com/dm_magyarorszag/"/>
    <tag k="addr:housenumber" v="3"/>
    <tag k="addr:city" v="Paks"/>
    <tag k="name" v="dm"/>
    <tag k="source" v="website"/>
  </node>
  <!-- OSM link: https://osm.org/node/3452835445 -->
  <!-- Original coordinates: POINT (46.62465 18.86127) -->
  <node action="modify" changeset="1" id="3452835445" lat="46.62465" lon="18.86127" timestamp="2015-11-18T21:4133Z" uid="4579407" user="KAMI" version="3">
    <tag k="source:date" v="2012-01-01"/>
    <tag k="url" v="http://turistautak.hu/poi.php?id=129731"/>
    <tag k="facebook" v="https://www.facebook.com/dm.Magyarorszag"/>
    <tag k="brand" v="dm"/>
    <tag k="wheelchair" v="yes"/>
    <tag k="addr:postcode" v="7030"/>
    <tag k="website" v="https://www.dm.hu"/>
    <tag k="youtube" v="https://www.youtube.com/user/dmMagyarorszag"/>
    <tag k="shop" v="chemist"/>
    <tag k="addr:street" v="Dózsa György út"/>
    <tag k="payment:debit_cards" v="yes"/>
    <tag k="payment:cash" v="yes"/>
    <tag k="operator" v="dm Kft."/>
    <tag k="instagram" v="https://www.instagram.com/dm_magyarorszag/"/>
    <tag k="addr:housenumber" v="30"/>
    <tag k="addr:city" v="Paks"/>
    <tag k="name" v="dm"/>
    <tag k="source" v="website"/>
  </node>
  <!-- Original coordinates: POINT (46.63255 18.28163) -->
  <node action="modify" changeset="99999" id="-151" lat="46.63255" lon="18.28163" timestamp="" uid="4579407" user="KAMI" version="99999">
    <tag k="brand" v="dm"/>
    <tag k="youtube" v="https://www.youtube.com/user/dmMagyarorszag"/>
    <tag k="facebook" v="https://www.facebook.com/dm.Magyarorszag"/>
    <tag k="shop" v="chemist"/>
    <tag k="payment:debit_cards" v="yes"/>
    <tag k="payment:cash" v="yes"/>
    <tag k="operator" v="dm Kft."/>
    <tag k="addr:postcode" v="7090"/>
    <tag k="instagram" v="https://www.instagram.com/dm_magyarorszag/"/>
    <tag k="website" v="https://www.dm.hu"/>
    <tag k="addr:housenumber" v="31"/>
    <tag k="addr:city" v="Tamás"/>
    <tag k="name" v="dm"/>
    <tag k="source" v="website"/>
    <tag k="addr:street" v="Szabadság utca"/>
  </node>
  <!-- Original coordinates: POINT (47.19157 18.42424) -->
  <node action="modify" changeset="99999" id="-152" lat="47.19157" lon="18.42424" timestamp="" uid="4579407" user="KAMI" version="99999">
    <tag k="brand" v="dm"/>
    <tag k="youtube" v="https://www.youtube.com/user/dmMagyarorszag"/>
    <tag k="facebook" v="https://www.facebook.com/dm.Magyarorszag"/>
    <tag k="shop" v="chemist"/>
    <tag k="payment:debit_cards" v="yes"/>
    <tag k="payment:cash" v="yes"/>
    <tag k="operator" v="dm Kft."/>
    <tag k="addr:postcode" v="8000"/>
    <tag k="instagram" v="https://www.instagram.com/dm_magyarorszag/"/>
    <tag k="website" v="https://www.dm.hu"/>
    <tag k="addr:housenumber" v="41"/>
    <tag k="addr:city" v="Székesfehérvár"/>
    <tag k="name" v="dm"/>
    <tag k="source" v="website"/>
    <tag k="addr:street" v="Budai u."/>
  </node>
  <!-- Original coordinates: POINT (47.1462192 18.4234762) -->
  <node action="modify" changeset="99999" id="-153" lat="47.1462192" lon="18.4234762" timestamp="" uid="4579407" user="KAMI" version="99999">
    <tag k="brand" v="dm"/>
    <tag k="youtube" v="https://www.youtube.com/user/dmMagyarorszag"/>
    <tag k="facebook" v="https://www.facebook.com/dm.Magyarorszag"/>
    <tag k="shop" v="chemist"/>
    <tag k="payment:debit_cards" v="yes"/>
    <tag k="payment:cash" v="yes"/>
    <tag k="operator" v="dm Kft."/>
    <tag k="addr:postcode" v="8000"/>
    <tag k="instagram" v="https://www.instagram.com/dm_magyarorszag/"/>
    <tag k="website" v="https://www.dm.hu"/>
    <tag k="addr:housenumber" v="1"/>
    <tag k="addr:city" v="Székesfehérvár"/>
    <tag k="name" v="dm"/>
    <tag k="source" v="website"/>
    <tag k="addr:street" v="Holland fasor"/>
  </node>
  <!-- OSM link: https://osm.org/node/3463077448 -->
  <!-- Original coordinates: POINT (47.19232 18.41274) -->
  <node action="modify" changeset="1" id="3463077448" lat="47.19232" lon="18.41274" timestamp="2017-12-11T15:1759Z" uid="4579407" user="KAMI" version="5">
    <tag k="source:date" v="2011-06-25"/>
    <tag k="url" v="http://turistautak.hu/poi.php?id=115017"/>
    <tag k="youtube" v="https://www.youtube.com/user/dmMagyarorszag"/>
    <tag k="facebook" v="https://www.facebook.com/dm.Magyarorszag"/>
    <tag k="brand" v="dm"/>
    <tag k="wheelchair" v="yes"/>
    <tag k="operator" v="dm Kft."/>
    <tag k="addr:city" v="Székesfehérvár"/>
    <tag k="description" v="DM Székesfehérvár Nyitva: H - P 08 - 19h Szo 08 - 13h"/>
    <tag k="addr:postcode" v="8000"/>
    <tag k="instagram" v="https://www.instagram.com/dm_magyarorszag/"/>
    <tag k="website" v="https://www.dm.hu"/>
    <tag k="payment:cash" v="yes"/>
    <tag k="addr:housenumber" v="1"/>
    <tag k="payment:debit_cards" v="yes"/>
    <tag k="name" v="dm"/>
    <tag k="shop" v="chemist"/>
    <tag k="source" v="website"/>
    <tag k="addr:street" v="Távirda utca"/>
  </node>
  <!-- OSM link: https://osm.org/node/4111176988 -->
  <!-- Original coordinates: POINT (47.19447 18.40914) -->
  <node action="modify" changeset="1" id="4111176988" lat="47.19447" lon="18.40914" timestamp="2016-04-10T07:3951Z" uid="4579407" user="KAMI" version="2">
    <tag k="brand" v="dm"/>
    <tag k="facebook" v="https://www.facebook.com/dm.Magyarorszag"/>
    <tag k="addr:postcode" v="8000"/>
    <tag k="website" v="https://www.dm.hu"/>
    <tag k="youtube" v="https://www.youtube.com/user/dmMagyarorszag"/>
    <tag k="shop" v="chemist"/>
    <tag k="addr:street" v="Dr. Koch L. utca"/>
    <tag k="payment:debit_cards" v="yes"/>
    <tag k="payment:cash" v="yes"/>
    <tag k="operator" v="dm Kft."/>
    <tag k="instagram" v="https://www.instagram.com/dm_magyarorszag/"/>
    <tag k="addr:housenumber" v="2"/>
    <tag k="addr:city" v="Székesfehérvár"/>
    <tag k="name" v="dm"/>
    <tag k="source" v="website"/>
  </node>
  <!-- OSM link: https://osm.org/way/290529752 -->
  <!-- Original coordinates: POINT (47.37217 18.20975) -->
  <way action="modify" changeset="1" id="290529752" timestamp="2014-06-30T13:3204Z" uid="4579407" user="KAMI" version="1">
    <nd ref="2940527002"/>
    <nd ref="2940526998"/>
    <nd ref="2940527005"/>
    <nd ref="2940527006"/>
    <nd ref="2940527002"/>
    <tag k="brand" v="dm"/>
    <tag k="facebook" v="https://www.facebook.com/dm.Magyarorszag"/>
    <tag k="addr:postcode" v="8060"/>
    <tag k="website" v="https://www.dm.hu"/>
    <tag k="youtube" v="https://www.youtube.com/user/dmMagyarorszag"/>
    <tag k="shop" v="chemist"/>
    <tag k="addr:street" v="Szent István tér"/>
    <tag k="payment:debit_cards" v="yes"/>
    <tag k="payment:cash" v="yes"/>
    <tag k="operator" v="dm Kft."/>
    <tag k="instagram" v="https://www.instagram.com/dm_magyarorszag/"/>
    <tag k="addr:housenumber" v="5/a"/>
    <tag k="addr:city" v="Mór"/>
    <tag k="name" v="dm"/>
    <tag k="source" v="website"/>
  </way>
  <!-- OSM link: https://osm.org/node/5300650701 -->
  <!-- Original coordinates: POINT (47.2010498 18.14062) -->
  <node action="modify" changeset="1" id="5300650701" lat="47.2010498" lon="18.14062" timestamp="2017-12-23T12:2633Z" uid="4579407" user="KAMI" version="1">
    <tag k="brand" v="dm"/>
    <tag k="facebook" v="https://www.facebook.com/dm.Magyarorszag"/>
    <tag k="addr:postcode" v="8100"/>
    <tag k="website" v="https://www.dm.hu"/>
    <tag k="youtube" v="https://www.youtube.com/user/dmMagyarorszag"/>
    <tag k="shop" v="chemist"/>
    <tag k="addr:street" v="Szent István utca"/>
    <tag k="payment:debit_cards" v="yes"/>
    <tag k="payment:cash" v="yes"/>
    <tag k="operator" v="dm Kft."/>
    <tag k="instagram" v="https://www.instagram.com/dm_magyarorszag/"/>
    <tag k="addr:housenumber" v="2"/>
    <tag k="addr:city" v="Várpalota"/>
    <tag k="name" v="dm"/>
    <tag k="source" v="website"/>
  </node>
  <!-- Original coordinates: POINT (47.0849472 17.9265076) -->
  <node action="modify" changeset="99999" id="-158" lat="47.0849472" lon="17.9265076" timestamp="" uid="4579407" user="KAMI" version="99999">
    <tag k="brand" v="dm"/>
    <tag k="youtube" v="https://www.youtube.com/user/dmMagyarorszag"/>
    <tag k="facebook" v="https://www.facebook.com/dm.Magyarorszag"/>
    <tag k="shop" v="chemist"/>
    <tag k="payment:debit_cards" v="yes"/>
    <tag k="payment:cash" v="yes"/>
    <tag k="operator" v="dm Kft."/>
    <tag k="addr:postcode" v="8200"/>
    <tag k="instagram" v="https://www.instagram.com/dm_magyarorszag/"/>
    <tag k="website" v="https://www.dm.hu"/>
    <tag k="addr:city" v="Veszprém"/>
    <tag k="name" v="dm"/>
    <tag k="source" v="website"/>
  </node>
  <!-- OSM link: https://osm.org/node/2231916236 -->
  <!-- Original coordinates: POINT (47.09327 17.91157) -->
  <node action="modify" changeset="1" id="2231916236" lat="47.09327" lon="17.91157" timestamp="2017-08-13T16:3654Z" uid="4579407" user="KAMI" version="5">
    <tag k="brand" v="dm"/>
    <tag k="facebook" v="https://www.facebook.com/dm.Magyarorszag"/>
    <tag k="wheelchair" v="yes"/>
    <tag k="addr:postcode" v="8200"/>
    <tag k="opening_hours" v="Mo-Fr 08:00-19:00; Sa 08:00-14:00"/>
    <tag k="website" v="https://www.dm.hu"/>
    <tag k="youtube" v="https://www.youtube.com/user/dmMagyarorszag"/>
    <tag k="shop" v="chemist"/>
    <tag k="level" v="0"/>
    <tag k="addr:street" v="Kossuth Lajos utca"/>
    <tag k="payment:debit_cards" v="yes"/>
    <tag k="payment:cash" v="yes"/>
    <tag k="operator" v="dm Kft."/>
    <tag k="instagram" v="https://www.instagram.com/dm_magyarorszag/"/>
    <tag k="addr:housenumber" v="6"/>
    <tag k="addr:city" v="Veszprém"/>
    <tag k="name" v="dm"/>
    <tag k="source" v="website"/>
  </node>
  <!-- OSM link: https://osm.org/node/2118325215 -->
  <!-- Original coordinates: POINT (47.1027 17.89879) -->
  <node action="modify" changeset="1" id="2118325215" lat="47.1027" lon="17.89879" timestamp="2015-11-22T17:1716Z" uid="4579407" user="KAMI" version="4">
    <tag k="brand" v="dm"/>
    <tag k="facebook" v="https://www.facebook.com/dm.Magyarorszag"/>
    <tag k="wheelchair" v="yes"/>
    <tag k="addr:postcode" v="8200"/>
    <tag k="website" v="https://www.dm.hu"/>
    <tag k="youtube" v="https://www.youtube.com/user/dmMagyarorszag"/>
    <tag k="shop" v="chemist"/>
    <tag k="addr:street" v="Dózsa György tér"/>
    <tag k="payment:debit_cards" v="yes"/>
    <tag k="payment:cash" v="yes"/>
    <tag k="operator" v="dm Kft."/>
    <tag k="instagram" v="https://www.instagram.com/dm_magyarorszag/"/>
    <tag k="addr:housenumber" v="1"/>
    <tag k="addr:city" v="Veszprém"/>
    <tag k="name" v="dm"/>
    <tag k="source" v="website"/>
  </node>
  <!-- Original coordinates: POINT (47.1028484 17.9333574) -->
  <node action="modify" changeset="99999" id="-161" lat="47.1028484" lon="17.9333574" timestamp="" uid="4579407" user="KAMI" version="99999">
    <tag k="brand" v="dm"/>
    <tag k="youtube" v="https://www.youtube.com/user/dmMagyarorszag"/>
    <tag k="facebook" v="https://www.facebook.com/dm.Magyarorszag"/>
    <tag k="shop" v="chemist"/>
    <tag k="payment:debit_cards" v="yes"/>
    <tag k="payment:cash" v="yes"/>
    <tag k="operator" v="dm Kft."/>
    <tag k="addr:postcode" v="8200"/>
    <tag k="instagram" v="https://www.instagram.com/dm_magyarorszag/"/>
    <tag k="website" v="https://www.dm.hu"/>
    <tag k="addr:housenumber" v="3"/>
    <tag k="addr:city" v="Veszprém"/>
    <tag k="name" v="dm"/>
    <tag k="source" v="website"/>
    <tag k="addr:street" v="Külső-Kádártai u."/>
  </node>
  <!-- OSM link: https://osm.org/node/2691033318 -->
  <!-- Original coordinates: POINT (47.02864 18.01431) -->
  <node action="modify" changeset="1" id="2691033318" lat="47.02864" lon="18.01431" timestamp="2015-11-30T21:5236Z" uid="4579407" user="KAMI" version="3">
    <tag k="brand" v="dm"/>
    <tag k="facebook" v="https://www.facebook.com/dm.Magyarorszag"/>
    <tag k="wheelchair" v="yes"/>
    <tag k="addr:postcode" v="8220"/>
    <tag k="website" v="https://www.dm.hu"/>
    <tag k="youtube" v="https://www.youtube.com/user/dmMagyarorszag"/>
    <tag k="shop" v="chemist"/>
    <tag k="addr:street" v="Baross utca"/>
    <tag k="payment:debit_cards" v="yes"/>
    <tag k="payment:cash" v="yes"/>
    <tag k="operator" v="dm Kft."/>
    <tag k="instagram" v="https://www.instagram.com/dm_magyarorszag/"/>
    <tag k="addr:housenumber" v="2"/>
    <tag k="addr:city" v="Balatonalmád"/>
    <tag k="name" v="dm"/>
    <tag k="source" v="website"/>
  </node>
  <!-- OSM link: https://osm.org/node/2343416666 -->
  <!-- Original coordinates: POINT (46.95665 17.88812) -->
  <node action="modify" changeset="1" id="2343416666" lat="46.95665" lon="17.88812" timestamp="2015-03-15T09:2750Z" uid="4579407" user="KAMI" version="3">
    <tag k="brand" v="dm"/>
    <tag k="facebook" v="https://www.facebook.com/dm.Magyarorszag"/>
    <tag k="wheelchair" v="limited"/>
    <tag k="addr:postcode" v="8230"/>
    <tag k="website" v="https://www.dm.hu"/>
    <tag k="youtube" v="https://www.youtube.com/user/dmMagyarorszag"/>
    <tag k="shop" v="chemist"/>
    <tag k="addr:street" v="Jókai utca"/>
    <tag k="payment:debit_cards" v="yes"/>
    <tag k="payment:cash" v="yes"/>
    <tag k="operator" v="dm Kft."/>
    <tag k="instagram" v="https://www.instagram.com/dm_magyarorszag/"/>
    <tag k="addr:housenumber" v="15"/>
    <tag k="addr:city" v="Balatonfüred"/>
    <tag k="name" v="dm"/>
    <tag k="source" v="website"/>
  </node>
  <!-- OSM link: https://osm.org/node/4008274660 -->
  <!-- Original coordinates: POINT (46.88259 17.43995) -->
  <node action="modify" changeset="1" id="4008274660" lat="46.88259" lon="17.43995" timestamp="2016-04-07T05:2715Z" uid="4579407" user="KAMI" version="2">
    <tag k="brand" v="dm"/>
    <tag k="facebook" v="https://www.facebook.com/dm.Magyarorszag"/>
    <tag k="addr:postcode" v="8300"/>
    <tag k="website" v="https://www.dm.hu"/>
    <tag k="youtube" v="https://www.youtube.com/user/dmMagyarorszag"/>
    <tag k="shop" v="chemist"/>
    <tag k="addr:street" v="Fő tér"/>
    <tag k="payment:debit_cards" v="yes"/>
    <tag k="payment:cash" v="yes"/>
    <tag k="operator" v="dm Kft."/>
    <tag k="instagram" v="https://www.instagram.com/dm_magyarorszag/"/>
    <tag k="addr:housenumber" v="4"/>
    <tag k="addr:city" v="Tapolca"/>
    <tag k="name" v="dm"/>
    <tag k="source" v="website"/>
  </node>
  <!-- Original coordinates: POINT (47.10626 17.56411) -->
  <node action="modify" changeset="99999" id="-165" lat="47.10626" lon="17.56411" timestamp="" uid="4579407" user="KAMI" version="99999">
    <tag k="brand" v="dm"/>
    <tag k="youtube" v="https://www.youtube.com/user/dmMagyarorszag"/>
    <tag k="facebook" v="https://www.facebook.com/dm.Magyarorszag"/>
    <tag k="shop" v="chemist"/>
    <tag k="payment:debit_cards" v="yes"/>
    <tag k="payment:cash" v="yes"/>
    <tag k="operator" v="dm Kft."/>
    <tag k="addr:postcode" v="8400"/>
    <tag k="instagram" v="https://www.instagram.com/dm_magyarorszag/"/>
    <tag k="website" v="https://www.dm.hu"/>
    <tag k="addr:housenumber" v="2"/>
    <tag k="addr:city" v="Ajka"/>
    <tag k="name" v="dm"/>
    <tag k="source" v="website"/>
    <tag k="addr:street" v="Csingeri út"/>
  </node>
  <!-- Original coordinates: POINT (47.32995 17.45738) -->
  <node action="modify" changeset="99999" id="-166" lat="47.32995" lon="17.45738" timestamp="" uid="4579407" user="KAMI" version="99999">
    <tag k="brand" v="dm"/>
    <tag k="youtube" v="https://www.youtube.com/user/dmMagyarorszag"/>
    <tag k="facebook" v="https://www.facebook.com/dm.Magyarorszag"/>
    <tag k="shop" v="chemist"/>
    <tag k="payment:debit_cards" v="yes"/>
    <tag k="payment:cash" v="yes"/>
    <tag k="operator" v="dm Kft."/>
    <tag k="addr:postcode" v="8500"/>
    <tag k="instagram" v="https://www.instagram.com/dm_magyarorszag/"/>
    <tag k="website" v="https://www.dm.hu"/>
    <tag k="addr:housenumber" v="25"/>
    <tag k="addr:city" v="Pápa"/>
    <tag k="name" v="dm"/>
    <tag k="source" v="website"/>
    <tag k="addr:street" v="Celli utca"/>
  </node>
  <!-- Original coordinates: POINT (46.90718 18.05558) -->
  <node action="modify" changeset="99999" id="-167" lat="46.90718" lon="18.05558" timestamp="" uid="4579407" user="KAMI" version="99999">
    <tag k="brand" v="dm"/>
    <tag k="youtube" v="https://www.youtube.com/user/dmMagyarorszag"/>
    <tag k="facebook" v="https://www.facebook.com/dm.Magyarorszag"/>
    <tag k="shop" v="chemist"/>
    <tag k="payment:debit_cards" v="yes"/>
    <tag k="payment:cash" v="yes"/>
    <tag k="operator" v="dm Kft."/>
    <tag k="addr:postcode" v="8600"/>
    <tag k="instagram" v="https://www.instagram.com/dm_magyarorszag/"/>
    <tag k="website" v="https://www.dm.hu"/>
    <tag k="addr:housenumber" v="188-190"/>
    <tag k="addr:city" v="Siófok"/>
    <tag k="name" v="dm"/>
    <tag k="source" v="website"/>
    <tag k="addr:street" v="Fő utca"/>
  </node>
  <!-- Original coordinates: POINT (46.90611 18.05194) -->
  <node action="modify" changeset="99999" id="-168" lat="46.90611" lon="18.05194" timestamp="" uid="4579407" user="KAMI" version="99999">
    <tag k="brand" v="dm"/>
    <tag k="youtube" v="https://www.youtube.com/user/dmMagyarorszag"/>
    <tag k="facebook" v="https://www.facebook.com/dm.Magyarorszag"/>
    <tag k="shop" v="chemist"/>
    <tag k="payment:debit_cards" v="yes"/>
    <tag k="payment:cash" v="yes"/>
    <tag k="operator" v="dm Kft."/>
    <tag k="addr:postcode" v="8600"/>
    <tag k="instagram" v="https://www.instagram.com/dm_magyarorszag/"/>
    <tag k="website" v="https://www.dm.hu"/>
    <tag k="addr:housenumber" v="6"/>
    <tag k="addr:city" v="Siófok"/>
    <tag k="name" v="dm"/>
    <tag k="source" v="website"/>
    <tag k="addr:street" v="Fő tér"/>
  </node>
  <!-- OSM link: https://osm.org/way/116727906 -->
  <!-- Original coordinates: POINT (46.86081 17.90378) -->
  <way action="modify" changeset="1" id="116727906" timestamp="2017-08-29T08:2907Z" uid="4579407" user="KAMI" version="5">
    <nd ref="1315236753"/>
    <nd ref="1315236768"/>
    <nd ref="1315236703"/>
    <nd ref="1315236682"/>
    <nd ref="1315236753"/>
    <tag k="brand" v="dm"/>
    <tag k="youtube" v="https://www.youtube.com/user/dmMagyarorszag"/>
    <tag k="facebook" v="https://www.facebook.com/dm.Magyarorszag"/>
    <tag k="payment:debit_cards" v="yes"/>
    <tag k="wheelchair" v="yes"/>
    <tag k="source" v="website"/>
    <tag k="addr:city" v="Szántód"/>
    <tag k="addr:postcode" v="8622"/>
    <tag k="opening_hours" v="Mo-Sa 08:00-20:00; Su 08:00-18:00"/>
    <tag k="instagram" v="https://www.instagram.com/dm_magyarorszag/"/>
    <tag k="website" v="https://www.dm.hu"/>
    <tag k="payment:cash" v="yes"/>
    <tag k="addr:housenumber" v="3"/>
    <tag k="building" v="yes"/>
    <tag k="shop" v="chemist"/>
    <tag k="name" v="dm"/>
    <tag k="toilets:wheelchair" v="no"/>
    <tag k="operator" v="dm Kft."/>
    <tag k="addr:street" v="Siófoki út"/>
  </way>
  <!-- OSM link: https://osm.org/way/289092145 -->
  <!-- Original coordinates: POINT (46.77642 17.6499) -->
  <way action="modify" changeset="1" id="289092145" timestamp="2015-03-15T09:2748Z" uid="4579407" user="KAMI" version="2">
    <nd ref="2926419515"/>
    <nd ref="2926419512"/>
    <nd ref="2926419513"/>
    <nd ref="2926419514"/>
    <nd ref="2926419516"/>
    <nd ref="2926419515"/>
    <tag k="brand" v="dm"/>
    <tag k="facebook" v="https://www.facebook.com/dm.Magyarorszag"/>
    <tag k="addr:postcode" v="8630"/>
    <tag k="website" v="https://www.dm.hu"/>
    <tag k="building" v="yes"/>
    <tag k="youtube" v="https://www.youtube.com/user/dmMagyarorszag"/>
    <tag k="shop" v="chemist"/>
    <tag k="addr:street" v="Klapka u"/>
    <tag k="payment:debit_cards" v="yes"/>
    <tag k="payment:cash" v="yes"/>
    <tag k="operator" v="dm Kft."/>
    <tag k="instagram" v="https://www.instagram.com/dm_magyarorszag/"/>
    <tag k="addr:housenumber" v="4"/>
    <tag k="addr:city" v="Balatonboglár"/>
    <tag k="name" v="dm"/>
    <tag k="source" v="website"/>
  </way>
  <!-- OSM link: https://osm.org/node/4906760095 -->
  <!-- Original coordinates: POINT (47.68203 17.63338) -->
  <node action="modify" changeset="1" id="4906760095" lat="47.68203" lon="17.63338" timestamp="2017-07-21T09:2239Z" uid="4579407" user="KAMI" version="2">
    <tag k="brand" v="dm"/>
    <tag k="facebook" v="https://www.facebook.com/dm.Magyarorszag"/>
    <tag k="addr:postcode" v="9021"/>
    <tag k="website" v="https://www.dm.hu"/>
    <tag k="youtube" v="https://www.youtube.com/user/dmMagyarorszag"/>
    <tag k="shop" v="chemist"/>
    <tag k="addr:street" v="Révai Miklós utca"/>
    <tag k="payment:debit_cards" v="yes"/>
    <tag k="payment:cash" v="yes"/>
    <tag k="operator" v="dm Kft."/>
    <tag k="instagram" v="https://www.instagram.com/dm_magyarorszag/"/>
    <tag k="addr:housenumber" v="4-6"/>
    <tag k="addr:city" v="Győr"/>
    <tag k="name" v="dm"/>
    <tag k="source" v="website"/>
  </node>
  <!-- OSM link: https://osm.org/node/2509635764 -->
  <!-- Original coordinates: POINT (47.68554 17.63359) -->
  <node action="modify" changeset="1" id="2509635764" lat="47.68554" lon="17.63359" timestamp="2015-10-31T23:5358Z" uid="4579407" user="KAMI" version="4">
    <tag k="brand" v="dm"/>
    <tag k="facebook" v="https://www.facebook.com/dm.Magyarorszag"/>
    <tag k="wheelchair" v="yes"/>
    <tag k="addr:postcode" v="9021"/>
    <tag k="website" v="https://www.dm.hu"/>
    <tag k="youtube" v="https://www.youtube.com/user/dmMagyarorszag"/>
    <tag k="shop" v="chemist"/>
    <tag k="addr:street" v="Baross Gábor u."/>
    <tag k="payment:debit_cards" v="yes"/>
    <tag k="payment:cash" v="yes"/>
    <tag k="operator" v="dm Kft."/>
    <tag k="instagram" v="https://www.instagram.com/dm_magyarorszag/"/>
    <tag k="addr:housenumber" v="24"/>
    <tag k="addr:city" v="Győr"/>
    <tag k="name" v="dm"/>
    <tag k="source" v="website"/>
  </node>
  <!-- Original coordinates: POINT (47.68921 17.64475) -->
  <node action="modify" changeset="99999" id="-173" lat="47.68921" lon="17.64475" timestamp="" uid="4579407" user="KAMI" version="99999">
    <tag k="brand" v="dm"/>
    <tag k="youtube" v="https://www.youtube.com/user/dmMagyarorszag"/>
    <tag k="facebook" v="https://www.facebook.com/dm.Magyarorszag"/>
    <tag k="shop" v="chemist"/>
    <tag k="payment:debit_cards" v="yes"/>
    <tag k="payment:cash" v="yes"/>
    <tag k="operator" v="dm Kft."/>
    <tag k="addr:postcode" v="9022"/>
    <tag k="instagram" v="https://www.instagram.com/dm_magyarorszag/"/>
    <tag k="website" v="https://www.dm.hu"/>
    <tag k="addr:housenumber" v="1"/>
    <tag k="addr:city" v="Győr"/>
    <tag k="name" v="dm"/>
    <tag k="source" v="website"/>
    <tag k="addr:street" v="Budai út"/>
  </node>
  <!-- Original coordinates: POINT (47.68781 17.64859) -->
  <node action="modify" changeset="99999" id="-174" lat="47.68781" lon="17.64859" timestamp="" uid="4579407" user="KAMI" version="99999">
    <tag k="brand" v="dm"/>
    <tag k="youtube" v="https://www.youtube.com/user/dmMagyarorszag"/>
    <tag k="facebook" v="https://www.facebook.com/dm.Magyarorszag"/>
    <tag k="shop" v="chemist"/>
    <tag k="payment:debit_cards" v="yes"/>
    <tag k="payment:cash" v="yes"/>
    <tag k="operator" v="dm Kft."/>
    <tag k="addr:postcode" v="9023"/>
    <tag k="instagram" v="https://www.instagram.com/dm_magyarorszag/"/>
    <tag k="website" v="https://www.dm.hu"/>
    <tag k="addr:housenumber" v="3"/>
    <tag k="addr:city" v="Győr"/>
    <tag k="name" v="dm"/>
    <tag k="source" v="website"/>
    <tag k="addr:street" v="Fehérvári út"/>
  </node>
  <!-- OSM link: https://osm.org/way/105838722 -->
  <!-- Original coordinates: POINT (47.67744 17.61743) -->
  <way action="modify" changeset="1" id="105838722" timestamp="2015-03-15T09:2748Z" uid="4579407" user="KAMI" version="4">
    <nd ref="1218732372"/>
    <nd ref="1218732374"/>
    <nd ref="1218732435"/>
    <nd ref="1218732422"/>
    <nd ref="1218732372"/>
    <tag k="brand" v="dm"/>
    <tag k="facebook" v="https://www.facebook.com/dm.Magyarorszag"/>
    <tag k="addr:postcode" v="9025"/>
    <tag k="website" v="https://www.dm.hu"/>
    <tag k="youtube" v="https://www.youtube.com/user/dmMagyarorszag"/>
    <tag k="building:part" v="yes"/>
    <tag k="shop" v="chemist"/>
    <tag k="addr:street" v="Csipkegyári utca"/>
    <tag k="payment:debit_cards" v="yes"/>
    <tag k="payment:cash" v="yes"/>
    <tag k="operator" v="dm Kft."/>
    <tag k="instagram" v="https://www.instagram.com/dm_magyarorszag/"/>
    <tag k="addr:housenumber" v="11"/>
    <tag k="addr:city" v="Győr"/>
    <tag k="name" v="dm"/>
    <tag k="source" v="website"/>
  </way>
</osm>
