<?xml version='1.0' encoding='UTF-8'?>
<osm generator="JOSM" version="0.6">
  <!-- OSM link: https://osm.org/node/5633565953 -->
  <!-- Original coordinates: POINT (47.5345928 18.9737698) -->
  <!-- Original tags: {'addr:postcode': '1021', 'payment:credit_cards': 'yes', 'payment:debit_cards': 'yes', 'addr:city': 'Budapest', 'opening_hours': '24/7', 'payment:cash': 'yes', 'shop': 'supermarket', 'name': 'Spar Express', 'addr:street': 'Hűvösvölgyi út', 'addr:housenumber': '118'} -->
  <node action="modify" changeset="1" id="5633565953" lat="47.5345928" lon="18.9737698" timestamp="2018-05-23T13:0405Z" uid="4579407" user="KAMI" version="2">
    <tag k="addr:postcode" v="1021"/>
    <tag k="payment:credit_cards" v="yes"/>
    <tag k="payment:debit_cards" v="yes"/>
    <tag k="shop" v="convenience"/>
    <tag k="payment" v="cash"/>
    <tag k="source" v="website"/>
    <tag k="payment:cash" v="yes"/>
    <tag k="branch" v="Spar express OMV Budapest"/>
    <tag k="name" v="Spar Expressz"/>
    <tag k="addr:housenumber" v="118"/>
    <tag k="operator" v="SPAR Magyarország Kereskedelmi Kft."/>
    <tag k="brand" v="Spar"/>
    <tag k="addr:city" v="Budapest"/>
    <tag k="opening_hours" v="24/7"/>
    <tag k="addr:street" v="Hűvösvölgyi út"/>
    <tag k="website" v="https://www.spar.hu/content/aspiag_spar_hu/hu_HU/uzletek/10/spar-exp-huevoesv-omv.html"/>
  </node>
  <!-- OSM link: https://osm.org/way/249900580 -->
  <!-- Original coordinates: POINT (47.510163 19.011189) -->
  <!-- Original tags: {'shop': 'convenience', 'name': 'SPAR express', 'building': 'yes'} -->
  <way action="modify" changeset="1" id="249900580" timestamp="2017-12-23T10:3905Z" uid="4579407" user="KAMI" version="8">
    <nd ref="2564374490"/>
    <nd ref="2564374493"/>
    <nd ref="2564374494"/>
    <nd ref="2564374495"/>
    <nd ref="2564374490"/>
    <tag k="addr:postcode" v="1026"/>
    <tag k="payment:debit_cards" v="yes"/>
    <tag k="shop" v="convenience"/>
    <tag k="payment" v="cash"/>
    <tag k="source" v="website"/>
    <tag k="branch" v="Spar express Budapest"/>
    <tag k="name" v="Spar Expressz"/>
    <tag k="addr:housenumber" v="55"/>
    <tag k="operator" v="SPAR Magyarország Kereskedelmi Kft."/>
    <tag k="brand" v="Spar"/>
    <tag k="addr:city" v="Budapest"/>
    <tag k="building" v="yes"/>
    <tag k="addr:street" v="Szilágyi Erzsébet fasor"/>
    <tag k="website" v="https://www.spar.hu/content/aspiag_spar_hu/hu_HU/uzletek/10/spar-express-budapest-6719800-.html"/>
  </way>
  <!-- Original coordinates: POINT (47.435851 18.9748407) -->
  <!-- Original tags: None -->
  <node action="modify" changeset="99999" id="-3" lat="47.435851" lon="18.9748407" timestamp="" uid="4579407" user="KAMI" version="99999">
    <tag k="addr:postcode" v="2040"/>
    <tag k="payment:debit_cards" v="yes"/>
    <tag k="shop" v="convenience"/>
    <tag k="payment" v="cash"/>
    <tag k="source" v="website"/>
    <tag k="branch" v="Spar express OMV Budapest"/>
    <tag k="name" v="Spar Expressz"/>
    <tag k="addr:housenumber" v="1"/>
    <tag k="operator" v="SPAR Magyarország Kereskedelmi Kft."/>
    <tag k="brand" v="Spar"/>
    <tag k="addr:city" v="Budapest"/>
    <tag k="addr:street" v="Tölgyfa utca"/>
    <tag k="website" v="https://www.spar.hu/content/aspiag_spar_hu/hu_HU/uzletek/10/spar-exp-fekete-sas-omv.html"/>
  </node>
  <!-- Original coordinates: POINT (47.5510541 19.0445905) -->
  <!-- Original tags: None -->
  <node action="modify" changeset="99999" id="-4" lat="47.5510541" lon="19.0445905" timestamp="" uid="4579407" user="KAMI" version="99999">
    <tag k="addr:postcode" v="1033"/>
    <tag k="payment:debit_cards" v="yes"/>
    <tag k="shop" v="convenience"/>
    <tag k="payment" v="cash"/>
    <tag k="source" v="website"/>
    <tag k="branch" v="Spar express OMV Budapest"/>
    <tag k="name" v="Spar Expressz"/>
    <tag k="addr:housenumber" v="1"/>
    <tag k="operator" v="SPAR Magyarország Kereskedelmi Kft."/>
    <tag k="brand" v="Spar"/>
    <tag k="addr:city" v="Budapest"/>
    <tag k="addr:street" v="Ladik utca"/>
    <tag k="website" v="https://www.spar.hu/content/aspiag_spar_hu/hu_HU/uzletek/10/spar-exp-ladik-u-omv.html"/>
  </node>
  <!-- Original coordinates: POINT (47.579076119 19.0497911831) -->
  <!-- Original tags: None -->
  <node action="modify" changeset="99999" id="-5" lat="47.579076119" lon="19.0497911831" timestamp="" uid="4579407" user="KAMI" version="99999">
    <tag k="addr:postcode" v="1039"/>
    <tag k="payment:debit_cards" v="yes"/>
    <tag k="shop" v="convenience"/>
    <tag k="payment" v="cash"/>
    <tag k="source" v="website"/>
    <tag k="branch" v="Spar express OMV Budapest"/>
    <tag k="name" v="Spar Expressz"/>
    <tag k="operator" v="SPAR Magyarország Kereskedelmi Kft."/>
    <tag k="brand" v="Spar"/>
    <tag k="addr:city" v="Budapest"/>
    <tag k="addr:street" v="Szentendrei- Czetz János utca sarok"/>
    <tag k="website" v="https://www.spar.hu/content/aspiag_spar_hu/hu_HU/uzletek/10/spar-exp-sztendrei-ut.html"/>
  </node>
  <!-- Original coordinates: POINT (47.57714 19.081533) -->
  <!-- Original tags: None -->
  <node action="modify" changeset="99999" id="-6" lat="47.57714" lon="19.081533" timestamp="" uid="4579407" user="KAMI" version="99999">
    <tag k="addr:postcode" v="1044"/>
    <tag k="payment:debit_cards" v="yes"/>
    <tag k="shop" v="convenience"/>
    <tag k="payment" v="cash"/>
    <tag k="source" v="website"/>
    <tag k="branch" v="Spar express OMV Budapest"/>
    <tag k="name" v="Spar Expressz"/>
    <tag k="addr:housenumber" v="77"/>
    <tag k="operator" v="SPAR Magyarország Kereskedelmi Kft."/>
    <tag k="brand" v="Spar"/>
    <tag k="addr:city" v="Budapest"/>
    <tag k="addr:street" v="Váci út"/>
    <tag k="website" v="https://www.spar.hu/content/aspiag_spar_hu/hu_HU/uzletek/10/spar-exp-megyeri-ut-omv.html"/>
  </node>
  <!-- Original coordinates: POINT (47.4934304 19.0846625) -->
  <!-- Original tags: None -->
  <node action="modify" changeset="99999" id="-7" lat="47.4934304" lon="19.0846625" timestamp="" uid="4579407" user="KAMI" version="99999">
    <tag k="addr:postcode" v="1086"/>
    <tag k="payment:debit_cards" v="yes"/>
    <tag k="shop" v="convenience"/>
    <tag k="payment" v="cash"/>
    <tag k="source" v="website"/>
    <tag k="branch" v="Spar express OMV Budapest"/>
    <tag k="name" v="Spar Expressz"/>
    <tag k="operator" v="SPAR Magyarország Kereskedelmi Kft."/>
    <tag k="brand" v="Spar"/>
    <tag k="addr:city" v="Budapest"/>
    <tag k="addr:street" v="Teleki tér"/>
    <tag k="website" v="https://www.spar.hu/content/aspiag_spar_hu/hu_HU/uzletek/10/spar-exp-teleki-ter-omv.html"/>
  </node>
  <!-- Original coordinates: POINT (47.442475 19.094101) -->
  <!-- Original tags: None -->
  <node action="modify" changeset="99999" id="-8" lat="47.442475" lon="19.094101" timestamp="" uid="4579407" user="KAMI" version="99999">
    <tag k="addr:postcode" v="1097"/>
    <tag k="payment:debit_cards" v="yes"/>
    <tag k="shop" v="convenience"/>
    <tag k="payment" v="cash"/>
    <tag k="source" v="website"/>
    <tag k="branch" v="Spar express OMV Budapest"/>
    <tag k="name" v="Spar Expressz"/>
    <tag k="operator" v="SPAR Magyarország Kereskedelmi Kft."/>
    <tag k="brand" v="Spar"/>
    <tag k="addr:city" v="Budapest"/>
    <tag k="addr:street" v="Soroksári út - Határ út sarok"/>
    <tag k="website" v="https://www.spar.hu/content/aspiag_spar_hu/hu_HU/uzletek/10/spar-exp-bp-soroksari-hatar-sarok.html"/>
  </node>
  <!-- OSM link: https://osm.org/node/4939174000 -->
  <!-- Original coordinates: POINT (47.4714166 19.1074857) -->
  <!-- Original tags: {'fixme': 'verify', 'name': 'Spar Expressz', 'shop': 'convenience', 'source': 'route4u'} -->
  <node action="modify" changeset="1" id="4939174000" lat="47.4714166" lon="19.1074857" timestamp="2017-08-07T22:0427Z" uid="4579407" user="KAMI" version="2">
    <tag k="addr:postcode" v="1098"/>
    <tag k="payment:debit_cards" v="yes"/>
    <tag k="shop" v="convenience"/>
    <tag k="payment" v="cash"/>
    <tag k="source" v="website"/>
    <tag k="branch" v="Spar express OMV Budapest"/>
    <tag k="name" v="Spar Expressz"/>
    <tag k="addr:housenumber" v="137"/>
    <tag k="operator" v="SPAR Magyarország Kereskedelmi Kft."/>
    <tag k="fixme" v="verify"/>
    <tag k="brand" v="Spar"/>
    <tag k="addr:city" v="Budapest"/>
    <tag k="addr:street" v="Üllői út"/>
    <tag k="website" v="https://www.spar.hu/content/aspiag_spar_hu/hu_HU/uzletek/10/spar-exp-uell_i-ut.html"/>
  </node>
  <!-- Original coordinates: POINT (47.4720439 19.109074) -->
  <!-- Original tags: None -->
  <node action="modify" changeset="99999" id="-10" lat="47.4720439" lon="19.109074" timestamp="" uid="4579407" user="KAMI" version="99999">
    <tag k="addr:postcode" v="1107"/>
    <tag k="payment:debit_cards" v="yes"/>
    <tag k="shop" v="convenience"/>
    <tag k="payment" v="cash"/>
    <tag k="source" v="website"/>
    <tag k="branch" v="Spar express OMV Budapest"/>
    <tag k="name" v="Spar Expressz"/>
    <tag k="addr:housenumber" v="110-112"/>
    <tag k="operator" v="SPAR Magyarország Kereskedelmi Kft."/>
    <tag k="brand" v="Spar"/>
    <tag k="addr:city" v="Budapest"/>
    <tag k="addr:street" v="Üllői út"/>
    <tag k="website" v="https://www.spar.hu/content/aspiag_spar_hu/hu_HU/uzletek/11/spar-exp-uell_i-ut-110.html"/>
  </node>
  <!-- Original coordinates: POINT (47.504477 19.150793) -->
  <!-- Original tags: None -->
  <node action="modify" changeset="99999" id="-11" lat="47.504477" lon="19.150793" timestamp="" uid="4579407" user="KAMI" version="99999">
    <tag k="addr:postcode" v="1106"/>
    <tag k="payment:debit_cards" v="yes"/>
    <tag k="shop" v="convenience"/>
    <tag k="payment" v="cash"/>
    <tag k="source" v="website"/>
    <tag k="branch" v="Spar express OMV Budapest"/>
    <tag k="name" v="Spar Expressz"/>
    <tag k="addr:housenumber" v="73"/>
    <tag k="operator" v="SPAR Magyarország Kereskedelmi Kft."/>
    <tag k="brand" v="Spar"/>
    <tag k="addr:city" v="Budapest"/>
    <tag k="addr:street" v="Kerepesi út"/>
    <tag k="website" v="https://www.spar.hu/content/aspiag_spar_hu/hu_HU/uzletek/11/spar-exp-bp-kerepesi.html"/>
  </node>
  <!-- Original coordinates: POINT (47.465336 19.103918) -->
  <!-- Original tags: None -->
  <node action="modify" changeset="99999" id="-12" lat="47.465336" lon="19.103918" timestamp="" uid="4579407" user="KAMI" version="99999">
    <tag k="addr:postcode" v="1097"/>
    <tag k="payment:debit_cards" v="yes"/>
    <tag k="shop" v="convenience"/>
    <tag k="payment" v="cash"/>
    <tag k="source" v="website"/>
    <tag k="branch" v="Spar express OMV Budapest"/>
    <tag k="name" v="Spar Expressz"/>
    <tag k="addr:housenumber" v="112"/>
    <tag k="operator" v="SPAR Magyarország Kereskedelmi Kft."/>
    <tag k="brand" v="Spar"/>
    <tag k="addr:city" v="Budapest"/>
    <tag k="addr:street" v="Budaörsi utca"/>
    <tag k="website" v="https://www.spar.hu/content/aspiag_spar_hu/hu_HU/uzletek/11/spar-exp-budaoersi-ut.html"/>
  </node>
  <!-- Original coordinates: POINT (47.451272 19.038794) -->
  <!-- Original tags: None -->
  <node action="modify" changeset="99999" id="-13" lat="47.451272" lon="19.038794" timestamp="" uid="4579407" user="KAMI" version="99999">
    <tag k="addr:postcode" v="1116"/>
    <tag k="payment:debit_cards" v="yes"/>
    <tag k="shop" v="convenience"/>
    <tag k="payment" v="cash"/>
    <tag k="source" v="website"/>
    <tag k="branch" v="Spar express OMV Budapest"/>
    <tag k="name" v="Spar Expressz"/>
    <tag k="addr:housenumber" v="166"/>
    <tag k="operator" v="SPAR Magyarország Kereskedelmi Kft."/>
    <tag k="brand" v="Spar"/>
    <tag k="addr:city" v="Budapest"/>
    <tag k="addr:street" v="Fehérvári út"/>
    <tag k="website" v="https://www.spar.hu/content/aspiag_spar_hu/hu_HU/uzletek/11/spar-exp-f-vari-ut-omv.html"/>
  </node>
  <!-- Original coordinates: POINT (47.461479 19.052095) -->
  <!-- Original tags: None -->
  <node action="modify" changeset="99999" id="-14" lat="47.461479" lon="19.052095" timestamp="" uid="4579407" user="KAMI" version="99999">
    <tag k="addr:postcode" v="1117"/>
    <tag k="payment:debit_cards" v="yes"/>
    <tag k="shop" v="convenience"/>
    <tag k="payment" v="cash"/>
    <tag k="source" v="website"/>
    <tag k="branch" v="Spar express OMV Budapest"/>
    <tag k="name" v="Spar Expressz"/>
    <tag k="addr:housenumber" v="111-113"/>
    <tag k="operator" v="SPAR Magyarország Kereskedelmi Kft."/>
    <tag k="brand" v="Spar"/>
    <tag k="addr:city" v="Budapest"/>
    <tag k="addr:street" v="Budafoki utca"/>
    <tag k="website" v="https://www.spar.hu/content/aspiag_spar_hu/hu_HU/uzletek/11/spar-exp-budafoki-ut.html"/>
  </node>
  <!-- Original coordinates: POINT (47.4867593 19.0242397) -->
  <!-- Original tags: None -->
  <node action="modify" changeset="99999" id="-15" lat="47.4867593" lon="19.0242397" timestamp="" uid="4579407" user="KAMI" version="99999">
    <tag k="addr:postcode" v="1118"/>
    <tag k="payment:debit_cards" v="yes"/>
    <tag k="shop" v="convenience"/>
    <tag k="payment" v="cash"/>
    <tag k="source" v="website"/>
    <tag k="branch" v="Spar express OMV Budapest"/>
    <tag k="name" v="Spar Expressz"/>
    <tag k="addr:housenumber" v="1"/>
    <tag k="operator" v="SPAR Magyarország Kereskedelmi Kft."/>
    <tag k="brand" v="Spar"/>
    <tag k="addr:city" v="Budapest"/>
    <tag k="addr:street" v="Budaörsi út"/>
    <tag k="website" v="https://www.spar.hu/content/aspiag_spar_hu/hu_HU/uzletek/11/spar-exp-bah-csp-omv.html"/>
  </node>
  <!-- Original coordinates: POINT (47.5270563 19.075513) -->
  <!-- Original tags: None -->
  <node action="modify" changeset="99999" id="-16" lat="47.5270563" lon="19.075513" timestamp="" uid="4579407" user="KAMI" version="99999">
    <tag k="addr:postcode" v="1135"/>
    <tag k="payment:debit_cards" v="yes"/>
    <tag k="shop" v="convenience"/>
    <tag k="payment" v="cash"/>
    <tag k="source" v="website"/>
    <tag k="branch" v="Spar express OMV Budapest"/>
    <tag k="name" v="Spar Expressz"/>
    <tag k="addr:housenumber" v="64-66"/>
    <tag k="operator" v="SPAR Magyarország Kereskedelmi Kft."/>
    <tag k="brand" v="Spar"/>
    <tag k="addr:city" v="Budapest"/>
    <tag k="addr:street" v="Róbert Károly körút"/>
    <tag k="website" v="https://www.spar.hu/content/aspiag_spar_hu/hu_HU/uzletek/11/spar-exp-robert-k.html"/>
  </node>
  <!-- Original coordinates: POINT (47.5390079 19.0699432) -->
  <!-- Original tags: None -->
  <node action="modify" changeset="99999" id="-17" lat="47.5390079" lon="19.0699432" timestamp="" uid="4579407" user="KAMI" version="99999">
    <tag k="addr:postcode" v="1139"/>
    <tag k="payment:debit_cards" v="yes"/>
    <tag k="shop" v="convenience"/>
    <tag k="payment" v="cash"/>
    <tag k="source" v="website"/>
    <tag k="branch" v="Spar express OMV Budapest"/>
    <tag k="name" v="Spar Expressz"/>
    <tag k="addr:housenumber" v="95"/>
    <tag k="operator" v="SPAR Magyarország Kereskedelmi Kft."/>
    <tag k="brand" v="Spar"/>
    <tag k="addr:city" v="Budapest"/>
    <tag k="addr:street" v="Váci út"/>
    <tag k="website" v="https://www.spar.hu/content/aspiag_spar_hu/hu_HU/uzletek/11/spar-exp-vaci-ut-omv.html"/>
  </node>
  <!-- OSM link: https://osm.org/way/256936352 -->
  <!-- Original coordinates: POINT (47.50853 19.101894) -->
  <!-- Original tags: {'shop': 'convenience', 'name': 'SPAR express', 'wheelchair': 'yes', 'building': 'commercial'} -->
  <way action="modify" changeset="1" id="256936352" timestamp="2014-09-10T15:1225Z" uid="4579407" user="KAMI" version="3">
    <nd ref="2625570639"/>
    <nd ref="2625570625"/>
    <nd ref="2625570623"/>
    <nd ref="2625570632"/>
    <nd ref="2625570633"/>
    <nd ref="2625570635"/>
    <nd ref="2625570637"/>
    <nd ref="2625570639"/>
    <tag k="addr:postcode" v="1143"/>
    <tag k="payment:debit_cards" v="yes"/>
    <tag k="shop" v="convenience"/>
    <tag k="branch" v="Spar express OMV Budapest"/>
    <tag k="brand" v="Spar"/>
    <tag k="addr:street" v="Hungária  körút"/>
    <tag k="payment" v="cash"/>
    <tag k="source" v="website"/>
    <tag k="name" v="Spar Expressz"/>
    <tag k="addr:housenumber" v="116"/>
    <tag k="operator" v="SPAR Magyarország Kereskedelmi Kft."/>
    <tag k="wheelchair" v="yes"/>
    <tag k="addr:city" v="Budapest"/>
    <tag k="building" v="commercial"/>
    <tag k="website" v="https://www.spar.hu/content/aspiag_spar_hu/hu_HU/uzletek/11/spar-exp-hung-krt-omv.html"/>
  </way>
  <!-- Original coordinates: POINT (47.5327743 19.1023526) -->
  <!-- Original tags: None -->
  <node action="modify" changeset="99999" id="-19" lat="47.5327743" lon="19.1023526" timestamp="" uid="4579407" user="KAMI" version="99999">
    <tag k="addr:postcode" v="1142"/>
    <tag k="payment:debit_cards" v="yes"/>
    <tag k="shop" v="convenience"/>
    <tag k="payment" v="cash"/>
    <tag k="source" v="website"/>
    <tag k="branch" v="Spar express OMV Budapest"/>
    <tag k="name" v="Spar Expressz"/>
    <tag k="addr:housenumber" v="131"/>
    <tag k="operator" v="SPAR Magyarország Kereskedelmi Kft."/>
    <tag k="brand" v="Spar"/>
    <tag k="addr:city" v="Budapest"/>
    <tag k="addr:street" v="Kacsóh Pongrác út"/>
    <tag k="website" v="https://www.spar.hu/content/aspiag_spar_hu/hu_HU/uzletek/11/spar-exp-kacsoh-p-omv.html"/>
  </node>
  <!-- Original coordinates: POINT (47.5047833 19.1205336) -->
  <!-- Original tags: None -->
  <node action="modify" changeset="99999" id="-20" lat="47.5047833" lon="19.1205336" timestamp="" uid="4579407" user="KAMI" version="99999">
    <tag k="addr:postcode" v="1149"/>
    <tag k="payment:debit_cards" v="yes"/>
    <tag k="shop" v="convenience"/>
    <tag k="payment" v="cash"/>
    <tag k="source" v="website"/>
    <tag k="branch" v="Spar express OMV Budapest"/>
    <tag k="name" v="Spar Expressz"/>
    <tag k="addr:housenumber" v="56/a"/>
    <tag k="operator" v="SPAR Magyarország Kereskedelmi Kft."/>
    <tag k="brand" v="Spar"/>
    <tag k="addr:city" v="Budapest"/>
    <tag k="addr:street" v="Fogarasi út"/>
    <tag k="website" v="https://www.spar.hu/content/aspiag_spar_hu/hu_HU/uzletek/11/spar-exp-fogarasi-ut.html"/>
  </node>
  <!-- Original coordinates: POINT (47.5605718 19.1209905) -->
  <!-- Original tags: None -->
  <node action="modify" changeset="99999" id="-21" lat="47.5605718" lon="19.1209905" timestamp="" uid="4579407" user="KAMI" version="99999">
    <tag k="addr:postcode" v="1152"/>
    <tag k="payment:debit_cards" v="yes"/>
    <tag k="shop" v="convenience"/>
    <tag k="payment" v="cash"/>
    <tag k="source" v="website"/>
    <tag k="branch" v="Spar express OMV Budapest"/>
    <tag k="name" v="Spar Expressz"/>
    <tag k="addr:housenumber" v="1"/>
    <tag k="operator" v="SPAR Magyarország Kereskedelmi Kft."/>
    <tag k="brand" v="Spar"/>
    <tag k="addr:city" v="Budapest"/>
    <tag k="addr:street" v="Széchenyi tér"/>
    <tag k="website" v="https://www.spar.hu/content/aspiag_spar_hu/hu_HU/uzletek/11/spar-exp-bp-szechenyi-ter.html"/>
  </node>
  <!-- Original coordinates: POINT (47.551514 19.138835) -->
  <!-- Original tags: None -->
  <node action="modify" changeset="99999" id="-22" lat="47.551514" lon="19.138835" timestamp="" uid="4579407" user="KAMI" version="99999">
    <tag k="addr:postcode" v="1152"/>
    <tag k="payment:debit_cards" v="yes"/>
    <tag k="shop" v="convenience"/>
    <tag k="payment" v="cash"/>
    <tag k="source" v="website"/>
    <tag k="branch" v="Spar express OMV Budapest"/>
    <tag k="name" v="Spar Expressz"/>
    <tag k="addr:housenumber" v="131"/>
    <tag k="operator" v="SPAR Magyarország Kereskedelmi Kft."/>
    <tag k="brand" v="Spar"/>
    <tag k="addr:city" v="Budapest"/>
    <tag k="addr:street" v="Szentmihályi út"/>
    <tag k="website" v="https://www.spar.hu/content/aspiag_spar_hu/hu_HU/uzletek/11/spar-exp-szmih-ut-omv.html"/>
  </node>
  <!-- Original coordinates: POINT (47.53493 19.18064) -->
  <!-- Original tags: None -->
  <node action="modify" changeset="99999" id="-23" lat="47.53493" lon="19.18064" timestamp="" uid="4579407" user="KAMI" version="99999">
    <tag k="addr:postcode" v="1162"/>
    <tag k="payment:debit_cards" v="yes"/>
    <tag k="shop" v="convenience"/>
    <tag k="payment" v="cash"/>
    <tag k="source" v="website"/>
    <tag k="branch" v="Spar express OMV Budapest"/>
    <tag k="name" v="Spar Expressz"/>
    <tag k="operator" v="SPAR Magyarország Kereskedelmi Kft."/>
    <tag k="brand" v="Spar"/>
    <tag k="addr:city" v="Budapest"/>
    <tag k="addr:street" v="Csömöri és Szlovák utca sarok"/>
    <tag k="website" v="https://www.spar.hu/content/aspiag_spar_hu/hu_HU/uzletek/11/spar-exp-csoemoeri.html"/>
  </node>
  <!-- OSM link: https://osm.org/way/586897013 -->
  <!-- Original coordinates: POINT (47.4840875 19.2354205) -->
  <!-- Original tags: {'addr:postcode': '1173', 'amenity': 'fuel', 'brand': 'OMV', 'shop': 'convenience', 'addr:housenumber': '18', 'addr:street': 'Pesti út', 'addr:city': 'Budapest', 'opening_hours': '24/7', 'car_wash': 'yes', 'building': 'retail', 'operator': 'OMV', 'addr:country': 'HU'} -->
  <way action="modify" changeset="1" id="586897013" timestamp="2018-05-09T10:5628Z" uid="4579407" user="KAMI" version="1">
    <nd ref="5606889059"/>
    <nd ref="5606889057"/>
    <nd ref="2006361221"/>
    <nd ref="2006361224"/>
    <nd ref="5606889059"/>
    <tag k="addr:postcode" v="1173"/>
    <tag k="amenity" v="fuel"/>
    <tag k="brand" v="Spar"/>
    <tag k="shop" v="convenience"/>
    <tag k="payment" v="cash"/>
    <tag k="source" v="website"/>
    <tag k="branch" v="Spar express OMV Budapest"/>
    <tag k="name" v="Spar Expressz"/>
    <tag k="addr:housenumber" v="18"/>
    <tag k="addr:street" v="Pesti út"/>
    <tag k="payment:debit_cards" v="yes"/>
    <tag k="addr:city" v="Budapest"/>
    <tag k="opening_hours" v="24/7"/>
    <tag k="website" v="https://www.spar.hu/content/aspiag_spar_hu/hu_HU/uzletek/11/spar-exp-pesti-ut-omv.html"/>
    <tag k="car_wash" v="yes"/>
    <tag k="building" v="retail"/>
    <tag k="operator" v="SPAR Magyarország Kereskedelmi Kft."/>
    <tag k="addr:country" v="HU"/>
  </way>
  <!-- Original coordinates: POINT (47.4459023 19.1901158) -->
  <!-- Original tags: None -->
  <node action="modify" changeset="99999" id="-25" lat="47.4459023" lon="19.1901158" timestamp="" uid="4579407" user="KAMI" version="99999">
    <tag k="addr:postcode" v="1183"/>
    <tag k="payment:debit_cards" v="yes"/>
    <tag k="shop" v="convenience"/>
    <tag k="payment" v="cash"/>
    <tag k="source" v="website"/>
    <tag k="branch" v="Spar express OMV Budapest"/>
    <tag k="name" v="Spar Expressz"/>
    <tag k="addr:housenumber" v="39"/>
    <tag k="operator" v="SPAR Magyarország Kereskedelmi Kft."/>
    <tag k="brand" v="Spar"/>
    <tag k="addr:city" v="Budapest"/>
    <tag k="addr:street" v="Haladás utca"/>
    <tag k="website" v="https://www.spar.hu/content/aspiag_spar_hu/hu_HU/uzletek/11/spar-exp-haladas-omv.html"/>
  </node>
  <!-- Original coordinates: POINT (47.4168387 19.2074616) -->
  <!-- Original tags: None -->
  <node action="modify" changeset="99999" id="-26" lat="47.4168387" lon="19.2074616" timestamp="" uid="4579407" user="KAMI" version="99999">
    <tag k="addr:postcode" v="1188"/>
    <tag k="payment:debit_cards" v="yes"/>
    <tag k="shop" v="convenience"/>
    <tag k="payment" v="cash"/>
    <tag k="source" v="website"/>
    <tag k="branch" v="Spar express OMV Budapest"/>
    <tag k="name" v="Spar Expressz"/>
    <tag k="addr:housenumber" v="1"/>
    <tag k="operator" v="SPAR Magyarország Kereskedelmi Kft."/>
    <tag k="brand" v="Spar"/>
    <tag k="addr:city" v="Budapest"/>
    <tag k="addr:street" v="Alacskai út"/>
    <tag k="website" v="https://www.spar.hu/content/aspiag_spar_hu/hu_HU/uzletek/11/spar-exp-alacska-omv.html"/>
  </node>
  <!-- Original coordinates: POINT (47.4408156 19.134403) -->
  <!-- Original tags: None -->
  <node action="modify" changeset="99999" id="-27" lat="47.4408156" lon="19.134403" timestamp="" uid="4579407" user="KAMI" version="99999">
    <tag k="addr:postcode" v="1202"/>
    <tag k="payment:debit_cards" v="yes"/>
    <tag k="shop" v="convenience"/>
    <tag k="payment" v="cash"/>
    <tag k="source" v="website"/>
    <tag k="branch" v="Spar express OMV Budapest"/>
    <tag k="name" v="Spar Expressz"/>
    <tag k="addr:housenumber" v="185"/>
    <tag k="operator" v="SPAR Magyarország Kereskedelmi Kft."/>
    <tag k="brand" v="Spar"/>
    <tag k="addr:city" v="Budapest"/>
    <tag k="addr:street" v="Nagykőrösi út"/>
    <tag k="website" v="https://www.spar.hu/content/aspiag_spar_hu/hu_HU/uzletek/12/spar-exp-nagyk-omv.html"/>
  </node>
  <!-- Original coordinates: POINT (47.414734 19.0589308) -->
  <!-- Original tags: None -->
  <node action="modify" changeset="99999" id="-28" lat="47.414734" lon="19.0589308" timestamp="" uid="4579407" user="KAMI" version="99999">
    <tag k="addr:postcode" v="1214"/>
    <tag k="payment:debit_cards" v="yes"/>
    <tag k="shop" v="convenience"/>
    <tag k="payment" v="cash"/>
    <tag k="source" v="website"/>
    <tag k="branch" v="Spar express OMV Budapest"/>
    <tag k="name" v="Spar Expressz"/>
    <tag k="addr:housenumber" v="189"/>
    <tag k="operator" v="SPAR Magyarország Kereskedelmi Kft."/>
    <tag k="brand" v="Spar"/>
    <tag k="addr:city" v="Budapest"/>
    <tag k="addr:street" v="Rákóczi Ferenc utca"/>
    <tag k="website" v="https://www.spar.hu/content/aspiag_spar_hu/hu_HU/uzletek/12/spar-exp-rakoczi-u-omv.html"/>
  </node>
  <!-- OSM link: https://osm.org/node/3995421196 -->
  <!-- Original coordinates: POINT (47.436087 19.084468) -->
  <!-- Original tags: {'addr:postcode': '1215', 'addr:city': 'Budapest', 'opening_hours': '24/7', 'website': 'http://www.spar.hu/', 'phone': '+36208237930', 'name': 'SPAR express OMV', 'shop': 'supermarket', 'addr:street': 'Védgát utca', 'addr:housenumber': '47', 'operator': 'SPAR Magyarország Kereskedelmi Korlátolt Felelősségű Társaság'} -->
  <node action="modify" changeset="1" id="3995421196" lat="47.436087" lon="19.084468" timestamp="2017-01-10T11:0902Z" uid="4579407" user="KAMI" version="3">
    <tag k="addr:postcode" v="1215"/>
    <tag k="payment:debit_cards" v="yes"/>
    <tag k="shop" v="convenience"/>
    <tag k="payment" v="cash"/>
    <tag k="source" v="website"/>
    <tag k="branch" v="Spar express OMV Budapest"/>
    <tag k="name" v="Spar Expressz"/>
    <tag k="addr:housenumber" v="47"/>
    <tag k="operator" v="SPAR Magyarország Kereskedelmi Kft."/>
    <tag k="brand" v="Spar"/>
    <tag k="addr:city" v="Budapest"/>
    <tag k="opening_hours" v="24/7"/>
    <tag k="phone" v="+36208237930"/>
    <tag k="addr:street" v="Védgát utca"/>
    <tag k="website" v="https://www.spar.hu/content/aspiag_spar_hu/hu_HU/uzletek/12/spar-exp-vedgat-u.html"/>
  </node>
  <!-- OSM link: https://osm.org/node/5326036803 -->
  <!-- Original coordinates: POINT (47.4236 19.159443) -->
  <!-- Original tags: {'name': 'Spar express', 'shop': 'supermarket'} -->
  <node action="modify" changeset="1" id="5326036803" lat="47.4236" lon="19.159443" timestamp="2018-01-08T17:0324Z" uid="4579407" user="KAMI" version="2">
    <tag k="addr:postcode" v="1238"/>
    <tag k="payment:debit_cards" v="yes"/>
    <tag k="shop" v="convenience"/>
    <tag k="payment" v="cash"/>
    <tag k="source" v="website"/>
    <tag k="branch" v="Spar express OMV Budapest"/>
    <tag k="name" v="Spar Expressz"/>
    <tag k="addr:housenumber" v="349"/>
    <tag k="operator" v="SPAR Magyarország Kereskedelmi Kft."/>
    <tag k="brand" v="Spar"/>
    <tag k="addr:city" v="Budapest"/>
    <tag k="addr:street" v="Nagykőrösi út"/>
    <tag k="website" v="https://www.spar.hu/content/aspiag_spar_hu/hu_HU/uzletek/12/spar-exp-n-k_roesi-ut.html"/>
  </node>
  <!-- OSM link: https://osm.org/node/4771754224 -->
  <!-- Original coordinates: POINT (47.641814 19.0674) -->
  <!-- Original tags: {'addr:postcode': '2000', 'addr:city': 'Szentendre', 'opening_hours': '24/7', 'shop': 'supermarket', 'name': 'Spar', 'addr:street': '11-es út  17km'} -->
  <node action="modify" changeset="1" id="4771754224" lat="47.641814" lon="19.0674" timestamp="2017-04-03T20:0359Z" uid="4579407" user="KAMI" version="2">
    <tag k="addr:postcode" v="2000"/>
    <tag k="payment:debit_cards" v="yes"/>
    <tag k="shop" v="convenience"/>
    <tag k="payment" v="cash"/>
    <tag k="source" v="website"/>
    <tag k="branch" v="Spar express OMV Szentendre"/>
    <tag k="name" v="Spar Expressz"/>
    <tag k="addr:housenumber" v="17"/>
    <tag k="operator" v="SPAR Magyarország Kereskedelmi Kft."/>
    <tag k="brand" v="Spar"/>
    <tag k="addr:city" v="Szentendre"/>
    <tag k="opening_hours" v="24/7"/>
    <tag k="addr:street" v="11-es út"/>
    <tag k="website" v="https://www.spar.hu/content/aspiag_spar_hu/hu_HU/uzletek/20/spar-exp-szentendre.html"/>
  </node>
  <!-- OSM link: https://osm.org/node/4337023760 -->
  <!-- Original coordinates: POINT (47.541014 18.723711) -->
  <!-- Original tags: {'name': 'Spar express', 'shop': 'supermarket', 'opening_hours': '24/7'} -->
  <node action="modify" changeset="1" id="4337023760" lat="47.541014" lon="18.723711" timestamp="2016-08-05T13:1805Z" uid="4579407" user="KAMI" version="1">
    <tag k="addr:postcode" v="2072"/>
    <tag k="payment:debit_cards" v="yes"/>
    <tag k="shop" v="convenience"/>
    <tag k="payment" v="cash"/>
    <tag k="source" v="website"/>
    <tag k="branch" v="Spar express OMV Zsámbék"/>
    <tag k="name" v="Spar Expressz"/>
    <tag k="addr:housenumber" v="578/a"/>
    <tag k="operator" v="SPAR Magyarország Kereskedelmi Kft."/>
    <tag k="brand" v="Spar"/>
    <tag k="addr:city" v="Zsámbék"/>
    <tag k="opening_hours" v="24/7"/>
    <tag k="addr:street" v="Herceghalmi út"/>
    <tag k="website" v="https://www.spar.hu/content/aspiag_spar_hu/hu_HU/uzletek/20/spar-exp-zsambek.html"/>
  </node>
  <!-- Original coordinates: POINT (47.584936 18.99847) -->
  <!-- Original tags: None -->
  <node action="modify" changeset="99999" id="-33" lat="47.584936" lon="18.99847" timestamp="" uid="4579407" user="KAMI" version="99999">
    <tag k="addr:postcode" v="2096"/>
    <tag k="payment:debit_cards" v="yes"/>
    <tag k="shop" v="convenience"/>
    <tag k="payment" v="cash"/>
    <tag k="source" v="website"/>
    <tag k="branch" v="Spar express OMV Üröm"/>
    <tag k="name" v="Spar Expressz"/>
    <tag k="addr:housenumber" v="2"/>
    <tag k="operator" v="SPAR Magyarország Kereskedelmi Kft."/>
    <tag k="brand" v="Spar"/>
    <tag k="addr:city" v="Üröm"/>
    <tag k="addr:street" v="Bécsi út"/>
    <tag k="website" v="https://www.spar.hu/content/aspiag_spar_hu/hu_HU/uzletek/20/spar-exp-ueroem.html"/>
  </node>
  <!-- OSM link: https://osm.org/node/2594303412 -->
  <!-- Original coordinates: POINT (47.616688 19.197648) -->
  <!-- Original tags: {'wheelchair': 'yes', 'toilets:wheelchair': 'yes', 'shop': 'convenience', 'contact:website': 'http://www.spar.hu', 'name': 'SPAR', 'website': 'http://www.spar.hu'} -->
  <node action="modify" changeset="1" id="2594303412" lat="47.616688" lon="19.197648" timestamp="2017-09-18T12:5955Z" uid="4579407" user="KAMI" version="3">
    <tag k="addr:postcode" v="2151"/>
    <tag k="payment:debit_cards" v="yes"/>
    <tag k="shop" v="convenience"/>
    <tag k="source" v="website"/>
    <tag k="contact:website" v="http://www.spar.hu"/>
    <tag k="branch" v="Spar express OMV Budapest"/>
    <tag k="name" v="Spar Expressz"/>
    <tag k="brand" v="Spar"/>
    <tag k="addr:housenumber" v="2/b"/>
    <tag k="operator" v="SPAR Magyarország Kereskedelmi Kft."/>
    <tag k="wheelchair" v="yes"/>
    <tag k="toilets:wheelchair" v="yes"/>
    <tag k="addr:city" v="Fót"/>
    <tag k="addr:street" v="Szabó Dezső út"/>
    <tag k="website" v="https://www.spar.hu/content/aspiag_spar_hu/hu_HU/uzletek/21/spar-exp-fot-omv.html"/>
    <tag k="payment" v="cash"/>
  </node>
  <!-- OSM link: https://osm.org/node/5350685445 -->
  <!-- Original coordinates: POINT (47.3992422311 19.2482949793) -->
  <!-- Original tags: {'addr:postcode': '2220', 'addr:city': 'Vecsés', 'opening_hours': '24/7', 'shop': 'supermarket', 'name': 'Spar Express', 'addr:street': 'Gyáli út', 'addr:housenumber': '20-22'} -->
  <node action="modify" changeset="1" id="5350685445" lat="47.3992422311" lon="19.2482949793" timestamp="2018-01-20T08:5938Z" uid="4579407" user="KAMI" version="1">
    <tag k="addr:postcode" v="2220"/>
    <tag k="payment:debit_cards" v="yes"/>
    <tag k="shop" v="convenience"/>
    <tag k="payment" v="cash"/>
    <tag k="source" v="website"/>
    <tag k="branch" v="Spar express OMV Vecsés"/>
    <tag k="name" v="Spar Expressz"/>
    <tag k="addr:housenumber" v="20-22"/>
    <tag k="operator" v="SPAR Magyarország Kereskedelmi Kft."/>
    <tag k="brand" v="Spar"/>
    <tag k="addr:city" v="Vecsés"/>
    <tag k="opening_hours" v="24/7"/>
    <tag k="addr:street" v="Gyáli út"/>
    <tag k="website" v="https://www.spar.hu/content/aspiag_spar_hu/hu_HU/uzletek/22/spar-exp-vecses-omv.html"/>
  </node>
  <!-- Original coordinates: POINT (47.3796 19.0528) -->
  <!-- Original tags: None -->
  <node action="modify" changeset="99999" id="-36" lat="47.3796" lon="19.0528" timestamp="" uid="4579407" user="KAMI" version="99999">
    <tag k="addr:postcode" v="2310"/>
    <tag k="payment:debit_cards" v="yes"/>
    <tag k="addr:city" v="Szigetszentmiklós"/>
    <tag k="payment" v="cash"/>
    <tag k="source" v="website"/>
    <tag k="branch" v="Spar express OMV Szigetszentmiklós"/>
    <tag k="name" v="Spar Expressz"/>
    <tag k="brand" v="Spar"/>
    <tag k="shop" v="convenience"/>
    <tag k="operator" v="SPAR Magyarország Kereskedelmi Kft."/>
    <tag k="website" v="https://www.spar.hu/content/aspiag_spar_hu/hu_HU/uzletek/23/spar-exp-sz-miklos.html"/>
  </node>
  <!-- Original coordinates: POINT (47.3536817 19.0970722) -->
  <!-- Original tags: None -->
  <node action="modify" changeset="99999" id="-37" lat="47.3536817" lon="19.0970722" timestamp="" uid="4579407" user="KAMI" version="99999">
    <tag k="addr:postcode" v="2330"/>
    <tag k="payment:debit_cards" v="yes"/>
    <tag k="shop" v="convenience"/>
    <tag k="payment" v="cash"/>
    <tag k="source" v="website"/>
    <tag k="branch" v="Spar express OMV Dunaharaszti"/>
    <tag k="name" v="Spar Expressz"/>
    <tag k="operator" v="SPAR Magyarország Kereskedelmi Kft."/>
    <tag k="brand" v="Spar"/>
    <tag k="addr:city" v="Dunaharaszti"/>
    <tag k="addr:street" v="51. számú - Némedi út sarok"/>
    <tag k="website" v="https://www.spar.hu/content/aspiag_spar_hu/hu_HU/uzletek/23/spar-exp-dunaharaszti.html"/>
  </node>
  <!-- Original coordinates: POINT (47.30212 19.17968) -->
  <!-- Original tags: None -->
  <node action="modify" changeset="99999" id="-38" lat="47.30212" lon="19.17968" timestamp="" uid="4579407" user="KAMI" version="99999">
    <tag k="addr:postcode" v="2351"/>
    <tag k="payment:debit_cards" v="yes"/>
    <tag k="shop" v="convenience"/>
    <tag k="payment" v="cash"/>
    <tag k="source" v="website"/>
    <tag k="addr:conscriptionnumber" v="2553"/>
    <tag k="name" v="Spar Expressz"/>
    <tag k="operator" v="SPAR Magyarország Kereskedelmi Kft."/>
    <tag k="branch" v="Spar express OMV Alsónémedi"/>
    <tag k="brand" v="Spar"/>
    <tag k="addr:city" v="Alsónémedi"/>
    <tag k="addr:street" v="5. számú főút"/>
    <tag k="website" v="https://www.spar.hu/content/aspiag_spar_hu/hu_HU/uzletek/23/spar-exp-alsonemedi.html"/>
  </node>
  <!-- Original coordinates: POINT (46.9669211954 18.9363084733) -->
  <!-- Original tags: None -->
  <node action="modify" changeset="99999" id="-39" lat="46.9669211954" lon="18.9363084733" timestamp="" uid="4579407" user="KAMI" version="99999">
    <tag k="addr:postcode" v="2400"/>
    <tag k="payment:debit_cards" v="yes"/>
    <tag k="shop" v="convenience"/>
    <tag k="payment" v="cash"/>
    <tag k="source" v="website"/>
    <tag k="branch" v="Spar express OMV Dunaújváros"/>
    <tag k="name" v="Spar Expressz"/>
    <tag k="operator" v="SPAR Magyarország Kereskedelmi Kft."/>
    <tag k="brand" v="Spar"/>
    <tag k="addr:city" v="Dunaújváros"/>
    <tag k="addr:street" v="Aranyvölgyi utca"/>
    <tag k="website" v="https://www.spar.hu/content/aspiag_spar_hu/hu_HU/uzletek/24/spar-exp-dujvaros-omv.html"/>
  </node>
  <!-- Original coordinates: POINT (47.764058 19.1408) -->
  <!-- Original tags: None -->
  <node action="modify" changeset="99999" id="-40" lat="47.764058" lon="19.1408" timestamp="" uid="4579407" user="KAMI" version="99999">
    <tag k="addr:postcode" v="2600"/>
    <tag k="payment:debit_cards" v="yes"/>
    <tag k="shop" v="convenience"/>
    <tag k="payment" v="cash"/>
    <tag k="source" v="website"/>
    <tag k="branch" v="Spar express OMV Vác"/>
    <tag k="name" v="Spar Expressz"/>
    <tag k="addr:housenumber" v="1"/>
    <tag k="operator" v="SPAR Magyarország Kereskedelmi Kft."/>
    <tag k="brand" v="Spar"/>
    <tag k="addr:city" v="Vác"/>
    <tag k="addr:street" v="Gödöllői út"/>
    <tag k="website" v="https://www.spar.hu/content/aspiag_spar_hu/hu_HU/uzletek/26/spar-express-omv-vac-6717110-.html"/>
  </node>
  <!-- Original coordinates: POINT (47.5560605 18.4204121) -->
  <!-- Original tags: None -->
  <node action="modify" changeset="99999" id="-41" lat="47.5560605" lon="18.4204121" timestamp="" uid="4579407" user="KAMI" version="99999">
    <tag k="addr:postcode" v="2800"/>
    <tag k="payment:debit_cards" v="yes"/>
    <tag k="shop" v="convenience"/>
    <tag k="payment" v="cash"/>
    <tag k="source" v="website"/>
    <tag k="branch" v="Spar express OMV Tatabánya"/>
    <tag k="name" v="Spar Expressz"/>
    <tag k="addr:housenumber" v="4"/>
    <tag k="operator" v="SPAR Magyarország Kereskedelmi Kft."/>
    <tag k="brand" v="Spar"/>
    <tag k="addr:city" v="Tatabánya"/>
    <tag k="addr:street" v="Károlyi út-Ságvári út"/>
    <tag k="website" v="https://www.spar.hu/content/aspiag_spar_hu/hu_HU/uzletek/28/spar-exp-tatabanya.html"/>
  </node>
  <!-- Original coordinates: POINT (47.890619 20.3790417) -->
  <!-- Original tags: None -->
  <node action="modify" changeset="99999" id="-42" lat="47.890619" lon="20.3790417" timestamp="" uid="4579407" user="KAMI" version="99999">
    <tag k="addr:postcode" v="3300"/>
    <tag k="payment:debit_cards" v="yes"/>
    <tag k="shop" v="convenience"/>
    <tag k="payment" v="cash"/>
    <tag k="source" v="website"/>
    <tag k="branch" v="Spar express OMV Eger"/>
    <tag k="name" v="Spar Expressz"/>
    <tag k="addr:housenumber" v="2"/>
    <tag k="operator" v="SPAR Magyarország Kereskedelmi Kft."/>
    <tag k="brand" v="Spar"/>
    <tag k="addr:city" v="Eger"/>
    <tag k="addr:street" v="Mátyás király utca"/>
    <tag k="website" v="https://www.spar.hu/content/aspiag_spar_hu/hu_HU/uzletek/33/spar-exp-eger-matyas.html"/>
  </node>
  <!-- Original coordinates: POINT (48.105664 20.789879) -->
  <!-- Original tags: None -->
  <node action="modify" changeset="99999" id="-43" lat="48.105664" lon="20.789879" timestamp="" uid="4579407" user="KAMI" version="99999">
    <tag k="addr:postcode" v="3525"/>
    <tag k="payment:debit_cards" v="yes"/>
    <tag k="shop" v="convenience"/>
    <tag k="payment" v="cash"/>
    <tag k="source" v="website"/>
    <tag k="branch" v="Spar express OMV Miskolc"/>
    <tag k="name" v="Spar Expressz"/>
    <tag k="addr:housenumber" v="16"/>
    <tag k="operator" v="SPAR Magyarország Kereskedelmi Kft."/>
    <tag k="brand" v="Spar"/>
    <tag k="addr:city" v="Miskolc"/>
    <tag k="addr:street" v="Búza tér"/>
    <tag k="website" v="https://www.spar.hu/content/aspiag_spar_hu/hu_HU/uzletek/35/spar-exp-miskolc.html"/>
  </node>
  <!-- Original coordinates: POINT (48.083609 20.78413) -->
  <!-- Original tags: None -->
  <node action="modify" changeset="99999" id="-44" lat="48.083609" lon="20.78413" timestamp="" uid="4579407" user="KAMI" version="99999">
    <tag k="addr:postcode" v="3529"/>
    <tag k="payment:debit_cards" v="yes"/>
    <tag k="shop" v="convenience"/>
    <tag k="payment" v="cash"/>
    <tag k="source" v="website"/>
    <tag k="branch" v="Spar express OMV Miskolc"/>
    <tag k="name" v="Spar Expressz"/>
    <tag k="addr:housenumber" v="2/a"/>
    <tag k="operator" v="SPAR Magyarország Kereskedelmi Kft."/>
    <tag k="brand" v="Spar"/>
    <tag k="addr:city" v="Miskolc"/>
    <tag k="addr:street" v="Testvérvárosok út"/>
    <tag k="website" v="https://www.spar.hu/content/aspiag_spar_hu/hu_HU/uzletek/35/spar-exp-miskolc-omv.html"/>
  </node>
  <!-- Original coordinates: POINT (48.099723 20.70297) -->
  <!-- Original tags: None -->
  <node action="modify" changeset="99999" id="-45" lat="48.099723" lon="20.70297" timestamp="" uid="4579407" user="KAMI" version="99999">
    <tag k="addr:postcode" v="3534"/>
    <tag k="payment:debit_cards" v="yes"/>
    <tag k="shop" v="convenience"/>
    <tag k="payment" v="cash"/>
    <tag k="source" v="website"/>
    <tag k="branch" v="Spar express OMV Miskolc"/>
    <tag k="name" v="Spar Expressz"/>
    <tag k="operator" v="SPAR Magyarország Kereskedelmi Kft."/>
    <tag k="brand" v="Spar"/>
    <tag k="addr:city" v="Miskolc"/>
    <tag k="addr:street" v="Kiss Tábornok - Kandó Kálmán utca sarok"/>
    <tag k="website" v="https://www.spar.hu/content/aspiag_spar_hu/hu_HU/uzletek/35/spar-exp-miskolc0.html"/>
  </node>
  <!-- Original coordinates: POINT (47.54172 21.620341) -->
  <!-- Original tags: None -->
  <node action="modify" changeset="99999" id="-46" lat="47.54172" lon="21.620341" timestamp="" uid="4579407" user="KAMI" version="99999">
    <tag k="addr:postcode" v="4027"/>
    <tag k="payment:debit_cards" v="yes"/>
    <tag k="shop" v="convenience"/>
    <tag k="payment" v="cash"/>
    <tag k="source" v="website"/>
    <tag k="branch" v="Spar express OMV Debrecen"/>
    <tag k="name" v="Spar Expressz"/>
    <tag k="addr:housenumber" v="27"/>
    <tag k="operator" v="SPAR Magyarország Kereskedelmi Kft."/>
    <tag k="brand" v="Spar"/>
    <tag k="addr:city" v="Debrecen"/>
    <tag k="addr:street" v="Füredi út"/>
    <tag k="website" v="https://www.spar.hu/content/aspiag_spar_hu/hu_HU/uzletek/40/spar-exp-debrecen1.html"/>
  </node>
  <!-- Original coordinates: POINT (47.551512 21.648301) -->
  <!-- Original tags: None -->
  <node action="modify" changeset="99999" id="-47" lat="47.551512" lon="21.648301" timestamp="" uid="4579407" user="KAMI" version="99999">
    <tag k="addr:postcode" v="4028"/>
    <tag k="payment:debit_cards" v="yes"/>
    <tag k="shop" v="convenience"/>
    <tag k="payment" v="cash"/>
    <tag k="source" v="website"/>
    <tag k="branch" v="Spar express OMV Debrecen"/>
    <tag k="name" v="Spar Expressz"/>
    <tag k="addr:housenumber" v="2"/>
    <tag k="operator" v="SPAR Magyarország Kereskedelmi Kft."/>
    <tag k="brand" v="Spar"/>
    <tag k="addr:city" v="Debrecen"/>
    <tag k="addr:street" v="Kassai utca"/>
    <tag k="website" v="https://www.spar.hu/content/aspiag_spar_hu/hu_HU/uzletek/40/spar-exp-debrecen0.html"/>
  </node>
  <!-- Original coordinates: POINT (47.516091 21.605806) -->
  <!-- Original tags: None -->
  <node action="modify" changeset="99999" id="-48" lat="47.516091" lon="21.605806" timestamp="" uid="4579407" user="KAMI" version="99999">
    <tag k="addr:postcode" v="4031"/>
    <tag k="payment:debit_cards" v="yes"/>
    <tag k="shop" v="convenience"/>
    <tag k="payment" v="cash"/>
    <tag k="source" v="website"/>
    <tag k="branch" v="Spar express OMV Debrecen"/>
    <tag k="name" v="Spar Expressz"/>
    <tag k="addr:housenumber" v="137"/>
    <tag k="operator" v="SPAR Magyarország Kereskedelmi Kft."/>
    <tag k="brand" v="Spar"/>
    <tag k="addr:city" v="Debrecen"/>
    <tag k="addr:street" v="István út"/>
    <tag k="website" v="https://www.spar.hu/content/aspiag_spar_hu/hu_HU/uzletek/40/spar-exp-debrecen.html"/>
  </node>
  <!-- Original coordinates: POINT (47.957281 21.685581) -->
  <!-- Original tags: None -->
  <node action="modify" changeset="99999" id="-49" lat="47.957281" lon="21.685581" timestamp="" uid="4579407" user="KAMI" version="99999">
    <tag k="addr:postcode" v="4400"/>
    <tag k="payment:debit_cards" v="yes"/>
    <tag k="shop" v="convenience"/>
    <tag k="payment" v="cash"/>
    <tag k="source" v="website"/>
    <tag k="branch" v="Spar express OMV Nyíregyháza"/>
    <tag k="name" v="Spar Expressz"/>
    <tag k="operator" v="SPAR Magyarország Kereskedelmi Kft."/>
    <tag k="brand" v="Spar"/>
    <tag k="addr:city" v="Nyíregyháza"/>
    <tag k="addr:street" v="Tiszavasvári út- Alkotás út sarok"/>
    <tag k="website" v="https://www.spar.hu/content/aspiag_spar_hu/hu_HU/uzletek/44/spar-exp-nyiregyhaza.html"/>
  </node>
  <!-- Original coordinates: POINT (47.944923 21.725386) -->
  <!-- Original tags: None -->
  <node action="modify" changeset="99999" id="-50" lat="47.944923" lon="21.725386" timestamp="" uid="4579407" user="KAMI" version="99999">
    <tag k="addr:postcode" v="4400"/>
    <tag k="payment:debit_cards" v="yes"/>
    <tag k="shop" v="convenience"/>
    <tag k="payment" v="cash"/>
    <tag k="source" v="website"/>
    <tag k="branch" v="Spar express OMV Nyíregyháza"/>
    <tag k="name" v="Spar Expressz"/>
    <tag k="addr:housenumber" v="47"/>
    <tag k="operator" v="SPAR Magyarország Kereskedelmi Kft."/>
    <tag k="brand" v="Spar"/>
    <tag k="addr:city" v="Nyíregyháza"/>
    <tag k="addr:street" v="Kert utca"/>
    <tag k="website" v="https://www.spar.hu/content/aspiag_spar_hu/hu_HU/uzletek/44/spar-exp-nyegyhaza.html"/>
  </node>
  <!-- OSM link: https://osm.org/node/1129279204 -->
  <!-- Original coordinates: POINT (47.182342 20.183801) -->
  <!-- Original tags: {'amenity': 'fuel', 'wheelchair': 'yes', 'brand': 'OMV', 'shop': 'convenience', 'opening_hours': '24/7', 'fuel:diesel': 'yes', 'name': 'OMV Szolnok', 'fuel:octane_98': 'yes', 'fuel:octane_95': 'yes', 'operator': 'OMV'} -->
  <node action="modify" changeset="1" id="1129279204" lat="47.182342" lon="20.183801" timestamp="2015-11-02T13:5318Z" uid="4579407" user="KAMI" version="7">
    <tag k="addr:postcode" v="5000"/>
    <tag k="amenity" v="fuel"/>
    <tag k="brand" v="Spar"/>
    <tag k="shop" v="convenience"/>
    <tag k="payment" v="cash"/>
    <tag k="source" v="website"/>
    <tag k="branch" v="Spar express OMV Szolnok"/>
    <tag k="name" v="Spar Expressz"/>
    <tag k="addr:housenumber" v="51"/>
    <tag k="addr:street" v="Thököly út"/>
    <tag k="wheelchair" v="yes"/>
    <tag k="payment:debit_cards" v="yes"/>
    <tag k="addr:city" v="Szolnok"/>
    <tag k="opening_hours" v="24/7"/>
    <tag k="fuel:diesel" v="yes"/>
    <tag k="fuel:octane_98" v="yes"/>
    <tag k="fuel:octane_95" v="yes"/>
    <tag k="operator" v="SPAR Magyarország Kereskedelmi Kft."/>
    <tag k="website" v="https://www.spar.hu/content/aspiag_spar_hu/hu_HU/uzletek/50/spar-exp-szolnok-omv.html"/>
  </node>
  <!-- Original coordinates: POINT (46.6837338 21.0597964) -->
  <!-- Original tags: None -->
  <node action="modify" changeset="99999" id="-52" lat="46.6837338" lon="21.0597964" timestamp="" uid="4579407" user="KAMI" version="99999">
    <tag k="addr:postcode" v="5600"/>
    <tag k="payment:debit_cards" v="yes"/>
    <tag k="shop" v="convenience"/>
    <tag k="payment" v="cash"/>
    <tag k="source" v="website"/>
    <tag k="branch" v="Spar express OMV Békéscsaba"/>
    <tag k="name" v="Spar Expressz"/>
    <tag k="addr:housenumber" v="103"/>
    <tag k="operator" v="SPAR Magyarország Kereskedelmi Kft."/>
    <tag k="brand" v="Spar"/>
    <tag k="addr:city" v="Békéscsaba"/>
    <tag k="addr:street" v="Szarvasi út"/>
    <tag k="website" v="https://www.spar.hu/content/aspiag_spar_hu/hu_HU/uzletek/56/spar-exp-bekescsaba.html"/>
  </node>
  <!-- Original coordinates: POINT (46.9209 19.6793) -->
  <!-- Original tags: None -->
  <node action="modify" changeset="99999" id="-53" lat="46.9209" lon="19.6793" timestamp="" uid="4579407" user="KAMI" version="99999">
    <tag k="addr:postcode" v="6000"/>
    <tag k="payment:debit_cards" v="yes"/>
    <tag k="shop" v="convenience"/>
    <tag k="payment" v="cash"/>
    <tag k="source" v="website"/>
    <tag k="branch" v="Spar express OMV Kecskemét"/>
    <tag k="name" v="Spar Expressz"/>
    <tag k="operator" v="SPAR Magyarország Kereskedelmi Kft."/>
    <tag k="brand" v="Spar"/>
    <tag k="addr:city" v="Kecskemét"/>
    <tag k="addr:street" v="Budai út"/>
    <tag k="website" v="https://www.spar.hu/content/aspiag_spar_hu/hu_HU/uzletek/60/spar-exp-kecskemet-omv.html"/>
  </node>
  <!-- Original coordinates: POINT (46.625715 19.274241) -->
  <!-- Original tags: None -->
  <node action="modify" changeset="99999" id="-54" lat="46.625715" lon="19.274241" timestamp="" uid="4579407" user="KAMI" version="99999">
    <tag k="addr:postcode" v="6200"/>
    <tag k="payment:debit_cards" v="yes"/>
    <tag k="shop" v="convenience"/>
    <tag k="payment" v="cash"/>
    <tag k="source" v="website"/>
    <tag k="branch" v="Spar express OMV Kiskőrös"/>
    <tag k="name" v="Spar Expressz"/>
    <tag k="addr:housenumber" v="99"/>
    <tag k="operator" v="SPAR Magyarország Kereskedelmi Kft."/>
    <tag k="brand" v="Spar"/>
    <tag k="addr:city" v="Kiskőrös"/>
    <tag k="addr:street" v="Dózsa György út"/>
    <tag k="website" v="https://www.spar.hu/content/aspiag_spar_hu/hu_HU/uzletek/62/spar-exp-kisk_roes.html"/>
  </node>
  <!-- Original coordinates: POINT (46.2733692 20.1579439) -->
  <!-- Original tags: None -->
  <node action="modify" changeset="99999" id="-55" lat="46.2733692" lon="20.1579439" timestamp="" uid="4579407" user="KAMI" version="99999">
    <tag k="addr:postcode" v="6723"/>
    <tag k="payment:debit_cards" v="yes"/>
    <tag k="shop" v="convenience"/>
    <tag k="payment" v="cash"/>
    <tag k="source" v="website"/>
    <tag k="branch" v="Spar express OMV Szeged"/>
    <tag k="name" v="Spar Expressz"/>
    <tag k="addr:housenumber" v="1"/>
    <tag k="operator" v="SPAR Magyarország Kereskedelmi Kft."/>
    <tag k="brand" v="Spar"/>
    <tag k="addr:city" v="Szeged"/>
    <tag k="addr:street" v="Makkosházi körút"/>
    <tag k="website" v="https://www.spar.hu/content/aspiag_spar_hu/hu_HU/uzletek/67/spar-exp-szeged-makkos.html"/>
  </node>
  <!-- Original coordinates: POINT (46.22034 20.47701) -->
  <!-- Original tags: None -->
  <node action="modify" changeset="99999" id="-56" lat="46.22034" lon="20.47701" timestamp="" uid="4579407" user="KAMI" version="99999">
    <tag k="addr:postcode" v="6900"/>
    <tag k="payment:debit_cards" v="yes"/>
    <tag k="shop" v="convenience"/>
    <tag k="payment" v="cash"/>
    <tag k="source" v="website"/>
    <tag k="branch" v="Spar express OMV Makó"/>
    <tag k="name" v="Spar Expressz"/>
    <tag k="operator" v="SPAR Magyarország Kereskedelmi Kft."/>
    <tag k="brand" v="Spar"/>
    <tag k="addr:city" v="Makó"/>
    <tag k="addr:street" v="Kossuth Lajos utca"/>
    <tag k="website" v="https://www.spar.hu/content/aspiag_spar_hu/hu_HU/uzletek/69/spar-exp-mako.html"/>
  </node>
  <!-- Original coordinates: POINT (46.354611 17.7854394) -->
  <!-- Original tags: None -->
  <node action="modify" changeset="99999" id="-57" lat="46.354611" lon="17.7854394" timestamp="" uid="4579407" user="KAMI" version="99999">
    <tag k="addr:postcode" v="7400"/>
    <tag k="payment:debit_cards" v="yes"/>
    <tag k="shop" v="convenience"/>
    <tag k="payment" v="cash"/>
    <tag k="source" v="website"/>
    <tag k="addr:conscriptionnumber" v="113/14"/>
    <tag k="name" v="Spar Expressz"/>
    <tag k="operator" v="SPAR Magyarország Kereskedelmi Kft."/>
    <tag k="branch" v="Spar express OMV Kaposvár"/>
    <tag k="brand" v="Spar"/>
    <tag k="addr:city" v="Kaposvár"/>
    <tag k="addr:street" v="Áchim András utca"/>
    <tag k="website" v="https://www.spar.hu/content/aspiag_spar_hu/hu_HU/uzletek/74/spar-exp-kaposvar.html"/>
  </node>
  <!-- Original coordinates: POINT (46.0555444 18.2311233) -->
  <!-- Original tags: None -->
  <node action="modify" changeset="99999" id="-58" lat="46.0555444" lon="18.2311233" timestamp="" uid="4579407" user="KAMI" version="99999">
    <tag k="addr:postcode" v="7632"/>
    <tag k="payment:debit_cards" v="yes"/>
    <tag k="shop" v="convenience"/>
    <tag k="payment" v="cash"/>
    <tag k="source" v="website"/>
    <tag k="branch" v="Spar express OMV Pécs"/>
    <tag k="name" v="Spar Expressz"/>
    <tag k="addr:housenumber" v="45"/>
    <tag k="operator" v="SPAR Magyarország Kereskedelmi Kft."/>
    <tag k="brand" v="Spar"/>
    <tag k="addr:city" v="Pécs"/>
    <tag k="addr:street" v="Siklósi út"/>
    <tag k="website" v="https://www.spar.hu/content/aspiag_spar_hu/hu_HU/uzletek/76/spar-expr-pecs-omv.html"/>
  </node>
  <!-- Original coordinates: POINT (47.195781 18.458692) -->
  <!-- Original tags: None -->
  <node action="modify" changeset="99999" id="-59" lat="47.195781" lon="18.458692" timestamp="" uid="4579407" user="KAMI" version="99999">
    <tag k="addr:postcode" v="8000"/>
    <tag k="payment:debit_cards" v="yes"/>
    <tag k="shop" v="convenience"/>
    <tag k="payment" v="cash"/>
    <tag k="source" v="website"/>
    <tag k="branch" v="Spar express OMV Székesfehérvár"/>
    <tag k="name" v="Spar Expressz"/>
    <tag k="addr:housenumber" v="6"/>
    <tag k="operator" v="SPAR Magyarország Kereskedelmi Kft."/>
    <tag k="brand" v="Spar"/>
    <tag k="addr:city" v="Székesfehérvár"/>
    <tag k="addr:street" v="Donáth utca"/>
    <tag k="website" v="https://www.spar.hu/content/aspiag_spar_hu/hu_HU/uzletek/80/spar-exp-szfvar.html"/>
  </node>
  <!-- Original coordinates: POINT (47.1911958 18.4224656) -->
  <!-- Original tags: None -->
  <node action="modify" changeset="99999" id="-60" lat="47.1911958" lon="18.4224656" timestamp="" uid="4579407" user="KAMI" version="99999">
    <tag k="addr:postcode" v="8000"/>
    <tag k="payment:debit_cards" v="yes"/>
    <tag k="shop" v="convenience"/>
    <tag k="payment" v="cash"/>
    <tag k="source" v="website"/>
    <tag k="branch" v="Spar express OMV Székesfehérvár"/>
    <tag k="name" v="Spar Expressz"/>
    <tag k="addr:housenumber" v="29"/>
    <tag k="operator" v="SPAR Magyarország Kereskedelmi Kft."/>
    <tag k="brand" v="Spar"/>
    <tag k="addr:city" v="Székesfehérvár"/>
    <tag k="addr:street" v="Budai út"/>
    <tag k="website" v="https://www.spar.hu/content/aspiag_spar_hu/hu_HU/uzletek/80/spar-exp-sz-fehervar.html"/>
  </node>
  <!-- OSM link: https://osm.org/node/4317001496 -->
  <!-- Original coordinates: POINT (47.112271 17.924475) -->
  <!-- Original tags: {'shop': 'convenience', 'name': 'Spar Express', 'internet_access': 'wlan', 'opening_hours': '24/7'} -->
  <node action="modify" changeset="1" id="4317001496" lat="47.112271" lon="17.924475" timestamp="2016-07-23T13:2735Z" uid="4579407" user="KAMI" version="1">
    <tag k="addr:postcode" v="8200"/>
    <tag k="payment:debit_cards" v="yes"/>
    <tag k="shop" v="convenience"/>
    <tag k="branch" v="Spar Express OMV Veszprém"/>
    <tag k="internet_access" v="wlan"/>
    <tag k="brand" v="Spar"/>
    <tag k="opening_hours" v="24/7"/>
    <tag k="addr:street" v="Aradi Vértanúk út"/>
    <tag k="payment" v="cash"/>
    <tag k="source" v="website"/>
    <tag k="name" v="Spar Expressz"/>
    <tag k="addr:housenumber" v="11"/>
    <tag k="operator" v="SPAR Magyarország Kereskedelmi Kft."/>
    <tag k="addr:city" v="Veszprém"/>
    <tag k="website" v="https://www.spar.hu/content/aspiag_spar_hu/hu_HU/uzletek/82/spar-express-veszprem.html"/>
  </node>
  <!-- OSM link: https://osm.org/node/4317069293 -->
  <!-- Original coordinates: POINT (47.0944911 17.9164813) -->
  <!-- Original tags: {'shop': 'convenience', 'name': 'Spar Express', 'internet_access': 'wlan', 'opening_hours': '24/7'} -->
  <node action="modify" changeset="1" id="4317069293" lat="47.0944911" lon="17.9164813" timestamp="2016-07-23T13:2934Z" uid="4579407" user="KAMI" version="1">
    <tag k="addr:postcode" v="8200"/>
    <tag k="payment:debit_cards" v="yes"/>
    <tag k="shop" v="convenience"/>
    <tag k="branch" v="Spar express OMV Veszprém"/>
    <tag k="internet_access" v="wlan"/>
    <tag k="brand" v="Spar"/>
    <tag k="opening_hours" v="24/7"/>
    <tag k="addr:street" v="Budapesti út"/>
    <tag k="payment" v="cash"/>
    <tag k="source" v="website"/>
    <tag k="name" v="Spar Expressz"/>
    <tag k="addr:housenumber" v="12"/>
    <tag k="operator" v="SPAR Magyarország Kereskedelmi Kft."/>
    <tag k="addr:city" v="Veszprém"/>
    <tag k="website" v="https://www.spar.hu/content/aspiag_spar_hu/hu_HU/uzletek/82/spar-exp-veszprem.html"/>
  </node>
  <!-- Original coordinates: POINT (46.90163 18.0484459) -->
  <!-- Original tags: None -->
  <node action="modify" changeset="99999" id="-63" lat="46.90163" lon="18.0484459" timestamp="" uid="4579407" user="KAMI" version="99999">
    <tag k="addr:postcode" v="8600"/>
    <tag k="payment:debit_cards" v="yes"/>
    <tag k="shop" v="convenience"/>
    <tag k="payment" v="cash"/>
    <tag k="source" v="website"/>
    <tag k="branch" v="Spar express OMV Siófok"/>
    <tag k="name" v="Spar Expressz"/>
    <tag k="addr:housenumber" v="1"/>
    <tag k="operator" v="SPAR Magyarország Kereskedelmi Kft."/>
    <tag k="brand" v="Spar"/>
    <tag k="addr:city" v="Siófok"/>
    <tag k="addr:street" v="Vak Bottyán út"/>
    <tag k="website" v="https://www.spar.hu/content/aspiag_spar_hu/hu_HU/uzletek/86/spar-exp-siofok-omv.html"/>
  </node>
  <!-- Original coordinates: POINT (46.7876292453 17.6993434131) -->
  <!-- Original tags: None -->
  <node action="modify" changeset="99999" id="-64" lat="46.7876292453" lon="17.6993434131" timestamp="" uid="4579407" user="KAMI" version="99999">
    <tag k="addr:postcode" v="8638"/>
    <tag k="payment:debit_cards" v="yes"/>
    <tag k="shop" v="convenience"/>
    <tag k="payment" v="cash"/>
    <tag k="source" v="website"/>
    <tag k="addr:conscriptionnumber" v="3069"/>
    <tag k="name" v="Spar Expressz"/>
    <tag k="operator" v="SPAR Magyarország Kereskedelmi Kft."/>
    <tag k="branch" v="Spar express OMV Balatonlelle"/>
    <tag k="brand" v="Spar"/>
    <tag k="addr:city" v="Balatonlelle"/>
    <tag k="addr:street" v="Rákóczi út"/>
    <tag k="website" v="https://www.spar.hu/content/aspiag_spar_hu/hu_HU/uzletek/86/spar-exp-balatonlelle.html"/>
  </node>
  <!-- Original coordinates: POINT (46.456071 17.009847) -->
  <!-- Original tags: None -->
  <node action="modify" changeset="99999" id="-65" lat="46.456071" lon="17.009847" timestamp="" uid="4579407" user="KAMI" version="99999">
    <tag k="addr:postcode" v="8800"/>
    <tag k="payment:debit_cards" v="yes"/>
    <tag k="shop" v="convenience"/>
    <tag k="payment" v="cash"/>
    <tag k="source" v="website"/>
    <tag k="branch" v="Spar express OMV Nagykanizsa"/>
    <tag k="name" v="Spar Expressz"/>
    <tag k="addr:housenumber" v="5"/>
    <tag k="operator" v="SPAR Magyarország Kereskedelmi Kft."/>
    <tag k="brand" v="Spar"/>
    <tag k="addr:city" v="Nagykanizsa"/>
    <tag k="addr:street" v="Hevesi Sándor  utca"/>
    <tag k="website" v="https://www.spar.hu/content/aspiag_spar_hu/hu_HU/uzletek/88/spar-exp-nagykanizsa.html"/>
  </node>
  <!-- Original coordinates: POINT (46.835042 16.830809) -->
  <!-- Original tags: None -->
  <node action="modify" changeset="99999" id="-66" lat="46.835042" lon="16.830809" timestamp="" uid="4579407" user="KAMI" version="99999">
    <tag k="addr:postcode" v="8900"/>
    <tag k="payment:debit_cards" v="yes"/>
    <tag k="shop" v="convenience"/>
    <tag k="payment" v="cash"/>
    <tag k="source" v="website"/>
    <tag k="branch" v="Spar express OMV Zalaegerszeg"/>
    <tag k="name" v="Spar Expressz"/>
    <tag k="addr:housenumber" v="26"/>
    <tag k="operator" v="SPAR Magyarország Kereskedelmi Kft."/>
    <tag k="brand" v="Spar"/>
    <tag k="addr:city" v="Zalaegerszeg"/>
    <tag k="addr:street" v="Göcseji utca"/>
    <tag k="website" v="https://www.spar.hu/content/aspiag_spar_hu/hu_HU/uzletek/89/spar-exp-zalaegerszeg.html"/>
  </node>
  <!-- Original coordinates: POINT (47.656914 17.633928) -->
  <!-- Original tags: None -->
  <node action="modify" changeset="99999" id="-67" lat="47.656914" lon="17.633928" timestamp="" uid="4579407" user="KAMI" version="99999">
    <tag k="addr:postcode" v="9024"/>
    <tag k="payment:debit_cards" v="yes"/>
    <tag k="shop" v="convenience"/>
    <tag k="payment" v="cash"/>
    <tag k="source" v="website"/>
    <tag k="branch" v="Spar express OMV Győr"/>
    <tag k="name" v="Spar Expressz"/>
    <tag k="addr:housenumber" v="771"/>
    <tag k="operator" v="SPAR Magyarország Kereskedelmi Kft."/>
    <tag k="brand" v="Spar"/>
    <tag k="addr:city" v="Győr"/>
    <tag k="addr:street" v="Pápai út"/>
    <tag k="website" v="https://www.spar.hu/content/aspiag_spar_hu/hu_HU/uzletek/90/spar-exp-gy_r.html"/>
  </node>
  <!-- Original coordinates: POINT (47.676419 16.596474) -->
  <!-- Original tags: None -->
  <node action="modify" changeset="99999" id="-68" lat="47.676419" lon="16.596474" timestamp="" uid="4579407" user="KAMI" version="99999">
    <tag k="addr:postcode" v="9400"/>
    <tag k="payment:debit_cards" v="yes"/>
    <tag k="shop" v="convenience"/>
    <tag k="payment" v="cash"/>
    <tag k="source" v="website"/>
    <tag k="branch" v="Spar express OMV Sopron"/>
    <tag k="name" v="Spar Expressz"/>
    <tag k="addr:housenumber" v="93"/>
    <tag k="operator" v="SPAR Magyarország Kereskedelmi Kft."/>
    <tag k="brand" v="Spar"/>
    <tag k="addr:city" v="Sopron"/>
    <tag k="addr:street" v="Csengery utca"/>
    <tag k="website" v="https://www.spar.hu/content/aspiag_spar_hu/hu_HU/uzletek/94/spar-exp-sopron.html"/>
  </node>
  <!-- Original coordinates: POINT (47.211575 16.618967) -->
  <!-- Original tags: None -->
  <node action="modify" changeset="99999" id="-69" lat="47.211575" lon="16.618967" timestamp="" uid="4579407" user="KAMI" version="99999">
    <tag k="addr:postcode" v="9700"/>
    <tag k="payment:debit_cards" v="yes"/>
    <tag k="shop" v="convenience"/>
    <tag k="payment" v="cash"/>
    <tag k="source" v="website"/>
    <tag k="branch" v="Spar express OMV Szombathely"/>
    <tag k="name" v="Spar Expressz"/>
    <tag k="addr:housenumber" v="92"/>
    <tag k="operator" v="SPAR Magyarország Kereskedelmi Kft."/>
    <tag k="brand" v="Spar"/>
    <tag k="addr:city" v="Szombathely"/>
    <tag k="addr:street" v="Körmendi út"/>
    <tag k="website" v="https://www.spar.hu/content/aspiag_spar_hu/hu_HU/uzletek/97/spar-exp-szombathely.html"/>
  </node>
</osm>
