<?xml version='1.0' encoding='UTF-8'?>
<osm generator="JOSM" version="0.6">
  <!-- OSM link: https://osm.org/node/2450567757 -->
  <!-- Original coordinates: POINT (47.182147 19.799924) -->
  <!-- OSM <-> POI distance: 6.78153998 m-->
  <!--
Key				Status		New value		OSM value
addr:city                        N		'Cegléd'
addr:housenumber                 N		'26'
addr:postcode                    N		'2700'
addr:street                      N		'Malomtószél utca'
air_conditioning                 N		'yes'
amenity                           EQU 		'fuel'			'fuel'
branch                           N		'CEGLÉD I.'
brand                             EQU 		'Shell'			'Shell'
brand:wikidata                   N		'Q154950'
brand:wikipedia                  N		'hu:Royal Dutch Shell'
building                          EQU 		'yes'			'yes'
compressed_air                   N		'yes'
contact:facebook                 N		'https://www.facebook.com/ShellMagyarorszag/'
contact:fax                      N		'+36 1 999 8673'
contact:phone                    N		'+36 53 318 678'
contact:twitter                  N		'shell'
contact:website                  N		'https://shell.hu/https://find.shell.com/hu/fuel/10204985\-cegled\-i'
food                             N		'yes'
fuel:GTL_diesel                  N		'yes'
fuel:adblue                      N		'yes'
fuel:diesel                      N		'yes'
fuel:octane_100                  N		'yes'
fuel:octane_95                   N		'yes'
loyalty_card                     N		'yes'
name                              EQU 		'Shell'			'Shell'
opening_hours                    N		'24/7'
operator                          EQU 		'Shell'			'Shell'
payment:cash                     N		'yes'
payment:contactless              N		'yes'
payment:maestro                  N		'yes'
payment:mastercard               N		'yes'
payment:mastercard_contactless   N		'yes'
payment:mastercard_electronic    N		'yes'
payment:visa                     N		'yes'
payment:visa_electron            N		'yes'
restaurant                       N		'yes'
source:date                      N		'2022\-03\-07'
-->
  <!-- JOSM magic link: http://localhost:8111/load_object?new_layer=false&objects=n2450567757&addtags=%7Caddr%3Acity%3DCegl%C3%A9d%7Caddr%3Ahousenumber%3D26%7Caddr%3Apostcode%3D2700%7Caddr%3Astreet%3DMalomt%C3%B3sz%C3%A9l%20utca%7Cair_conditioning%3Dyes%7Camenity%3Dfuel%7Cbranch%3DCEGL%C3%89D%20I.%7Cbrand%3DShell%7Cbrand%3Awikidata%3DQ154950%7Cbrand%3Awikipedia%3Dhu%3ARoyal%20Dutch%20Shell%7Cbuilding%3Dyes%7Ccompressed_air%3Dyes%7Ccontact%3Afacebook%3Dhttps%3A//www.facebook.com/ShellMagyarorszag/%7Ccontact%3Afax%3D%2B36%201%20999%208673%7Ccontact%3Aphone%3D%2B36%2053%20318%20678%7Ccontact%3Atwitter%3Dshell%7Ccontact%3Awebsite%3Dhttps%3A//shell.hu/https%3A//find.shell.com/hu/fuel/10204985-cegled-i%7Cfood%3Dyes%7Cfuel%3AGTL_diesel%3Dyes%7Cfuel%3Aadblue%3Dyes%7Cfuel%3Adiesel%3Dyes%7Cfuel%3Aoctane_100%3Dyes%7Cfuel%3Aoctane_95%3Dyes%7Cloyalty_card%3Dyes%7Cname%3DShell%7Copening_hours%3D24/7%7Coperator%3DShell%7Cpayment%3Acash%3Dyes%7Cpayment%3Acontactless%3Dyes%7Cpayment%3Amaestro%3Dyes%7Cpayment%3Amastercard%3Dyes%7Cpayment%3Amastercard_contactless%3Dyes%7Cpayment%3Amastercard_electronic%3Dyes%7Cpayment%3Avisa%3Dyes%7Cpayment%3Avisa_electron%3Dyes%7Crestaurant%3Dyes%7Csource%3Adate%3D2022-03-07 -->
  <!--ˇ'original': 'MALOMTÓSZÉL U. 26', 'postcode': '2700', 'city': 'Cegléd', 'street': 'Malomtószél utca', 'housenumber': '26', 'conscriptionnumber': 'None'°-->
  <node action="modify" id="2450567757" lat="47.1821437" lon="19.7998344" timestamp="2020-03-02T08:00:30Z" uid="8635934" user="osm_poi_matchmaker" version="5">
    <tag k="addr:city" v="Cegléd"/>
    <tag k="addr:housenumber" v="26"/>
    <tag k="addr:postcode" v="2700"/>
    <tag k="addr:street" v="Malomtószél utca"/>
    <tag k="air_conditioning" v="yes"/>
    <tag k="amenity" v="fuel"/>
    <tag k="branch" v="CEGLÉD I."/>
    <tag k="brand" v="Shell"/>
    <tag k="brand:wikidata" v="Q154950"/>
    <tag k="brand:wikipedia" v="hu:Royal Dutch Shell"/>
    <tag k="building" v="yes"/>
    <tag k="compressed_air" v="yes"/>
    <tag k="contact:facebook" v="https://www.facebook.com/ShellMagyarorszag/"/>
    <tag k="contact:fax" v="+36 1 999 8673"/>
    <tag k="contact:phone" v="+36 53 318 678"/>
    <tag k="contact:twitter" v="shell"/>
    <tag k="contact:website" v="https://shell.hu/https://find.shell.com/hu/fuel/10204985-cegled-i"/>
    <tag k="food" v="yes"/>
    <tag k="fuel:GTL_diesel" v="yes"/>
    <tag k="fuel:adblue" v="yes"/>
    <tag k="fuel:diesel" v="yes"/>
    <tag k="fuel:octane_100" v="yes"/>
    <tag k="fuel:octane_95" v="yes"/>
    <tag k="loyalty_card" v="yes"/>
    <tag k="name" v="Shell"/>
    <tag k="opening_hours" v="24/7"/>
    <tag k="operator" v="Shell"/>
    <tag k="payment:cash" v="yes"/>
    <tag k="payment:contactless" v="yes"/>
    <tag k="payment:maestro" v="yes"/>
    <tag k="payment:mastercard" v="yes"/>
    <tag k="payment:mastercard_contactless" v="yes"/>
    <tag k="payment:mastercard_electronic" v="yes"/>
    <tag k="payment:visa" v="yes"/>
    <tag k="payment:visa_electron" v="yes"/>
    <tag k="restaurant" v="yes"/>
    <tag k="source:date" v="2022-03-07"/>
  </node>
</osm>
