<?xml version='1.0' encoding='UTF-8'?>
<osm generator="JOSM" version="0.6">
  <node action="modify" id="-1" lat="47.4601823" lon="19.1325019">
    <tag k="name" v="Benu gyógyszertár"/>
    <tag k="addr:city" v="Budapest"/>
    <tag k="addr:postcode" v="1191"/>
    <tag k="addr:street" v="Ady Endre út"/>
    <tag k="addr:housenumber" v="42-44"/>
    <tag k="phone" v="+3613480776"/>
    <tag k="website" v="https://www.benu.huhttps://benu.hu/gyogyszertaraink/gyogyszertarak-budapest/gyogyszertarak-budapest-xix-kerulet/ady-endre-gyogyszertar/"/>
    <tag k="amenity" v="pharmacy"/>
    <tag k="dispensing" v="yes"/>
    <tag k="payment:debit_cards" v="yes"/>
    <tag k="payment:cash" v="yes"/>
  </node>
  <node action="modify" id="-2" lat="46.71579" lon="17.170501">
    <tag k="name" v="Benu gyógyszertár"/>
    <tag k="addr:city" v="Sármellék"/>
    <tag k="addr:postcode" v="8391"/>
    <tag k="addr:street" v="Dózsa utca"/>
    <tag k="addr:housenumber" v="103"/>
    <tag k="phone" v="+3683355012"/>
    <tag k="website" v="https://www.benu.huhttps://benu.hu/gyogyszertaraink/gyogyszertarak-zala-megye/gyogyszertarak-sarmellek/aesculap-gyogyszertar/"/>
    <tag k="amenity" v="pharmacy"/>
    <tag k="dispensing" v="yes"/>
    <tag k="payment:debit_cards" v="yes"/>
    <tag k="payment:cash" v="yes"/>
  </node>
  <node action="modify" id="-3" lat="46.248312" lon="20.172235">
    <tag k="name" v="Benu gyógyszertár"/>
    <tag k="addr:city" v="Szeged"/>
    <tag k="addr:postcode" v="6726"/>
    <tag k="addr:street" v="Bérkert utca"/>
    <tag k="addr:housenumber" v="25"/>
    <tag k="phone" v="+3662425910"/>
    <tag k="website" v="https://www.benu.huhttps://benu.hu/gyogyszertaraink/gyogyszertarak-csongrad-megye/gyogyszertarak-szeged/angelica-gyogyszertar/"/>
    <tag k="amenity" v="pharmacy"/>
    <tag k="dispensing" v="yes"/>
    <tag k="payment:debit_cards" v="yes"/>
    <tag k="payment:cash" v="yes"/>
  </node>
  <node action="modify" id="-4" lat="46.5469018" lon="17.1728834">
    <tag k="name" v="Benu gyógyszertár"/>
    <tag k="addr:city" v="Zalakomár"/>
    <tag k="addr:postcode" v="8751"/>
    <tag k="addr:street" v="Árpád utca"/>
    <tag k="addr:housenumber" v="8"/>
    <tag k="phone" v="+3693386011"/>
    <tag k="website" v="https://www.benu.huhttps://benu.hu/gyogyszertaraink/gyogyszertarak-zala-megye/gyogyszertarak-zalakomar/angyal-gyogyszertar/"/>
    <tag k="amenity" v="pharmacy"/>
    <tag k="dispensing" v="yes"/>
    <tag k="payment:debit_cards" v="yes"/>
    <tag k="payment:cash" v="yes"/>
  </node>
  <node action="modify" id="-5" lat="47.5038004" lon="21.6306149">
    <tag k="name" v="Benu gyógyszertár"/>
    <tag k="addr:city" v="Debrecen"/>
    <tag k="addr:postcode" v="4030"/>
    <tag k="addr:street" v="Mikepércsi út"/>
    <tag k="addr:housenumber" v="73/a"/>
    <tag k="phone" v="+36202299970"/>
    <tag k="website" v="https://www.benu.huhttps://benu.hu/gyogyszertaraink/gyogyszertarak-hajdu-bihar-megye/gyogyszertarak-debrecen/apollo-gyogyszertar-tesco/"/>
    <tag k="amenity" v="pharmacy"/>
    <tag k="dispensing" v="yes"/>
    <tag k="payment:debit_cards" v="yes"/>
    <tag k="payment:cash" v="yes"/>
  </node>
  <node action="modify" id="-6" lat="47.63767559999999" lon="18.079679599999963">
    <tag k="name" v="Benu gyógyszertár"/>
    <tag k="addr:city" v="Nagyigmánd"/>
    <tag k="addr:postcode" v="2942"/>
    <tag k="addr:street" v="Kossuth Lajos utca"/>
    <tag k="addr:housenumber" v="42"/>
    <tag k="website" v="https://www.benu.hu"/>
    <tag k="amenity" v="pharmacy"/>
    <tag k="dispensing" v="yes"/>
    <tag k="payment:debit_cards" v="yes"/>
    <tag k="payment:cash" v="yes"/>
  </node>
  <node action="modify" id="-7" lat="46.782158" lon="17.664080000000013">
    <tag k="name" v="Benu gyógyszertár"/>
    <tag k="addr:city" v="Balatonboglár"/>
    <tag k="addr:postcode" v="8630"/>
    <tag k="addr:street" v="Vikár Béla utca"/>
    <tag k="addr:housenumber" v="6"/>
    <tag k="phone" v="+3685350268"/>
    <tag k="website" v="https://www.benu.hu"/>
    <tag k="amenity" v="pharmacy"/>
    <tag k="dispensing" v="yes"/>
    <tag k="payment:debit_cards" v="yes"/>
    <tag k="payment:cash" v="yes"/>
  </node>
  <node action="modify" id="-8" lat="47.0335633" lon="19.7816771">
    <tag k="name" v="Benu gyógyszertár"/>
    <tag k="addr:city" v="Nagykőrös"/>
    <tag k="addr:postcode" v="2750"/>
    <tag k="addr:street" v="Szabadság tér"/>
    <tag k="addr:housenumber" v="10"/>
    <tag k="phone" v="+3653350366"/>
    <tag k="website" v="https://www.benu.huhttps://benu.hu/gyogyszertaraink/gyogyszertarak-pest-megye/gyogyszertarak-nagykoros/arany-patika-gyogyszertar/"/>
    <tag k="amenity" v="pharmacy"/>
    <tag k="dispensing" v="yes"/>
    <tag k="payment:debit_cards" v="yes"/>
    <tag k="payment:cash" v="yes"/>
  </node>
  <node action="modify" id="-9" lat="47.633746" lon="19.1300719">
    <tag k="name" v="Benu gyógyszertár"/>
    <tag k="addr:city" v="Dunakeszi"/>
    <tag k="addr:postcode" v="2120"/>
    <tag k="addr:street" v="Kis utca"/>
    <tag k="addr:housenumber" v="13"/>
    <tag k="phone" v="+3627540505"/>
    <tag k="website" v="https://www.benu.huhttps://benu.hu/gyogyszertaraink/gyogyszertarak-pest-megye/gyogyszertarak-dunakeszi/arnika-gyogyszertar/"/>
    <tag k="amenity" v="pharmacy"/>
    <tag k="dispensing" v="yes"/>
    <tag k="payment:debit_cards" v="yes"/>
    <tag k="payment:cash" v="yes"/>
  </node>
  <node action="modify" id="-10" lat="47.992804" lon="22.325038">
    <tag k="name" v="Benu gyógyszertár"/>
    <tag k="addr:city" v="Ópályi"/>
    <tag k="addr:postcode" v="4821"/>
    <tag k="addr:street" v="Árpád utca"/>
    <tag k="addr:housenumber" v="4/b"/>
    <tag k="phone" v="+3644407702"/>
    <tag k="website" v="https://www.benu.huhttps://benu.hu/gyogyszertaraink/gyogyszertarak-szabolcs-szatmar-bereg-megye/gyogyszertarak-opalyi/balogh-familia-gyogyszertar/"/>
    <tag k="amenity" v="pharmacy"/>
    <tag k="dispensing" v="yes"/>
    <tag k="payment:debit_cards" v="yes"/>
    <tag k="payment:cash" v="yes"/>
  </node>
  <node action="modify" id="-11" lat="48.2213769" lon="22.079658">
    <tag k="name" v="Benu gyógyszertár"/>
    <tag k="addr:city" v="Kisvárda"/>
    <tag k="addr:postcode" v="4600"/>
    <tag k="addr:street" v="Szent László utca"/>
    <tag k="addr:housenumber" v="56"/>
    <tag k="phone" v="+3645415857"/>
    <tag k="website" v="https://www.benu.huhttps://benu.hu/gyogyszertaraink/gyogyszertarak-szabolcs-szatmar-bereg-megye/gyogyszertarak-kisvarda/balzsam-gyogyszertar/"/>
    <tag k="amenity" v="pharmacy"/>
    <tag k="dispensing" v="yes"/>
    <tag k="payment:debit_cards" v="yes"/>
    <tag k="payment:cash" v="yes"/>
  </node>
  <node action="modify" id="-12" lat="47.187804" lon="20.005387">
    <tag k="name" v="Benu gyógyszertár"/>
    <tag k="addr:city" v="Abony"/>
    <tag k="addr:postcode" v="2740"/>
    <tag k="addr:street" v="Kossuth tér"/>
    <tag k="addr:housenumber" v="17"/>
    <tag k="branch" v="BENU Gyógyszertár Abony Kabay"/>
    <tag k="phone" v="+3653360766"/>
    <tag k="website" v="https://www.benu.huhttps://benu.hu/gyogyszertaraink/gyogyszertarak-pest-megye/gyogyszertarak-abony/benu-gyogyszertar-abony-kabay/"/>
    <tag k="amenity" v="pharmacy"/>
    <tag k="dispensing" v="yes"/>
    <tag k="payment:debit_cards" v="yes"/>
    <tag k="payment:cash" v="yes"/>
  </node>
  <node action="modify" id="-13" lat="47.65204" lon="19.474307">
    <tag k="name" v="Benu gyógyszertár"/>
    <tag k="addr:city" v="Aszód"/>
    <tag k="addr:postcode" v="2170"/>
    <tag k="addr:street" v="Szabadság tér"/>
    <tag k="addr:housenumber" v="2"/>
    <tag k="branch" v="BENU Gyógyszertár Aszód Városi"/>
    <tag k="phone" v="+3628500015"/>
    <tag k="website" v="https://www.benu.huhttps://benu.hu/gyogyszertaraink/gyogyszertarak-pest-megye/gyogyszertarak-aszod/benu-gyogyszertar-aszod-varosi/"/>
    <tag k="amenity" v="pharmacy"/>
    <tag k="dispensing" v="yes"/>
    <tag k="payment:debit_cards" v="yes"/>
    <tag k="payment:cash" v="yes"/>
  </node>
  <node action="modify" id="-14" lat="48.0678098" lon="19.29712">
    <tag k="name" v="Benu gyógyszertár"/>
    <tag k="addr:city" v="Balassagyarmat"/>
    <tag k="addr:postcode" v="2660"/>
    <tag k="addr:street" v="Leiningen Károly út"/>
    <tag k="addr:housenumber" v="29"/>
    <tag k="branch" v="BENU Gyógyszertár Balassagyarmat Remény"/>
    <tag k="phone" v="+3635500088"/>
    <tag k="website" v="https://www.benu.huhttps://benu.hu/gyogyszertaraink/gyogyszertarak-nograd-megye/gyogyszertarak-balassagyarmat/benu-gyogyszertar-balassagyarmat-remeny/"/>
    <tag k="amenity" v="pharmacy"/>
    <tag k="dispensing" v="yes"/>
    <tag k="payment:debit_cards" v="yes"/>
    <tag k="payment:cash" v="yes"/>
  </node>
  <node action="modify" id="-15" lat="48.0779777" lon="19.2929944">
    <tag k="name" v="Benu gyógyszertár"/>
    <tag k="addr:city" v="Balassagyarmat"/>
    <tag k="addr:postcode" v="2660"/>
    <tag k="addr:street" v="Teleki utca"/>
    <tag k="addr:housenumber" v="2"/>
    <tag k="branch" v="BENU Gyógyszertár Balassagyarmat Winkler"/>
    <tag k="phone" v="+3635500393"/>
    <tag k="website" v="https://www.benu.huhttps://benu.hu/gyogyszertaraink/gyogyszertarak-nograd-megye/gyogyszertarak-balassagyarmat/benu-gyogyszertar-balassagyarmat-winkler/"/>
    <tag k="amenity" v="pharmacy"/>
    <tag k="dispensing" v="yes"/>
    <tag k="payment:debit_cards" v="yes"/>
    <tag k="payment:cash" v="yes"/>
  </node>
  <node action="modify" id="-16" lat="47.985194" lon="19.829842">
    <tag k="name" v="Benu gyógyszertár"/>
    <tag k="addr:city" v="Bátonyterenye"/>
    <tag k="addr:postcode" v="3070"/>
    <tag k="addr:street" v="Molnár Sándor út"/>
    <tag k="addr:housenumber" v="1-3"/>
    <tag k="branch" v="BENU Gyógyszertár Bátonyterenye Elixir"/>
    <tag k="phone" v="+3632353175"/>
    <tag k="website" v="https://www.benu.huhttps://benu.hu/gyogyszertaraink/gyogyszertarak-nograd-megye/gyogyszertarak-batonyterenye/benu-gyogyszertar-batonyterenye-elixir/"/>
    <tag k="amenity" v="pharmacy"/>
    <tag k="dispensing" v="yes"/>
    <tag k="payment:debit_cards" v="yes"/>
    <tag k="payment:cash" v="yes"/>
  </node>
  <node action="modify" id="-17" lat="46.6770402" lon="21.0968184">
    <tag k="name" v="Benu gyógyszertár"/>
    <tag k="addr:city" v="Békéscsaba"/>
    <tag k="addr:postcode" v="5600"/>
    <tag k="addr:street" v="Andrássy út"/>
    <tag k="addr:housenumber" v="37-43"/>
    <tag k="branch" v="BENU Gyógyszertár Békéscsaba Csaba Center"/>
    <tag k="phone" v="+3666530650"/>
    <tag k="website" v="https://www.benu.huhttps://benu.hu/gyogyszertaraink/gyogyszertarak-bekes-megye/benu-gyogyszertar-bekescsaba-csaba-center/"/>
    <tag k="amenity" v="pharmacy"/>
    <tag k="dispensing" v="yes"/>
    <tag k="payment:debit_cards" v="yes"/>
    <tag k="payment:cash" v="yes"/>
  </node>
  <node action="modify" id="-18" lat="47.4579025" lon="19.142933">
    <tag k="name" v="Benu gyógyszertár"/>
    <tag k="addr:city" v="Budapest"/>
    <tag k="addr:postcode" v="1191"/>
    <tag k="addr:street" v="Üllői út"/>
    <tag k="addr:housenumber" v="257"/>
    <tag k="branch" v="BENU Gyógyszertár Budapest Apolló"/>
    <tag k="phone" v="+3613575663"/>
    <tag k="website" v="https://www.benu.huhttps://benu.hu/gyogyszertaraink/gyogyszertarak-budapest/gyogyszertarak-budapest-xix-kerulet/benu-gyogyszertar-budapest-apollo/"/>
    <tag k="amenity" v="pharmacy"/>
    <tag k="dispensing" v="yes"/>
    <tag k="payment:debit_cards" v="yes"/>
    <tag k="payment:cash" v="yes"/>
  </node>
  <node action="modify" id="-19" lat="47.4358758" lon="19.0997595">
    <tag k="name" v="Benu gyógyszertár"/>
    <tag k="addr:city" v="Budapest"/>
    <tag k="addr:postcode" v="1201"/>
    <tag k="addr:street" v="Kossuth Lajos utca"/>
    <tag k="addr:housenumber" v="21-29"/>
    <tag k="branch" v="BENU Gyógyszertár Budapest Aranyfű"/>
    <tag k="phone" v="+3612830820"/>
    <tag k="website" v="https://www.benu.huhttps://benu.hu/gyogyszertaraink/gyogyszertarak-budapest/gyogyszertarak-budapest-xx-kerulet/benu-gyogyszertar-budapest-aranyfu/"/>
    <tag k="amenity" v="pharmacy"/>
    <tag k="dispensing" v="yes"/>
    <tag k="payment:debit_cards" v="yes"/>
    <tag k="payment:cash" v="yes"/>
  </node>
  <node action="modify" id="-20" lat="47.5982437" lon="19.0515471">
    <tag k="name" v="Benu gyógyszertár"/>
    <tag k="addr:city" v="Budapest"/>
    <tag k="addr:postcode" v="1039"/>
    <tag k="addr:street" v="Csobánka tér"/>
    <tag k="addr:housenumber" v="1"/>
    <tag k="branch" v="BENU Gyógyszertár Budapest Auróra"/>
    <tag k="phone" v="+3612431362"/>
    <tag k="website" v="https://www.benu.huhttps://benu.hu/gyogyszertaraink/gyogyszertarak-budapest/gyogyszertarak-budapest-iii-kerulet/benu-gyogyszertar-budapest-aurora/"/>
    <tag k="amenity" v="pharmacy"/>
    <tag k="dispensing" v="yes"/>
    <tag k="payment:debit_cards" v="yes"/>
    <tag k="payment:cash" v="yes"/>
  </node>
  <node action="modify" id="-21" lat="47.5959325" lon="19.0618305">
    <tag k="name" v="Benu gyógyszertár"/>
    <tag k="addr:city" v="Budapest"/>
    <tag k="addr:postcode" v="1039"/>
    <tag k="addr:street" v="Boglár utca"/>
    <tag k="addr:housenumber" v="3"/>
    <tag k="branch" v="BENU Gyógyszertár Budapest Békás"/>
    <tag k="phone" v="+3612442946"/>
    <tag k="website" v="https://www.benu.huhttps://benu.hu/gyogyszertaraink/gyogyszertarak-budapest/gyogyszertarak-budapest-iii-kerulet/benu-gyogyszertar-budapest-bekas/"/>
    <tag k="amenity" v="pharmacy"/>
    <tag k="dispensing" v="yes"/>
    <tag k="payment:debit_cards" v="yes"/>
    <tag k="payment:cash" v="yes"/>
  </node>
  <node action="modify" id="-22" lat="47.5292488" lon="19.0798706">
    <tag k="name" v="Benu gyógyszertár"/>
    <tag k="addr:city" v="Budapest"/>
    <tag k="addr:postcode" v="1135"/>
    <tag k="addr:street" v="Lehel út"/>
    <tag k="addr:housenumber" v="74-76"/>
    <tag k="branch" v="BENU Gyógyszertár Budapest Béke tér"/>
    <tag k="phone" v="+3613208006"/>
    <tag k="website" v="https://www.benu.huhttps://benu.hu/gyogyszertaraink/gyogyszertarak-budapest/gyogyszertarak-budapest-xiii-kerulet/benu-gyogyszertar-budapest-beke-ter/"/>
    <tag k="amenity" v="pharmacy"/>
    <tag k="dispensing" v="yes"/>
    <tag k="payment:debit_cards" v="yes"/>
    <tag k="payment:cash" v="yes"/>
  </node>
  <node action="modify" id="-23" lat="47.4847176" lon="19.1303422">
    <tag k="name" v="Benu gyógyszertár"/>
    <tag k="addr:city" v="Budapest"/>
    <tag k="addr:postcode" v="1102"/>
    <tag k="addr:street" v="Kőrösi Csoma sétány"/>
    <tag k="addr:housenumber" v="10"/>
    <tag k="branch" v="BENU Gyógyszertár Budapest Bellis"/>
    <tag k="phone" v="+3612600521"/>
    <tag k="website" v="https://www.benu.huhttps://benu.hu/gyogyszertaraink/gyogyszertarak-budapest/gyogyszertarak-budapest-x-kerulet/benu-gyogyszertar-budapest-bellis/"/>
    <tag k="amenity" v="pharmacy"/>
    <tag k="dispensing" v="yes"/>
    <tag k="payment:debit_cards" v="yes"/>
    <tag k="payment:cash" v="yes"/>
  </node>
  <node action="modify" id="-24" lat="47.49709" lon="19.0710782">
    <tag k="name" v="Benu gyógyszertár"/>
    <tag k="addr:city" v="Budapest"/>
    <tag k="addr:postcode" v="1081"/>
    <tag k="addr:street" v="Rákóczi út"/>
    <tag k="addr:housenumber" v="39"/>
    <tag k="branch" v="BENU Gyógyszertár Budapest Csillag"/>
    <tag k="phone" v="+3613143695"/>
    <tag k="website" v="https://www.benu.huhttps://benu.hu/gyogyszertaraink/gyogyszertarak-budapest/gyogyszertarak-budapest-viii-kerulet/benu-gyogyszertar-budapest-csillag/"/>
    <tag k="amenity" v="pharmacy"/>
    <tag k="dispensing" v="yes"/>
    <tag k="payment:debit_cards" v="yes"/>
    <tag k="payment:cash" v="yes"/>
  </node>
  <node action="modify" id="-25" lat="47.4929659" lon="19.0770695">
    <tag k="name" v="Benu gyógyszertár"/>
    <tag k="addr:city" v="Budapest"/>
    <tag k="addr:postcode" v="1084"/>
    <tag k="addr:street" v="Aurora utca"/>
    <tag k="addr:housenumber" v="22-28"/>
    <tag k="branch" v="BENU Gyógyszertár Budapest Hajnal"/>
    <tag k="phone" v="+3612102880"/>
    <tag k="website" v="https://www.benu.huhttps://benu.hu/gyogyszertaraink/gyogyszertarak-budapest/gyogyszertarak-budapest-viii-kerulet/benu-gyogyszertar-budapest-hajnal/"/>
    <tag k="amenity" v="pharmacy"/>
    <tag k="dispensing" v="yes"/>
    <tag k="payment:debit_cards" v="yes"/>
    <tag k="payment:cash" v="yes"/>
  </node>
  <node action="modify" id="-26" lat="47.5313669" lon="19.0704414">
    <tag k="name" v="Benu gyógyszertár"/>
    <tag k="addr:city" v="Budapest"/>
    <tag k="addr:postcode" v="1139"/>
    <tag k="addr:street" v="Pap Károly utca"/>
    <tag k="addr:housenumber" v="4-6"/>
    <tag k="branch" v="BENU Gyógyszertár Budapest Honvéd"/>
    <tag k="phone" v="+3612391103"/>
    <tag k="website" v="https://www.benu.huhttps://benu.hu/gyogyszertaraink/gyogyszertarak-budapest/gyogyszertarak-budapest-xiii-kerulet/benu-gyogyszertar-budapest-honved/"/>
    <tag k="amenity" v="pharmacy"/>
    <tag k="dispensing" v="yes"/>
    <tag k="payment:debit_cards" v="yes"/>
    <tag k="payment:cash" v="yes"/>
  </node>
  <node action="modify" id="-27" lat="47.491377" lon="19.054798">
    <tag k="name" v="Benu gyógyszertár"/>
    <tag k="addr:city" v="Budapest"/>
    <tag k="addr:postcode" v="1056"/>
    <tag k="addr:street" v="Irányi utca"/>
    <tag k="addr:housenumber" v="15"/>
    <tag k="branch" v="BENU Gyógyszertár Budapest Irányi"/>
    <tag k="phone" v="+3612662952"/>
    <tag k="website" v="https://www.benu.huhttps://benu.hu/gyogyszertaraink/gyogyszertarak-budapest/gyogyszertarak-budapest-v-kerulet/benu-gyogyszertar-budapest-iranyi/"/>
    <tag k="amenity" v="pharmacy"/>
    <tag k="dispensing" v="yes"/>
    <tag k="payment:debit_cards" v="yes"/>
    <tag k="payment:cash" v="yes"/>
  </node>
  <node action="modify" id="-28" lat="47.5184179" lon="19.061075">
    <tag k="name" v="Benu gyógyszertár"/>
    <tag k="addr:city" v="Budapest"/>
    <tag k="addr:postcode" v="1134"/>
    <tag k="addr:street" v="Váci út"/>
    <tag k="addr:housenumber" v="9-15"/>
    <tag k="branch" v="BENU Gyógyszertár Budapest Lehel"/>
    <tag k="phone" v="+3612886848"/>
    <tag k="website" v="https://www.benu.huhttps://benu.hu/gyogyszertaraink/gyogyszertarak-budapest/gyogyszertarak-budapest-xiii-kerulet/benu-gyogyszertar-budapest-lehel/"/>
    <tag k="amenity" v="pharmacy"/>
    <tag k="dispensing" v="yes"/>
    <tag k="payment:debit_cards" v="yes"/>
    <tag k="payment:cash" v="yes"/>
  </node>
  <node action="modify" id="-29" lat="47.4968855" lon="19.0571649">
    <tag k="name" v="Benu gyógyszertár"/>
    <tag k="addr:city" v="Budapest"/>
    <tag k="addr:postcode" v="1075"/>
    <tag k="addr:street" v="Károly körút"/>
    <tag k="addr:housenumber" v="13-15"/>
    <tag k="branch" v="BENU Gyógyszertár Budapest Madách tér"/>
    <tag k="phone" v="+3613226826"/>
    <tag k="website" v="https://www.benu.huhttps://benu.hu/gyogyszertaraink/gyogyszertarak-budapest/gyogyszertarak-budapest-vii-kerulet/benu-gyogyszertar-budapest-madach-ter/"/>
    <tag k="amenity" v="pharmacy"/>
    <tag k="dispensing" v="yes"/>
    <tag k="payment:debit_cards" v="yes"/>
    <tag k="payment:cash" v="yes"/>
  </node>
  <node action="modify" id="-30" lat="47.4639377" lon="19.033375">
    <tag k="name" v="Benu gyógyszertár"/>
    <tag k="addr:city" v="Budapest"/>
    <tag k="addr:postcode" v="1119"/>
    <tag k="addr:street" v="Tétényi út"/>
    <tag k="addr:housenumber" v="63"/>
    <tag k="branch" v="BENU Gyógyszertár Budapest Mályva"/>
    <tag k="phone" v="+3612034663"/>
    <tag k="website" v="https://www.benu.huhttps://benu.hu/gyogyszertaraink/gyogyszertarak-budapest/gyogyszertarak-budapest-xi-kerulet/benu-gyogyszertar-budapest-malyva/"/>
    <tag k="amenity" v="pharmacy"/>
    <tag k="dispensing" v="yes"/>
    <tag k="payment:debit_cards" v="yes"/>
    <tag k="payment:cash" v="yes"/>
  </node>
  <node action="modify" id="-31" lat="47.510586" lon="19.190814">
    <tag k="name" v="Benu gyógyszertár"/>
    <tag k="addr:city" v="Budapest"/>
    <tag k="addr:postcode" v="1165"/>
    <tag k="addr:street" v="Jókai utca"/>
    <tag k="addr:housenumber" v="2-4"/>
    <tag k="branch" v="BENU Gyógyszertár Budapest Mátyásföld"/>
    <tag k="phone" v="+3614075632"/>
    <tag k="website" v="https://www.benu.huhttps://benu.hu/gyogyszertaraink/gyogyszertarak-budapest/gyogyszertarak-budapest-xvi-kerulet/benu-gyogyszertar-budapest-matyasfold/"/>
    <tag k="amenity" v="pharmacy"/>
    <tag k="dispensing" v="yes"/>
    <tag k="payment:debit_cards" v="yes"/>
    <tag k="payment:cash" v="yes"/>
  </node>
  <node action="modify" id="-32" lat="47.4417629" lon="19.1105268">
    <tag k="name" v="Benu gyógyszertár"/>
    <tag k="addr:city" v="Budapest"/>
    <tag k="addr:postcode" v="1204"/>
    <tag k="addr:street" v="Igló utca"/>
    <tag k="addr:housenumber" v="2"/>
    <tag k="branch" v="BENU Gyógyszertár Budapest Menta"/>
    <tag k="phone" v="+3612856874"/>
    <tag k="website" v="https://www.benu.huhttps://benu.hu/gyogyszertaraink/gyogyszertarak-budapest/gyogyszertarak-budapest-xx-kerulet/benu-gyogyszertar-budapest-menta/"/>
    <tag k="amenity" v="pharmacy"/>
    <tag k="dispensing" v="yes"/>
    <tag k="payment:debit_cards" v="yes"/>
    <tag k="payment:cash" v="yes"/>
  </node>
  <node action="modify" id="-33" lat="47.539254" lon="19.1351998">
    <tag k="name" v="Benu gyógyszertár"/>
    <tag k="addr:city" v="Budapest"/>
    <tag k="addr:postcode" v="1158"/>
    <tag k="addr:street" v="Hősök út"/>
    <tag k="addr:housenumber" v="1"/>
    <tag k="branch" v="BENU Gyógyszertár Budapest Nyírpalota"/>
    <tag k="phone" v="+3614196536"/>
    <tag k="website" v="https://www.benu.huhttps://benu.hu/gyogyszertaraink/gyogyszertarak-budapest/gyogyszertarak-budapest-xv-kerulet/benu-gyogyszertar-budapest-nyirpalota/"/>
    <tag k="amenity" v="pharmacy"/>
    <tag k="dispensing" v="yes"/>
    <tag k="payment:debit_cards" v="yes"/>
    <tag k="payment:cash" v="yes"/>
  </node>
  <node action="modify" id="-34" lat="47.505992" lon="19.1382556">
    <tag k="name" v="Benu gyógyszertár"/>
    <tag k="addr:city" v="Budapest"/>
    <tag k="addr:postcode" v="1144"/>
    <tag k="addr:street" v="Örs vezér tere"/>
    <tag k="addr:housenumber" v="23"/>
    <tag k="branch" v="BENU Gyógyszertár Budapest Örs Vezér"/>
    <tag k="phone" v="+3612213861"/>
    <tag k="website" v="https://www.benu.huhttps://benu.hu/gyogyszertaraink/gyogyszertarak-budapest/gyogyszertarak-budapest-xiv-kerulet/benu-gyogyszertar-budapest-ors-vezer/"/>
    <tag k="amenity" v="pharmacy"/>
    <tag k="dispensing" v="yes"/>
    <tag k="payment:debit_cards" v="yes"/>
    <tag k="payment:cash" v="yes"/>
  </node>
  <node action="modify" id="-35" lat="47.5059218" lon="19.05241">
    <tag k="name" v="Benu gyógyszertár"/>
    <tag k="addr:city" v="Budapest"/>
    <tag k="addr:postcode" v="1054"/>
    <tag k="addr:street" v="Hold utca"/>
    <tag k="addr:housenumber" v="21"/>
    <tag k="branch" v="BENU Gyógyszertár Budapest Panacea"/>
    <tag k="phone" v="+3613326964"/>
    <tag k="website" v="https://www.benu.huhttps://benu.hu/gyogyszertaraink/gyogyszertarak-budapest/gyogyszertarak-budapest-v-kerulet/benu-gyogyszertar-budapest-panacea/"/>
    <tag k="amenity" v="pharmacy"/>
    <tag k="dispensing" v="yes"/>
    <tag k="payment:debit_cards" v="yes"/>
    <tag k="payment:cash" v="yes"/>
  </node>
  <node action="modify" id="-36" lat="47.545635" lon="19.139631">
    <tag k="name" v="Benu gyógyszertár"/>
    <tag k="addr:city" v="Budapest"/>
    <tag k="addr:postcode" v="1156"/>
    <tag k="addr:street" v="Nyírpalota utca"/>
    <tag k="addr:housenumber" v="54"/>
    <tag k="branch" v="BENU Gyógyszertár Budapest Piac"/>
    <tag k="phone" v="+3614140579"/>
    <tag k="website" v="https://www.benu.huhttps://benu.hu/gyogyszertaraink/gyogyszertarak-budapest/gyogyszertarak-budapest-xv-kerulet/benu-gyogyszertar-budapest-piac/"/>
    <tag k="amenity" v="pharmacy"/>
    <tag k="dispensing" v="yes"/>
    <tag k="payment:debit_cards" v="yes"/>
    <tag k="payment:cash" v="yes"/>
  </node>
  <node action="modify" id="-37" lat="47.542348987699" lon="19.087261217197">
    <tag k="name" v="Benu gyógyszertár"/>
    <tag k="addr:city" v="Budapest"/>
    <tag k="addr:postcode" v="1131"/>
    <tag k="addr:street" v="Rokolya utca"/>
    <tag k="addr:housenumber" v="1-13"/>
    <tag k="branch" v="BENU Gyógyszertár Budapest Rokolya"/>
    <tag k="phone" v="+3612398837"/>
    <tag k="website" v="https://www.benu.huhttps://benu.hu/gyogyszertaraink/gyogyszertarak-budapest/gyogyszertarak-budapest-xiii-kerulet/benu-gyogyszertar-budapest-rokolya/"/>
    <tag k="amenity" v="pharmacy"/>
    <tag k="dispensing" v="yes"/>
    <tag k="payment:debit_cards" v="yes"/>
    <tag k="payment:cash" v="yes"/>
  </node>
  <node action="modify" id="-38" lat="47.56496" lon="19.0924022">
    <tag k="name" v="Benu gyógyszertár"/>
    <tag k="addr:city" v="Budapest"/>
    <tag k="addr:postcode" v="1041"/>
    <tag k="addr:street" v="Görgey Artúr utca"/>
    <tag k="addr:housenumber" v="28-30"/>
    <tag k="branch" v="BENU Gyógyszertár Budapest Rózsa"/>
    <tag k="phone" v="+3612720802"/>
    <tag k="website" v="https://www.benu.huhttps://benu.hu/gyogyszertaraink/gyogyszertarak-budapest/gyogyszertarak-budapest-iv-kerulet/benu-gyogyszertar-budapest-rozsa/"/>
    <tag k="amenity" v="pharmacy"/>
    <tag k="dispensing" v="yes"/>
    <tag k="payment:debit_cards" v="yes"/>
    <tag k="payment:cash" v="yes"/>
  </node>
  <node action="modify" id="-39" lat="47.462928" lon="19.130379">
    <tag k="name" v="Benu gyógyszertár"/>
    <tag k="addr:city" v="Budapest"/>
    <tag k="addr:postcode" v="1191"/>
    <tag k="addr:street" v="Üllői út"/>
    <tag k="addr:housenumber" v="201"/>
    <tag k="branch" v="BENU Gyógyszertár Budapest Shopmark"/>
    <tag k="phone" v="+3613470042"/>
    <tag k="website" v="https://www.benu.huhttps://benu.hu/gyogyszertaraink/gyogyszertarak-budapest/gyogyszertarak-budapest-xix-kerulet/benu-gyogyszertar-budapest-shopmark/"/>
    <tag k="amenity" v="pharmacy"/>
    <tag k="dispensing" v="yes"/>
    <tag k="payment:debit_cards" v="yes"/>
    <tag k="payment:cash" v="yes"/>
  </node>
  <node action="modify" id="-40" lat="47.4189889" lon="19.1578878">
    <tag k="name" v="Benu gyógyszertár"/>
    <tag k="addr:city" v="Budapest"/>
    <tag k="addr:postcode" v="1238"/>
    <tag k="addr:street" v="Bevásárló utca"/>
    <tag k="addr:housenumber" v="2"/>
    <tag k="branch" v="BENU Gyógyszertár Budapest Soroksár Auchan"/>
    <tag k="phone" v="+3618875417"/>
    <tag k="website" v="https://www.benu.huhttps://benu.hu/gyogyszertaraink/gyogyszertarak-budapest/gyogyszertarak-budapest-xxiii-kerulet/benu-gyogyszertar-budapest-soroksar-auchan/"/>
    <tag k="amenity" v="pharmacy"/>
    <tag k="dispensing" v="yes"/>
    <tag k="payment:debit_cards" v="yes"/>
    <tag k="payment:cash" v="yes"/>
  </node>
  <node action="modify" id="-41" lat="47.5009851" lon="19.1076093">
    <tag k="name" v="Benu gyógyszertár"/>
    <tag k="addr:city" v="Budapest"/>
    <tag k="addr:postcode" v="1146"/>
    <tag k="addr:street" v="Hungária körút"/>
    <tag k="addr:housenumber" v="48-58"/>
    <tag k="branch" v="BENU Gyógyszertár Budapest Sportaréna"/>
    <tag k="phone" v="+3614220576"/>
    <tag k="website" v="https://www.benu.huhttps://benu.hu/gyogyszertaraink/gyogyszertarak-budapest/gyogyszertarak-budapest-xiv-kerulet/benu-gyogyszertar-budapest-sportarena/"/>
    <tag k="amenity" v="pharmacy"/>
    <tag k="dispensing" v="yes"/>
    <tag k="payment:debit_cards" v="yes"/>
    <tag k="payment:cash" v="yes"/>
  </node>
  <node action="modify" id="-42" lat="47.5004535" lon="19.1086151">
    <tag k="name" v="Benu gyógyszertár"/>
    <tag k="addr:city" v="Budapest"/>
    <tag k="addr:postcode" v="1143"/>
    <tag k="addr:street" v="Kerepesi út"/>
    <tag k="addr:housenumber" v="24"/>
    <tag k="branch" v="BENU Gyógyszertár Budapest Stadion"/>
    <tag k="phone" v="+3614600597"/>
    <tag k="website" v="https://www.benu.huhttps://benu.hu/gyogyszertaraink/gyogyszertarak-budapest/gyogyszertarak-budapest-xiv-kerulet/benu-gyogyszertar-budapest-stadion/"/>
    <tag k="amenity" v="pharmacy"/>
    <tag k="dispensing" v="yes"/>
    <tag k="payment:debit_cards" v="yes"/>
    <tag k="payment:cash" v="yes"/>
  </node>
  <node action="modify" id="-43" lat="47.5042134" lon="19.1372404">
    <tag k="name" v="Benu gyógyszertár"/>
    <tag k="addr:city" v="Budapest"/>
    <tag k="addr:postcode" v="1144"/>
    <tag k="addr:street" v="Örs vezér tere"/>
    <tag k="addr:housenumber" v="24"/>
    <tag k="branch" v="BENU Gyógyszertár Budapest Sugár"/>
    <tag k="phone" v="+3612205105"/>
    <tag k="website" v="https://www.benu.huhttps://benu.hu/gyogyszertaraink/gyogyszertarak-budapest/gyogyszertarak-budapest-xiv-kerulet/benu-gyogyszertar-budapest-sugar/"/>
    <tag k="amenity" v="pharmacy"/>
    <tag k="dispensing" v="yes"/>
    <tag k="payment:debit_cards" v="yes"/>
    <tag k="payment:cash" v="yes"/>
  </node>
  <node action="modify" id="-44" lat="47.4342323" lon="19.1721138">
    <tag k="name" v="Benu gyógyszertár"/>
    <tag k="addr:city" v="Budapest"/>
    <tag k="addr:postcode" v="1181"/>
    <tag k="addr:street" v="Vándor Sándor utca"/>
    <tag k="addr:housenumber" v="1"/>
    <tag k="branch" v="BENU Gyógyszertár Budapest Szent Anna"/>
    <tag k="phone" v="+3612908631"/>
    <tag k="website" v="https://www.benu.huhttps://benu.hu/gyogyszertaraink/gyogyszertarak-budapest/gyogyszertarak-budapest-xviii-kerulet/benu-gyogyszertar-budapest-szent-anna/"/>
    <tag k="amenity" v="pharmacy"/>
    <tag k="dispensing" v="yes"/>
    <tag k="payment:debit_cards" v="yes"/>
    <tag k="payment:cash" v="yes"/>
  </node>
  <node action="modify" id="-45" lat="47.4775948" lon="19.0485699">
    <tag k="name" v="Benu gyógyszertár"/>
    <tag k="addr:city" v="Budapest"/>
    <tag k="addr:postcode" v="1111"/>
    <tag k="addr:street" v="Karinthy Frigyes utca"/>
    <tag k="addr:housenumber" v="2"/>
    <tag k="branch" v="BENU Gyógyszertár Budapest Szent Imre"/>
    <tag k="phone" v="+3612095683"/>
    <tag k="website" v="https://www.benu.huhttps://benu.hu/gyogyszertaraink/gyogyszertarak-budapest/gyogyszertarak-budapest-xi-kerulet/benu-gyogyszertar-budapest-szent-imre/"/>
    <tag k="amenity" v="pharmacy"/>
    <tag k="dispensing" v="yes"/>
    <tag k="payment:debit_cards" v="yes"/>
    <tag k="payment:cash" v="yes"/>
  </node>
  <node action="modify" id="-46" lat="47.4053525" lon="19.1881424">
    <tag k="name" v="Benu gyógyszertár"/>
    <tag k="addr:city" v="Budapest"/>
    <tag k="addr:postcode" v="1188"/>
    <tag k="addr:street" v="Nemes utca"/>
    <tag k="addr:housenumber" v="16"/>
    <tag k="branch" v="BENU Gyógyszertár Budapest Szentimrei Diána"/>
    <tag k="phone" v="+3612921044"/>
    <tag k="website" v="https://www.benu.huhttps://benu.hu/gyogyszertaraink/gyogyszertarak-budapest/gyogyszertarak-budapest-xviii-kerulet/benu-gyogyszertar-budapest-szentimrei-diana/"/>
    <tag k="amenity" v="pharmacy"/>
    <tag k="dispensing" v="yes"/>
    <tag k="payment:debit_cards" v="yes"/>
    <tag k="payment:cash" v="yes"/>
  </node>
  <node action="modify" id="-47" lat="47.429379" lon="19.038294">
    <tag k="name" v="Benu gyógyszertár"/>
    <tag k="addr:city" v="Budapest"/>
    <tag k="addr:postcode" v="1221"/>
    <tag k="addr:street" v="Káldor Adolf utca"/>
    <tag k="addr:housenumber" v="3-5"/>
    <tag k="branch" v="BENU Gyógyszertár Budapest Szentlélek"/>
    <tag k="phone" v="+3612291781"/>
    <tag k="website" v="https://www.benu.huhttps://benu.hu/gyogyszertaraink/gyogyszertarak-budapest/gyogyszertarak-budapest-xxii-kerulet/benu-gyogyszertar-budapest-szentlelek/"/>
    <tag k="amenity" v="pharmacy"/>
    <tag k="dispensing" v="yes"/>
    <tag k="payment:debit_cards" v="yes"/>
    <tag k="payment:cash" v="yes"/>
  </node>
  <node action="modify" id="-48" lat="47.4437525" lon="19.1817625">
    <tag k="name" v="Benu gyógyszertár"/>
    <tag k="addr:city" v="Budapest"/>
    <tag k="addr:postcode" v="1183"/>
    <tag k="addr:street" v="Thököly út"/>
    <tag k="addr:housenumber" v="3"/>
    <tag k="branch" v="BENU Gyógyszertár Budapest Thököly"/>
    <tag k="phone" v="+3612796888"/>
    <tag k="website" v="https://www.benu.huhttps://benu.hu/gyogyszertaraink/gyogyszertarak-budapest/gyogyszertarak-budapest-xviii-kerulet/benu-gyogyszertar-budapest-thokoly/"/>
    <tag k="amenity" v="pharmacy"/>
    <tag k="dispensing" v="yes"/>
    <tag k="payment:debit_cards" v="yes"/>
    <tag k="payment:cash" v="yes"/>
  </node>
  <node action="modify" id="-49" lat="47.5143307" lon="19.1207287">
    <tag k="name" v="Benu gyógyszertár"/>
    <tag k="addr:city" v="Budapest"/>
    <tag k="addr:postcode" v="1148"/>
    <tag k="addr:street" v="Nagy Lajos király út"/>
    <tag k="addr:housenumber" v="100"/>
    <tag k="branch" v="BENU Gyógyszertár Budapest Uranus"/>
    <tag k="phone" v="+3613632826"/>
    <tag k="website" v="https://www.benu.huhttps://benu.hu/gyogyszertaraink/gyogyszertarak-budapest/gyogyszertarak-budapest-xiv-kerulet/benu-gyogyszertar-budapest-uranus/"/>
    <tag k="amenity" v="pharmacy"/>
    <tag k="dispensing" v="yes"/>
    <tag k="payment:debit_cards" v="yes"/>
    <tag k="payment:cash" v="yes"/>
  </node>
  <node action="modify" id="-50" lat="47.5367319" lon="19.0689379">
    <tag k="name" v="Benu gyógyszertár"/>
    <tag k="addr:city" v="Budapest"/>
    <tag k="addr:postcode" v="1139"/>
    <tag k="addr:street" v="Váci út"/>
    <tag k="addr:housenumber" v="87"/>
    <tag k="branch" v="BENU Gyógyszertár Budapest Valeriana"/>
    <tag k="phone" v="+3613208605"/>
    <tag k="website" v="https://www.benu.huhttps://benu.hu/gyogyszertaraink/gyogyszertarak-budapest/gyogyszertarak-budapest-xiii-kerulet/benu-gyogyszertar-budapest-valeriana/"/>
    <tag k="amenity" v="pharmacy"/>
    <tag k="dispensing" v="yes"/>
    <tag k="payment:debit_cards" v="yes"/>
    <tag k="payment:cash" v="yes"/>
  </node>
  <node action="modify" id="-51" lat="47.5574197" lon="19.0441669">
    <tag k="name" v="Benu gyógyszertár"/>
    <tag k="addr:city" v="Budapest"/>
    <tag k="addr:postcode" v="1033"/>
    <tag k="addr:street" v="Pethe Ferenc tér"/>
    <tag k="addr:housenumber" v="3"/>
    <tag k="branch" v="BENU Gyógyszertár Budapest Zsálya"/>
    <tag k="phone" v="+3613671432"/>
    <tag k="website" v="https://www.benu.huhttps://benu.hu/gyogyszertaraink/gyogyszertarak-budapest/gyogyszertarak-budapest-iii-kerulet/benu-gyogyszertar-budapest-zsalya/"/>
    <tag k="amenity" v="pharmacy"/>
    <tag k="dispensing" v="yes"/>
    <tag k="payment:debit_cards" v="yes"/>
    <tag k="payment:cash" v="yes"/>
  </node>
  <node action="modify" id="-52" lat="47.2580889" lon="17.1517577">
    <tag k="name" v="Benu gyógyszertár"/>
    <tag k="addr:city" v="Celldömölk"/>
    <tag k="addr:postcode" v="9500"/>
    <tag k="addr:street" v="Széchenyi utca"/>
    <tag k="addr:housenumber" v="5"/>
    <tag k="branch" v="BENU Gyógyszertár Celldömölk Csontváry"/>
    <tag k="phone" v="+3695420018"/>
    <tag k="website" v="https://www.benu.huhttps://benu.hu/gyogyszertaraink/gyogyszertarak-vas-megye/gyogyszertarak-celldomolk/benu-gyogyszertar-celldomolk-csontvary/"/>
    <tag k="amenity" v="pharmacy"/>
    <tag k="dispensing" v="yes"/>
    <tag k="payment:debit_cards" v="yes"/>
    <tag k="payment:cash" v="yes"/>
  </node>
  <node action="modify" id="-53" lat="47.5417664" lon="19.2442506">
    <tag k="name" v="Benu gyógyszertár"/>
    <tag k="addr:city" v="Csömör"/>
    <tag k="addr:postcode" v="2141"/>
    <tag k="addr:street" v="Határ út"/>
    <tag k="addr:housenumber" v="6"/>
    <tag k="branch" v="BENU Gyógyszertár Csömör Auchan"/>
    <tag k="phone" v="+3628551980"/>
    <tag k="website" v="https://www.benu.huhttps://benu.hu/gyogyszertaraink/gyogyszertarak-pest-megye/gyogyszertarak-csomor/benu-gyogyszertar-csomor-auchan/"/>
    <tag k="amenity" v="pharmacy"/>
    <tag k="dispensing" v="yes"/>
    <tag k="payment:debit_cards" v="yes"/>
    <tag k="payment:cash" v="yes"/>
  </node>
  <node action="modify" id="-54" lat="47.5329245" lon="21.6282949">
    <tag k="name" v="Benu gyógyszertár"/>
    <tag k="addr:city" v="Debrecen"/>
    <tag k="addr:postcode" v="4024"/>
    <tag k="addr:street" v="Csapó utca"/>
    <tag k="addr:housenumber" v="30"/>
    <tag k="branch" v="BENU Gyógyszertár Debrecen Fórum"/>
    <tag k="phone" v="+3652598794"/>
    <tag k="website" v="https://www.benu.huhttps://benu.hu/gyogyszertaraink/gyogyszertarak-hajdu-bihar-megye/gyogyszertarak-debrecen/benu-gyogyszertar-debrecen-forum/"/>
    <tag k="amenity" v="pharmacy"/>
    <tag k="dispensing" v="yes"/>
    <tag k="payment:debit_cards" v="yes"/>
    <tag k="payment:cash" v="yes"/>
  </node>
  <node action="modify" id="-55" lat="47.5348096" lon="21.6256809">
    <tag k="name" v="Benu gyógyszertár"/>
    <tag k="addr:city" v="Debrecen"/>
    <tag k="addr:postcode" v="4026"/>
    <tag k="addr:street" v="Péterfia út"/>
    <tag k="addr:housenumber" v="18"/>
    <tag k="branch" v="BENU Gyógyszertár Debrecen Pláza"/>
    <tag k="phone" v="+3652532000"/>
    <tag k="website" v="https://www.benu.huhttps://benu.hu/gyogyszertaraink/gyogyszertarak-hajdu-bihar-megye/gyogyszertarak-debrecen/benu-gyogyszertar-debrecen-plaza/"/>
    <tag k="amenity" v="pharmacy"/>
    <tag k="dispensing" v="yes"/>
    <tag k="payment:debit_cards" v="yes"/>
    <tag k="payment:cash" v="yes"/>
  </node>
  <node action="modify" id="-56" lat="46.3824414" lon="18.162929">
    <tag k="name" v="Benu gyógyszertár"/>
    <tag k="addr:city" v="Dombóvár"/>
    <tag k="addr:postcode" v="7200"/>
    <tag k="addr:street" v="Hunyadi János tér"/>
    <tag k="addr:housenumber" v="10"/>
    <tag k="branch" v="BENU Gyógyszertár Dombóvár Gólyavár"/>
    <tag k="phone" v="+3674461897"/>
    <tag k="website" v="https://www.benu.huhttps://benu.hu/gyogyszertaraink/gyogyszertarak-tolna-megye/gyogyszertarak-dombovar/benu-gyogyszertar-dombovar-golyavar/"/>
    <tag k="amenity" v="pharmacy"/>
    <tag k="dispensing" v="yes"/>
    <tag k="payment:debit_cards" v="yes"/>
    <tag k="payment:cash" v="yes"/>
  </node>
  <node action="modify" id="-57" lat="46.376559" lon="18.131425">
    <tag k="name" v="Benu gyógyszertár"/>
    <tag k="addr:city" v="Dombóvár"/>
    <tag k="addr:postcode" v="7200"/>
    <tag k="addr:street" v="Hunyadi tér"/>
    <tag k="addr:housenumber" v="27"/>
    <tag k="branch" v="BENU Gyógyszertár Dombóvár Pelikán"/>
    <tag k="phone" v="+3674565488"/>
    <tag k="website" v="https://www.benu.huhttps://benu.hu/gyogyszertaraink/gyogyszertarak-tolna-megye/gyogyszertarak-dombovar/benu-gyogyszertar-dombovar-pelikan/"/>
    <tag k="amenity" v="pharmacy"/>
    <tag k="dispensing" v="yes"/>
    <tag k="payment:debit_cards" v="yes"/>
    <tag k="payment:cash" v="yes"/>
  </node>
  <node action="modify" id="-58" lat="47.6424301" lon="19.1254802">
    <tag k="name" v="Benu gyógyszertár"/>
    <tag k="addr:city" v="Dunakeszi"/>
    <tag k="addr:postcode" v="2120"/>
    <tag k="addr:street" v="Barátság utca"/>
    <tag k="addr:housenumber" v="29"/>
    <tag k="branch" v="BENU Gyógyszertár Dunakeszi Rézkígyó"/>
    <tag k="phone" v="+3627543485"/>
    <tag k="website" v="https://www.benu.huhttps://benu.hu/gyogyszertaraink/gyogyszertarak-pest-megye/gyogyszertarak-dunakeszi/benu-gyogyszertar-dunakeszi-rezkigyo/"/>
    <tag k="amenity" v="pharmacy"/>
    <tag k="dispensing" v="yes"/>
    <tag k="payment:debit_cards" v="yes"/>
    <tag k="payment:cash" v="yes"/>
  </node>
  <node action="modify" id="-59" lat="47.902864" lon="20.3753117">
    <tag k="name" v="Benu gyógyszertár"/>
    <tag k="addr:city" v="Eger"/>
    <tag k="addr:postcode" v="3300"/>
    <tag k="addr:street" v="Zalár út"/>
    <tag k="addr:housenumber" v="9"/>
    <tag k="branch" v="BENU Gyógyszertár Eger Zalár"/>
    <tag k="phone" v="+3636310191"/>
    <tag k="website" v="https://www.benu.huhttps://benu.hu/gyogyszertaraink/gyogyszertarak-heves-megye/gyogyszertarak-eger/benu-gyogyszertar-eger-zalar/"/>
    <tag k="amenity" v="pharmacy"/>
    <tag k="dispensing" v="yes"/>
    <tag k="payment:debit_cards" v="yes"/>
    <tag k="payment:cash" v="yes"/>
  </node>
  <node action="modify" id="-60" lat="47.3991375" lon="18.904864">
    <tag k="name" v="Benu gyógyszertár"/>
    <tag k="addr:city" v="Érd"/>
    <tag k="addr:postcode" v="2030"/>
    <tag k="addr:street" v="Bajcsy-Zsilinszky út"/>
    <tag k="addr:housenumber" v="40"/>
    <tag k="branch" v="BENU Gyógyszertár Érd Borostyán"/>
    <tag k="phone" v="+3623373496"/>
    <tag k="website" v="https://www.benu.huhttps://benu.hu/gyogyszertaraink/gyogyszertarak-pest-megye/gyogyszertarak-erd/benu-gyogyszertar-erd-borostyan/"/>
    <tag k="amenity" v="pharmacy"/>
    <tag k="dispensing" v="yes"/>
    <tag k="payment:debit_cards" v="yes"/>
    <tag k="payment:cash" v="yes"/>
  </node>
  <node action="modify" id="-61" lat="47.6195307" lon="16.8646831">
    <tag k="name" v="Benu gyógyszertár"/>
    <tag k="addr:city" v="Fertőd"/>
    <tag k="addr:postcode" v="9431"/>
    <tag k="addr:street" v="Vasút sor"/>
    <tag k="addr:housenumber" v="1"/>
    <tag k="branch" v="BENU Gyógyszertár Fertőd"/>
    <tag k="phone" v="+3699537026"/>
    <tag k="website" v="https://www.benu.huhttps://benu.hu/gyogyszertaraink/gyogyszertarak-gyor-moson-sopron-megye/gyogyszertarak-fertod/benu-gyogyszertar-fertod/"/>
    <tag k="amenity" v="pharmacy"/>
    <tag k="dispensing" v="yes"/>
    <tag k="payment:debit_cards" v="yes"/>
    <tag k="payment:cash" v="yes"/>
  </node>
  <node action="modify" id="-62" lat="47.5897577" lon="16.8799289">
    <tag k="name" v="Benu gyógyszertár"/>
    <tag k="addr:city" v="Fertőszentmiklós"/>
    <tag k="addr:postcode" v="9444"/>
    <tag k="addr:street" v="Ifjúság tér"/>
    <tag k="addr:housenumber" v="8"/>
    <tag k="branch" v="BENU Gyógyszertár Fertőszentmiklós Elíxir"/>
    <tag k="phone" v="+3699544066"/>
    <tag k="website" v="https://www.benu.huhttps://benu.hu/gyogyszertaraink/gyogyszertarak-gyor-moson-sopron-megye/gyogyszertarak-fertoszentmiklos/benu-gyogyszertar-fertoszentmiklos-elixir/"/>
    <tag k="amenity" v="pharmacy"/>
    <tag k="dispensing" v="yes"/>
    <tag k="payment:debit_cards" v="yes"/>
    <tag k="payment:cash" v="yes"/>
  </node>
  <node action="modify" id="-63" lat="47.7710777" lon="19.9239706">
    <tag k="name" v="Benu gyógyszertár"/>
    <tag k="addr:city" v="Gyöngyös"/>
    <tag k="addr:postcode" v="3200"/>
    <tag k="addr:street" v="Szövetkezet utca"/>
    <tag k="addr:housenumber" v="8"/>
    <tag k="branch" v="BENU Gyógyszertár Gyöngyös Mixtura"/>
    <tag k="phone" v="+3637312040"/>
    <tag k="website" v="https://www.benu.huhttps://benu.hu/gyogyszertaraink/gyogyszertarak-heves-megye/gyogyszertarak-gyongyos/benu-gyogyszertar-gyongyos-mixtura/"/>
    <tag k="amenity" v="pharmacy"/>
    <tag k="dispensing" v="yes"/>
    <tag k="payment:debit_cards" v="yes"/>
    <tag k="payment:cash" v="yes"/>
  </node>
  <node action="modify" id="-64" lat="47.685051" lon="17.6350589">
    <tag k="name" v="Benu gyógyszertár"/>
    <tag k="addr:city" v="Győr"/>
    <tag k="addr:postcode" v="9021"/>
    <tag k="addr:street" v="Árpád út"/>
    <tag k="addr:housenumber" v="47"/>
    <tag k="branch" v="BENU Gyógyszertár Győr Árpád Úti"/>
    <tag k="phone" v="+3696337554"/>
    <tag k="website" v="https://www.benu.huhttps://benu.hu/gyogyszertaraink/gyogyszertarak-gyor-moson-sopron-megye/gyogyszertarak-gyor/benu-gyogyszertar-gyor-arpad-uti/"/>
    <tag k="amenity" v="pharmacy"/>
    <tag k="dispensing" v="yes"/>
    <tag k="payment:debit_cards" v="yes"/>
    <tag k="payment:cash" v="yes"/>
  </node>
  <node action="modify" id="-65" lat="47.687623" lon="17.623985">
    <tag k="name" v="Benu gyógyszertár"/>
    <tag k="addr:city" v="Győr"/>
    <tag k="addr:postcode" v="9025"/>
    <tag k="addr:street" v="Semmelweis utca"/>
    <tag k="addr:housenumber" v="8"/>
    <tag k="branch" v="BENU Gyógyszertár Győr Kabay János"/>
    <tag k="phone" v="+3696314347"/>
    <tag k="website" v="https://www.benu.huhttps://benu.hu/gyogyszertaraink/gyogyszertarak-gyor-moson-sopron-megye/gyogyszertarak-gyor/benu-gyogyszertar-gyor-kabay-janos/"/>
    <tag k="amenity" v="pharmacy"/>
    <tag k="dispensing" v="yes"/>
    <tag k="payment:debit_cards" v="yes"/>
    <tag k="payment:cash" v="yes"/>
  </node>
  <node action="modify" id="-66" lat="47.688303" lon="17.638395">
    <tag k="name" v="Benu gyógyszertár"/>
    <tag k="addr:city" v="Győr"/>
    <tag k="addr:postcode" v="9022"/>
    <tag k="addr:street" v="Pálffy utca"/>
    <tag k="addr:housenumber" v="8"/>
    <tag k="branch" v="BENU Gyógyszertár Győr Kígyó"/>
    <tag k="phone" v="+3696517999"/>
    <tag k="website" v="https://www.benu.huhttps://benu.hu/gyogyszertaraink/gyogyszertarak-gyor-moson-sopron-megye/gyogyszertarak-gyor/benu-gyogyszertar-gyor-kigyo/"/>
    <tag k="amenity" v="pharmacy"/>
    <tag k="dispensing" v="yes"/>
    <tag k="payment:debit_cards" v="yes"/>
    <tag k="payment:cash" v="yes"/>
  </node>
  <node action="modify" id="-67" lat="47.669081" lon="17.6466032">
    <tag k="name" v="Benu gyógyszertár"/>
    <tag k="addr:city" v="Győr"/>
    <tag k="addr:postcode" v="9024"/>
    <tag k="addr:street" v="Vasvári Pál utca"/>
    <tag k="addr:housenumber" v="1/a"/>
    <tag k="branch" v="BENU Gyógyszertár Győr Pláza"/>
    <tag k="phone" v="+3696801030"/>
    <tag k="website" v="https://www.benu.huhttps://benu.hu/gyogyszertaraink/gyogyszertarak-gyor-moson-sopron-megye/gyogyszertarak-gyor/benu-gyogyszertar-gyor-plaza/"/>
    <tag k="amenity" v="pharmacy"/>
    <tag k="dispensing" v="yes"/>
    <tag k="payment:debit_cards" v="yes"/>
    <tag k="payment:cash" v="yes"/>
  </node>
  <node action="modify" id="-68" lat="47.6986719" lon="17.7391525">
    <tag k="name" v="Benu gyógyszertár"/>
    <tag k="addr:city" v="Győr"/>
    <tag k="addr:postcode" v="9011"/>
    <tag k="addr:street" v="Kör tér"/>
    <tag k="addr:housenumber" v="80"/>
    <tag k="branch" v="BENU Gyógyszertár Győrszentiván  Kristály"/>
    <tag k="phone" v="+3696527968"/>
    <tag k="website" v="https://www.benu.huhttps://benu.hu/gyogyszertaraink/gyogyszertarak-gyor-moson-sopron-megye/gyogyszertarak-gyor/kristaly-gyogyszertar-gyor/"/>
    <tag k="amenity" v="pharmacy"/>
    <tag k="dispensing" v="yes"/>
    <tag k="payment:debit_cards" v="yes"/>
    <tag k="payment:cash" v="yes"/>
  </node>
  <node action="modify" id="-69" lat="46.7890363" lon="17.1852547">
    <tag k="name" v="Benu gyógyszertár"/>
    <tag k="addr:city" v="Héviz"/>
    <tag k="addr:postcode" v="8380"/>
    <tag k="addr:street" v="Kossuth Lajos utca"/>
    <tag k="addr:housenumber" v="5"/>
    <tag k="branch" v="BENU Gyógyszertár Hévíz Tavirózsa"/>
    <tag k="phone" v="+3683343421"/>
    <tag k="website" v="https://www.benu.huhttps://benu.hu/gyogyszertaraink/gyogyszertarak-zala-megye/gyogyszertarak-heviz/benu-gyogyszertar-heviz-tavirozsa/"/>
    <tag k="amenity" v="pharmacy"/>
    <tag k="dispensing" v="yes"/>
    <tag k="payment:debit_cards" v="yes"/>
    <tag k="payment:cash" v="yes"/>
  </node>
  <node action="modify" id="-70" lat="46.053933" lon="18.22721">
    <tag k="name" v="Benu gyógyszertár"/>
    <tag k="addr:city" v="Pécs"/>
    <tag k="addr:postcode" v="7632"/>
    <tag k="addr:street" v="Egressy utca"/>
    <tag k="addr:housenumber" v="1"/>
    <tag k="branch" v="BENU Gyógyszertár Igazgyöngy"/>
    <tag k="phone" v="+3672438915"/>
    <tag k="website" v="https://www.benu.huhttps://benu.hu/gyogyszertaraink/gyogyszertarak-baranya-megye/gyogyszertarak-pecs/benu-gyogyszertar-igazgyongy/"/>
    <tag k="amenity" v="pharmacy"/>
    <tag k="dispensing" v="yes"/>
    <tag k="payment:debit_cards" v="yes"/>
    <tag k="payment:cash" v="yes"/>
  </node>
  <node action="modify" id="-71" lat="47.121314" lon="17.1650607">
    <tag k="name" v="Benu gyógyszertár"/>
    <tag k="addr:city" v="Jánosháza"/>
    <tag k="addr:postcode" v="9545"/>
    <tag k="addr:street" v="Bajcsy-Zsilinszky utca"/>
    <tag k="addr:housenumber" v="4"/>
    <tag k="branch" v="BENU Gyógyszertár Jánosháza Korona"/>
    <tag k="phone" v="+3695450126"/>
    <tag k="website" v="https://www.benu.huhttps://benu.hu/gyogyszertaraink/gyogyszertarak-vas-megye/gyogyszertarak-janoshaza/benu-gyogyszertar-janoshaza-korona/&#13;&#10;&#13;&#10;A gyógyszertár felújítás miatt zárva van. Május 13-án nyit újra."/>
    <tag k="amenity" v="pharmacy"/>
    <tag k="dispensing" v="yes"/>
    <tag k="payment:debit_cards" v="yes"/>
    <tag k="payment:cash" v="yes"/>
  </node>
  <node action="modify" id="-72" lat="46.3568652" lon="17.7948079">
    <tag k="name" v="Benu gyógyszertár"/>
    <tag k="addr:city" v="Kaposvár"/>
    <tag k="addr:postcode" v="7400"/>
    <tag k="addr:street" v="Fő út"/>
    <tag k="addr:housenumber" v="37-39"/>
    <tag k="branch" v="BENU Gyógyszertár Kaposvár Fő út"/>
    <tag k="phone" v="+3682510535"/>
    <tag k="website" v="https://www.benu.huhttps://benu.hu/gyogyszertaraink/gyogyszertarak-somogy-megye/gyogyszertarak-kaposvar/benu-gyogyszertar-kaposvar-fo-ut/"/>
    <tag k="amenity" v="pharmacy"/>
    <tag k="dispensing" v="yes"/>
    <tag k="payment:debit_cards" v="yes"/>
    <tag k="payment:cash" v="yes"/>
  </node>
  <node action="modify" id="-73" lat="46.8886243" lon="19.6333994">
    <tag k="name" v="Benu gyógyszertár"/>
    <tag k="addr:city" v="Kecskemét"/>
    <tag k="addr:postcode" v="6000"/>
    <tag k="addr:street" v="Dunaföldvári út"/>
    <tag k="addr:housenumber" v="2"/>
    <tag k="branch" v="BENU Gyógyszertár Kecskemét Auchan"/>
    <tag k="phone" v="+3676506286"/>
    <tag k="website" v="https://www.benu.huhttps://benu.hu/gyogyszertaraink/gyogyszertarak-bacs-kiskun-megye/gyogyszertarak-kecskemet/benu-gyogyszertar-kecskemet-auchan/"/>
    <tag k="amenity" v="pharmacy"/>
    <tag k="dispensing" v="yes"/>
    <tag k="payment:debit_cards" v="yes"/>
    <tag k="payment:cash" v="yes"/>
  </node>
  <node action="modify" id="-74" lat="46.7651867" lon="17.2427248">
    <tag k="name" v="Benu gyógyszertár"/>
    <tag k="addr:city" v="Keszthely"/>
    <tag k="addr:postcode" v="8360"/>
    <tag k="addr:street" v="Kossuth Lajos utca"/>
    <tag k="addr:housenumber" v="37"/>
    <tag k="branch" v="BENU Gyógyszertár Keszthely Helikon"/>
    <tag k="phone" v="+3683312340"/>
    <tag k="website" v="https://www.benu.huhttps://benu.hu/gyogyszertaraink/gyogyszertarak-zala-megye/gyogyszertarak-keszthely/benu-gyogyszertar-keszthely-helikon/"/>
    <tag k="amenity" v="pharmacy"/>
    <tag k="dispensing" v="yes"/>
    <tag k="payment:debit_cards" v="yes"/>
    <tag k="payment:cash" v="yes"/>
  </node>
  <node action="modify" id="-75" lat="46.7736573" lon="17.26686">
    <tag k="name" v="Benu gyógyszertár"/>
    <tag k="addr:city" v="Keszthely"/>
    <tag k="addr:postcode" v="8360"/>
    <tag k="addr:street" v="Tapolcai út"/>
    <tag k="addr:housenumber" v="37"/>
    <tag k="branch" v="BENU Gyógyszertár Keszthely Interspar"/>
    <tag k="phone" v="+3683312381"/>
    <tag k="website" v="https://www.benu.huhttps://benu.hu/gyogyszertaraink/gyogyszertarak-zala-megye/gyogyszertarak-keszthely/benu-gyogyszertar-keszthely-interspar/"/>
    <tag k="amenity" v="pharmacy"/>
    <tag k="dispensing" v="yes"/>
    <tag k="payment:debit_cards" v="yes"/>
    <tag k="payment:cash" v="yes"/>
  </node>
  <node action="modify" id="-76" lat="46.7695123" lon="17.2475119">
    <tag k="name" v="Benu gyógyszertár"/>
    <tag k="addr:city" v="Keszthely"/>
    <tag k="addr:postcode" v="8360"/>
    <tag k="addr:street" v="Rákóczi tér"/>
    <tag k="addr:housenumber" v="12/a"/>
    <tag k="branch" v="BENU Gyógyszertár Keszthely Pelikán"/>
    <tag k="phone" v="+3683312239"/>
    <tag k="website" v="https://www.benu.huhttps://benu.hu/gyogyszertaraink/gyogyszertarak-zala-megye/gyogyszertarak-keszthely/benu-gyogyszertar-keszthely-pelikan/"/>
    <tag k="amenity" v="pharmacy"/>
    <tag k="dispensing" v="yes"/>
    <tag k="payment:debit_cards" v="yes"/>
    <tag k="payment:cash" v="yes"/>
  </node>
  <node action="modify" id="-77" lat="47.5023892" lon="18.0286604">
    <tag k="name" v="Benu gyógyszertár"/>
    <tag k="addr:city" v="Kisbér"/>
    <tag k="addr:postcode" v="2870"/>
    <tag k="addr:street" v="Batthyányi tér"/>
    <tag k="addr:housenumber" v="4"/>
    <tag k="branch" v="BENU Gyógyszertár Kisbér Ezüstkehely"/>
    <tag k="phone" v="+3634352166"/>
    <tag k="website" v="https://www.benu.huhttps://benu.hu/gyogyszertaraink/gyogyszertarak-komarom-esztergom-megye/gyogyszertarak-kisber/benu-gyogyszertar-kisber-ezustkehely/"/>
    <tag k="amenity" v="pharmacy"/>
    <tag k="dispensing" v="yes"/>
    <tag k="payment:debit_cards" v="yes"/>
    <tag k="payment:cash" v="yes"/>
  </node>
  <node action="modify" id="-78" lat="48.2333059" lon="22.063797">
    <tag k="name" v="Benu gyógyszertár"/>
    <tag k="addr:city" v="Kisvárda"/>
    <tag k="addr:postcode" v="4600"/>
    <tag k="addr:street" v="Városmajor utca"/>
    <tag k="addr:housenumber" v="72"/>
    <tag k="branch" v="BENU Gyógyszertár Kisvárda Városmajor"/>
    <tag k="phone" v="+3645404243"/>
    <tag k="website" v="https://www.benu.huhttps://benu.hu/gyogyszertaraink/gyogyszertarak-szabolcs-szatmar-bereg-megye/gyogyszertarak-kisvarda/benu-gyogyszertar-kisvarda-varosmajor/"/>
    <tag k="amenity" v="pharmacy"/>
    <tag k="dispensing" v="yes"/>
    <tag k="payment:debit_cards" v="yes"/>
    <tag k="payment:cash" v="yes"/>
  </node>
  <node action="modify" id="-79" lat="47.3859176" lon="16.5397127">
    <tag k="name" v="Benu gyógyszertár"/>
    <tag k="addr:city" v="Kőszeg"/>
    <tag k="addr:postcode" v="9730"/>
    <tag k="addr:street" v="Pogányi út"/>
    <tag k="addr:housenumber" v="7"/>
    <tag k="branch" v="BENU Gyógyszertár Kőszeg Küttel"/>
    <tag k="phone" v="+3694563078"/>
    <tag k="website" v="https://www.benu.huhttps://benu.hu/gyogyszertaraink/gyogyszertarak-vas-megye/gyogyszertarak-koszeg/benu-gyogyszertar-koszeg-kuttel/"/>
    <tag k="amenity" v="pharmacy"/>
    <tag k="dispensing" v="yes"/>
    <tag k="payment:debit_cards" v="yes"/>
    <tag k="payment:cash" v="yes"/>
  </node>
  <node action="modify" id="-80" lat="46.8399847" lon="20.2840665">
    <tag k="name" v="Benu gyógyszertár"/>
    <tag k="addr:city" v="Kunszentmárton"/>
    <tag k="addr:postcode" v="5440"/>
    <tag k="addr:street" v="Kossuth utca"/>
    <tag k="addr:housenumber" v="4"/>
    <tag k="branch" v="BENU Gyógyszertár Kunszentmárton Kossuth"/>
    <tag k="phone" v="+3656461009"/>
    <tag k="website" v="https://www.benu.huhttps://benu.hu/gyogyszertaraink/gyogyszertarak-jasz-nagykun-szolnok-megye/gyogyszertarak-kunszentmarton/benu-gyogyszertar-kunszentmarton-kossuth/"/>
    <tag k="amenity" v="pharmacy"/>
    <tag k="dispensing" v="yes"/>
    <tag k="payment:debit_cards" v="yes"/>
    <tag k="payment:cash" v="yes"/>
  </node>
  <node action="modify" id="-81" lat="46.6229504" lon="16.5336733">
    <tag k="name" v="Benu gyógyszertár"/>
    <tag k="addr:city" v="Lenti"/>
    <tag k="addr:postcode" v="8960"/>
    <tag k="addr:street" v="Kossuth utca"/>
    <tag k="addr:housenumber" v="4"/>
    <tag k="branch" v="BENU Gyógyszertár Lenti Gyöngyvirág"/>
    <tag k="phone" v="+3692351383"/>
    <tag k="website" v="https://www.benu.huhttps://benu.hu/gyogyszertaraink/gyogyszertarak-zala-megye/gyogyszertarak-lenti/benu-gyogyszertar-lenti-gyongyvirag/"/>
    <tag k="amenity" v="pharmacy"/>
    <tag k="dispensing" v="yes"/>
    <tag k="payment:debit_cards" v="yes"/>
    <tag k="payment:cash" v="yes"/>
  </node>
  <node action="modify" id="-82" lat="47.4591055" lon="19.3347961">
    <tag k="name" v="Benu gyógyszertár"/>
    <tag k="addr:city" v="Maglód"/>
    <tag k="addr:postcode" v="2234"/>
    <tag k="addr:street" v="Eszterházy János utca"/>
    <tag k="addr:housenumber" v="1"/>
    <tag k="branch" v="BENU Gyógyszertár Maglód Auchan"/>
    <tag k="phone" v="+3629814527"/>
    <tag k="website" v="https://www.benu.huhttps://benu.hu/gyogyszertaraink/gyogyszertarak-pest-megye/gyogyszertarak-maglod/benu-gyogyszertar-maglod-auchan/"/>
    <tag k="amenity" v="pharmacy"/>
    <tag k="dispensing" v="yes"/>
    <tag k="payment:debit_cards" v="yes"/>
    <tag k="payment:cash" v="yes"/>
  </node>
  <node action="modify" id="-83" lat="47.4402033" lon="21.6355">
    <tag k="name" v="Benu gyógyszertár"/>
    <tag k="addr:city" v="Mikepércs"/>
    <tag k="addr:postcode" v="4271"/>
    <tag k="addr:street" v="Orosz István utca"/>
    <tag k="addr:housenumber" v="12"/>
    <tag k="branch" v="BENU Gyógyszertár Mikepércs"/>
    <tag k="phone" v="+3652216449"/>
    <tag k="website" v="https://www.benu.huhttps://benu.hu/gyogyszertaraink/gyogyszertarak-hajdu-bihar-megye/mikepercs/benu-gyogyszertar-mikepercs/"/>
    <tag k="amenity" v="pharmacy"/>
    <tag k="dispensing" v="yes"/>
    <tag k="payment:debit_cards" v="yes"/>
    <tag k="payment:cash" v="yes"/>
  </node>
  <node action="modify" id="-84" lat="48.1062712" lon="20.8367315">
    <tag k="name" v="Benu gyógyszertár"/>
    <tag k="addr:city" v="Miskolc"/>
    <tag k="addr:postcode" v="3527"/>
    <tag k="addr:street" v="József Attila út"/>
    <tag k="addr:housenumber" v="87"/>
    <tag k="branch" v="BENU Gyógyszertár Miskolc Auchan"/>
    <tag k="phone" v="+3646888690"/>
    <tag k="website" v="https://www.benu.huhttps://benu.hu/gyogyszertaraink/gyogyszertarak-borsod-abauj-zemplen-megye/gyogyszertarak-miskolc/benu-gyogyszertar-miskolc-auchan/"/>
    <tag k="amenity" v="pharmacy"/>
    <tag k="dispensing" v="yes"/>
    <tag k="payment:debit_cards" v="yes"/>
    <tag k="payment:cash" v="yes"/>
  </node>
  <node action="modify" id="-85" lat="47.5453312" lon="19.0320749">
    <tag k="name" v="Benu gyógyszertár"/>
    <tag k="addr:city" v="Budapest"/>
    <tag k="addr:postcode" v="1032"/>
    <tag k="addr:street" v="Ágoston utca"/>
    <tag k="addr:housenumber" v="2"/>
    <tag k="phone" v="+3612505132"/>
    <tag k="website" v="https://www.benu.huhttps://benu.hu/gyogyszertaraink/gyogyszertarak-budapest/gyogyszertarak-budapest-iii-kerulet/igazsag-gyogyszertar/"/>
    <tag k="amenity" v="pharmacy"/>
    <tag k="dispensing" v="yes"/>
    <tag k="payment:debit_cards" v="yes"/>
    <tag k="payment:cash" v="yes"/>
  </node>
  <node action="modify" id="-86" lat="48.080427" lon="20.778521">
    <tag k="name" v="Benu gyógyszertár"/>
    <tag k="addr:city" v="Miskolc"/>
    <tag k="addr:postcode" v="3529"/>
    <tag k="addr:street" v="Szentgyörgy utca"/>
    <tag k="addr:housenumber" v="25"/>
    <tag k="branch" v="BENU Gyógyszertár Miskolc Csontváry"/>
    <tag k="phone" v="+3646369271"/>
    <tag k="website" v="https://www.benu.huhttps://benu.hu/gyogyszertaraink/gyogyszertarak-borsod-abauj-zemplen-megye/gyogyszertarak-miskolc/benu-gyogyszertar-miskolc-csontvary/"/>
    <tag k="amenity" v="pharmacy"/>
    <tag k="dispensing" v="yes"/>
    <tag k="payment:debit_cards" v="yes"/>
    <tag k="payment:cash" v="yes"/>
  </node>
  <node action="modify" id="-87" lat="46.4568262" lon="16.9891224">
    <tag k="name" v="Benu gyógyszertár"/>
    <tag k="addr:city" v="Nagykanizsa"/>
    <tag k="addr:postcode" v="8800"/>
    <tag k="addr:street" v="Rozgonyi utca"/>
    <tag k="addr:housenumber" v="1"/>
    <tag k="branch" v="BENU Gyógyszertár Nagykanizsa Aranyszarvas"/>
    <tag k="phone" v="+3693311531"/>
    <tag k="website" v="https://www.benu.huhttps://benu.hu/gyogyszertaraink/gyogyszertarak-zala-megye/gyogyszertarak-nagykanizsa/benu-gyogyszertar-nagykanizsa-aranyszarvas/"/>
    <tag k="amenity" v="pharmacy"/>
    <tag k="dispensing" v="yes"/>
    <tag k="payment:debit_cards" v="yes"/>
    <tag k="payment:cash" v="yes"/>
  </node>
  <node action="modify" id="-88" lat="46.4567616" lon="17.0139084">
    <tag k="name" v="Benu gyógyszertár"/>
    <tag k="addr:city" v="Nagykanizsa"/>
    <tag k="addr:postcode" v="8800"/>
    <tag k="addr:street" v="Táborhely utca"/>
    <tag k="addr:housenumber" v="4"/>
    <tag k="branch" v="BENU Gyógyszertár Nagykanizsa Kanizsa Centrum"/>
    <tag k="phone" v="+3693510215"/>
    <tag k="website" v="https://www.benu.huhttps://benu.hu/gyogyszertaraink/gyogyszertarak-zala-megye/gyogyszertarak-nagykanizsa/benu-gyogyszertar-nagykanizsa-kanizsa-centrum/"/>
    <tag k="amenity" v="pharmacy"/>
    <tag k="dispensing" v="yes"/>
    <tag k="payment:debit_cards" v="yes"/>
    <tag k="payment:cash" v="yes"/>
  </node>
  <node action="modify" id="-89" lat="46.4523463" lon="17.0042639">
    <tag k="name" v="Benu gyógyszertár"/>
    <tag k="addr:city" v="Nagykanizsa"/>
    <tag k="addr:postcode" v="8800"/>
    <tag k="addr:street" v="Tavasz utca"/>
    <tag k="addr:housenumber" v="26"/>
    <tag k="branch" v="BENU Gyógyszertár Nagykanizsa Katonaréti"/>
    <tag k="phone" v="+3693311607"/>
    <tag k="website" v="https://www.benu.huhttps://benu.hu/gyogyszertaraink/gyogyszertarak-zala-megye/gyogyszertarak-nagykanizsa/benu-gyogyszertar-nagykanizsa-katonareti/"/>
    <tag k="amenity" v="pharmacy"/>
    <tag k="dispensing" v="yes"/>
    <tag k="payment:debit_cards" v="yes"/>
    <tag k="payment:cash" v="yes"/>
  </node>
  <node action="modify" id="-90" lat="47.9564378" lon="21.7157893">
    <tag k="name" v="Benu gyógyszertár"/>
    <tag k="addr:city" v="Nyíregyháza"/>
    <tag k="addr:postcode" v="4400"/>
    <tag k="addr:street" v="Hősök tere"/>
    <tag k="addr:housenumber" v="1"/>
    <tag k="branch" v="BENU Gyógyszertár Nyíregyháza Hősök tere"/>
    <tag k="phone" v="+3642801017"/>
    <tag k="website" v="https://www.benu.huhttps://benu.hu/gyogyszertaraink/gyogyszertarak-szabolcs-szatmar-bereg-megye/gyogyszertarak-nyiregyhaza/benu-gyogyszertar-nyiregyhaza-hosok-tere/"/>
    <tag k="amenity" v="pharmacy"/>
    <tag k="dispensing" v="yes"/>
    <tag k="payment:debit_cards" v="yes"/>
    <tag k="payment:cash" v="yes"/>
  </node>
  <node action="modify" id="-91" lat="47.9692785" lon="21.7360902">
    <tag k="name" v="Benu gyógyszertár"/>
    <tag k="addr:city" v="Nyíregyháza"/>
    <tag k="addr:postcode" v="4400"/>
    <tag k="addr:street" v="Pazonyi út"/>
    <tag k="addr:housenumber" v="36"/>
    <tag k="branch" v="BENU Gyógyszertár Nyíregyháza Tesco"/>
    <tag k="phone" v="+3642440842"/>
    <tag k="website" v="https://www.benu.huhttps://benu.hu/gyogyszertaraink/gyogyszertarak-szabolcs-szatmar-bereg-megye/gyogyszertarak-nyiregyhaza/benu-gyogyszertar-nyiregyhaza-tesco/"/>
    <tag k="amenity" v="pharmacy"/>
    <tag k="dispensing" v="yes"/>
    <tag k="payment:debit_cards" v="yes"/>
    <tag k="payment:cash" v="yes"/>
  </node>
  <node action="modify" id="-92" lat="48.2192319" lon="20.285823">
    <tag k="name" v="Benu gyógyszertár"/>
    <tag k="addr:city" v="Ózd"/>
    <tag k="addr:postcode" v="3600"/>
    <tag k="addr:street" v="Vasvár út"/>
    <tag k="addr:housenumber" v="21"/>
    <tag k="branch" v="BENU Gyógyszertár Ózd Immánuel"/>
    <tag k="phone" v="+3648471342"/>
    <tag k="website" v="https://www.benu.huhttps://benu.hu/gyogyszertaraink/gyogyszertarak-borsod-abauj-zemplen-megye/gyogyszertarak-ozd/benu-gyogyszertar-ozd-immanuel/"/>
    <tag k="amenity" v="pharmacy"/>
    <tag k="dispensing" v="yes"/>
    <tag k="payment:debit_cards" v="yes"/>
    <tag k="payment:cash" v="yes"/>
  </node>
  <node action="modify" id="-93" lat="48.219195" lon="20.280171">
    <tag k="name" v="Benu gyógyszertár"/>
    <tag k="addr:city" v="Ózd"/>
    <tag k="addr:postcode" v="3600"/>
    <tag k="addr:street" v="Vasvár út"/>
    <tag k="addr:housenumber" v="52-60"/>
    <tag k="branch" v="BENU Gyógyszertár Ózd Páduai Szent Antal"/>
    <tag k="phone" v="+3648472580"/>
    <tag k="website" v="https://www.benu.huhttps://benu.hu/gyogyszertaraink/gyogyszertarak-borsod-abauj-zemplen-megye/gyogyszertarak-ozd/benu-gyogyszertar-ozd-paduai-szent-antal/"/>
    <tag k="amenity" v="pharmacy"/>
    <tag k="dispensing" v="yes"/>
    <tag k="payment:debit_cards" v="yes"/>
    <tag k="payment:cash" v="yes"/>
  </node>
  <node action="modify" id="-94" lat="46.5923485" lon="16.6459024">
    <tag k="name" v="Benu gyógyszertár"/>
    <tag k="addr:city" v="Páka"/>
    <tag k="addr:postcode" v="8956"/>
    <tag k="addr:street" v="Petőfi utca"/>
    <tag k="addr:housenumber" v="2"/>
    <tag k="branch" v="BENU Gyógyszertár Páka Megváltó"/>
    <tag k="phone" v="+3692378005"/>
    <tag k="website" v="https://www.benu.huhttps://benu.hu/gyogyszertaraink/gyogyszertarak-zala-megye/gyogyszertarak-paka/benu-gyogyszertar-paka-megvalto/"/>
    <tag k="amenity" v="pharmacy"/>
    <tag k="dispensing" v="yes"/>
    <tag k="payment:debit_cards" v="yes"/>
    <tag k="payment:cash" v="yes"/>
  </node>
  <node action="modify" id="-95" lat="46.6513666" lon="18.8193852">
    <tag k="name" v="Benu gyógyszertár"/>
    <tag k="addr:city" v="Paks"/>
    <tag k="addr:postcode" v="7030"/>
    <tag k="addr:street" v="Tolnai út"/>
    <tag k="addr:housenumber" v="2"/>
    <tag k="branch" v="BENU Gyógyszertár Paks Tesco"/>
    <tag k="phone" v="+3675417039"/>
    <tag k="website" v="https://www.benu.huhttps://benu.hu/gyogyszertaraink/gyogyszertarak-tolna-megye/gyogyszertarak-paks/benu-gyogyszertar-paks-tesco/"/>
    <tag k="amenity" v="pharmacy"/>
    <tag k="dispensing" v="yes"/>
    <tag k="payment:debit_cards" v="yes"/>
    <tag k="payment:cash" v="yes"/>
  </node>
  <node action="modify" id="-96" lat="46.0736491" lon="18.2280249">
    <tag k="name" v="Benu gyógyszertár"/>
    <tag k="addr:city" v="Pécs"/>
    <tag k="addr:postcode" v="7621"/>
    <tag k="addr:street" v="Citrom utca"/>
    <tag k="addr:housenumber" v="10"/>
    <tag k="branch" v="BENU Gyógyszertár Pécs Arany Kehely"/>
    <tag k="phone" v="+3672510185"/>
    <tag k="website" v="https://www.benu.huhttps://benu.hu/gyogyszertaraink/gyogyszertarak-baranya-megye/gyogyszertarak-pecs/benu-gyogyszertar-pecs-arany-kehely/"/>
    <tag k="amenity" v="pharmacy"/>
    <tag k="dispensing" v="yes"/>
    <tag k="payment:debit_cards" v="yes"/>
    <tag k="payment:cash" v="yes"/>
  </node>
  <node action="modify" id="-97" lat="47.617584" lon="18.903768">
    <tag k="name" v="Benu gyógyszertár"/>
    <tag k="addr:city" v="Pilisvörösvár"/>
    <tag k="addr:postcode" v="2085"/>
    <tag k="addr:street" v="Fő utca"/>
    <tag k="addr:housenumber" v="124"/>
    <tag k="branch" v="BENU Gyógyszertár Pilisvörösvár Sikari"/>
    <tag k="phone" v="+3626330279"/>
    <tag k="website" v="https://www.benu.huhttps://benu.hu/gyogyszertaraink/gyogyszertarak-pest-megye/gyogyszertarak-pilisvorosvar/benu-gyogyszertar-pilisvorosvar-sikari/"/>
    <tag k="amenity" v="pharmacy"/>
    <tag k="dispensing" v="yes"/>
    <tag k="payment:debit_cards" v="yes"/>
    <tag k="payment:cash" v="yes"/>
  </node>
  <node action="modify" id="-98" lat="47.584342867784" lon="18.401331677246">
    <tag k="name" v="Benu gyógyszertár"/>
    <tag k="addr:city" v="Tatabánya"/>
    <tag k="addr:postcode" v="2800"/>
    <tag k="addr:street" v="Béla király körút"/>
    <tag k="addr:housenumber" v="61"/>
    <tag k="branch" v="BENU Gyógyszertár Primula"/>
    <tag k="phone" v="+3634316181"/>
    <tag k="website" v="https://www.benu.huhttps://benu.hu/gyogyszertaraink/gyogyszertarak-komarom-esztergom-megye/gyogyszertarak-tatabanya/benu-gyogyszertar-primula/"/>
    <tag k="amenity" v="pharmacy"/>
    <tag k="dispensing" v="yes"/>
    <tag k="payment:debit_cards" v="yes"/>
    <tag k="payment:cash" v="yes"/>
  </node>
  <node action="modify" id="-99" lat="47.927106" lon="19.1349909">
    <tag k="name" v="Benu gyógyszertár"/>
    <tag k="addr:city" v="Rétság"/>
    <tag k="addr:postcode" v="2651"/>
    <tag k="addr:street" v="József Attila utca"/>
    <tag k="addr:housenumber" v="9"/>
    <tag k="branch" v="BENU Gyógyszertár Rétság Kőhárs"/>
    <tag k="phone" v="+3635550046"/>
    <tag k="website" v="https://www.benu.huhttps://benu.hu/gyogyszertaraink/gyogyszertarak-nograd-megye/gyogyszertarak-retsag/benu-gyogyszertar-retsag-kohars/"/>
    <tag k="amenity" v="pharmacy"/>
    <tag k="dispensing" v="yes"/>
    <tag k="payment:debit_cards" v="yes"/>
    <tag k="payment:cash" v="yes"/>
  </node>
  <node action="modify" id="-100" lat="48.128454" lon="19.812839">
    <tag k="name" v="Benu gyógyszertár"/>
    <tag k="addr:city" v="Salgótarján"/>
    <tag k="addr:postcode" v="3100"/>
    <tag k="addr:street" v="Beszterce tér"/>
    <tag k="addr:housenumber" v="1"/>
    <tag k="branch" v="BENU Gyógyszertár Salgótarján Besztercei"/>
    <tag k="phone" v="+3632430378"/>
    <tag k="website" v="https://www.benu.huhttps://benu.hu/gyogyszertaraink/gyogyszertarak-nograd-megye/gyogyszertarak-salgotarjan/benu-gyogyszertar-salgotarjan-besztercei/"/>
    <tag k="amenity" v="pharmacy"/>
    <tag k="dispensing" v="yes"/>
    <tag k="payment:debit_cards" v="yes"/>
    <tag k="payment:cash" v="yes"/>
  </node>
  <node action="modify" id="-101" lat="48.105611" lon="19.8052943">
    <tag k="name" v="Benu gyógyszertár"/>
    <tag k="addr:city" v="Salgótarján"/>
    <tag k="addr:postcode" v="3100"/>
    <tag k="addr:street" v="Fő tér"/>
    <tag k="addr:housenumber" v="2"/>
    <tag k="branch" v="BENU Gyógyszertár Salgótarján Kamilla"/>
    <tag k="phone" v="+3632423172"/>
    <tag k="website" v="https://www.benu.huhttps://benu.hu/gyogyszertaraink/gyogyszertarak-nograd-megye/gyogyszertarak-salgotarjan/benu-gyogyszertar-salgotarjan-kamilla/"/>
    <tag k="amenity" v="pharmacy"/>
    <tag k="dispensing" v="yes"/>
    <tag k="payment:debit_cards" v="yes"/>
    <tag k="payment:cash" v="yes"/>
  </node>
  <node action="modify" id="-102" lat="48.1035978" lon="19.8066962">
    <tag k="name" v="Benu gyógyszertár"/>
    <tag k="addr:city" v="Salgótarján"/>
    <tag k="addr:postcode" v="3100"/>
    <tag k="addr:street" v="Rákóczi út"/>
    <tag k="addr:housenumber" v="20"/>
    <tag k="branch" v="BENU Gyógyszertár Salgótarján Pécskő"/>
    <tag k="phone" v="+3632511450"/>
    <tag k="website" v="https://www.benu.huhttps://benu.hu/gyogyszertaraink/gyogyszertarak-nograd-megye/gyogyszertarak-salgotarjan/benu-gyogyszertar-salgotarjan-pecsko/"/>
    <tag k="amenity" v="pharmacy"/>
    <tag k="dispensing" v="yes"/>
    <tag k="payment:debit_cards" v="yes"/>
    <tag k="payment:cash" v="yes"/>
  </node>
  <node action="modify" id="-103" lat="48.1038551" lon="19.8021706">
    <tag k="name" v="Benu gyógyszertár"/>
    <tag k="addr:city" v="Salgótarján"/>
    <tag k="addr:postcode" v="3100"/>
    <tag k="addr:street" v="Bem József utca"/>
    <tag k="addr:housenumber" v="14-16"/>
    <tag k="branch" v="BENU Gyógyszertár Salgótarján Szent Benedek"/>
    <tag k="phone" v="+3632511510"/>
    <tag k="website" v="https://www.benu.huhttps://benu.hu/gyogyszertaraink/gyogyszertarak-nograd-megye/gyogyszertarak-salgotarjan/benu-gyogyszertar-salgotarjan-szent-benedek/"/>
    <tag k="amenity" v="pharmacy"/>
    <tag k="dispensing" v="yes"/>
    <tag k="payment:debit_cards" v="yes"/>
    <tag k="payment:cash" v="yes"/>
  </node>
  <node action="modify" id="-104" lat="47.250205" lon="16.9420499">
    <tag k="name" v="Benu gyógyszertár"/>
    <tag k="addr:city" v="Sárvár"/>
    <tag k="addr:postcode" v="9600"/>
    <tag k="addr:street" v="Alkotmány körtér"/>
    <tag k="addr:housenumber" v="4"/>
    <tag k="branch" v="BENU Gyógyszertár Sárvár Szent Antal"/>
    <tag k="phone" v="+3695320074"/>
    <tag k="website" v="https://www.benu.huhttps://benu.hu/gyogyszertaraink/gyogyszertarak-vas-megye/gyogyszertarak-sarvar/benu-gyogyszertar-sarvar-szent-antal/"/>
    <tag k="amenity" v="pharmacy"/>
    <tag k="dispensing" v="yes"/>
    <tag k="payment:debit_cards" v="yes"/>
    <tag k="payment:cash" v="yes"/>
  </node>
  <node action="modify" id="-105" lat="47.678391" lon="16.5877659">
    <tag k="name" v="Benu gyógyszertár"/>
    <tag k="addr:city" v="Sopron"/>
    <tag k="addr:postcode" v="9400"/>
    <tag k="addr:street" v="Mátyás király utca"/>
    <tag k="addr:housenumber" v="23"/>
    <tag k="branch" v="BENU Gyógyszertár Sopron Állomás"/>
    <tag k="phone" v="+3699312437"/>
    <tag k="website" v="https://www.benu.huhttps://benu.hu/gyogyszertaraink/gyogyszertarak-gyor-moson-sopron-megye/gyogyszertarak-sopron/benu-gyogyszertar-sopron-allomas/"/>
    <tag k="amenity" v="pharmacy"/>
    <tag k="dispensing" v="yes"/>
    <tag k="payment:debit_cards" v="yes"/>
    <tag k="payment:cash" v="yes"/>
  </node>
  <node action="modify" id="-106" lat="47.682406" lon="16.587445">
    <tag k="name" v="Benu gyógyszertár"/>
    <tag k="addr:city" v="Sopron"/>
    <tag k="addr:postcode" v="9400"/>
    <tag k="addr:street" v="Erzsébet utca"/>
    <tag k="addr:housenumber" v="6"/>
    <tag k="branch" v="BENU Gyógyszertár Sopron Medicina"/>
    <tag k="phone" v="+3699505500"/>
    <tag k="website" v="https://www.benu.huhttps://benu.hu/gyogyszertaraink/gyogyszertarak-gyor-moson-sopron-megye/gyogyszertarak-kapuvar/szent-katalin-gyogyszertar/"/>
    <tag k="amenity" v="pharmacy"/>
    <tag k="dispensing" v="yes"/>
    <tag k="payment:debit_cards" v="yes"/>
    <tag k="payment:cash" v="yes"/>
  </node>
  <node action="modify" id="-107" lat="47.317686700596" lon="18.909654021263">
    <tag k="name" v="Benu gyógyszertár"/>
    <tag k="addr:city" v="Százhalombatta"/>
    <tag k="addr:postcode" v="2440"/>
    <tag k="addr:street" v="Szent István tér"/>
    <tag k="addr:housenumber" v="10"/>
    <tag k="branch" v="BENU Gyógyszertár Százhalombatta Lakótelep"/>
    <tag k="phone" v="+3623354286"/>
    <tag k="website" v="https://www.benu.huhttps://benu.hu/gyogyszertaraink/gyogyszertarak-pest-megye/gyogyszertarak-szazhalombatta/benu-gyogyszertar-szazhalombatta-lakotelep/"/>
    <tag k="amenity" v="pharmacy"/>
    <tag k="dispensing" v="yes"/>
    <tag k="payment:debit_cards" v="yes"/>
    <tag k="payment:cash" v="yes"/>
  </node>
  <node action="modify" id="-108" lat="48.081336" lon="19.522153">
    <tag k="name" v="Benu gyógyszertár"/>
    <tag k="addr:city" v="Szécsény"/>
    <tag k="addr:postcode" v="3170"/>
    <tag k="addr:street" v="Király utca"/>
    <tag k="addr:housenumber" v="1"/>
    <tag k="branch" v="BENU Gyógyszertár Szécsény Király"/>
    <tag k="phone" v="+3632370144"/>
    <tag k="website" v="https://www.benu.huhttps://benu.hu/gyogyszertaraink/gyogyszertarak-nograd-megye/gyogyszertarak-szecseny/benu-gyogyszertar-szecseny-kiraly/"/>
    <tag k="amenity" v="pharmacy"/>
    <tag k="dispensing" v="yes"/>
    <tag k="payment:debit_cards" v="yes"/>
    <tag k="payment:cash" v="yes"/>
  </node>
  <node action="modify" id="-109" lat="48.0813966" lon="19.5165511">
    <tag k="name" v="Benu gyógyszertár"/>
    <tag k="addr:city" v="Szécsény"/>
    <tag k="addr:postcode" v="3170"/>
    <tag k="addr:street" v="Rákóczi út"/>
    <tag k="addr:housenumber" v="94"/>
    <tag k="branch" v="BENU Gyógyszertár Szécsény Szent Jób"/>
    <tag k="phone" v="+3632370350"/>
    <tag k="website" v="https://www.benu.huhttps://benu.hu/gyogyszertaraink/gyogyszertarak-nograd-megye/gyogyszertarak-szecseny/benu-gyogyszertar-szecseny-szent-job/"/>
    <tag k="amenity" v="pharmacy"/>
    <tag k="dispensing" v="yes"/>
    <tag k="payment:debit_cards" v="yes"/>
    <tag k="payment:cash" v="yes"/>
  </node>
  <node action="modify" id="-110" lat="46.2545357" lon="20.1393824">
    <tag k="name" v="Benu gyógyszertár"/>
    <tag k="addr:city" v="Szeged"/>
    <tag k="addr:postcode" v="6724"/>
    <tag k="addr:street" v="Londoni körút"/>
    <tag k="addr:housenumber" v="3"/>
    <tag k="branch" v="BENU Gyógyszertár Szeged Árkád"/>
    <tag k="phone" v="+3662996760"/>
    <tag k="website" v="https://www.benu.huhttps://benu.hu/gyogyszertaraink/gyogyszertarak-csongrad-megye/gyogyszertarak-szeged/benu-gyogyszertar-szeged-arkad/"/>
    <tag k="amenity" v="pharmacy"/>
    <tag k="dispensing" v="yes"/>
    <tag k="payment:debit_cards" v="yes"/>
    <tag k="payment:cash" v="yes"/>
  </node>
  <node action="modify" id="-111" lat="47.149087" lon="18.433709">
    <tag k="name" v="Benu gyógyszertár"/>
    <tag k="addr:city" v="Székesfehérvár"/>
    <tag k="addr:postcode" v="8000"/>
    <tag k="addr:street" v="Holland fasor"/>
    <tag k="addr:housenumber" v="2"/>
    <tag k="branch" v="BENU Gyógyszertár Székesfehérvár Auchan"/>
    <tag k="phone" v="+3622887922"/>
    <tag k="website" v="https://www.benu.huhttps://benu.hu/gyogyszertaraink/gyogyszertarak-fejer-megye/gyogyszertarak-szekesfehervar/benu-gyogyszertar-szekesfehervar-auchan/"/>
    <tag k="amenity" v="pharmacy"/>
    <tag k="dispensing" v="yes"/>
    <tag k="payment:debit_cards" v="yes"/>
    <tag k="payment:cash" v="yes"/>
  </node>
  <node action="modify" id="-112" lat="47.1910881" lon="18.4141122">
    <tag k="name" v="Benu gyógyszertár"/>
    <tag k="addr:city" v="Székesfehérvár"/>
    <tag k="addr:postcode" v="8000"/>
    <tag k="addr:street" v="Távirda utca"/>
    <tag k="addr:housenumber" v="8"/>
    <tag k="branch" v="BENU Gyógyszertár Székesfehérvár Országalma"/>
    <tag k="phone" v="+3622506941"/>
    <tag k="website" v="https://www.benu.huhttps://benu.hu/gyogyszertaraink/gyogyszertarak-fejer-megye/gyogyszertarak-szekesfehervar/benu-gyogyszertar-szekesfehervar-orszagalma/"/>
    <tag k="amenity" v="pharmacy"/>
    <tag k="dispensing" v="yes"/>
    <tag k="payment:debit_cards" v="yes"/>
    <tag k="payment:cash" v="yes"/>
  </node>
  <node action="modify" id="-113" lat="47.207160851808" lon="18.427608259277">
    <tag k="name" v="Benu gyógyszertár"/>
    <tag k="addr:city" v="Székesfehérvár"/>
    <tag k="addr:postcode" v="8000"/>
    <tag k="addr:street" v="Aszalvölgyi út"/>
    <tag k="addr:housenumber" v="1"/>
    <tag k="branch" v="BENU Gyógyszertár Székesfehérvár Szent Balázs"/>
    <tag k="phone" v="+3622321035"/>
    <tag k="website" v="https://www.benu.huhttps://benu.hu/gyogyszertaraink/gyogyszertarak-fejer-megye/gyogyszertarak-szekesfehervar/benu-gyogyszertar-szekesfehervar-szent-balazs/"/>
    <tag k="amenity" v="pharmacy"/>
    <tag k="dispensing" v="yes"/>
    <tag k="payment:debit_cards" v="yes"/>
    <tag k="payment:cash" v="yes"/>
  </node>
  <node action="modify" id="-114" lat="47.1893643" lon="18.4344878">
    <tag k="name" v="Benu gyógyszertár"/>
    <tag k="addr:city" v="Székesfehérvár"/>
    <tag k="addr:postcode" v="8000"/>
    <tag k="addr:street" v="Hunyadi utca"/>
    <tag k="addr:housenumber" v="34"/>
    <tag k="branch" v="BENU Gyógyszertár Székesfehérvár Szent Lukács"/>
    <tag k="phone" v="+3622507677"/>
    <tag k="website" v="https://www.benu.huhttps://benu.hu/gyogyszertaraink/gyogyszertarak-fejer-megye/gyogyszertarak-szekesfehervar/benu-gyogyszertar-szekesfehervar-szent-lukacs/"/>
    <tag k="amenity" v="pharmacy"/>
    <tag k="dispensing" v="yes"/>
    <tag k="payment:debit_cards" v="yes"/>
    <tag k="payment:cash" v="yes"/>
  </node>
  <node action="modify" id="-115" lat="46.348391" lon="18.702086">
    <tag k="name" v="Benu gyógyszertár"/>
    <tag k="addr:city" v="Szekszárd"/>
    <tag k="addr:postcode" v="7100"/>
    <tag k="addr:street" v="Széchenyi utca"/>
    <tag k="addr:housenumber" v="64"/>
    <tag k="branch" v="BENU Gyógyszertár Szekszárd Aesculap"/>
    <tag k="phone" v="+3674411734"/>
    <tag k="website" v="https://www.benu.huhttps://benu.hu/gyogyszertaraink/gyogyszertarak-tolna-megye/gyogyszertarak-szekszard/benu-gyogyszertar-szekszard-aesculap/"/>
    <tag k="amenity" v="pharmacy"/>
    <tag k="dispensing" v="yes"/>
    <tag k="payment:debit_cards" v="yes"/>
    <tag k="payment:cash" v="yes"/>
  </node>
  <node action="modify" id="-116" lat="46.3474326" lon="18.7062293">
    <tag k="name" v="Benu gyógyszertár"/>
    <tag k="addr:city" v="Szekszárd"/>
    <tag k="addr:postcode" v="7100"/>
    <tag k="addr:street" v="Tartsay Vilmos utca"/>
    <tag k="addr:housenumber" v="9"/>
    <tag k="branch" v="BENU Gyógyszertár Szekszárd Balassa"/>
    <tag k="phone" v="+3674510718"/>
    <tag k="website" v="https://www.benu.huhttps://benu.hu/gyogyszertaraink/gyogyszertarak-tolna-megye/gyogyszertarak-szekszard/benu-gyogyszertar-szekszard-balassa/"/>
    <tag k="amenity" v="pharmacy"/>
    <tag k="dispensing" v="yes"/>
    <tag k="payment:debit_cards" v="yes"/>
    <tag k="payment:cash" v="yes"/>
  </node>
  <node action="modify" id="-117" lat="47.3407229" lon="19.037464">
    <tag k="name" v="Benu gyógyszertár"/>
    <tag k="addr:city" v="Szigetszentmiklós"/>
    <tag k="addr:postcode" v="2310"/>
    <tag k="addr:street" v="Radnóti utca"/>
    <tag k="addr:housenumber" v="4"/>
    <tag k="branch" v="BENU Gyógyszertár Szigetszentmiklós"/>
    <tag k="phone" v="+3624365700"/>
    <tag k="website" v="https://www.benu.huhttps://benu.hu/gyogyszertaraink/gyogyszertarak-pest-megye/gyogyszertarak-szigetszentmiklos/benu-gyogyszertar-szigetszentmiklos-2/"/>
    <tag k="amenity" v="pharmacy"/>
    <tag k="dispensing" v="yes"/>
    <tag k="payment:debit_cards" v="yes"/>
    <tag k="payment:cash" v="yes"/>
  </node>
  <node action="modify" id="-118" lat="47.177486" lon="20.19187">
    <tag k="name" v="Benu gyógyszertár"/>
    <tag k="addr:city" v="Szolnok"/>
    <tag k="addr:postcode" v="5000"/>
    <tag k="addr:street" v="Ady Endre utca"/>
    <tag k="addr:housenumber" v="28/a"/>
    <tag k="branch" v="BENU Gyógyszertár Szolnok Pláza"/>
    <tag k="phone" v="+3656210111"/>
    <tag k="website" v="https://www.benu.huhttps://benu.hu/gyogyszertaraink/gyogyszertarak-jasz-nagykun-szolnok-megye/gyogyszertarak-szolnok/benu-gyogyszertar-szolnok-plaza/"/>
    <tag k="amenity" v="pharmacy"/>
    <tag k="dispensing" v="yes"/>
    <tag k="payment:debit_cards" v="yes"/>
    <tag k="payment:cash" v="yes"/>
  </node>
  <node action="modify" id="-119" lat="47.2316141" lon="16.6208049">
    <tag k="name" v="Benu gyógyszertár"/>
    <tag k="addr:city" v="Szombathely"/>
    <tag k="addr:postcode" v="9700"/>
    <tag k="addr:street" v="Fő tér"/>
    <tag k="addr:housenumber" v="12"/>
    <tag k="branch" v="BENU Gyógyszertár Szombathely Fő tér"/>
    <tag k="phone" v="+3694312466"/>
    <tag k="website" v="https://www.benu.huhttps://benu.hu/gyogyszertaraink/gyogyszertarak-vas-megye/gyogyszertarak-szombathely/benu-gyogyszertar-szombathely-fo-ter/"/>
    <tag k="amenity" v="pharmacy"/>
    <tag k="dispensing" v="yes"/>
    <tag k="payment:debit_cards" v="yes"/>
    <tag k="payment:cash" v="yes"/>
  </node>
  <node action="modify" id="-120" lat="47.2167315" lon="16.6324048">
    <tag k="name" v="Benu gyógyszertár"/>
    <tag k="addr:city" v="Szombathely"/>
    <tag k="addr:postcode" v="9700"/>
    <tag k="addr:street" v="Újvilág utca"/>
    <tag k="addr:housenumber" v="1"/>
    <tag k="branch" v="BENU Gyógyszertár Szombathely Interspar"/>
    <tag k="phone" v="+3694313300"/>
    <tag k="website" v="https://www.benu.huhttps://benu.hu/gyogyszertaraink/gyogyszertarak-vas-megye/gyogyszertarak-szombathely/benu-gyogyszertar-szombathely-interspar/"/>
    <tag k="amenity" v="pharmacy"/>
    <tag k="dispensing" v="yes"/>
    <tag k="payment:debit_cards" v="yes"/>
    <tag k="payment:cash" v="yes"/>
  </node>
  <node action="modify" id="-121" lat="47.231212" lon="16.624069">
    <tag k="name" v="Benu gyógyszertár"/>
    <tag k="addr:city" v="Szombathely"/>
    <tag k="addr:postcode" v="9700"/>
    <tag k="addr:street" v="Fő tér"/>
    <tag k="addr:housenumber" v="31"/>
    <tag k="branch" v="BENU Gyógyszertár Szombathely Kígyó"/>
    <tag k="phone" v="+3694312583"/>
    <tag k="website" v="https://www.benu.huhttps://benu.hu/gyogyszertaraink/gyogyszertarak-vas-megye/gyogyszertarak-szombathely/benu-gyogyszertar-szombathely-kigyo/"/>
    <tag k="amenity" v="pharmacy"/>
    <tag k="dispensing" v="yes"/>
    <tag k="payment:debit_cards" v="yes"/>
    <tag k="payment:cash" v="yes"/>
  </node>
  <node action="modify" id="-122" lat="47.252889" lon="16.62053">
    <tag k="name" v="Benu gyógyszertár"/>
    <tag k="addr:city" v="Szombathely"/>
    <tag k="addr:postcode" v="9700"/>
    <tag k="addr:street" v="Stromfeld Aurél utca"/>
    <tag k="addr:housenumber" v="15/a"/>
    <tag k="branch" v="BENU Gyógyszertár Szombathely Stromfeld"/>
    <tag k="phone" v="+3694801230"/>
    <tag k="website" v="https://www.benu.huhttps://benu.hu/gyogyszertaraink/gyogyszertarak-vas-megye/gyogyszertarak-szombathely/benu-gyogyszertar-szombathely-stromfeld/"/>
    <tag k="amenity" v="pharmacy"/>
    <tag k="dispensing" v="yes"/>
    <tag k="payment:debit_cards" v="yes"/>
    <tag k="payment:cash" v="yes"/>
  </node>
  <node action="modify" id="-123" lat="47.616948" lon="20.758129">
    <tag k="name" v="Benu gyógyszertár"/>
    <tag k="addr:city" v="Tiszafüred"/>
    <tag k="addr:postcode" v="5350"/>
    <tag k="addr:street" v="Fő út"/>
    <tag k="addr:housenumber" v="27"/>
    <tag k="branch" v="BENU Gyógyszertár Tiszafüred Reménység"/>
    <tag k="phone" v="+3659510180"/>
    <tag k="website" v="https://www.benu.huhttps://benu.hu/gyogyszertaraink/gyogyszertarak-jasz-nagykun-szolnok-megye/gyogyszertarak-tiszafured/benu-gyogyszertar-tiszafured-remenyseg/"/>
    <tag k="amenity" v="pharmacy"/>
    <tag k="dispensing" v="yes"/>
    <tag k="payment:debit_cards" v="yes"/>
    <tag k="payment:cash" v="yes"/>
  </node>
  <node action="modify" id="-124" lat="47.7825189" lon="19.129035">
    <tag k="name" v="Benu gyógyszertár"/>
    <tag k="addr:city" v="Vác"/>
    <tag k="addr:postcode" v="2600"/>
    <tag k="addr:street" v="Zrínyi Miklós utca"/>
    <tag k="addr:housenumber" v="9"/>
    <tag k="branch" v="BENU Gyógyszertár Vác Szent Rókus"/>
    <tag k="phone" v="+3627501386"/>
    <tag k="website" v="https://www.benu.huhttps://benu.hu/gyogyszertaraink/gyogyszertarak-pest-megye/gyogyszertarak-vac/benu-gyogyszertar-vac-szent-rokus/"/>
    <tag k="amenity" v="pharmacy"/>
    <tag k="dispensing" v="yes"/>
    <tag k="payment:debit_cards" v="yes"/>
    <tag k="payment:cash" v="yes"/>
  </node>
  <node action="modify" id="-125" lat="47.0930817" lon="17.9112898">
    <tag k="name" v="Benu gyógyszertár"/>
    <tag k="addr:city" v="Veszprém"/>
    <tag k="addr:postcode" v="8200"/>
    <tag k="addr:street" v="Kossuth Lajos utca"/>
    <tag k="addr:housenumber" v="8"/>
    <tag k="branch" v="BENU Gyógyszertár Veszprém Bástya"/>
    <tag k="phone" v="+3688583053"/>
    <tag k="website" v="https://www.benu.huhttps://benu.hu/gyogyszertaraink/gyogyszertarak-veszprem-megye/veszprem/benu-gyogyszertar-veszprem-bastya/"/>
    <tag k="amenity" v="pharmacy"/>
    <tag k="dispensing" v="yes"/>
    <tag k="payment:debit_cards" v="yes"/>
    <tag k="payment:cash" v="yes"/>
  </node>
  <node action="modify" id="-126" lat="47.0928927" lon="17.9272929">
    <tag k="name" v="Benu gyógyszertár"/>
    <tag k="addr:city" v="Veszprém"/>
    <tag k="addr:postcode" v="8200"/>
    <tag k="addr:street" v="Ady Endre utca"/>
    <tag k="addr:housenumber" v="71/b"/>
    <tag k="branch" v="BENU Gyógyszertár Veszprém Cholnoky"/>
    <tag k="phone" v="+3688421474"/>
    <tag k="website" v="https://www.benu.huhttps://benu.hu/gyogyszertaraink/gyogyszertarak-veszprem-megye/veszprem/benu-gyogyszertar-veszprem-cholnoky/"/>
    <tag k="amenity" v="pharmacy"/>
    <tag k="dispensing" v="yes"/>
    <tag k="payment:debit_cards" v="yes"/>
    <tag k="payment:cash" v="yes"/>
  </node>
  <node action="modify" id="-127" lat="46.8451697" lon="16.8463571">
    <tag k="name" v="Benu gyógyszertár"/>
    <tag k="addr:city" v="Zalaegerszeg"/>
    <tag k="addr:postcode" v="8900"/>
    <tag k="addr:street" v="Széchenyi tér"/>
    <tag k="addr:housenumber" v="2"/>
    <tag k="branch" v="BENU Gyógyszertár Zalaegerszeg Belváros"/>
    <tag k="phone" v="+3692511610"/>
    <tag k="website" v="https://www.benu.huhttps://benu.hu/gyogyszertaraink/gyogyszertarak-zala-megye/gyogyszertarak-zalaegerszeg/benu-gyogyszertar-zalaegerszeg-belvaros/"/>
    <tag k="amenity" v="pharmacy"/>
    <tag k="dispensing" v="yes"/>
    <tag k="payment:debit_cards" v="yes"/>
    <tag k="payment:cash" v="yes"/>
  </node>
  <node action="modify" id="-128" lat="46.846893" lon="16.833115">
    <tag k="name" v="Benu gyógyszertár"/>
    <tag k="addr:city" v="Zalaegerszeg"/>
    <tag k="addr:postcode" v="8900"/>
    <tag k="addr:street" v="Ola utca"/>
    <tag k="addr:housenumber" v="1-7"/>
    <tag k="branch" v="BENU Gyógyszertár Zalaegerszeg Interspar"/>
    <tag k="phone" v="+3692511519"/>
    <tag k="website" v="https://www.benu.huhttps://benu.hu/gyogyszertaraink/gyogyszertarak-zala-megye/gyogyszertarak-zalaegerszeg/benu-gyogyszertar-zalaegerszeg-interspar/"/>
    <tag k="amenity" v="pharmacy"/>
    <tag k="dispensing" v="yes"/>
    <tag k="payment:debit_cards" v="yes"/>
    <tag k="payment:cash" v="yes"/>
  </node>
  <node action="modify" id="-129" lat="46.8399349" lon="16.845547">
    <tag k="name" v="Benu gyógyszertár"/>
    <tag k="addr:city" v="Zalaegerszeg"/>
    <tag k="addr:postcode" v="8900"/>
    <tag k="addr:street" v="Kossuth utca"/>
    <tag k="addr:housenumber" v="29-33"/>
    <tag k="branch" v="BENU Gyógyszertár Zalaegerszeg Kabay"/>
    <tag k="phone" v="+3692312389"/>
    <tag k="website" v="https://www.benu.huhttps://benu.hu/gyogyszertaraink/gyogyszertarak-zala-megye/gyogyszertarak-zalaegerszeg/benu-gyogyszertar-zalaegerszeg-kabay/"/>
    <tag k="amenity" v="pharmacy"/>
    <tag k="dispensing" v="yes"/>
    <tag k="payment:debit_cards" v="yes"/>
    <tag k="payment:cash" v="yes"/>
  </node>
  <node action="modify" id="-130" lat="46.830197" lon="16.834841">
    <tag k="name" v="Benu gyógyszertár"/>
    <tag k="addr:city" v="Zalaegerszeg"/>
    <tag k="addr:postcode" v="8900"/>
    <tag k="addr:street" v="Köztársaság utca"/>
    <tag k="addr:housenumber" v="55"/>
    <tag k="branch" v="BENU Gyógyszertár Zalaegerszeg Kertvárosi"/>
    <tag k="phone" v="+3692510113"/>
    <tag k="website" v="https://www.benu.huhttps://benu.hu/gyogyszertaraink/gyogyszertarak-zala-megye/gyogyszertarak-zalaegerszeg/benu-gyogyszertar-zalaegerszeg-kertvarosi/"/>
    <tag k="amenity" v="pharmacy"/>
    <tag k="dispensing" v="yes"/>
    <tag k="payment:debit_cards" v="yes"/>
    <tag k="payment:cash" v="yes"/>
  </node>
  <node action="modify" id="-131" lat="46.843282" lon="16.848781">
    <tag k="name" v="Benu gyógyszertár"/>
    <tag k="addr:city" v="Zalaegerszeg"/>
    <tag k="addr:postcode" v="8900"/>
    <tag k="addr:street" v="Berzsenyi utca"/>
    <tag k="addr:housenumber" v="9/b"/>
    <tag k="branch" v="BENU Gyógyszertár Zalaegerszeg Kígyó"/>
    <tag k="phone" v="+3692510086"/>
    <tag k="website" v="https://www.benu.huhttps://benu.hu/gyogyszertaraink/gyogyszertarak-zala-megye/gyogyszertarak-zalaegerszeg/benu-gyogyszertar-zalaegerszeg-kigyo/"/>
    <tag k="amenity" v="pharmacy"/>
    <tag k="dispensing" v="yes"/>
    <tag k="payment:debit_cards" v="yes"/>
    <tag k="payment:cash" v="yes"/>
  </node>
  <node action="modify" id="-132" lat="46.8407337" lon="16.8317401">
    <tag k="name" v="Benu gyógyszertár"/>
    <tag k="addr:city" v="Zalaegerszeg"/>
    <tag k="addr:postcode" v="8900"/>
    <tag k="addr:street" v="Landorhegyi utca"/>
    <tag k="addr:housenumber" v="4"/>
    <tag k="branch" v="BENU Gyógyszertár Zalaegerszeg Platán"/>
    <tag k="phone" v="+3692312391"/>
    <tag k="website" v="https://www.benu.huhttps://benu.hu/gyogyszertaraink/gyogyszertarak-zala-megye/gyogyszertarak-zalaegerszeg/benu-gyogyszertar-zalaegerszeg-platan/"/>
    <tag k="amenity" v="pharmacy"/>
    <tag k="dispensing" v="yes"/>
    <tag k="payment:debit_cards" v="yes"/>
    <tag k="payment:cash" v="yes"/>
  </node>
  <node action="modify" id="-133" lat="46.8464489" lon="16.5862444">
    <tag k="name" v="Benu gyógyszertár"/>
    <tag k="addr:city" v="Zalalövő"/>
    <tag k="addr:postcode" v="8999"/>
    <tag k="addr:street" v="Kossuth utca"/>
    <tag k="addr:housenumber" v="2/a"/>
    <tag k="branch" v="BENU Gyógyszertár Zalalövő Borostyánkő"/>
    <tag k="phone" v="+3692571041"/>
    <tag k="website" v="https://www.benu.huhttps://benu.hu/gyogyszertaraink/gyogyszertarak-zala-megye/gyogyszertarak-zalalovo/benu-gyogyszertar-zalalovo-borostyanko/"/>
    <tag k="amenity" v="pharmacy"/>
    <tag k="dispensing" v="yes"/>
    <tag k="payment:debit_cards" v="yes"/>
    <tag k="payment:cash" v="yes"/>
  </node>
  <node action="modify" id="-134" lat="46.9455734" lon="17.0787337">
    <tag k="name" v="Benu gyógyszertár"/>
    <tag k="addr:city" v="Zalaszentgrót"/>
    <tag k="addr:postcode" v="8790"/>
    <tag k="addr:street" v="Dózsa utca"/>
    <tag k="addr:housenumber" v="9"/>
    <tag k="branch" v="BENU Gyógyszertár Zalaszentgrót Kristály"/>
    <tag k="phone" v="+3683360158"/>
    <tag k="website" v="https://www.benu.huhttps://benu.hu/gyogyszertaraink/gyogyszertarak-zala-megye/gyogyszertarak-zalaszentgrot/benu-gyogyszertar-zalaszentgrot-kristaly/"/>
    <tag k="amenity" v="pharmacy"/>
    <tag k="dispensing" v="yes"/>
    <tag k="payment:debit_cards" v="yes"/>
    <tag k="payment:cash" v="yes"/>
  </node>
  <node action="modify" id="-135" lat="47.687512" lon="17.632555">
    <tag k="name" v="Benu gyógyszertár"/>
    <tag k="addr:city" v="Győr"/>
    <tag k="addr:postcode" v="9021"/>
    <tag k="addr:street" v="Baross Gábor út"/>
    <tag k="addr:housenumber" v="4"/>
    <tag k="phone" v="+3696517527"/>
    <tag k="website" v="https://www.benu.huhttps://benu.hu/gyogyszertaraink/gyogyszertarak-gyor-moson-sopron-megye/gyogyszertarak-gyor/benu-varosi-gyogyszertar-gyor/"/>
    <tag k="amenity" v="pharmacy"/>
    <tag k="dispensing" v="yes"/>
    <tag k="payment:debit_cards" v="yes"/>
    <tag k="payment:cash" v="yes"/>
  </node>
  <node action="modify" id="-136" lat="47.4647353" lon="19.0433947">
    <tag k="name" v="Benu gyógyszertár"/>
    <tag k="addr:city" v="Budapest"/>
    <tag k="addr:postcode" v="1117"/>
    <tag k="addr:street" v="Fehérvári út"/>
    <tag k="addr:housenumber" v="82"/>
    <tag k="phone" v="+3612041187"/>
    <tag k="website" v="https://www.benu.huhttps://benu.hu/gyogyszertaraink/gyogyszertarak-budapest/gyogyszertarak-budapest-xi-kerulet/budai-aranymerleg-gyogyszertar/"/>
    <tag k="amenity" v="pharmacy"/>
    <tag k="dispensing" v="yes"/>
    <tag k="payment:debit_cards" v="yes"/>
    <tag k="payment:cash" v="yes"/>
  </node>
  <node action="modify" id="-137" lat="47.4775353" lon="19.0460116">
    <tag k="name" v="Benu gyógyszertár"/>
    <tag k="addr:city" v="Budapest"/>
    <tag k="addr:postcode" v="1114"/>
    <tag k="addr:street" v="Bartók Béla út"/>
    <tag k="addr:housenumber" v="51"/>
    <tag k="phone" v="+3614665569"/>
    <tag k="website" v="https://www.benu.huhttps://benu.hu/gyogyszertaraink/gyogyszertarak-budapest/gyogyszertarak-budapest-xi-kerulet/budai-szent-klara-gyogyszertar/"/>
    <tag k="amenity" v="pharmacy"/>
    <tag k="dispensing" v="yes"/>
    <tag k="payment:debit_cards" v="yes"/>
    <tag k="payment:cash" v="yes"/>
  </node>
  <node action="modify" id="-138" lat="46.3839367" lon="18.143432">
    <tag k="name" v="Benu gyógyszertár"/>
    <tag k="addr:city" v="Dombóvár"/>
    <tag k="addr:postcode" v="7200"/>
    <tag k="addr:street" v="Kórház utca"/>
    <tag k="addr:housenumber" v="74"/>
    <tag k="phone" v="+3674465216"/>
    <tag k="website" v="https://www.benu.huhttps://benu.hu/gyogyszertaraink/gyogyszertarak-tolna-megye/gyogyszertarak-dombovar/calendula-gyogyszertar/"/>
    <tag k="amenity" v="pharmacy"/>
    <tag k="dispensing" v="yes"/>
    <tag k="payment:debit_cards" v="yes"/>
    <tag k="payment:cash" v="yes"/>
  </node>
  <node action="modify" id="-139" lat="46.831732" lon="17.900797600000033">
    <tag k="name" v="Benu gyógyszertár"/>
    <tag k="addr:city" v="Kőröshegy"/>
    <tag k="addr:postcode" v="8617"/>
    <tag k="addr:street" v="Petőfi utca"/>
    <tag k="addr:housenumber" v="102"/>
    <tag k="phone" v="+3684540020"/>
    <tag k="website" v="https://www.benu.hu"/>
    <tag k="amenity" v="pharmacy"/>
    <tag k="dispensing" v="yes"/>
    <tag k="payment:debit_cards" v="yes"/>
    <tag k="payment:cash" v="yes"/>
  </node>
  <node action="modify" id="-140" lat="47.6927991" lon="17.660468">
    <tag k="name" v="Benu gyógyszertár"/>
    <tag k="addr:city" v="Győr"/>
    <tag k="addr:postcode" v="9027"/>
    <tag k="addr:street" v="Nagysándor József utca"/>
    <tag k="addr:housenumber" v="30"/>
    <tag k="phone" v="+3696523580"/>
    <tag k="website" v="https://www.benu.huhttps://benu.hu/gyogyszertaraink/gyogyszertarak-gyor-moson-sopron-megye/gyogyszertarak-gyor/cedrus-gyogyszertar/"/>
    <tag k="amenity" v="pharmacy"/>
    <tag k="dispensing" v="yes"/>
    <tag k="payment:debit_cards" v="yes"/>
    <tag k="payment:cash" v="yes"/>
  </node>
  <node action="modify" id="-141" lat="47.483749" lon="19.238541">
    <tag k="name" v="Benu gyógyszertár"/>
    <tag k="addr:city" v="Budapest"/>
    <tag k="addr:postcode" v="1173"/>
    <tag k="addr:street" v="Pesti út"/>
    <tag k="addr:housenumber" v="34"/>
    <tag k="phone" v="+3617885414"/>
    <tag k="website" v="https://www.benu.huhttps://benu.hu/gyogyszertaraink/gyogyszertarak-budapest/gyogyszertarak-budapest-xvii-kerulet/center-patika/"/>
    <tag k="amenity" v="pharmacy"/>
    <tag k="dispensing" v="yes"/>
    <tag k="payment:debit_cards" v="yes"/>
    <tag k="payment:cash" v="yes"/>
  </node>
  <node action="modify" id="-142" lat="48.1632546" lon="21.197037">
    <tag k="name" v="Benu gyógyszertár"/>
    <tag k="addr:city" v="Szerencs"/>
    <tag k="addr:postcode" v="3900"/>
    <tag k="addr:street" v="Rákóczi út"/>
    <tag k="addr:housenumber" v="75"/>
    <tag k="phone" v="+3647362054"/>
    <tag k="website" v="https://www.benu.huhttps://benu.hu/gyogyszertaraink/gyogyszertarak-borsod-abauj-zemplen-megye/szerencs/centrum-gyogyszertar/"/>
    <tag k="amenity" v="pharmacy"/>
    <tag k="dispensing" v="yes"/>
    <tag k="payment:debit_cards" v="yes"/>
    <tag k="payment:cash" v="yes"/>
  </node>
  <node action="modify" id="-143" lat="47.0836829" lon="17.9262164">
    <tag k="name" v="Benu gyógyszertár"/>
    <tag k="addr:city" v="Veszprém"/>
    <tag k="addr:postcode" v="8200"/>
    <tag k="addr:street" v="Dornyai Béla utca"/>
    <tag k="addr:housenumber" v="4"/>
    <tag k="phone" v="+3688561472"/>
    <tag k="website" v="https://www.benu.huhttps://benu.hu/gyogyszertaraink/gyogyszertarak-veszprem-megye/veszprem/ciklamen-gyogyszertar/"/>
    <tag k="amenity" v="pharmacy"/>
    <tag k="dispensing" v="yes"/>
    <tag k="payment:debit_cards" v="yes"/>
    <tag k="payment:cash" v="yes"/>
  </node>
  <node action="modify" id="-144" lat="48.0997285" lon="20.7809462">
    <tag k="name" v="Benu gyógyszertár"/>
    <tag k="addr:city" v="Miskolc"/>
    <tag k="addr:postcode" v="3530"/>
    <tag k="addr:street" v="Mésztelep utca"/>
    <tag k="addr:housenumber" v="1"/>
    <tag k="phone" v="+3646504276"/>
    <tag k="website" v="https://www.benu.huhttps://benu.hu/gyogyszertaraink/gyogyszertarak-borsod-abauj-zemplen-megye/gyogyszertarak-miskolc/corso-gyogyszertar/"/>
    <tag k="amenity" v="pharmacy"/>
    <tag k="dispensing" v="yes"/>
    <tag k="payment:debit_cards" v="yes"/>
    <tag k="payment:cash" v="yes"/>
  </node>
  <node action="modify" id="-145" lat="47.4393197" lon="19.138779">
    <tag k="name" v="Benu gyógyszertár"/>
    <tag k="addr:city" v="Budapest"/>
    <tag k="addr:postcode" v="1194"/>
    <tag k="addr:street" v="Csengő utca"/>
    <tag k="addr:housenumber" v="3"/>
    <tag k="phone" v="+3612803129"/>
    <tag k="website" v="https://www.benu.huhttps://benu.hu/gyogyszertaraink/gyogyszertarak-budapest/gyogyszertarak-budapest-xix-kerulet/csengo-korona-gyogyszertar/"/>
    <tag k="amenity" v="pharmacy"/>
    <tag k="dispensing" v="yes"/>
    <tag k="payment:debit_cards" v="yes"/>
    <tag k="payment:cash" v="yes"/>
  </node>
  <node action="modify" id="-146" lat="46.6341011" lon="18.28108629999997">
    <tag k="name" v="Benu gyógyszertár"/>
    <tag k="addr:city" v="Tamási"/>
    <tag k="addr:postcode" v="7090"/>
    <tag k="addr:street" v="Szabadság utca"/>
    <tag k="addr:housenumber" v="56"/>
    <tag k="website" v="https://www.benu.hu"/>
    <tag k="amenity" v="pharmacy"/>
    <tag k="dispensing" v="yes"/>
    <tag k="payment:debit_cards" v="yes"/>
    <tag k="payment:cash" v="yes"/>
  </node>
  <node action="modify" id="-147" lat="48.1099607" lon="20.7746866">
    <tag k="name" v="Benu gyógyszertár"/>
    <tag k="addr:city" v="Miskolc"/>
    <tag k="addr:postcode" v="3525"/>
    <tag k="addr:street" v="Árpád utca"/>
    <tag k="addr:housenumber" v="25"/>
    <tag k="phone" v="+3646532231"/>
    <tag k="website" v="https://www.benu.huhttps://benu.hu/gyogyszertaraink/gyogyszertarak-borsod-abauj-zemplen-megye/gyogyszertarak-miskolc/diosgyori-gyogyszertar/"/>
    <tag k="amenity" v="pharmacy"/>
    <tag k="dispensing" v="yes"/>
    <tag k="payment:debit_cards" v="yes"/>
    <tag k="payment:cash" v="yes"/>
  </node>
  <node action="modify" id="-148" lat="47.9691368" lon="20.9846965">
    <tag k="name" v="Benu gyógyszertár"/>
    <tag k="addr:city" v="Girincs"/>
    <tag k="addr:postcode" v="3578"/>
    <tag k="addr:street" v="Sport tér"/>
    <tag k="addr:housenumber" v="1"/>
    <tag k="phone" v="+3649355909"/>
    <tag k="website" v="https://www.benu.huhttps://benu.hu/gyogyszertaraink/gyogyszertarak-borsod-abauj-zemplen-megye/gyogyszertarak-girincs/dolores-gyogyszertar/"/>
    <tag k="amenity" v="pharmacy"/>
    <tag k="dispensing" v="yes"/>
    <tag k="payment:debit_cards" v="yes"/>
    <tag k="payment:cash" v="yes"/>
  </node>
  <node action="modify" id="-149" lat="47.4984852" lon="19.048628">
    <tag k="name" v="Benu gyógyszertár"/>
    <tag k="addr:city" v="Budapest"/>
    <tag k="addr:postcode" v="1051"/>
    <tag k="addr:street" v="Dorottya utca"/>
    <tag k="addr:housenumber" v="13"/>
    <tag k="phone" v="+3613173696"/>
    <tag k="website" v="https://www.benu.huhttps://benu.hu/gyogyszertaraink/gyogyszertarak-budapest/gyogyszertarak-budapest-v-kerulet/dorottya-gyogyszertar/"/>
    <tag k="amenity" v="pharmacy"/>
    <tag k="dispensing" v="yes"/>
    <tag k="payment:debit_cards" v="yes"/>
    <tag k="payment:cash" v="yes"/>
  </node>
  <node action="modify" id="-150" lat="46.2770906" lon="20.1681877">
    <tag k="name" v="Benu gyógyszertár"/>
    <tag k="addr:city" v="Szeged"/>
    <tag k="addr:postcode" v="6727"/>
    <tag k="addr:street" v="Algyői út"/>
    <tag k="addr:housenumber" v="1"/>
    <tag k="phone" v="+3662481787"/>
    <tag k="website" v="https://www.benu.huhttps://benu.hu/gyogyszertaraink/gyogyszertarak-csongrad-megye/gyogyszertarak-szeged/dr-kaiser-gyogyszertar/"/>
    <tag k="amenity" v="pharmacy"/>
    <tag k="dispensing" v="yes"/>
    <tag k="payment:debit_cards" v="yes"/>
    <tag k="payment:cash" v="yes"/>
  </node>
  <node action="modify" id="-151" lat="47.7849067" lon="19.9308429">
    <tag k="name" v="Benu gyógyszertár"/>
    <tag k="addr:city" v="Gyöngyös"/>
    <tag k="addr:postcode" v="3200"/>
    <tag k="addr:street" v="Kossuth Lajos utca"/>
    <tag k="addr:housenumber" v="36"/>
    <tag k="phone" v="+3637300707"/>
    <tag k="website" v="https://www.benu.huhttps://benu.hu/gyogyszertaraink/gyogyszertarak-heves-megye/gyogyszertarak-gyongyos/erzsebet-gyogyszertar/"/>
    <tag k="amenity" v="pharmacy"/>
    <tag k="dispensing" v="yes"/>
    <tag k="payment:debit_cards" v="yes"/>
    <tag k="payment:cash" v="yes"/>
  </node>
  <node action="modify" id="-152" lat="46.633825" lon="18.283695">
    <tag k="name" v="Benu gyógyszertár"/>
    <tag k="addr:city" v="Tamási"/>
    <tag k="addr:postcode" v="7090"/>
    <tag k="addr:street" v="Móricz Zsigmond lakótelep"/>
    <tag k="addr:housenumber" v="8"/>
    <tag k="website" v="https://www.benu.hu"/>
    <tag k="amenity" v="pharmacy"/>
    <tag k="dispensing" v="yes"/>
    <tag k="payment:debit_cards" v="yes"/>
    <tag k="payment:cash" v="yes"/>
  </node>
  <node action="modify" id="-153" lat="48.2198819" lon="22.078669">
    <tag k="name" v="Benu gyógyszertár"/>
    <tag k="addr:city" v="Kisvárda"/>
    <tag k="addr:postcode" v="4600"/>
    <tag k="addr:street" v="Kölcsei utca"/>
    <tag k="addr:housenumber" v="5"/>
    <tag k="phone" v="+3645500462"/>
    <tag k="website" v="https://www.benu.huhttps://benu.hu/gyogyszertaraink/gyogyszertarak-szabolcs-szatmar-bereg-megye/gyogyszertarak-kisvarda/fagyongy-gyogyszertar-kisvarda/"/>
    <tag k="amenity" v="pharmacy"/>
    <tag k="dispensing" v="yes"/>
    <tag k="payment:debit_cards" v="yes"/>
    <tag k="payment:cash" v="yes"/>
  </node>
  <node action="modify" id="-154" lat="47.238694" lon="16.605572">
    <tag k="name" v="Benu gyógyszertár"/>
    <tag k="addr:city" v="Szombathely"/>
    <tag k="addr:postcode" v="9700"/>
    <tag k="addr:street" v="Szűrcsapó utca"/>
    <tag k="addr:housenumber" v="23"/>
    <tag k="phone" v="+3694311383"/>
    <tag k="website" v="https://www.benu.huhttps://benu.hu/gyogyszertaraink/gyogyszertarak-vas-megye/gyogyszertarak-szombathely/fagyongy-gyogyszertar-szombathely/"/>
    <tag k="amenity" v="pharmacy"/>
    <tag k="dispensing" v="yes"/>
    <tag k="payment:debit_cards" v="yes"/>
    <tag k="payment:cash" v="yes"/>
  </node>
  <node action="modify" id="-155" lat="47.285144" lon="19.547951">
    <tag k="name" v="Benu gyógyszertár"/>
    <tag k="addr:city" v="Pilis"/>
    <tag k="addr:postcode" v="2721"/>
    <tag k="addr:street" v="Kossuth Lajos út"/>
    <tag k="addr:housenumber" v="53"/>
    <tag k="phone" v="+3629498107"/>
    <tag k="website" v="https://www.benu.huhttps://benu.hu/gyogyszertaraink/gyogyszertarak-pest-megye/gyogyszertarak-pilis/family-gyogyszertar/"/>
    <tag k="amenity" v="pharmacy"/>
    <tag k="dispensing" v="yes"/>
    <tag k="payment:debit_cards" v="yes"/>
    <tag k="payment:cash" v="yes"/>
  </node>
  <node action="modify" id="-156" lat="47.9546365" lon="22.3241582">
    <tag k="name" v="Benu gyógyszertár"/>
    <tag k="addr:city" v="Mátészalka"/>
    <tag k="addr:postcode" v="4700"/>
    <tag k="addr:street" v="Bajcsy út"/>
    <tag k="addr:housenumber" v="25-27"/>
    <tag k="phone" v="+3644500032"/>
    <tag k="website" v="https://www.benu.huhttps://benu.hu/gyogyszertaraink/gyogyszertarak-szabolcs-szatmar-bereg-megye/gyogyszertarak-mateszalka/fecske-patika/"/>
    <tag k="amenity" v="pharmacy"/>
    <tag k="dispensing" v="yes"/>
    <tag k="payment:debit_cards" v="yes"/>
    <tag k="payment:cash" v="yes"/>
  </node>
  <node action="modify" id="-157" lat="47.781717" lon="19.132383">
    <tag k="name" v="Benu gyógyszertár"/>
    <tag k="addr:city" v="Vác"/>
    <tag k="addr:postcode" v="2600"/>
    <tag k="addr:street" v="Széchenyi utca"/>
    <tag k="addr:housenumber" v="37"/>
    <tag k="phone" v="+3627312338"/>
    <tag k="website" v="https://www.benu.huhttps://benu.hu/gyogyszertaraink/gyogyszertarak-pest-megye/gyogyszertarak-vac/fekete-kigyo-gyogyszertar/"/>
    <tag k="amenity" v="pharmacy"/>
    <tag k="dispensing" v="yes"/>
    <tag k="payment:debit_cards" v="yes"/>
    <tag k="payment:cash" v="yes"/>
  </node>
  <node action="modify" id="-158" lat="46.721905" lon="17.009941">
    <tag k="name" v="Benu gyógyszertár"/>
    <tag k="addr:city" v="Pacsa"/>
    <tag k="addr:postcode" v="8761"/>
    <tag k="addr:street" v="Szent István tér"/>
    <tag k="addr:housenumber" v="7"/>
    <tag k="phone" v="+3692368012"/>
    <tag k="website" v="https://www.benu.huhttps://benu.hu/gyogyszertaraink/gyogyszertarak-zala-megye/gyogyszertarak-pacsa/fekete-sas-gyogyszertar/"/>
    <tag k="amenity" v="pharmacy"/>
    <tag k="dispensing" v="yes"/>
    <tag k="payment:debit_cards" v="yes"/>
    <tag k="payment:cash" v="yes"/>
  </node>
  <node action="modify" id="-159" lat="47.1756487" lon="19.7871064">
    <tag k="name" v="Benu gyógyszertár"/>
    <tag k="addr:city" v="Cegléd"/>
    <tag k="addr:postcode" v="2700"/>
    <tag k="addr:street" v="Bajcsy-Zsilinszky tér"/>
    <tag k="addr:housenumber" v="3/a"/>
    <tag k="phone" v="+3653500785"/>
    <tag k="website" v="https://www.benu.huhttps://benu.hu/gyogyszertaraink/gyogyszertarak-pest-megye/gyogyszertarak-cegled/felszegi-gyogyszertar/"/>
    <tag k="amenity" v="pharmacy"/>
    <tag k="dispensing" v="yes"/>
    <tag k="payment:debit_cards" v="yes"/>
    <tag k="payment:cash" v="yes"/>
  </node>
  <node action="modify" id="-160" lat="47.4895166" lon="19.0685109">
    <tag k="name" v="Benu gyógyszertár"/>
    <tag k="addr:city" v="Budapest"/>
    <tag k="addr:postcode" v="1085"/>
    <tag k="addr:street" v="Baross út"/>
    <tag k="addr:housenumber" v="44"/>
    <tag k="phone" v="+3612674975"/>
    <tag k="website" v="https://www.benu.hu"/>
    <tag k="amenity" v="pharmacy"/>
    <tag k="dispensing" v="yes"/>
    <tag k="payment:debit_cards" v="yes"/>
    <tag k="payment:cash" v="yes"/>
  </node>
  <node action="modify" id="-161" lat="46.9055374" lon="18.0502881">
    <tag k="name" v="Benu gyógyszertár"/>
    <tag k="addr:city" v="Siófok"/>
    <tag k="addr:postcode" v="8600"/>
    <tag k="addr:street" v="Fő tér"/>
    <tag k="addr:housenumber" v="10/b"/>
    <tag k="phone" v="+3684318595"/>
    <tag k="website" v="https://www.benu.huhttps://benu.hu/gyogyszertaraink/gyogyszertarak-somogy-megye/siofok/fonix-gyogyszertar/"/>
    <tag k="amenity" v="pharmacy"/>
    <tag k="dispensing" v="yes"/>
    <tag k="payment:debit_cards" v="yes"/>
    <tag k="payment:cash" v="yes"/>
  </node>
  <node action="modify" id="-162" lat="47.902441" lon="20.944826">
    <tag k="name" v="Benu gyógyszertár"/>
    <tag k="addr:city" v="Hejőbába"/>
    <tag k="addr:postcode" v="3593"/>
    <tag k="addr:street" v="Fő utca"/>
    <tag k="addr:housenumber" v="29"/>
    <tag k="phone" v="+3649458804"/>
    <tag k="website" v="https://www.benu.huhttps://benu.hu/gyogyszertaraink/gyogyszertarak-borsod-abauj-zemplen-megye/gyogyszertarak-hejobaba/frangula-patika/"/>
    <tag k="amenity" v="pharmacy"/>
    <tag k="dispensing" v="yes"/>
    <tag k="payment:debit_cards" v="yes"/>
    <tag k="payment:cash" v="yes"/>
  </node>
  <node action="modify" id="-163" lat="47.1724084" lon="19.7989779">
    <tag k="name" v="Benu gyógyszertár"/>
    <tag k="addr:city" v="Cegléd"/>
    <tag k="addr:postcode" v="2700"/>
    <tag k="addr:street" v="Rákóczi út"/>
    <tag k="addr:housenumber" v="7"/>
    <tag k="phone" v="+3653319200"/>
    <tag k="website" v="https://www.benu.huhttps://benu.hu/gyogyszertaraink/gyogyszertarak-pest-megye/gyogyszertarak-cegled/gyogyir-gyogyszertar/"/>
    <tag k="amenity" v="pharmacy"/>
    <tag k="dispensing" v="yes"/>
    <tag k="payment:debit_cards" v="yes"/>
    <tag k="payment:cash" v="yes"/>
  </node>
  <node action="modify" id="-164" lat="47.782759" lon="19.927394">
    <tag k="name" v="Benu gyógyszertár"/>
    <tag k="addr:city" v="Gyöngyös"/>
    <tag k="addr:postcode" v="3200"/>
    <tag k="addr:street" v="Páter Kiss Szaléz utca"/>
    <tag k="addr:housenumber" v="22"/>
    <tag k="phone" v="+3637500573"/>
    <tag k="website" v="https://www.benu.huhttps://benu.hu/gyogyszertaraink/gyogyszertarak-heves-megye/gyogyszertarak-gyongyos/gyongy-gyogyszertar-gyongyos/"/>
    <tag k="amenity" v="pharmacy"/>
    <tag k="dispensing" v="yes"/>
    <tag k="payment:debit_cards" v="yes"/>
    <tag k="payment:cash" v="yes"/>
  </node>
  <node action="modify" id="-165" lat="47.690024" lon="17.6436499">
    <tag k="name" v="Benu gyógyszertár"/>
    <tag k="addr:city" v="Győr"/>
    <tag k="addr:postcode" v="9022"/>
    <tag k="addr:street" v="Budai út"/>
    <tag k="addr:housenumber" v="1"/>
    <tag k="phone" v="+3696555380"/>
    <tag k="website" v="https://www.benu.huhttps://benu.hu/gyogyszertaraink/gyogyszertarak-gyor-moson-sopron-megye/gyogyszertarak-gyor/gyor-arkad-gyogyszertar/"/>
    <tag k="amenity" v="pharmacy"/>
    <tag k="dispensing" v="yes"/>
    <tag k="payment:debit_cards" v="yes"/>
    <tag k="payment:cash" v="yes"/>
  </node>
  <node action="modify" id="-166" lat="47.5927765" lon="17.0258977">
    <tag k="name" v="Benu gyógyszertár"/>
    <tag k="addr:city" v="Kapuvár"/>
    <tag k="addr:postcode" v="9330"/>
    <tag k="addr:street" v="Fő tér"/>
    <tag k="addr:housenumber" v="10"/>
    <tag k="phone" v="+3696241211"/>
    <tag k="website" v="https://www.benu.huhttps://benu.hu/gyogyszertaraink/gyogyszertarak-gyor-moson-sopron-megye/gyogyszertarak-kapuvar/hansag-gyogyszertar/"/>
    <tag k="amenity" v="pharmacy"/>
    <tag k="dispensing" v="yes"/>
    <tag k="payment:debit_cards" v="yes"/>
    <tag k="payment:cash" v="yes"/>
  </node>
  <node action="modify" id="-167" lat="47.6006344" lon="21.7577329">
    <tag k="name" v="Benu gyógyszertár"/>
    <tag k="addr:city" v="Hajdúsámson"/>
    <tag k="addr:postcode" v="4251"/>
    <tag k="addr:street" v="Hunyadi utca"/>
    <tag k="addr:housenumber" v="2"/>
    <tag k="phone" v="+3652201936"/>
    <tag k="website" v="https://www.benu.huhttps://benu.hu/gyogyszertaraink/gyogyszertarak-hajdu-bihar-megye/gyogyszertarak-hajdusamson/hars-patika/"/>
    <tag k="amenity" v="pharmacy"/>
    <tag k="dispensing" v="yes"/>
    <tag k="payment:debit_cards" v="yes"/>
    <tag k="payment:cash" v="yes"/>
  </node>
  <node action="modify" id="-168" lat="46.7380799" lon="17.104696">
    <tag k="name" v="Benu gyógyszertár"/>
    <tag k="addr:city" v="Zalaapáti"/>
    <tag k="addr:postcode" v="8741"/>
    <tag k="addr:street" v="Szent István tér"/>
    <tag k="addr:housenumber" v="7"/>
    <tag k="phone" v="+3683352001"/>
    <tag k="website" v="https://www.benu.huhttps://benu.hu/gyogyszertaraink/gyogyszertarak-zala-megye/gyogyszertarak-zalaapati/harsfa-gyogyszertar/"/>
    <tag k="amenity" v="pharmacy"/>
    <tag k="dispensing" v="yes"/>
    <tag k="payment:debit_cards" v="yes"/>
    <tag k="payment:cash" v="yes"/>
  </node>
  <node action="modify" id="-169" lat="48.087361" lon="20.773742">
    <tag k="name" v="Benu gyógyszertár"/>
    <tag k="addr:city" v="Miskolc"/>
    <tag k="addr:postcode" v="3524"/>
    <tag k="addr:street" v="Klapka György utca"/>
    <tag k="addr:housenumber" v="9-11"/>
    <tag k="phone" v="+3646435987"/>
    <tag k="website" v="https://www.benu.huhttps://benu.hu/gyogyszertaraink/gyogyszertarak-borsod-abauj-zemplen-megye/gyogyszertarak-miskolc/immanuel-gyogyszertar-miskolc/"/>
    <tag k="amenity" v="pharmacy"/>
    <tag k="dispensing" v="yes"/>
    <tag k="payment:debit_cards" v="yes"/>
    <tag k="payment:cash" v="yes"/>
  </node>
  <node action="modify" id="-170" lat="46.912027" lon="18.86502">
    <tag k="name" v="Benu gyógyszertár"/>
    <tag k="addr:city" v="Baracs"/>
    <tag k="addr:postcode" v="2426"/>
    <tag k="addr:street" v="Kossuth utca"/>
    <tag k="addr:housenumber" v="11"/>
    <tag k="phone" v="+3625498826"/>
    <tag k="website" v="https://www.benu.huhttps://benu.hu/gyogyszertaraink/gyogyszertarak-fejer-megye/gyogyszertarak-baracs/irisz-fiokgyogyszertar/"/>
    <tag k="amenity" v="pharmacy"/>
    <tag k="dispensing" v="yes"/>
    <tag k="payment:debit_cards" v="yes"/>
    <tag k="payment:cash" v="yes"/>
  </node>
  <node action="modify" id="-171" lat="47.5352491" lon="21.6068841">
    <tag k="name" v="Benu gyógyszertár"/>
    <tag k="addr:city" v="Debrecen"/>
    <tag k="addr:postcode" v="4027"/>
    <tag k="addr:street" v="Csigekert utca"/>
    <tag k="addr:housenumber" v="7"/>
    <tag k="phone" v="+3652420239"/>
    <tag k="website" v="https://www.benu.huhttps://benu.hu/gyogyszertaraink/gyogyszertarak-hajdu-bihar-megye/gyogyszertarak-debrecen/ispotaly-gyogyszertar/"/>
    <tag k="amenity" v="pharmacy"/>
    <tag k="dispensing" v="yes"/>
    <tag k="payment:debit_cards" v="yes"/>
    <tag k="payment:cash" v="yes"/>
  </node>
  <node action="modify" id="-172" lat="46.66204" lon="21.074981">
    <tag k="name" v="Benu gyógyszertár"/>
    <tag k="addr:city" v="Békéscsaba"/>
    <tag k="addr:postcode" v="5600"/>
    <tag k="addr:street" v="Orosházi út"/>
    <tag k="addr:housenumber" v="57"/>
    <tag k="phone" v="+3666328473"/>
    <tag k="website" v="https://www.benu.huhttps://benu.hu/gyogyszertaraink/gyogyszertarak-bekes-megye/jamina-gyogyszertar/"/>
    <tag k="amenity" v="pharmacy"/>
    <tag k="dispensing" v="yes"/>
    <tag k="payment:debit_cards" v="yes"/>
    <tag k="payment:cash" v="yes"/>
  </node>
  <node action="modify" id="-173" lat="48.1029391" lon="20.7694079">
    <tag k="name" v="Benu gyógyszertár"/>
    <tag k="addr:city" v="Miskolc"/>
    <tag k="addr:postcode" v="3530"/>
    <tag k="addr:street" v="Malomszög út"/>
    <tag k="addr:housenumber" v="4"/>
    <tag k="phone" v="+3646414531"/>
    <tag k="website" v="https://www.benu.huhttps://benu.hu/gyogyszertaraink/gyogyszertarak-borsod-abauj-zemplen-megye/gyogyszertarak-miskolc/johanna-gyogyszertar/"/>
    <tag k="amenity" v="pharmacy"/>
    <tag k="dispensing" v="yes"/>
    <tag k="payment:debit_cards" v="yes"/>
    <tag k="payment:cash" v="yes"/>
  </node>
  <node action="modify" id="-174" lat="48.246566" lon="20.616539">
    <tag k="name" v="Benu gyógyszertár"/>
    <tag k="addr:city" v="Kazincbarcika"/>
    <tag k="addr:postcode" v="3700"/>
    <tag k="addr:street" v="Egressy út"/>
    <tag k="addr:housenumber" v="1/c"/>
    <tag k="phone" v="+3648512292"/>
    <tag k="website" v="https://www.benu.huhttps://benu.hu/gyogyszertaraink/gyogyszertarak-borsod-abauj-zemplen-megye/gyogyszertarak-kazincbarcika/kamilla-gyogyszertar-kazincbarcika/"/>
    <tag k="amenity" v="pharmacy"/>
    <tag k="dispensing" v="yes"/>
    <tag k="payment:debit_cards" v="yes"/>
    <tag k="payment:cash" v="yes"/>
  </node>
  <node action="modify" id="-175" lat="46.7304142" lon="18.0337388">
    <tag k="name" v="Benu gyógyszertár"/>
    <tag k="addr:city" v="Tab"/>
    <tag k="addr:postcode" v="8660"/>
    <tag k="addr:street" v="Kossuth Lajos utca"/>
    <tag k="addr:housenumber" v="84/c"/>
    <tag k="phone" v="+3684325712"/>
    <tag k="website" v="https://www.benu.huhttps://benu.hu/gyogyszertaraink/gyogyszertarak-somogy-megye/gyogyszertarak-tab/kamilla-patika-tab/"/>
    <tag k="amenity" v="pharmacy"/>
    <tag k="dispensing" v="yes"/>
    <tag k="payment:debit_cards" v="yes"/>
    <tag k="payment:cash" v="yes"/>
  </node>
  <node action="modify" id="-176" lat="47.3293939" lon="17.4687701">
    <tag k="name" v="Benu gyógyszertár"/>
    <tag k="addr:city" v="Pápa"/>
    <tag k="addr:postcode" v="8500"/>
    <tag k="addr:street" v="Fő utca"/>
    <tag k="addr:housenumber" v="24-26"/>
    <tag k="phone" v="+3689324748"/>
    <tag k="website" v="https://www.benu.huhttps://benu.hu/gyogyszertaraink/gyogyszertarak-veszprem-megye/gyogyszertarak-papa/karlovitz-gyogyszertar/"/>
    <tag k="amenity" v="pharmacy"/>
    <tag k="dispensing" v="yes"/>
    <tag k="payment:debit_cards" v="yes"/>
    <tag k="payment:cash" v="yes"/>
  </node>
  <node action="modify" id="-177" lat="47.4823218" lon="19.0302786">
    <tag k="name" v="Benu gyógyszertár"/>
    <tag k="addr:city" v="Budapest"/>
    <tag k="addr:postcode" v="1113"/>
    <tag k="addr:street" v="Karolina út"/>
    <tag k="addr:housenumber" v="2"/>
    <tag k="phone" v="+3613653110"/>
    <tag k="website" v="https://www.benu.huhttps://benu.hu/gyogyszertaraink/gyogyszertarak-budapest/gyogyszertarak-budapest-xi-kerulet/karolina-gyogyszertar/"/>
    <tag k="amenity" v="pharmacy"/>
    <tag k="dispensing" v="yes"/>
    <tag k="payment:debit_cards" v="yes"/>
    <tag k="payment:cash" v="yes"/>
  </node>
  <node action="modify" id="-178" lat="48.008121" lon="19.83218">
    <tag k="name" v="Benu gyógyszertár"/>
    <tag k="addr:city" v="Bátonyterenye"/>
    <tag k="addr:postcode" v="3078"/>
    <tag k="addr:street" v="Vasút út"/>
    <tag k="addr:housenumber" v="5"/>
    <tag k="phone" v="+3632350542"/>
    <tag k="website" v="https://www.benu.huhttps://benu.hu/gyogyszertaraink/gyogyszertarak-nograd-megye/gyogyszertarak-batonyterenye/kastelykert-patika/"/>
    <tag k="amenity" v="pharmacy"/>
    <tag k="dispensing" v="yes"/>
    <tag k="payment:debit_cards" v="yes"/>
    <tag k="payment:cash" v="yes"/>
  </node>
  <node action="modify" id="-179" lat="47.5387383" lon="21.6145619">
    <tag k="name" v="Benu gyógyszertár"/>
    <tag k="addr:city" v="Debrecen"/>
    <tag k="addr:postcode" v="4027"/>
    <tag k="addr:street" v="Ibolya utca"/>
    <tag k="addr:housenumber" v="21"/>
    <tag k="phone" v="+3652413002"/>
    <tag k="website" v="https://www.benu.huhttps://benu.hu/gyogyszertaraink/gyogyszertarak-hajdu-bihar-megye/gyogyszertarak-debrecen/kazay-gyogyszertar/"/>
    <tag k="amenity" v="pharmacy"/>
    <tag k="dispensing" v="yes"/>
    <tag k="payment:debit_cards" v="yes"/>
    <tag k="payment:cash" v="yes"/>
  </node>
  <node action="modify" id="-180" lat="46.126192" lon="19.330577">
    <tag k="name" v="Benu gyógyszertár"/>
    <tag k="addr:city" v="Bácsalmás"/>
    <tag k="addr:postcode" v="6430"/>
    <tag k="addr:street" v="Hősök tere"/>
    <tag k="addr:housenumber" v="4"/>
    <tag k="phone" v="+3679541190"/>
    <tag k="website" v="https://www.benu.huhttps://benu.hu/gyogyszertaraink/gyogyszertarak-bacs-kiskun-megye/gyogyszertarak-bacsalmas/kek-irisz-gyogyszertar/"/>
    <tag k="amenity" v="pharmacy"/>
    <tag k="dispensing" v="yes"/>
    <tag k="payment:debit_cards" v="yes"/>
    <tag k="payment:cash" v="yes"/>
  </node>
  <node action="modify" id="-181" lat="47.5290104" lon="21.6251339">
    <tag k="name" v="Benu gyógyszertár"/>
    <tag k="addr:city" v="Debrecen"/>
    <tag k="addr:postcode" v="4025"/>
    <tag k="addr:street" v="Széchenyi utca"/>
    <tag k="addr:housenumber" v="1"/>
    <tag k="phone" v="+3652326666"/>
    <tag k="website" v="https://www.benu.huhttps://benu.hu/gyogyszertaraink/gyogyszertarak-hajdu-bihar-megye/gyogyszertarak-debrecen/kigyo-gyogyszertar-debrecen/"/>
    <tag k="amenity" v="pharmacy"/>
    <tag k="dispensing" v="yes"/>
    <tag k="payment:debit_cards" v="yes"/>
    <tag k="payment:cash" v="yes"/>
  </node>
  <node action="modify" id="-182" lat="48.1028868" lon="20.7851042">
    <tag k="name" v="Benu gyógyszertár"/>
    <tag k="addr:city" v="Miskolc"/>
    <tag k="addr:postcode" v="3525"/>
    <tag k="addr:street" v="Széchenyi utca"/>
    <tag k="addr:housenumber" v="33"/>
    <tag k="phone" v="+3646505204"/>
    <tag k="website" v="https://www.benu.huhttps://benu.hu/gyogyszertaraink/gyogyszertarak-borsod-abauj-zemplen-megye/gyogyszertarak-miskolc/kigyo-gyogyszertar-miskolc/"/>
    <tag k="amenity" v="pharmacy"/>
    <tag k="dispensing" v="yes"/>
    <tag k="payment:debit_cards" v="yes"/>
    <tag k="payment:cash" v="yes"/>
  </node>
  <node action="modify" id="-183" lat="47.4386234" lon="19.1664067">
    <tag k="name" v="Benu gyógyszertár"/>
    <tag k="addr:city" v="Budapest"/>
    <tag k="addr:postcode" v="1181"/>
    <tag k="addr:street" v="Kondor Béla sétány"/>
    <tag k="addr:housenumber" v="11-15"/>
    <tag k="phone" v="+3612973315"/>
    <tag k="website" v="https://www.benu.huhttps://benu.hu/gyogyszertaraink/gyogyszertarak-budapest/gyogyszertarak-budapest-xviii-kerulet/kondor-gyogyszertar/"/>
    <tag k="amenity" v="pharmacy"/>
    <tag k="dispensing" v="yes"/>
    <tag k="payment:debit_cards" v="yes"/>
    <tag k="payment:cash" v="yes"/>
  </node>
  <node action="modify" id="-184" lat="46.871204" lon="18.443175">
    <tag k="name" v="Benu gyógyszertár"/>
    <tag k="addr:city" v="Dég"/>
    <tag k="addr:postcode" v="8135"/>
    <tag k="addr:street" v="Széchenyi utca"/>
    <tag k="addr:housenumber" v="49"/>
    <tag k="phone" v="+3625238803"/>
    <tag k="website" v="https://www.benu.huhttps://benu.hu/gyogyszertaraink/gyogyszertarak-fejer-megye/gyogyszertarak-deg/korona-fiokgyogyszertar/"/>
    <tag k="amenity" v="pharmacy"/>
    <tag k="dispensing" v="yes"/>
    <tag k="payment:debit_cards" v="yes"/>
    <tag k="payment:cash" v="yes"/>
  </node>
  <node action="modify" id="-185" lat="46.8142377" lon="18.4816038">
    <tag k="name" v="Benu gyógyszertár"/>
    <tag k="addr:city" v="Mezőszilas"/>
    <tag k="addr:postcode" v="7017"/>
    <tag k="addr:street" v="Petőfi Sándor utca"/>
    <tag k="addr:housenumber" v="22"/>
    <tag k="phone" v="+3625247009"/>
    <tag k="website" v="https://www.benu.huhttps://benu.hu/gyogyszertaraink/gyogyszertarak-fejer-megye/gyogyszertarak-mezoszilas/korona-gyogyszertar-mezoszilas/"/>
    <tag k="amenity" v="pharmacy"/>
    <tag k="dispensing" v="yes"/>
    <tag k="payment:debit_cards" v="yes"/>
    <tag k="payment:cash" v="yes"/>
  </node>
  <node action="modify" id="-186" lat="46.885114" lon="18.6204213">
    <tag k="name" v="Benu gyógyszertár"/>
    <tag k="addr:city" v="Sárbogárd"/>
    <tag k="addr:postcode" v="7000"/>
    <tag k="addr:street" v="Ady Endre utca"/>
    <tag k="addr:housenumber" v="127"/>
    <tag k="phone" v="+3625460520"/>
    <tag k="website" v="https://www.benu.huhttps://benu.hu/gyogyszertaraink/gyogyszertarak-fejer-megye/gyogyszertarak-sarbogard/korona-gyogyszertar-sarbogard/"/>
    <tag k="amenity" v="pharmacy"/>
    <tag k="dispensing" v="yes"/>
    <tag k="payment:debit_cards" v="yes"/>
    <tag k="payment:cash" v="yes"/>
  </node>
  <node action="modify" id="-187" lat="48.128563" lon="21.714959">
    <tag k="name" v="Benu gyógyszertár"/>
    <tag k="addr:city" v="Ibrány"/>
    <tag k="addr:postcode" v="4484"/>
    <tag k="addr:street" v="Árpád utca"/>
    <tag k="addr:housenumber" v="25-27"/>
    <tag k="phone" v="+3642200108"/>
    <tag k="website" v="https://www.benu.huhttps://benu.hu/gyogyszertaraink/gyogyszertarak-szabolcs-szatmar-bereg-megye/gyogyszertarak-ibrany/kristaly-gyogyszertar-ibrany/"/>
    <tag k="amenity" v="pharmacy"/>
    <tag k="dispensing" v="yes"/>
    <tag k="payment:debit_cards" v="yes"/>
    <tag k="payment:cash" v="yes"/>
  </node>
  <node action="modify" id="-188" lat="47.4505933" lon="19.1724324">
    <tag k="name" v="Benu gyógyszertár"/>
    <tag k="addr:city" v="Budapest"/>
    <tag k="addr:postcode" v="1184"/>
    <tag k="addr:street" v="Lakatos út"/>
    <tag k="addr:housenumber" v="11"/>
    <tag k="phone" v="+3612973720"/>
    <tag k="website" v="https://www.benu.huhttps://benu.hu/gyogyszertaraink/gyogyszertarak-budapest/gyogyszertarak-budapest-xviii-kerulet/lakatos-gyogyszertar/"/>
    <tag k="amenity" v="pharmacy"/>
    <tag k="dispensing" v="yes"/>
    <tag k="payment:debit_cards" v="yes"/>
    <tag k="payment:cash" v="yes"/>
  </node>
  <node action="modify" id="-189" lat="47.488025" lon="19.060564">
    <tag k="name" v="Benu gyógyszertár"/>
    <tag k="addr:city" v="Budapest"/>
    <tag k="addr:postcode" v="1093"/>
    <tag k="addr:street" v="Lónyay utca"/>
    <tag k="addr:housenumber" v="5"/>
    <tag k="phone" v="+3612162144"/>
    <tag k="website" v="https://www.benu.huhttps://benu.hu/gyogyszertaraink/gyogyszertarak-budapest/gyogyszertarak-budapest-ix-kerulet/lonyay-patika/"/>
    <tag k="amenity" v="pharmacy"/>
    <tag k="dispensing" v="yes"/>
    <tag k="payment:debit_cards" v="yes"/>
    <tag k="payment:cash" v="yes"/>
  </node>
  <node action="modify" id="-190" lat="47.4700175" lon="19.0840331">
    <tag k="name" v="Benu gyógyszertár"/>
    <tag k="addr:city" v="Budapest"/>
    <tag k="addr:postcode" v="1097"/>
    <tag k="addr:street" v="Könyves Kálmán körút"/>
    <tag k="addr:housenumber" v="12-14"/>
    <tag k="phone" v="+3612105244"/>
    <tag k="website" v="https://www.benu.huhttps://benu.hu/gyogyszertaraink/gyogyszertarak-budapest/gyogyszertarak-budapest-ix-kerulet/lurdy-korona-gyogyszertar/"/>
    <tag k="amenity" v="pharmacy"/>
    <tag k="dispensing" v="yes"/>
    <tag k="payment:debit_cards" v="yes"/>
    <tag k="payment:cash" v="yes"/>
  </node>
  <node action="modify" id="-191" lat="47.3714143" lon="20.6313552">
    <tag k="name" v="Benu gyógyszertár"/>
    <tag k="addr:city" v="Kunhegyes"/>
    <tag k="addr:postcode" v="5340"/>
    <tag k="addr:street" v="Kossuth Lajos utca"/>
    <tag k="addr:housenumber" v="54"/>
    <tag k="phone" v="+3659530060"/>
    <tag k="website" v="https://www.benu.huhttps://benu.hu/gyogyszertaraink/gyogyszertarak-jasz-nagykun-szolnok-megye/kunhegyes/magyar-korona-gyogyszertar/"/>
    <tag k="amenity" v="pharmacy"/>
    <tag k="dispensing" v="yes"/>
    <tag k="payment:debit_cards" v="yes"/>
    <tag k="payment:cash" v="yes"/>
  </node>
  <node action="modify" id="-192" lat="46.4930961" lon="19.7361096">
    <tag k="name" v="Benu gyógyszertár"/>
    <tag k="addr:city" v="Kiskunmajsa"/>
    <tag k="addr:postcode" v="6120"/>
    <tag k="addr:street" v="Fő utca"/>
    <tag k="addr:housenumber" v="72"/>
    <tag k="phone" v="+3677581029"/>
    <tag k="website" v="https://www.benu.huhttps://benu.hu/gyogyszertaraink/gyogyszertarak-bacs-kiskun-megye/gyogyszertarak-kiskunmajsa/majsa-gyogyszertar/"/>
    <tag k="amenity" v="pharmacy"/>
    <tag k="dispensing" v="yes"/>
    <tag k="payment:debit_cards" v="yes"/>
    <tag k="payment:cash" v="yes"/>
  </node>
  <node action="modify" id="-193" lat="47.5352491" lon="21.6068841">
    <tag k="name" v="Benu gyógyszertár"/>
    <tag k="addr:city" v="Debrecen"/>
    <tag k="addr:postcode" v="4027"/>
    <tag k="addr:street" v="Füredi út"/>
    <tag k="addr:housenumber" v="27"/>
    <tag k="phone" v="+3652541880"/>
    <tag k="website" v="https://www.benu.huhttps://benu.hu/gyogyszertaraink/gyogyszertarak-hajdu-bihar-megye/gyogyszertarak-debrecen/malom-patika/"/>
    <tag k="amenity" v="pharmacy"/>
    <tag k="dispensing" v="yes"/>
    <tag k="payment:debit_cards" v="yes"/>
    <tag k="payment:cash" v="yes"/>
  </node>
  <node action="modify" id="-194" lat="45.9597364" lon="17.4534394">
    <tag k="name" v="Benu gyógyszertár"/>
    <tag k="addr:city" v="Barcs"/>
    <tag k="addr:postcode" v="7570"/>
    <tag k="addr:street" v="Szent István utca"/>
    <tag k="addr:housenumber" v="5"/>
    <tag k="phone" v="+3682463716"/>
    <tag k="website" v="https://www.benu.huhttps://benu.hu/gyogyszertaraink/gyogyszertarak-somogy-megye/barcs/megvalto-gyogyszertar/"/>
    <tag k="amenity" v="pharmacy"/>
    <tag k="dispensing" v="yes"/>
    <tag k="payment:debit_cards" v="yes"/>
    <tag k="payment:cash" v="yes"/>
  </node>
  <node action="modify" id="-195" lat="47.598273" lon="19.057264">
    <tag k="name" v="Benu gyógyszertár"/>
    <tag k="addr:city" v="Budapest"/>
    <tag k="addr:postcode" v="1039"/>
    <tag k="addr:street" v="Heltai Jenő tér"/>
    <tag k="addr:housenumber" v="1-3"/>
    <tag k="phone" v="+3614540661"/>
    <tag k="website" v="https://www.benu.huhttps://benu.hu/gyogyszertaraink/gyogyszertarak-budapest/gyogyszertarak-budapest-iii-kerulet/megyeri-gyogyszertar/"/>
    <tag k="amenity" v="pharmacy"/>
    <tag k="dispensing" v="yes"/>
    <tag k="payment:debit_cards" v="yes"/>
    <tag k="payment:cash" v="yes"/>
  </node>
  <node action="modify" id="-196" lat="46.9142726" lon="19.679396">
    <tag k="name" v="Benu gyógyszertár"/>
    <tag k="addr:city" v="Kecskemét"/>
    <tag k="addr:postcode" v="6000"/>
    <tag k="addr:street" v="Irinyi utca"/>
    <tag k="addr:housenumber" v="22"/>
    <tag k="phone" v="+3676327076"/>
    <tag k="website" v="https://www.benu.huhttps://benu.hu/gyogyszertaraink/gyogyszertarak-bacs-kiskun-megye/gyogyszertarak-kecskemet/menta-patika/"/>
    <tag k="amenity" v="pharmacy"/>
    <tag k="dispensing" v="yes"/>
    <tag k="payment:debit_cards" v="yes"/>
    <tag k="payment:cash" v="yes"/>
  </node>
  <node action="modify" id="-197" lat="47.58104" lon="19.049671">
    <tag k="name" v="Benu gyógyszertár"/>
    <tag k="addr:city" v="Budapest"/>
    <tag k="addr:postcode" v="1039"/>
    <tag k="addr:street" v="Rákóczi út"/>
    <tag k="addr:housenumber" v="36"/>
    <tag k="phone" v="+3612508610"/>
    <tag k="website" v="https://www.benu.huhttps://benu.hu/gyogyszertaraink/gyogyszertarak-budapest/gyogyszertarak-budapest-iii-kerulet/nadaly-gyogyszertar/"/>
    <tag k="amenity" v="pharmacy"/>
    <tag k="dispensing" v="yes"/>
    <tag k="payment:debit_cards" v="yes"/>
    <tag k="payment:cash" v="yes"/>
  </node>
  <node action="modify" id="-198" lat="46.5216459" lon="16.728361">
    <tag k="name" v="Benu gyógyszertár"/>
    <tag k="addr:city" v="Bázakerettye"/>
    <tag k="addr:postcode" v="8887"/>
    <tag k="addr:street" v="Fő utca"/>
    <tag k="addr:housenumber" v="22"/>
    <tag k="phone" v="+3693348010"/>
    <tag k="website" v="https://www.benu.huhttps://benu.hu/gyogyszertaraink/gyogyszertarak-zala-megye/gyogyszertarak-bazakerettye/nyirfa-gyogyszertar/"/>
    <tag k="amenity" v="pharmacy"/>
    <tag k="dispensing" v="yes"/>
    <tag k="payment:debit_cards" v="yes"/>
    <tag k="payment:cash" v="yes"/>
  </node>
  <node action="modify" id="-199" lat="47.389322" lon="21.4724461">
    <tag k="name" v="Benu gyógyszertár"/>
    <tag k="addr:city" v="Hajdúszovát"/>
    <tag k="addr:postcode" v="4212"/>
    <tag k="addr:street" v="Ady Endre utca"/>
    <tag k="addr:housenumber" v="23"/>
    <tag k="phone" v="+3652559205"/>
    <tag k="website" v="https://www.benu.huhttps://benu.hu/gyogyszertaraink/gyogyszertarak-hajdu-bihar-megye/gyogyszertarak-hajduszovat/orangyal-gyogyszertar/"/>
    <tag k="amenity" v="pharmacy"/>
    <tag k="dispensing" v="yes"/>
    <tag k="payment:debit_cards" v="yes"/>
    <tag k="payment:cash" v="yes"/>
  </node>
  <node action="modify" id="-200" lat="47.5140833" lon="19.0484145">
    <tag k="name" v="Benu gyógyszertár"/>
    <tag k="addr:city" v="Budapest"/>
    <tag k="addr:postcode" v="1137"/>
    <tag k="addr:street" v="Pozsonyi út"/>
    <tag k="addr:housenumber" v="2"/>
    <tag k="phone" v="+3613205950"/>
    <tag k="website" v="https://www.benu.huhttps://benu.hu/gyogyszertaraink/gyogyszertarak-budapest/gyogyszertarak-budapest-xiii-kerulet/palatinus-gyogyszertar/"/>
    <tag k="amenity" v="pharmacy"/>
    <tag k="dispensing" v="yes"/>
    <tag k="payment:debit_cards" v="yes"/>
    <tag k="payment:cash" v="yes"/>
  </node>
  <node action="modify" id="-201" lat="47.559232" lon="19.120689">
    <tag k="name" v="Benu gyógyszertár"/>
    <tag k="addr:city" v="Budapest"/>
    <tag k="addr:postcode" v="1152"/>
    <tag k="addr:street" v="Rákos út"/>
    <tag k="addr:housenumber" v="5"/>
    <tag k="phone" v="+3613062776"/>
    <tag k="website" v="https://www.benu.huhttps://benu.hu/gyogyszertaraink/gyogyszertarak-budapest/gyogyszertarak-budapest-xv-kerulet/palota-gyogyszertar/"/>
    <tag k="amenity" v="pharmacy"/>
    <tag k="dispensing" v="yes"/>
    <tag k="payment:debit_cards" v="yes"/>
    <tag k="payment:cash" v="yes"/>
  </node>
  <node action="modify" id="-202" lat="47.7817001" lon="19.918597">
    <tag k="name" v="Benu gyógyszertár"/>
    <tag k="addr:city" v="Gyöngyös"/>
    <tag k="addr:postcode" v="3200"/>
    <tag k="addr:street" v="Deák Ferenc utca"/>
    <tag k="addr:housenumber" v="44"/>
    <tag k="phone" v="+3637508000"/>
    <tag k="website" v="https://www.benu.huhttps://benu.hu/gyogyszertaraink/gyogyszertarak-heves-megye/gyogyszertarak-gyongyos/panacea-gyogyszertar-gyongyos/"/>
    <tag k="amenity" v="pharmacy"/>
    <tag k="dispensing" v="yes"/>
    <tag k="payment:debit_cards" v="yes"/>
    <tag k="payment:cash" v="yes"/>
  </node>
  <node action="modify" id="-203" lat="48.125741" lon="21.406801">
    <tag k="name" v="Benu gyógyszertár"/>
    <tag k="addr:city" v="Tokaj"/>
    <tag k="addr:postcode" v="3910"/>
    <tag k="addr:street" v="Kossuth tér"/>
    <tag k="addr:housenumber" v="12"/>
    <tag k="phone" v="+3647352052"/>
    <tag k="website" v="https://www.benu.huhttps://benu.hu/gyogyszertaraink/gyogyszertarak-borsod-abauj-zemplen-megye/gyogyszertarak-tokaj/paracelsus-gyogyszertar/"/>
    <tag k="amenity" v="pharmacy"/>
    <tag k="dispensing" v="yes"/>
    <tag k="payment:debit_cards" v="yes"/>
    <tag k="payment:cash" v="yes"/>
  </node>
  <node action="modify" id="-204" lat="47.5370078" lon="19.0868329">
    <tag k="name" v="Benu gyógyszertár"/>
    <tag k="addr:city" v="Budapest"/>
    <tag k="addr:postcode" v="1135"/>
    <tag k="addr:street" v="Jász utca"/>
    <tag k="addr:housenumber" v="84-88"/>
    <tag k="phone" v="+3613501769"/>
    <tag k="website" v="https://www.benu.huhttps://benu.hu/gyogyszertaraink/gyogyszertarak-budapest/gyogyszertarak-budapest-xiii-kerulet/patak-rivus-gyogyszertar/"/>
    <tag k="amenity" v="pharmacy"/>
    <tag k="dispensing" v="yes"/>
    <tag k="payment:debit_cards" v="yes"/>
    <tag k="payment:cash" v="yes"/>
  </node>
  <node action="modify" id="-205" lat="48.1280497" lon="22.3137127">
    <tag k="name" v="Benu gyógyszertár"/>
    <tag k="addr:city" v="Vásárosnamény"/>
    <tag k="addr:postcode" v="4800"/>
    <tag k="addr:street" v="Rákóczi út"/>
    <tag k="addr:housenumber" v="22/a"/>
    <tag k="phone" v="+3645470226"/>
    <tag k="website" v="https://www.benu.huhttps://benu.hu/gyogyszertaraink/gyogyszertarak-szabolcs-szatmar-bereg-megye/gyogyszertarak-vasarosnameny/remeny-gyogyszertar/"/>
    <tag k="amenity" v="pharmacy"/>
    <tag k="dispensing" v="yes"/>
    <tag k="payment:debit_cards" v="yes"/>
    <tag k="payment:cash" v="yes"/>
  </node>
  <node action="modify" id="-206" lat="47.4591746" lon="20.211418">
    <tag k="name" v="Benu gyógyszertár"/>
    <tag k="addr:city" v="Jászkisér"/>
    <tag k="addr:postcode" v="5137"/>
    <tag k="addr:street" v="Fő út"/>
    <tag k="addr:housenumber" v="8"/>
    <tag k="phone" v="+3657450213"/>
    <tag k="website" v="https://www.benu.huhttps://benu.hu/gyogyszertaraink/gyogyszertarak-szabolcs-szatmar-bereg-megye/gyogyszertarak-vasarosnameny/remeny-gyogyszertar/"/>
    <tag k="amenity" v="pharmacy"/>
    <tag k="dispensing" v="yes"/>
    <tag k="payment:debit_cards" v="yes"/>
    <tag k="payment:cash" v="yes"/>
  </node>
  <node action="modify" id="-207" lat="47.6822156" lon="19.2763323">
    <tag k="name" v="Benu gyógyszertár"/>
    <tag k="addr:city" v="Őrbottyán"/>
    <tag k="addr:postcode" v="2162"/>
    <tag k="addr:street" v="Rákóczi F. utca"/>
    <tag k="addr:housenumber" v="113"/>
    <tag k="phone" v="+3628360382"/>
    <tag k="website" v="https://www.benu.huhttps://benu.hu/gyogyszertaraink/gyogyszertarak-pest-megye/gyogyszertarak-orbottyan/rezeda-gyogyszertar/"/>
    <tag k="amenity" v="pharmacy"/>
    <tag k="dispensing" v="yes"/>
    <tag k="payment:debit_cards" v="yes"/>
    <tag k="payment:cash" v="yes"/>
  </node>
  <node action="modify" id="-208" lat="46.9713253" lon="18.9341097">
    <tag k="name" v="Benu gyógyszertár"/>
    <tag k="addr:city" v="Dunaújváros"/>
    <tag k="addr:postcode" v="2400"/>
    <tag k="addr:street" v="Váci Mihály utca"/>
    <tag k="addr:housenumber" v="8"/>
    <tag k="phone" v="+3625423669"/>
    <tag k="website" v="https://www.benu.huhttps://benu.hu/gyogyszertaraink/gyogyszertarak-fejer-megye/gyogyszertarak-dunaujvaros/romai-gyogyszertar/"/>
    <tag k="amenity" v="pharmacy"/>
    <tag k="dispensing" v="yes"/>
    <tag k="payment:debit_cards" v="yes"/>
    <tag k="payment:cash" v="yes"/>
  </node>
  <node action="modify" id="-209" lat="47.5225288" lon="19.014798">
    <tag k="name" v="Benu gyógyszertár"/>
    <tag k="addr:city" v="Budapest"/>
    <tag k="addr:postcode" v="1026"/>
    <tag k="addr:street" v="Gábor Áron út"/>
    <tag k="addr:housenumber" v="74-78"/>
    <tag k="phone" v="+3613915830"/>
    <tag k="website" v="https://www.benu.huhttps://benu.hu/gyogyszertaraink/gyogyszertarak-budapest/gyogyszertarak-budapest-ii-kerulet/rozsakert-patika/"/>
    <tag k="amenity" v="pharmacy"/>
    <tag k="dispensing" v="yes"/>
    <tag k="payment:debit_cards" v="yes"/>
    <tag k="payment:cash" v="yes"/>
  </node>
  <node action="modify" id="-210" lat="46.4275664" lon="18.7866128">
    <tag k="name" v="Benu gyógyszertár"/>
    <tag k="addr:city" v="Tolna"/>
    <tag k="addr:postcode" v="7130"/>
    <tag k="addr:street" v="Bajcsy-Zsilinszky út"/>
    <tag k="addr:housenumber" v="27"/>
    <tag k="phone" v="+3674440516"/>
    <tag k="website" v="https://www.benu.huhttps://benu.hu/gyogyszertaraink/gyogyszertarak-tolna-megye/gyogyszertarak-tolna/salvia-gyogyszertar/"/>
    <tag k="amenity" v="pharmacy"/>
    <tag k="dispensing" v="yes"/>
    <tag k="payment:debit_cards" v="yes"/>
    <tag k="payment:cash" v="yes"/>
  </node>
  <node action="modify" id="-211" lat="47.955509" lon="22.324196">
    <tag k="name" v="Benu gyógyszertár"/>
    <tag k="addr:city" v="Mátészalka"/>
    <tag k="addr:postcode" v="4700"/>
    <tag k="addr:street" v="Kálvin tér"/>
    <tag k="addr:housenumber" v="7"/>
    <tag k="phone" v="+3644311253"/>
    <tag k="website" v="https://www.benu.huhttps://benu.hu/gyogyszertaraink/gyogyszertarak-szabolcs-szatmar-bereg-megye/gyogyszertarak-mateszalka/sas-gyogyszertar/"/>
    <tag k="amenity" v="pharmacy"/>
    <tag k="dispensing" v="yes"/>
    <tag k="payment:debit_cards" v="yes"/>
    <tag k="payment:cash" v="yes"/>
  </node>
  <node action="modify" id="-212" lat="46.064131" lon="18.200136">
    <tag k="name" v="Benu gyógyszertár"/>
    <tag k="addr:city" v="Pécs"/>
    <tag k="addr:postcode" v="7633"/>
    <tag k="addr:street" v="Dr. Veress Endre utca"/>
    <tag k="addr:housenumber" v="2"/>
    <tag k="phone" v="+3672255920"/>
    <tag k="website" v="https://www.benu.huhttps://benu.hu/gyogyszertaraink/gyogyszertarak-baranya-megye/gyogyszertarak-pecs/schulek-elemer-gyogyszertar/"/>
    <tag k="amenity" v="pharmacy"/>
    <tag k="dispensing" v="yes"/>
    <tag k="payment:debit_cards" v="yes"/>
    <tag k="payment:cash" v="yes"/>
  </node>
  <node action="modify" id="-213" lat="46.7151881" lon="16.5128893">
    <tag k="name" v="Benu gyógyszertár"/>
    <tag k="addr:city" v="Csesztreg"/>
    <tag k="addr:postcode" v="8973"/>
    <tag k="addr:street" v="Rákóczi utca"/>
    <tag k="addr:housenumber" v="1"/>
    <tag k="phone" v="+3692373603"/>
    <tag k="website" v="https://www.benu.huhttps://benu.hu/gyogyszertaraink/gyogyszertarak-zala-megye/gyogyszertarak-csesztreg/segito-maria-gyogyszertar/"/>
    <tag k="amenity" v="pharmacy"/>
    <tag k="dispensing" v="yes"/>
    <tag k="payment:debit_cards" v="yes"/>
    <tag k="payment:cash" v="yes"/>
  </node>
  <node action="modify" id="-214" lat="47.5075731" lon="19.0271965">
    <tag k="name" v="Benu gyógyszertár"/>
    <tag k="addr:city" v="Budapest"/>
    <tag k="addr:postcode" v="1015"/>
    <tag k="addr:street" v="Széna tér"/>
    <tag k="addr:housenumber" v="1/a"/>
    <tag k="phone" v="+3612257830"/>
    <tag k="website" v="https://www.benu.huhttps://benu.hu/gyogyszertaraink/gyogyszertarak-budapest/gyogyszertarak-budapest-i-kerulet/szena-ter-patika/"/>
    <tag k="amenity" v="pharmacy"/>
    <tag k="dispensing" v="yes"/>
    <tag k="payment:debit_cards" v="yes"/>
    <tag k="payment:cash" v="yes"/>
  </node>
  <node action="modify" id="-215" lat="47.2613773" lon="17.8695371">
    <tag k="name" v="Benu gyógyszertár"/>
    <tag k="addr:city" v="Zirc"/>
    <tag k="addr:postcode" v="8420"/>
    <tag k="addr:street" v="József Attila utca"/>
    <tag k="addr:housenumber" v="8"/>
    <tag k="phone" v="+3688583660"/>
    <tag k="website" v="https://www.benu.huhttps://benu.hu/gyogyszertaraink/gyogyszertarak-veszprem-megye/gyogyszertarak-zirc/szent-bernat-gyogyszertar/"/>
    <tag k="amenity" v="pharmacy"/>
    <tag k="dispensing" v="yes"/>
    <tag k="payment:debit_cards" v="yes"/>
    <tag k="payment:cash" v="yes"/>
  </node>
  <node action="modify" id="-216" lat="46.6609369" lon="20.255431">
    <tag k="name" v="Benu gyógyszertár"/>
    <tag k="addr:city" v="Szentes"/>
    <tag k="addr:postcode" v="6600"/>
    <tag k="addr:street" v="Sima Ferenc utca"/>
    <tag k="addr:housenumber" v="38"/>
    <tag k="phone" v="+3663315894"/>
    <tag k="website" v="https://www.benu.huhttps://benu.hu/gyogyszertaraink/gyogyszertarak-csongrad-megye/szentes/szent-damjan-gyogyszertar/"/>
    <tag k="amenity" v="pharmacy"/>
    <tag k="dispensing" v="yes"/>
    <tag k="payment:debit_cards" v="yes"/>
    <tag k="payment:cash" v="yes"/>
  </node>
  <node action="modify" id="-217" lat="45.99806" lon="18.680501">
    <tag k="name" v="Benu gyógyszertár"/>
    <tag k="addr:city" v="Mohács"/>
    <tag k="addr:postcode" v="7700"/>
    <tag k="addr:street" v="Kossuth Lajos utca"/>
    <tag k="addr:housenumber" v="66"/>
    <tag k="phone" v="+3669311755"/>
    <tag k="website" v="https://www.benu.huhttps://benu.hu/gyogyszertaraink/gyogyszertarak-baranya-megye/gyogyszertarak-mohacs/szent-ferenc-gyogyszertar/"/>
    <tag k="amenity" v="pharmacy"/>
    <tag k="dispensing" v="yes"/>
    <tag k="payment:debit_cards" v="yes"/>
    <tag k="payment:cash" v="yes"/>
  </node>
  <node action="modify" id="-218" lat="47.6780199" lon="17.634661">
    <tag k="name" v="Benu gyógyszertár"/>
    <tag k="addr:city" v="Győr"/>
    <tag k="addr:postcode" v="9024"/>
    <tag k="addr:street" v="Bem tér"/>
    <tag k="addr:housenumber" v="14/b"/>
    <tag k="phone" v="+3696413004"/>
    <tag k="website" v="https://www.benu.huhttps://benu.hu/gyogyszertaraink/gyogyszertarak-gyor-moson-sopron-megye/gyogyszertarak-gyor/szent-gyorgy-gyogyszertar/"/>
    <tag k="amenity" v="pharmacy"/>
    <tag k="dispensing" v="yes"/>
    <tag k="payment:debit_cards" v="yes"/>
    <tag k="payment:cash" v="yes"/>
  </node>
  <node action="modify" id="-219" lat="47.5886035" lon="17.0295795">
    <tag k="name" v="Benu gyógyszertár"/>
    <tag k="addr:city" v="Kapuvár"/>
    <tag k="addr:postcode" v="9330"/>
    <tag k="addr:street" v="Kossuth Lajos utca"/>
    <tag k="addr:housenumber" v="39"/>
    <tag k="phone" v="+3696241429"/>
    <tag k="website" v="https://www.benu.huhttps://benu.hu/gyogyszertaraink/gyogyszertarak-gyor-moson-sopron-megye/gyogyszertarak-kapuvar/szent-katalin-gyogyszertar/"/>
    <tag k="amenity" v="pharmacy"/>
    <tag k="dispensing" v="yes"/>
    <tag k="payment:debit_cards" v="yes"/>
    <tag k="payment:cash" v="yes"/>
  </node>
  <node action="modify" id="-220" lat="47.232112" lon="16.6291939">
    <tag k="name" v="Benu gyógyszertár"/>
    <tag k="addr:city" v="Szombathely"/>
    <tag k="addr:postcode" v="9700"/>
    <tag k="addr:street" v="Szent Márton utca"/>
    <tag k="addr:housenumber" v="18"/>
    <tag k="phone" v="+3694318438"/>
    <tag k="website" v="https://www.benu.huhttps://benu.hu/gyogyszertaraink/gyogyszertarak-vas-megye/gyogyszertarak-szombathely/szent-marton-gyogyszertar/"/>
    <tag k="amenity" v="pharmacy"/>
    <tag k="dispensing" v="yes"/>
    <tag k="payment:debit_cards" v="yes"/>
    <tag k="payment:cash" v="yes"/>
  </node>
  <node action="modify" id="-221" lat="46.6245702" lon="16.5455524">
    <tag k="name" v="Benu gyógyszertár"/>
    <tag k="addr:city" v="Lenti"/>
    <tag k="addr:postcode" v="8960"/>
    <tag k="addr:street" v="Takarék köz"/>
    <tag k="addr:housenumber" v="10/a"/>
    <tag k="phone" v="+3692351035"/>
    <tag k="website" v="https://www.benu.huhttps://benu.hu/gyogyszertaraink/gyogyszertarak-zala-megye/gyogyszertarak-lenti/szent-mihaly-gyogyszertar/"/>
    <tag k="amenity" v="pharmacy"/>
    <tag k="dispensing" v="yes"/>
    <tag k="payment:debit_cards" v="yes"/>
    <tag k="payment:cash" v="yes"/>
  </node>
  <node action="modify" id="-222" lat="46.9781651" lon="18.9306051">
    <tag k="name" v="Benu gyógyszertár"/>
    <tag k="addr:city" v="Dunaújváros"/>
    <tag k="addr:postcode" v="2400"/>
    <tag k="addr:street" v="Petőfi út"/>
    <tag k="addr:housenumber" v="3"/>
    <tag k="phone" v="+3625286424"/>
    <tag k="website" v="https://www.benu.huhttps://benu.hu/gyogyszertaraink/gyogyszertarak-fejer-megye/gyogyszertarak-dunaujvaros/szentharomsag-gyogyszertar/"/>
    <tag k="amenity" v="pharmacy"/>
    <tag k="dispensing" v="yes"/>
    <tag k="payment:debit_cards" v="yes"/>
    <tag k="payment:cash" v="yes"/>
  </node>
  <node action="modify" id="-223" lat="46.615631" lon="18.844158">
    <tag k="name" v="Benu gyógyszertár"/>
    <tag k="addr:city" v="Paks"/>
    <tag k="addr:postcode" v="7030"/>
    <tag k="addr:street" v="Barátság utca"/>
    <tag k="addr:housenumber" v="1"/>
    <tag k="phone" v="+3675312000"/>
    <tag k="website" v="https://www.benu.huhttps://benu.hu/gyogyszertaraink/gyogyszertarak-tolna-megye/gyogyszertarak-paks/szivelyes-gyogyszertar/"/>
    <tag k="amenity" v="pharmacy"/>
    <tag k="dispensing" v="yes"/>
    <tag k="payment:debit_cards" v="yes"/>
    <tag k="payment:cash" v="yes"/>
  </node>
  <node action="modify" id="-224" lat="46.257739" lon="20.19949799999995">
    <tag k="name" v="Benu gyógyszertár"/>
    <tag k="addr:city" v="Szeged"/>
    <tag k="addr:postcode" v="6753"/>
    <tag k="addr:street" v="Budai Nagy Antal utca"/>
    <tag k="addr:housenumber" v="12"/>
    <tag k="phone" v="+3662496907"/>
    <tag k="website" v="https://www.benu.hu"/>
    <tag k="amenity" v="pharmacy"/>
    <tag k="dispensing" v="yes"/>
    <tag k="payment:debit_cards" v="yes"/>
    <tag k="payment:cash" v="yes"/>
  </node>
  <node action="modify" id="-225" lat="47.5483004" lon="21.610428">
    <tag k="name" v="Benu gyógyszertár"/>
    <tag k="addr:city" v="Debrecen"/>
    <tag k="addr:postcode" v="4032"/>
    <tag k="addr:street" v="Böszörményi út"/>
    <tag k="addr:housenumber" v="75"/>
    <tag k="phone" v="+3652431950"/>
    <tag k="website" v="https://www.benu.huhttps://benu.hu/gyogyszertaraink/gyogyszertarak-hajdu-bihar-megye/gyogyszertarak-debrecen/ujkerti-patika/"/>
    <tag k="amenity" v="pharmacy"/>
    <tag k="dispensing" v="yes"/>
    <tag k="payment:debit_cards" v="yes"/>
    <tag k="payment:cash" v="yes"/>
  </node>
  <node action="modify" id="-226" lat="46.1790634" lon="18.9533383">
    <tag k="name" v="Benu gyógyszertár"/>
    <tag k="addr:city" v="Baja"/>
    <tag k="addr:postcode" v="6500"/>
    <tag k="addr:street" v="Déri sétány"/>
    <tag k="addr:housenumber" v="4/a"/>
    <tag k="phone" v="+3679324165"/>
    <tag k="website" v="https://www.benu.huhttps://benu.hu/gyogyszertaraink/gyogyszertarak-bacs-kiskun-megye/gyogyszertarak-baja/varoskapu-gyogyszertar/"/>
    <tag k="amenity" v="pharmacy"/>
    <tag k="dispensing" v="yes"/>
    <tag k="payment:debit_cards" v="yes"/>
    <tag k="payment:cash" v="yes"/>
  </node>
  <node action="modify" id="-227" lat="47.511889" lon="19.1432302">
    <tag k="name" v="Benu gyógyszertár"/>
    <tag k="addr:city" v="Budapest"/>
    <tag k="addr:postcode" v="1144"/>
    <tag k="addr:street" v="Csertő park"/>
    <tag k="addr:housenumber" v="17"/>
    <tag k="phone" v="+3614220258"/>
    <tag k="website" v="https://www.benu.huhttps://benu.hu/gyogyszertaraink/gyogyszertarak-budapest/gyogyszertarak-budapest-xiv-kerulet/vezer-gyogyszertar/"/>
    <tag k="amenity" v="pharmacy"/>
    <tag k="dispensing" v="yes"/>
    <tag k="payment:debit_cards" v="yes"/>
    <tag k="payment:cash" v="yes"/>
  </node>
  <node action="modify" id="-228" lat="47.1905417" lon="18.4089829">
    <tag k="name" v="Benu gyógyszertár"/>
    <tag k="addr:city" v="Székesfehérvár"/>
    <tag k="addr:postcode" v="8000"/>
    <tag k="addr:street" v="Liszt Ferenc utca"/>
    <tag k="addr:housenumber" v="7"/>
    <tag k="phone" v="+3622786422"/>
    <tag k="website" v="https://www.benu.huhttps://benu.hu/gyogyszertaraink/gyogyszertarak-fejer-megye/gyogyszertarak-szekesfehervar/vital-plusz-patika/"/>
    <tag k="amenity" v="pharmacy"/>
    <tag k="dispensing" v="yes"/>
    <tag k="payment:debit_cards" v="yes"/>
    <tag k="payment:cash" v="yes"/>
  </node>
  <node action="modify" id="-229" lat="46.5610069" lon="17.123462">
    <tag k="name" v="Benu gyógyszertár"/>
    <tag k="addr:city" v="Zalakaros"/>
    <tag k="addr:postcode" v="8749"/>
    <tag k="addr:street" v="Fő út"/>
    <tag k="addr:housenumber" v="1"/>
    <tag k="phone" v="+3693340393"/>
    <tag k="website" v="https://www.benu.huhttps://benu.hu/gyogyszertaraink/gyogyszertarak-zala-megye/gyogyszertarak-zalakaros/zalakarosi-termal-gyogyszertar/"/>
    <tag k="amenity" v="pharmacy"/>
    <tag k="dispensing" v="yes"/>
    <tag k="payment:debit_cards" v="yes"/>
    <tag k="payment:cash" v="yes"/>
  </node>
  <node action="modify" id="-230" lat="47.4695371" lon="21.4902245">
    <tag k="name" v="Benu gyógyszertár"/>
    <tag k="addr:city" v="Ebes"/>
    <tag k="addr:postcode" v="4211"/>
    <tag k="addr:street" v="Kossuth utca"/>
    <tag k="addr:housenumber" v="4"/>
    <tag k="phone" v="+3652366213"/>
    <tag k="website" v="https://www.benu.huhttps://benu.hu/gyogyszertaraink/gyogyszertarak-hajdu-bihar-megye/gyogyszertarak-ebes/zsalya-gyogyszertar-ebes/"/>
    <tag k="amenity" v="pharmacy"/>
    <tag k="dispensing" v="yes"/>
    <tag k="payment:debit_cards" v="yes"/>
    <tag k="payment:cash" v="yes"/>
  </node>
  <node action="modify" id="-231" lat="47.5239362" lon="19.1033133">
    <tag k="name" v="Benu gyógyszertár"/>
    <tag k="addr:city" v="Budapest"/>
    <tag k="addr:postcode" v="1147"/>
    <tag k="addr:street" v="Erzsébet királyné út"/>
    <tag k="addr:housenumber" v="47/a"/>
    <tag k="phone" v="+3614130208"/>
    <tag k="website" v="https://www.benu.huhttps://benu.hu/gyogyszertaraink/gyogyszertarak-budapest/gyogyszertarak-budapest-xiv-kerulet/zuglo-gyogyszertar/"/>
    <tag k="amenity" v="pharmacy"/>
    <tag k="dispensing" v="yes"/>
    <tag k="payment:debit_cards" v="yes"/>
    <tag k="payment:cash" v="yes"/>
  </node>
</osm>
