<?xml version='1.0' encoding='UTF-8'?>
<osm generator="JOSM" version="0.6">
  <node action="modify" id="-1" lat="47.5438008" lon="19.028565">
    <tag k="name" v="dm"/>
    <tag k="addr:city" v="Budapest"/>
    <tag k="addr:postcode" v="1037"/>
    <tag k="addr:street" v="Bécsi út"/>
    <tag k="addr:housenumber" v="136"/>
    <tag k="website" v="https://www.dm.hu"/>
    <tag k="payment:cash" v="yes"/>
    <tag k="shop" v="chemist"/>
    <tag k="facebook" v="https://www.facebook.com/dm.Magyarorszag"/>
    <tag k="operator" v="dm Kft."/>
    <tag k="payment:debit_cards" v="yes"/>
    <tag k="brand" v="dm"/>
    <tag k="instagram" v="https://www.instagram.com/dm_magyarorszag/"/>
    <tag k="youtube" v="https://www.youtube.com/user/dmMagyarorszag"/>
  </node>
  <node action="modify" id="-2" lat="47.59814" lon="19.05152">
    <tag k="name" v="dm"/>
    <tag k="addr:city" v="Budapest"/>
    <tag k="addr:postcode" v="1039"/>
    <tag k="addr:street" v="Csobánka tér"/>
    <tag k="addr:housenumber" v="1"/>
    <tag k="website" v="https://www.dm.hu"/>
    <tag k="payment:cash" v="yes"/>
    <tag k="shop" v="chemist"/>
    <tag k="facebook" v="https://www.facebook.com/dm.Magyarorszag"/>
    <tag k="operator" v="dm Kft."/>
    <tag k="payment:debit_cards" v="yes"/>
    <tag k="brand" v="dm"/>
    <tag k="instagram" v="https://www.instagram.com/dm_magyarorszag/"/>
    <tag k="youtube" v="https://www.youtube.com/user/dmMagyarorszag"/>
  </node>
  <node action="modify" id="-3" lat="47.5811642" lon="19.0498929">
    <tag k="name" v="dm"/>
    <tag k="addr:city" v="Budapest"/>
    <tag k="addr:postcode" v="1039"/>
    <tag k="addr:street" v="Rákóczi út"/>
    <tag k="addr:housenumber" v="36"/>
    <tag k="website" v="https://www.dm.hu"/>
    <tag k="payment:cash" v="yes"/>
    <tag k="shop" v="chemist"/>
    <tag k="facebook" v="https://www.facebook.com/dm.Magyarorszag"/>
    <tag k="operator" v="dm Kft."/>
    <tag k="payment:debit_cards" v="yes"/>
    <tag k="brand" v="dm"/>
    <tag k="instagram" v="https://www.instagram.com/dm_magyarorszag/"/>
    <tag k="youtube" v="https://www.youtube.com/user/dmMagyarorszag"/>
  </node>
  <node action="modify" id="-4" lat="47.4332335" lon="19.2017797">
    <tag k="name" v="dm"/>
    <tag k="addr:city" v="Budapest"/>
    <tag k="addr:postcode" v="1182"/>
    <tag k="addr:street" v="Üllői út"/>
    <tag k="addr:housenumber" v="661"/>
    <tag k="website" v="https://www.dm.hu"/>
    <tag k="payment:cash" v="yes"/>
    <tag k="shop" v="chemist"/>
    <tag k="facebook" v="https://www.facebook.com/dm.Magyarorszag"/>
    <tag k="operator" v="dm Kft."/>
    <tag k="payment:debit_cards" v="yes"/>
    <tag k="brand" v="dm"/>
    <tag k="instagram" v="https://www.instagram.com/dm_magyarorszag/"/>
    <tag k="youtube" v="https://www.youtube.com/user/dmMagyarorszag"/>
  </node>
  <node action="modify" id="-5" lat="47.6511" lon="18.32556">
    <tag k="name" v="dm"/>
    <tag k="addr:city" v="Tata"/>
    <tag k="addr:postcode" v="2890"/>
    <tag k="addr:street" v="Ady Endre út"/>
    <tag k="addr:housenumber" v="10"/>
    <tag k="website" v="https://www.dm.hu"/>
    <tag k="payment:cash" v="yes"/>
    <tag k="shop" v="chemist"/>
    <tag k="facebook" v="https://www.facebook.com/dm.Magyarorszag"/>
    <tag k="operator" v="dm Kft."/>
    <tag k="payment:debit_cards" v="yes"/>
    <tag k="brand" v="dm"/>
    <tag k="instagram" v="https://www.instagram.com/dm_magyarorszag/"/>
    <tag k="youtube" v="https://www.youtube.com/user/dmMagyarorszag"/>
  </node>
  <node action="modify" id="-6" lat="47.59827" lon="19.0577">
    <tag k="name" v="dm"/>
    <tag k="addr:city" v="Budapest"/>
    <tag k="addr:postcode" v="1039"/>
    <tag k="addr:street" v="Heltai Jenő tér"/>
    <tag k="addr:housenumber" v="1-3"/>
    <tag k="website" v="https://www.dm.hu"/>
    <tag k="payment:cash" v="yes"/>
    <tag k="shop" v="chemist"/>
    <tag k="facebook" v="https://www.facebook.com/dm.Magyarorszag"/>
    <tag k="operator" v="dm Kft."/>
    <tag k="payment:debit_cards" v="yes"/>
    <tag k="brand" v="dm"/>
    <tag k="instagram" v="https://www.instagram.com/dm_magyarorszag/"/>
    <tag k="youtube" v="https://www.youtube.com/user/dmMagyarorszag"/>
  </node>
  <node action="modify" id="-7" lat="47.47959" lon="19.25754">
    <tag k="name" v="dm"/>
    <tag k="addr:city" v="Budapest"/>
    <tag k="addr:postcode" v="1173"/>
    <tag k="addr:street" v="Pesti út"/>
    <tag k="addr:housenumber" v="172"/>
    <tag k="website" v="https://www.dm.hu"/>
    <tag k="payment:cash" v="yes"/>
    <tag k="shop" v="chemist"/>
    <tag k="facebook" v="https://www.facebook.com/dm.Magyarorszag"/>
    <tag k="operator" v="dm Kft."/>
    <tag k="payment:debit_cards" v="yes"/>
    <tag k="brand" v="dm"/>
    <tag k="instagram" v="https://www.instagram.com/dm_magyarorszag/"/>
    <tag k="youtube" v="https://www.youtube.com/user/dmMagyarorszag"/>
  </node>
  <node action="modify" id="-8" lat="47.5109" lon="19.03223">
    <tag k="name" v="dm"/>
    <tag k="addr:city" v="Budapest"/>
    <tag k="addr:postcode" v="1027"/>
    <tag k="addr:street" v="Margit körút"/>
    <tag k="addr:housenumber" v="50-52"/>
    <tag k="website" v="https://www.dm.hu"/>
    <tag k="payment:cash" v="yes"/>
    <tag k="shop" v="chemist"/>
    <tag k="facebook" v="https://www.facebook.com/dm.Magyarorszag"/>
    <tag k="operator" v="dm Kft."/>
    <tag k="payment:debit_cards" v="yes"/>
    <tag k="brand" v="dm"/>
    <tag k="instagram" v="https://www.instagram.com/dm_magyarorszag/"/>
    <tag k="youtube" v="https://www.youtube.com/user/dmMagyarorszag"/>
  </node>
  <node action="modify" id="-9" lat="47.5471467" lon="19.0276188">
    <tag k="name" v="dm"/>
    <tag k="addr:city" v="Budapest"/>
    <tag k="addr:postcode" v="1037"/>
    <tag k="addr:street" v="Bécsi út"/>
    <tag k="addr:housenumber" v="154"/>
    <tag k="website" v="https://www.dm.hu"/>
    <tag k="payment:cash" v="yes"/>
    <tag k="shop" v="chemist"/>
    <tag k="facebook" v="https://www.facebook.com/dm.Magyarorszag"/>
    <tag k="operator" v="dm Kft."/>
    <tag k="payment:debit_cards" v="yes"/>
    <tag k="brand" v="dm"/>
    <tag k="instagram" v="https://www.instagram.com/dm_magyarorszag/"/>
    <tag k="youtube" v="https://www.youtube.com/user/dmMagyarorszag"/>
  </node>
  <node action="modify" id="-10" lat="47.50616" lon="19.03808">
    <tag k="name" v="dm"/>
    <tag k="addr:city" v="Budapest"/>
    <tag k="addr:postcode" v="1011"/>
    <tag k="addr:street" v="Batthyány tér"/>
    <tag k="addr:housenumber" v="5-6"/>
    <tag k="website" v="https://www.dm.hu"/>
    <tag k="payment:cash" v="yes"/>
    <tag k="shop" v="chemist"/>
    <tag k="facebook" v="https://www.facebook.com/dm.Magyarorszag"/>
    <tag k="operator" v="dm Kft."/>
    <tag k="payment:debit_cards" v="yes"/>
    <tag k="brand" v="dm"/>
    <tag k="instagram" v="https://www.instagram.com/dm_magyarorszag/"/>
    <tag k="youtube" v="https://www.youtube.com/user/dmMagyarorszag"/>
  </node>
  <node action="modify" id="-11" lat="47.49998" lon="19.02562">
    <tag k="name" v="dm"/>
    <tag k="addr:city" v="Budapest"/>
    <tag k="addr:postcode" v="1012"/>
    <tag k="addr:street" v="Krisztina körút"/>
    <tag k="addr:housenumber" v="39/b"/>
    <tag k="website" v="https://www.dm.hu"/>
    <tag k="payment:cash" v="yes"/>
    <tag k="shop" v="chemist"/>
    <tag k="facebook" v="https://www.facebook.com/dm.Magyarorszag"/>
    <tag k="operator" v="dm Kft."/>
    <tag k="payment:debit_cards" v="yes"/>
    <tag k="brand" v="dm"/>
    <tag k="instagram" v="https://www.instagram.com/dm_magyarorszag/"/>
    <tag k="youtube" v="https://www.youtube.com/user/dmMagyarorszag"/>
  </node>
  <node action="modify" id="-12" lat="47.4967653" lon="19.0317985">
    <tag k="name" v="dm"/>
    <tag k="addr:city" v="Budapest"/>
    <tag k="addr:postcode" v="1013"/>
    <tag k="addr:street" v="Krisztina krt."/>
    <tag k="addr:housenumber" v="65-67"/>
    <tag k="website" v="https://www.dm.hu"/>
    <tag k="payment:cash" v="yes"/>
    <tag k="shop" v="chemist"/>
    <tag k="facebook" v="https://www.facebook.com/dm.Magyarorszag"/>
    <tag k="operator" v="dm Kft."/>
    <tag k="payment:debit_cards" v="yes"/>
    <tag k="brand" v="dm"/>
    <tag k="instagram" v="https://www.instagram.com/dm_magyarorszag/"/>
    <tag k="youtube" v="https://www.youtube.com/user/dmMagyarorszag"/>
  </node>
  <node action="modify" id="-13" lat="47.53768" lon="18.96638">
    <tag k="name" v="dm"/>
    <tag k="addr:city" v="Budapest"/>
    <tag k="addr:postcode" v="1021"/>
    <tag k="addr:street" v="Hűvösvölgyi út"/>
    <tag k="addr:housenumber" v="138"/>
    <tag k="website" v="https://www.dm.hu"/>
    <tag k="payment:cash" v="yes"/>
    <tag k="shop" v="chemist"/>
    <tag k="facebook" v="https://www.facebook.com/dm.Magyarorszag"/>
    <tag k="operator" v="dm Kft."/>
    <tag k="payment:debit_cards" v="yes"/>
    <tag k="brand" v="dm"/>
    <tag k="instagram" v="https://www.instagram.com/dm_magyarorszag/"/>
    <tag k="youtube" v="https://www.youtube.com/user/dmMagyarorszag"/>
  </node>
  <node action="modify" id="-14" lat="47.52717" lon="19.03827">
    <tag k="name" v="dm"/>
    <tag k="addr:city" v="Budapest"/>
    <tag k="addr:postcode" v="1023"/>
    <tag k="addr:street" v="Bécsi út"/>
    <tag k="addr:housenumber" v="33-35"/>
    <tag k="website" v="https://www.dm.hu"/>
    <tag k="payment:cash" v="yes"/>
    <tag k="shop" v="chemist"/>
    <tag k="facebook" v="https://www.facebook.com/dm.Magyarorszag"/>
    <tag k="operator" v="dm Kft."/>
    <tag k="payment:debit_cards" v="yes"/>
    <tag k="brand" v="dm"/>
    <tag k="instagram" v="https://www.instagram.com/dm_magyarorszag/"/>
    <tag k="youtube" v="https://www.youtube.com/user/dmMagyarorszag"/>
  </node>
  <node action="modify" id="-15" lat="47.5089792" lon="19.0266523">
    <tag k="name" v="dm"/>
    <tag k="addr:city" v="Budapest"/>
    <tag k="addr:postcode" v="1024"/>
    <tag k="addr:street" v="Lövőház utca"/>
    <tag k="addr:housenumber" v="1-5"/>
    <tag k="website" v="https://www.dm.hu"/>
    <tag k="payment:cash" v="yes"/>
    <tag k="shop" v="chemist"/>
    <tag k="facebook" v="https://www.facebook.com/dm.Magyarorszag"/>
    <tag k="operator" v="dm Kft."/>
    <tag k="payment:debit_cards" v="yes"/>
    <tag k="brand" v="dm"/>
    <tag k="instagram" v="https://www.instagram.com/dm_magyarorszag/"/>
    <tag k="youtube" v="https://www.youtube.com/user/dmMagyarorszag"/>
  </node>
  <node action="modify" id="-16" lat="47.5290574" lon="19.005256">
    <tag k="name" v="dm"/>
    <tag k="addr:city" v="Budapest"/>
    <tag k="addr:postcode" v="1025"/>
    <tag k="addr:street" v="Törökvész út"/>
    <tag k="addr:housenumber" v="87-91"/>
    <tag k="website" v="https://www.dm.hu"/>
    <tag k="payment:cash" v="yes"/>
    <tag k="shop" v="chemist"/>
    <tag k="facebook" v="https://www.facebook.com/dm.Magyarorszag"/>
    <tag k="operator" v="dm Kft."/>
    <tag k="payment:debit_cards" v="yes"/>
    <tag k="brand" v="dm"/>
    <tag k="instagram" v="https://www.instagram.com/dm_magyarorszag/"/>
    <tag k="youtube" v="https://www.youtube.com/user/dmMagyarorszag"/>
  </node>
  <node action="modify" id="-17" lat="47.51631" lon="18.9999">
    <tag k="name" v="dm"/>
    <tag k="addr:city" v="Budapest"/>
    <tag k="addr:postcode" v="1026"/>
    <tag k="addr:street" v="Pázsit u."/>
    <tag k="addr:housenumber" v="2"/>
    <tag k="website" v="https://www.dm.hu"/>
    <tag k="payment:cash" v="yes"/>
    <tag k="shop" v="chemist"/>
    <tag k="facebook" v="https://www.facebook.com/dm.Magyarorszag"/>
    <tag k="operator" v="dm Kft."/>
    <tag k="payment:debit_cards" v="yes"/>
    <tag k="brand" v="dm"/>
    <tag k="instagram" v="https://www.instagram.com/dm_magyarorszag/"/>
    <tag k="youtube" v="https://www.youtube.com/user/dmMagyarorszag"/>
  </node>
  <node action="modify" id="-18" lat="47.5225816" lon="19.0147754">
    <tag k="name" v="dm"/>
    <tag k="addr:city" v="Budapest"/>
    <tag k="addr:postcode" v="1026"/>
    <tag k="addr:street" v="Gábor Áron utca"/>
    <tag k="addr:housenumber" v="74-78"/>
    <tag k="website" v="https://www.dm.hu"/>
    <tag k="payment:cash" v="yes"/>
    <tag k="shop" v="chemist"/>
    <tag k="facebook" v="https://www.facebook.com/dm.Magyarorszag"/>
    <tag k="operator" v="dm Kft."/>
    <tag k="payment:debit_cards" v="yes"/>
    <tag k="brand" v="dm"/>
    <tag k="instagram" v="https://www.instagram.com/dm_magyarorszag/"/>
    <tag k="youtube" v="https://www.youtube.com/user/dmMagyarorszag"/>
  </node>
  <node action="modify" id="-19" lat="47.5610646" lon="19.1068556">
    <tag k="name" v="dm"/>
    <tag k="addr:city" v="Budapest"/>
    <tag k="addr:postcode" v="1042"/>
    <tag k="addr:street" v="Árpád út"/>
    <tag k="addr:housenumber" v="183-185"/>
    <tag k="website" v="https://www.dm.hu"/>
    <tag k="payment:cash" v="yes"/>
    <tag k="shop" v="chemist"/>
    <tag k="facebook" v="https://www.facebook.com/dm.Magyarorszag"/>
    <tag k="operator" v="dm Kft."/>
    <tag k="payment:debit_cards" v="yes"/>
    <tag k="brand" v="dm"/>
    <tag k="instagram" v="https://www.instagram.com/dm_magyarorszag/"/>
    <tag k="youtube" v="https://www.youtube.com/user/dmMagyarorszag"/>
  </node>
  <node action="modify" id="-20" lat="47.55732" lon="19.10019">
    <tag k="name" v="dm"/>
    <tag k="addr:city" v="Budapest"/>
    <tag k="addr:postcode" v="1045"/>
    <tag k="addr:street" v="Rózsa utca"/>
    <tag k="addr:housenumber" v="16-18"/>
    <tag k="website" v="https://www.dm.hu"/>
    <tag k="payment:cash" v="yes"/>
    <tag k="shop" v="chemist"/>
    <tag k="facebook" v="https://www.facebook.com/dm.Magyarorszag"/>
    <tag k="operator" v="dm Kft."/>
    <tag k="payment:debit_cards" v="yes"/>
    <tag k="brand" v="dm"/>
    <tag k="instagram" v="https://www.instagram.com/dm_magyarorszag/"/>
    <tag k="youtube" v="https://www.youtube.com/user/dmMagyarorszag"/>
  </node>
  <node action="modify" id="-21" lat="47.58048" lon="19.1146">
    <tag k="name" v="dm"/>
    <tag k="addr:city" v="Budapest"/>
    <tag k="addr:postcode" v="1048"/>
    <tag k="addr:street" v="Lóverseny tér"/>
    <tag k="addr:housenumber" v="3"/>
    <tag k="website" v="https://www.dm.hu"/>
    <tag k="payment:cash" v="yes"/>
    <tag k="shop" v="chemist"/>
    <tag k="facebook" v="https://www.facebook.com/dm.Magyarorszag"/>
    <tag k="operator" v="dm Kft."/>
    <tag k="payment:debit_cards" v="yes"/>
    <tag k="brand" v="dm"/>
    <tag k="instagram" v="https://www.instagram.com/dm_magyarorszag/"/>
    <tag k="youtube" v="https://www.youtube.com/user/dmMagyarorszag"/>
  </node>
  <node action="modify" id="-22" lat="47.50251" lon="19.05308">
    <tag k="name" v="dm"/>
    <tag k="addr:city" v="Budapest"/>
    <tag k="addr:postcode" v="1051"/>
    <tag k="addr:street" v="Arany János utca"/>
    <tag k="addr:housenumber" v="30"/>
    <tag k="website" v="https://www.dm.hu"/>
    <tag k="payment:cash" v="yes"/>
    <tag k="shop" v="chemist"/>
    <tag k="facebook" v="https://www.facebook.com/dm.Magyarorszag"/>
    <tag k="operator" v="dm Kft."/>
    <tag k="payment:debit_cards" v="yes"/>
    <tag k="brand" v="dm"/>
    <tag k="instagram" v="https://www.instagram.com/dm_magyarorszag/"/>
    <tag k="youtube" v="https://www.youtube.com/user/dmMagyarorszag"/>
  </node>
  <node action="modify" id="-23" lat="47.49626" lon="19.05736">
    <tag k="name" v="dm"/>
    <tag k="addr:city" v="Budapest"/>
    <tag k="addr:postcode" v="1052"/>
    <tag k="addr:street" v="Károly körút"/>
    <tag k="addr:housenumber" v="26"/>
    <tag k="website" v="https://www.dm.hu"/>
    <tag k="payment:cash" v="yes"/>
    <tag k="shop" v="chemist"/>
    <tag k="facebook" v="https://www.facebook.com/dm.Magyarorszag"/>
    <tag k="operator" v="dm Kft."/>
    <tag k="payment:debit_cards" v="yes"/>
    <tag k="brand" v="dm"/>
    <tag k="instagram" v="https://www.instagram.com/dm_magyarorszag/"/>
    <tag k="youtube" v="https://www.youtube.com/user/dmMagyarorszag"/>
  </node>
  <node action="modify" id="-24" lat="47.4936041" lon="19.0552508">
    <tag k="name" v="dm"/>
    <tag k="addr:city" v="Budapest"/>
    <tag k="addr:postcode" v="1052"/>
    <tag k="addr:street" v="Petőfi Sándor utca"/>
    <tag k="addr:housenumber" v="3"/>
    <tag k="website" v="https://www.dm.hu"/>
    <tag k="payment:cash" v="yes"/>
    <tag k="shop" v="chemist"/>
    <tag k="facebook" v="https://www.facebook.com/dm.Magyarorszag"/>
    <tag k="operator" v="dm Kft."/>
    <tag k="payment:debit_cards" v="yes"/>
    <tag k="brand" v="dm"/>
    <tag k="instagram" v="https://www.instagram.com/dm_magyarorszag/"/>
    <tag k="youtube" v="https://www.youtube.com/user/dmMagyarorszag"/>
  </node>
  <node action="modify" id="-25" lat="47.49671" lon="19.05386">
    <tag k="name" v="dm"/>
    <tag k="addr:city" v="Budapest"/>
    <tag k="addr:postcode" v="1052"/>
    <tag k="addr:street" v="Sütő u."/>
    <tag k="addr:housenumber" v="2"/>
    <tag k="website" v="https://www.dm.hu"/>
    <tag k="payment:cash" v="yes"/>
    <tag k="shop" v="chemist"/>
    <tag k="facebook" v="https://www.facebook.com/dm.Magyarorszag"/>
    <tag k="operator" v="dm Kft."/>
    <tag k="payment:debit_cards" v="yes"/>
    <tag k="brand" v="dm"/>
    <tag k="instagram" v="https://www.instagram.com/dm_magyarorszag/"/>
    <tag k="youtube" v="https://www.youtube.com/user/dmMagyarorszag"/>
  </node>
  <node action="modify" id="-26" lat="47.48868" lon="19.0603">
    <tag k="name" v="dm"/>
    <tag k="addr:city" v="Budapest"/>
    <tag k="addr:postcode" v="1053"/>
    <tag k="addr:street" v="Királyi Pál utca"/>
    <tag k="addr:housenumber" v="20"/>
    <tag k="website" v="https://www.dm.hu"/>
    <tag k="payment:cash" v="yes"/>
    <tag k="shop" v="chemist"/>
    <tag k="facebook" v="https://www.facebook.com/dm.Magyarorszag"/>
    <tag k="operator" v="dm Kft."/>
    <tag k="payment:debit_cards" v="yes"/>
    <tag k="brand" v="dm"/>
    <tag k="instagram" v="https://www.instagram.com/dm_magyarorszag/"/>
    <tag k="youtube" v="https://www.youtube.com/user/dmMagyarorszag"/>
  </node>
  <node action="modify" id="-27" lat="47.51227" lon="19.05057">
    <tag k="name" v="dm"/>
    <tag k="addr:city" v="Budapest"/>
    <tag k="addr:postcode" v="1055"/>
    <tag k="addr:street" v="Szent István körút"/>
    <tag k="addr:housenumber" v="11"/>
    <tag k="website" v="https://www.dm.hu"/>
    <tag k="payment:cash" v="yes"/>
    <tag k="shop" v="chemist"/>
    <tag k="facebook" v="https://www.facebook.com/dm.Magyarorszag"/>
    <tag k="operator" v="dm Kft."/>
    <tag k="payment:debit_cards" v="yes"/>
    <tag k="brand" v="dm"/>
    <tag k="instagram" v="https://www.instagram.com/dm_magyarorszag/"/>
    <tag k="youtube" v="https://www.youtube.com/user/dmMagyarorszag"/>
  </node>
  <node action="modify" id="-28" lat="47.50009" lon="19.05993">
    <tag k="name" v="dm"/>
    <tag k="addr:city" v="Budapest"/>
    <tag k="addr:postcode" v="1061"/>
    <tag k="addr:street" v="Király utca"/>
    <tag k="addr:housenumber" v="34"/>
    <tag k="website" v="https://www.dm.hu"/>
    <tag k="payment:cash" v="yes"/>
    <tag k="shop" v="chemist"/>
    <tag k="facebook" v="https://www.facebook.com/dm.Magyarorszag"/>
    <tag k="operator" v="dm Kft."/>
    <tag k="payment:debit_cards" v="yes"/>
    <tag k="brand" v="dm"/>
    <tag k="instagram" v="https://www.instagram.com/dm_magyarorszag/"/>
    <tag k="youtube" v="https://www.youtube.com/user/dmMagyarorszag"/>
  </node>
  <node action="modify" id="-29" lat="47.50338" lon="19.06081">
    <tag k="name" v="dm"/>
    <tag k="addr:city" v="Budapest"/>
    <tag k="addr:postcode" v="1066"/>
    <tag k="addr:street" v="Andrássy utca"/>
    <tag k="addr:housenumber" v="35"/>
    <tag k="website" v="https://www.dm.hu"/>
    <tag k="payment:cash" v="yes"/>
    <tag k="shop" v="chemist"/>
    <tag k="facebook" v="https://www.facebook.com/dm.Magyarorszag"/>
    <tag k="operator" v="dm Kft."/>
    <tag k="payment:debit_cards" v="yes"/>
    <tag k="brand" v="dm"/>
    <tag k="instagram" v="https://www.instagram.com/dm_magyarorszag/"/>
    <tag k="youtube" v="https://www.youtube.com/user/dmMagyarorszag"/>
  </node>
  <node action="modify" id="-30" lat="47.51362" lon="19.0595">
    <tag k="name" v="dm"/>
    <tag k="addr:city" v="Budapest"/>
    <tag k="addr:postcode" v="1062"/>
    <tag k="addr:street" v="Váci út"/>
    <tag k="addr:housenumber" v="1-3"/>
    <tag k="website" v="https://www.dm.hu"/>
    <tag k="payment:cash" v="yes"/>
    <tag k="shop" v="chemist"/>
    <tag k="facebook" v="https://www.facebook.com/dm.Magyarorszag"/>
    <tag k="operator" v="dm Kft."/>
    <tag k="payment:debit_cards" v="yes"/>
    <tag k="brand" v="dm"/>
    <tag k="instagram" v="https://www.instagram.com/dm_magyarorszag/"/>
    <tag k="youtube" v="https://www.youtube.com/user/dmMagyarorszag"/>
  </node>
  <node action="modify" id="-31" lat="47.50867" lon="19.05517">
    <tag k="name" v="dm"/>
    <tag k="addr:city" v="Budapest"/>
    <tag k="addr:postcode" v="1065"/>
    <tag k="addr:street" v="Bajcsy Zsilinszky út"/>
    <tag k="addr:housenumber" v="59"/>
    <tag k="website" v="https://www.dm.hu"/>
    <tag k="payment:cash" v="yes"/>
    <tag k="shop" v="chemist"/>
    <tag k="facebook" v="https://www.facebook.com/dm.Magyarorszag"/>
    <tag k="operator" v="dm Kft."/>
    <tag k="payment:debit_cards" v="yes"/>
    <tag k="brand" v="dm"/>
    <tag k="instagram" v="https://www.instagram.com/dm_magyarorszag/"/>
    <tag k="youtube" v="https://www.youtube.com/user/dmMagyarorszag"/>
  </node>
  <node action="modify" id="-32" lat="47.50797" lon="19.05926">
    <tag k="name" v="dm"/>
    <tag k="addr:city" v="Budapest"/>
    <tag k="addr:postcode" v="1066"/>
    <tag k="addr:street" v="Teréz körút"/>
    <tag k="addr:housenumber" v="46"/>
    <tag k="website" v="https://www.dm.hu"/>
    <tag k="payment:cash" v="yes"/>
    <tag k="shop" v="chemist"/>
    <tag k="facebook" v="https://www.facebook.com/dm.Magyarorszag"/>
    <tag k="operator" v="dm Kft."/>
    <tag k="payment:debit_cards" v="yes"/>
    <tag k="brand" v="dm"/>
    <tag k="instagram" v="https://www.instagram.com/dm_magyarorszag/"/>
    <tag k="youtube" v="https://www.youtube.com/user/dmMagyarorszag"/>
  </node>
  <node action="modify" id="-33" lat="47.50627" lon="19.076">
    <tag k="name" v="dm"/>
    <tag k="addr:city" v="Budapest"/>
    <tag k="addr:postcode" v="1071"/>
    <tag k="addr:street" v="Damjanich utca"/>
    <tag k="addr:housenumber" v="11-15"/>
    <tag k="website" v="https://www.dm.hu"/>
    <tag k="payment:cash" v="yes"/>
    <tag k="shop" v="chemist"/>
    <tag k="facebook" v="https://www.facebook.com/dm.Magyarorszag"/>
    <tag k="operator" v="dm Kft."/>
    <tag k="payment:debit_cards" v="yes"/>
    <tag k="brand" v="dm"/>
    <tag k="instagram" v="https://www.instagram.com/dm_magyarorszag/"/>
    <tag k="youtube" v="https://www.youtube.com/user/dmMagyarorszag"/>
  </node>
  <node action="modify" id="-34" lat="47.5038325" lon="19.0853581">
    <tag k="name" v="dm"/>
    <tag k="addr:city" v="Budapest"/>
    <tag k="addr:postcode" v="1078"/>
    <tag k="addr:street" v="Garay tér"/>
    <tag k="addr:housenumber" v="20"/>
    <tag k="website" v="https://www.dm.hu"/>
    <tag k="payment:cash" v="yes"/>
    <tag k="shop" v="chemist"/>
    <tag k="facebook" v="https://www.facebook.com/dm.Magyarorszag"/>
    <tag k="operator" v="dm Kft."/>
    <tag k="payment:debit_cards" v="yes"/>
    <tag k="brand" v="dm"/>
    <tag k="instagram" v="https://www.instagram.com/dm_magyarorszag/"/>
    <tag k="youtube" v="https://www.youtube.com/user/dmMagyarorszag"/>
  </node>
  <node action="modify" id="-35" lat="47.49576" lon="19.0723">
    <tag k="name" v="dm"/>
    <tag k="addr:city" v="Budapest"/>
    <tag k="addr:postcode" v="1081"/>
    <tag k="addr:street" v="Népszínház utca"/>
    <tag k="addr:housenumber" v="13"/>
    <tag k="website" v="https://www.dm.hu"/>
    <tag k="payment:cash" v="yes"/>
    <tag k="shop" v="chemist"/>
    <tag k="facebook" v="https://www.facebook.com/dm.Magyarorszag"/>
    <tag k="operator" v="dm Kft."/>
    <tag k="payment:debit_cards" v="yes"/>
    <tag k="brand" v="dm"/>
    <tag k="instagram" v="https://www.instagram.com/dm_magyarorszag/"/>
    <tag k="youtube" v="https://www.youtube.com/user/dmMagyarorszag"/>
  </node>
  <node action="modify" id="-36" lat="47.4862591" lon="19.0738342">
    <tag k="name" v="dm"/>
    <tag k="addr:city" v="Budapest"/>
    <tag k="addr:postcode" v="1082"/>
    <tag k="addr:street" v="Kisfaludy u."/>
    <tag k="addr:housenumber" v="32-38"/>
    <tag k="website" v="https://www.dm.hu"/>
    <tag k="payment:cash" v="yes"/>
    <tag k="shop" v="chemist"/>
    <tag k="facebook" v="https://www.facebook.com/dm.Magyarorszag"/>
    <tag k="operator" v="dm Kft."/>
    <tag k="payment:debit_cards" v="yes"/>
    <tag k="brand" v="dm"/>
    <tag k="instagram" v="https://www.instagram.com/dm_magyarorszag/"/>
    <tag k="youtube" v="https://www.youtube.com/user/dmMagyarorszag"/>
  </node>
  <node action="modify" id="-37" lat="47.48916" lon="19.08041">
    <tag k="name" v="dm"/>
    <tag k="addr:city" v="Budapest"/>
    <tag k="addr:postcode" v="1082"/>
    <tag k="addr:street" v="Baross utca"/>
    <tag k="addr:housenumber" v="98"/>
    <tag k="website" v="https://www.dm.hu"/>
    <tag k="payment:cash" v="yes"/>
    <tag k="shop" v="chemist"/>
    <tag k="facebook" v="https://www.facebook.com/dm.Magyarorszag"/>
    <tag k="operator" v="dm Kft."/>
    <tag k="payment:debit_cards" v="yes"/>
    <tag k="brand" v="dm"/>
    <tag k="instagram" v="https://www.instagram.com/dm_magyarorszag/"/>
    <tag k="youtube" v="https://www.youtube.com/user/dmMagyarorszag"/>
  </node>
  <node action="modify" id="-38" lat="47.49047" lon="19.07091">
    <tag k="name" v="dm"/>
    <tag k="addr:city" v="Budapest"/>
    <tag k="addr:postcode" v="1085"/>
    <tag k="addr:street" v="József körút"/>
    <tag k="addr:housenumber" v="46"/>
    <tag k="website" v="https://www.dm.hu"/>
    <tag k="payment:cash" v="yes"/>
    <tag k="shop" v="chemist"/>
    <tag k="facebook" v="https://www.facebook.com/dm.Magyarorszag"/>
    <tag k="operator" v="dm Kft."/>
    <tag k="payment:debit_cards" v="yes"/>
    <tag k="brand" v="dm"/>
    <tag k="instagram" v="https://www.instagram.com/dm_magyarorszag/"/>
    <tag k="youtube" v="https://www.youtube.com/user/dmMagyarorszag"/>
  </node>
  <node action="modify" id="-39" lat="47.498083" lon="19.093535">
    <tag k="name" v="dm"/>
    <tag k="addr:city" v="Budapest"/>
    <tag k="addr:postcode" v="1087"/>
    <tag k="addr:street" v="Kerepesi út"/>
    <tag k="addr:housenumber" v="9"/>
    <tag k="website" v="https://www.dm.hu"/>
    <tag k="payment:cash" v="yes"/>
    <tag k="shop" v="chemist"/>
    <tag k="facebook" v="https://www.facebook.com/dm.Magyarorszag"/>
    <tag k="operator" v="dm Kft."/>
    <tag k="payment:debit_cards" v="yes"/>
    <tag k="brand" v="dm"/>
    <tag k="instagram" v="https://www.instagram.com/dm_magyarorszag/"/>
    <tag k="youtube" v="https://www.youtube.com/user/dmMagyarorszag"/>
  </node>
  <node action="modify" id="-40" lat="47.48135" lon="19.06757">
    <tag k="name" v="dm"/>
    <tag k="addr:city" v="Budapest"/>
    <tag k="addr:postcode" v="1092"/>
    <tag k="addr:street" v="Ferenc körút"/>
    <tag k="addr:housenumber" v="2-4"/>
    <tag k="website" v="https://www.dm.hu"/>
    <tag k="payment:cash" v="yes"/>
    <tag k="shop" v="chemist"/>
    <tag k="facebook" v="https://www.facebook.com/dm.Magyarorszag"/>
    <tag k="operator" v="dm Kft."/>
    <tag k="payment:debit_cards" v="yes"/>
    <tag k="brand" v="dm"/>
    <tag k="instagram" v="https://www.instagram.com/dm_magyarorszag/"/>
    <tag k="youtube" v="https://www.youtube.com/user/dmMagyarorszag"/>
  </node>
  <node action="modify" id="-41" lat="47.47913" lon="19.073">
    <tag k="name" v="dm"/>
    <tag k="addr:city" v="Budapest"/>
    <tag k="addr:postcode" v="1095"/>
    <tag k="addr:street" v="Mester utca"/>
    <tag k="addr:housenumber" v="40-44"/>
    <tag k="website" v="https://www.dm.hu"/>
    <tag k="payment:cash" v="yes"/>
    <tag k="shop" v="chemist"/>
    <tag k="facebook" v="https://www.facebook.com/dm.Magyarorszag"/>
    <tag k="operator" v="dm Kft."/>
    <tag k="payment:debit_cards" v="yes"/>
    <tag k="brand" v="dm"/>
    <tag k="instagram" v="https://www.instagram.com/dm_magyarorszag/"/>
    <tag k="youtube" v="https://www.youtube.com/user/dmMagyarorszag"/>
  </node>
  <node action="modify" id="-42" lat="47.453767" lon="19.0885113">
    <tag k="name" v="dm"/>
    <tag k="addr:city" v="Budapest"/>
    <tag k="addr:postcode" v="1097"/>
    <tag k="addr:street" v="Soroksári út"/>
    <tag k="addr:housenumber" v="138-142"/>
    <tag k="website" v="https://www.dm.hu"/>
    <tag k="payment:cash" v="yes"/>
    <tag k="shop" v="chemist"/>
    <tag k="facebook" v="https://www.facebook.com/dm.Magyarorszag"/>
    <tag k="operator" v="dm Kft."/>
    <tag k="payment:debit_cards" v="yes"/>
    <tag k="brand" v="dm"/>
    <tag k="instagram" v="https://www.instagram.com/dm_magyarorszag/"/>
    <tag k="youtube" v="https://www.youtube.com/user/dmMagyarorszag"/>
  </node>
  <node action="modify" id="-43" lat="47.4701036" lon="19.0846317">
    <tag k="name" v="dm"/>
    <tag k="addr:city" v="Budapest"/>
    <tag k="addr:postcode" v="1097"/>
    <tag k="addr:street" v="Könyves Kálmán körút"/>
    <tag k="addr:housenumber" v="12-14"/>
    <tag k="website" v="https://www.dm.hu"/>
    <tag k="payment:cash" v="yes"/>
    <tag k="shop" v="chemist"/>
    <tag k="facebook" v="https://www.facebook.com/dm.Magyarorszag"/>
    <tag k="operator" v="dm Kft."/>
    <tag k="payment:debit_cards" v="yes"/>
    <tag k="brand" v="dm"/>
    <tag k="instagram" v="https://www.instagram.com/dm_magyarorszag/"/>
    <tag k="youtube" v="https://www.youtube.com/user/dmMagyarorszag"/>
  </node>
  <node action="modify" id="-44" lat="47.46223" lon="19.11476">
    <tag k="name" v="dm"/>
    <tag k="addr:city" v="Budapest"/>
    <tag k="addr:postcode" v="1098"/>
    <tag k="addr:street" v="Napfény utca"/>
    <tag k="addr:housenumber" v="7"/>
    <tag k="website" v="https://www.dm.hu"/>
    <tag k="payment:cash" v="yes"/>
    <tag k="shop" v="chemist"/>
    <tag k="facebook" v="https://www.facebook.com/dm.Magyarorszag"/>
    <tag k="operator" v="dm Kft."/>
    <tag k="payment:debit_cards" v="yes"/>
    <tag k="brand" v="dm"/>
    <tag k="instagram" v="https://www.instagram.com/dm_magyarorszag/"/>
    <tag k="youtube" v="https://www.youtube.com/user/dmMagyarorszag"/>
  </node>
  <node action="modify" id="-45" lat="47.48415" lon="19.12839">
    <tag k="name" v="dm"/>
    <tag k="addr:city" v="Budapest"/>
    <tag k="addr:postcode" v="1102"/>
    <tag k="addr:street" v="Liget tér"/>
    <tag k="addr:housenumber" v="5"/>
    <tag k="website" v="https://www.dm.hu"/>
    <tag k="payment:cash" v="yes"/>
    <tag k="shop" v="chemist"/>
    <tag k="facebook" v="https://www.facebook.com/dm.Magyarorszag"/>
    <tag k="operator" v="dm Kft."/>
    <tag k="payment:debit_cards" v="yes"/>
    <tag k="brand" v="dm"/>
    <tag k="instagram" v="https://www.instagram.com/dm_magyarorszag/"/>
    <tag k="youtube" v="https://www.youtube.com/user/dmMagyarorszag"/>
  </node>
  <node action="modify" id="-46" lat="47.46663" lon="19.15753">
    <tag k="name" v="dm"/>
    <tag k="addr:city" v="Budapest"/>
    <tag k="addr:postcode" v="1103"/>
    <tag k="addr:street" v="Gyömrői út"/>
    <tag k="addr:housenumber" v="99"/>
    <tag k="website" v="https://www.dm.hu"/>
    <tag k="payment:cash" v="yes"/>
    <tag k="shop" v="chemist"/>
    <tag k="facebook" v="https://www.facebook.com/dm.Magyarorszag"/>
    <tag k="operator" v="dm Kft."/>
    <tag k="payment:debit_cards" v="yes"/>
    <tag k="brand" v="dm"/>
    <tag k="instagram" v="https://www.instagram.com/dm_magyarorszag/"/>
    <tag k="youtube" v="https://www.youtube.com/user/dmMagyarorszag"/>
  </node>
  <node action="modify" id="-47" lat="47.50369" lon="19.15153">
    <tag k="name" v="dm"/>
    <tag k="addr:city" v="Budapest"/>
    <tag k="addr:postcode" v="1106"/>
    <tag k="addr:street" v="Kerepesi út"/>
    <tag k="addr:housenumber" v="73"/>
    <tag k="website" v="https://www.dm.hu"/>
    <tag k="payment:cash" v="yes"/>
    <tag k="shop" v="chemist"/>
    <tag k="facebook" v="https://www.facebook.com/dm.Magyarorszag"/>
    <tag k="operator" v="dm Kft."/>
    <tag k="payment:debit_cards" v="yes"/>
    <tag k="brand" v="dm"/>
    <tag k="instagram" v="https://www.instagram.com/dm_magyarorszag/"/>
    <tag k="youtube" v="https://www.youtube.com/user/dmMagyarorszag"/>
  </node>
  <node action="modify" id="-48" lat="47.50276" lon="19.13995">
    <tag k="name" v="dm"/>
    <tag k="addr:city" v="Budapest"/>
    <tag k="addr:postcode" v="1106"/>
    <tag k="addr:street" v="Őrs Vezér tér"/>
    <tag k="addr:housenumber" v="25"/>
    <tag k="website" v="https://www.dm.hu"/>
    <tag k="payment:cash" v="yes"/>
    <tag k="shop" v="chemist"/>
    <tag k="facebook" v="https://www.facebook.com/dm.Magyarorszag"/>
    <tag k="operator" v="dm Kft."/>
    <tag k="payment:debit_cards" v="yes"/>
    <tag k="brand" v="dm"/>
    <tag k="instagram" v="https://www.instagram.com/dm_magyarorszag/"/>
    <tag k="youtube" v="https://www.youtube.com/user/dmMagyarorszag"/>
  </node>
  <node action="modify" id="-49" lat="47.47704" lon="19.04556">
    <tag k="name" v="dm"/>
    <tag k="addr:city" v="Budapest"/>
    <tag k="addr:postcode" v="1114"/>
    <tag k="addr:street" v="Bartók Béla út"/>
    <tag k="addr:housenumber" v="62-64"/>
    <tag k="website" v="https://www.dm.hu"/>
    <tag k="payment:cash" v="yes"/>
    <tag k="shop" v="chemist"/>
    <tag k="facebook" v="https://www.facebook.com/dm.Magyarorszag"/>
    <tag k="operator" v="dm Kft."/>
    <tag k="payment:debit_cards" v="yes"/>
    <tag k="brand" v="dm"/>
    <tag k="instagram" v="https://www.instagram.com/dm_magyarorszag/"/>
    <tag k="youtube" v="https://www.youtube.com/user/dmMagyarorszag"/>
  </node>
  <node action="modify" id="-50" lat="47.48292" lon="19.05271">
    <tag k="name" v="dm"/>
    <tag k="addr:city" v="Budapest"/>
    <tag k="addr:postcode" v="1114"/>
    <tag k="addr:street" v="Bartók Béla út"/>
    <tag k="addr:housenumber" v="3-5"/>
    <tag k="website" v="https://www.dm.hu"/>
    <tag k="payment:cash" v="yes"/>
    <tag k="shop" v="chemist"/>
    <tag k="facebook" v="https://www.facebook.com/dm.Magyarorszag"/>
    <tag k="operator" v="dm Kft."/>
    <tag k="payment:debit_cards" v="yes"/>
    <tag k="brand" v="dm"/>
    <tag k="instagram" v="https://www.instagram.com/dm_magyarorszag/"/>
    <tag k="youtube" v="https://www.youtube.com/user/dmMagyarorszag"/>
  </node>
  <node action="modify" id="-51" lat="47.45045" lon="19.03828">
    <tag k="name" v="dm"/>
    <tag k="addr:city" v="Budapest"/>
    <tag k="addr:postcode" v="1116"/>
    <tag k="addr:street" v="Fehérvári út"/>
    <tag k="addr:housenumber" v="170-176"/>
    <tag k="website" v="https://www.dm.hu"/>
    <tag k="payment:cash" v="yes"/>
    <tag k="shop" v="chemist"/>
    <tag k="facebook" v="https://www.facebook.com/dm.Magyarorszag"/>
    <tag k="operator" v="dm Kft."/>
    <tag k="payment:debit_cards" v="yes"/>
    <tag k="brand" v="dm"/>
    <tag k="instagram" v="https://www.instagram.com/dm_magyarorszag/"/>
    <tag k="youtube" v="https://www.youtube.com/user/dmMagyarorszag"/>
  </node>
  <node action="modify" id="-52" lat="47.4358" lon="19.04109">
    <tag k="name" v="dm"/>
    <tag k="addr:city" v="Budapest"/>
    <tag k="addr:postcode" v="1116"/>
    <tag k="addr:street" v="Hunyadi János utca"/>
    <tag k="addr:housenumber" v="19"/>
    <tag k="website" v="https://www.dm.hu"/>
    <tag k="payment:cash" v="yes"/>
    <tag k="shop" v="chemist"/>
    <tag k="facebook" v="https://www.facebook.com/dm.Magyarorszag"/>
    <tag k="operator" v="dm Kft."/>
    <tag k="payment:debit_cards" v="yes"/>
    <tag k="brand" v="dm"/>
    <tag k="instagram" v="https://www.instagram.com/dm_magyarorszag/"/>
    <tag k="youtube" v="https://www.youtube.com/user/dmMagyarorszag"/>
  </node>
  <node action="modify" id="-53" lat="47.4742" lon="19.04862">
    <tag k="name" v="dm"/>
    <tag k="addr:city" v="Budapest"/>
    <tag k="addr:postcode" v="1117"/>
    <tag k="addr:street" v="Október 23. u."/>
    <tag k="addr:housenumber" v="6-10"/>
    <tag k="website" v="https://www.dm.hu"/>
    <tag k="payment:cash" v="yes"/>
    <tag k="shop" v="chemist"/>
    <tag k="facebook" v="https://www.facebook.com/dm.Magyarorszag"/>
    <tag k="operator" v="dm Kft."/>
    <tag k="payment:debit_cards" v="yes"/>
    <tag k="brand" v="dm"/>
    <tag k="instagram" v="https://www.instagram.com/dm_magyarorszag/"/>
    <tag k="youtube" v="https://www.youtube.com/user/dmMagyarorszag"/>
  </node>
  <node action="modify" id="-54" lat="47.46074" lon="19.05131">
    <tag k="name" v="dm"/>
    <tag k="addr:city" v="Budapest"/>
    <tag k="addr:postcode" v="1117"/>
    <tag k="addr:street" v="Hengermalom út"/>
    <tag k="addr:housenumber" v="19-21"/>
    <tag k="website" v="https://www.dm.hu"/>
    <tag k="payment:cash" v="yes"/>
    <tag k="shop" v="chemist"/>
    <tag k="facebook" v="https://www.facebook.com/dm.Magyarorszag"/>
    <tag k="operator" v="dm Kft."/>
    <tag k="payment:debit_cards" v="yes"/>
    <tag k="brand" v="dm"/>
    <tag k="instagram" v="https://www.instagram.com/dm_magyarorszag/"/>
    <tag k="youtube" v="https://www.youtube.com/user/dmMagyarorszag"/>
  </node>
  <node action="modify" id="-55" lat="47.46643" lon="19.00563">
    <tag k="name" v="dm"/>
    <tag k="addr:city" v="Budapest"/>
    <tag k="addr:postcode" v="1118"/>
    <tag k="addr:street" v="Rétköz utca"/>
    <tag k="addr:housenumber" v="7"/>
    <tag k="website" v="https://www.dm.hu"/>
    <tag k="payment:cash" v="yes"/>
    <tag k="shop" v="chemist"/>
    <tag k="facebook" v="https://www.facebook.com/dm.Magyarorszag"/>
    <tag k="operator" v="dm Kft."/>
    <tag k="payment:debit_cards" v="yes"/>
    <tag k="brand" v="dm"/>
    <tag k="instagram" v="https://www.instagram.com/dm_magyarorszag/"/>
    <tag k="youtube" v="https://www.youtube.com/user/dmMagyarorszag"/>
  </node>
  <node action="modify" id="-56" lat="47.49123" lon="19.01212">
    <tag k="name" v="dm"/>
    <tag k="addr:city" v="Budapest"/>
    <tag k="addr:postcode" v="1124"/>
    <tag k="addr:street" v="Apor Vilmos tér"/>
    <tag k="addr:housenumber" v="11"/>
    <tag k="website" v="https://www.dm.hu"/>
    <tag k="payment:cash" v="yes"/>
    <tag k="shop" v="chemist"/>
    <tag k="facebook" v="https://www.facebook.com/dm.Magyarorszag"/>
    <tag k="operator" v="dm Kft."/>
    <tag k="payment:debit_cards" v="yes"/>
    <tag k="brand" v="dm"/>
    <tag k="instagram" v="https://www.instagram.com/dm_magyarorszag/"/>
    <tag k="youtube" v="https://www.youtube.com/user/dmMagyarorszag"/>
  </node>
  <node action="modify" id="-57" lat="47.49247" lon="19.01677">
    <tag k="name" v="dm"/>
    <tag k="addr:city" v="Budapest"/>
    <tag k="addr:postcode" v="1126"/>
    <tag k="addr:street" v="Böszörményi út"/>
    <tag k="addr:housenumber" v="36/a"/>
    <tag k="website" v="https://www.dm.hu"/>
    <tag k="payment:cash" v="yes"/>
    <tag k="shop" v="chemist"/>
    <tag k="facebook" v="https://www.facebook.com/dm.Magyarorszag"/>
    <tag k="operator" v="dm Kft."/>
    <tag k="payment:debit_cards" v="yes"/>
    <tag k="brand" v="dm"/>
    <tag k="instagram" v="https://www.instagram.com/dm_magyarorszag/"/>
    <tag k="youtube" v="https://www.youtube.com/user/dmMagyarorszag"/>
  </node>
  <node action="modify" id="-58" lat="47.49033" lon="19.02373">
    <tag k="name" v="dm"/>
    <tag k="addr:city" v="Budapest"/>
    <tag k="addr:postcode" v="1126"/>
    <tag k="addr:street" v="Nagy Jenő utca"/>
    <tag k="addr:housenumber" v="12"/>
    <tag k="website" v="https://www.dm.hu"/>
    <tag k="payment:cash" v="yes"/>
    <tag k="shop" v="chemist"/>
    <tag k="facebook" v="https://www.facebook.com/dm.Magyarorszag"/>
    <tag k="operator" v="dm Kft."/>
    <tag k="payment:debit_cards" v="yes"/>
    <tag k="brand" v="dm"/>
    <tag k="instagram" v="https://www.instagram.com/dm_magyarorszag/"/>
    <tag k="youtube" v="https://www.youtube.com/user/dmMagyarorszag"/>
  </node>
  <node action="modify" id="-59" lat="47.51459" lon="19.05853">
    <tag k="name" v="dm"/>
    <tag k="addr:city" v="Budapest"/>
    <tag k="addr:postcode" v="1132"/>
    <tag k="addr:street" v="Váci út"/>
    <tag k="addr:housenumber" v="20-26"/>
    <tag k="website" v="https://www.dm.hu"/>
    <tag k="payment:cash" v="yes"/>
    <tag k="shop" v="chemist"/>
    <tag k="facebook" v="https://www.facebook.com/dm.Magyarorszag"/>
    <tag k="operator" v="dm Kft."/>
    <tag k="payment:debit_cards" v="yes"/>
    <tag k="brand" v="dm"/>
    <tag k="instagram" v="https://www.instagram.com/dm_magyarorszag/"/>
    <tag k="youtube" v="https://www.youtube.com/user/dmMagyarorszag"/>
  </node>
  <node action="modify" id="-60" lat="47.5548714" lon="19.0797415">
    <tag k="name" v="dm"/>
    <tag k="addr:city" v="Budapest"/>
    <tag k="addr:postcode" v="1138"/>
    <tag k="addr:street" v="Gács utca"/>
    <tag k="addr:housenumber" v="3"/>
    <tag k="website" v="https://www.dm.hu"/>
    <tag k="payment:cash" v="yes"/>
    <tag k="shop" v="chemist"/>
    <tag k="facebook" v="https://www.facebook.com/dm.Magyarorszag"/>
    <tag k="operator" v="dm Kft."/>
    <tag k="payment:debit_cards" v="yes"/>
    <tag k="brand" v="dm"/>
    <tag k="instagram" v="https://www.instagram.com/dm_magyarorszag/"/>
    <tag k="youtube" v="https://www.youtube.com/user/dmMagyarorszag"/>
  </node>
  <node action="modify" id="-61" lat="47.5493498" lon="19.0728936">
    <tag k="name" v="dm"/>
    <tag k="addr:city" v="Budapest"/>
    <tag k="addr:postcode" v="1138"/>
    <tag k="addr:street" v="Váci út"/>
    <tag k="addr:housenumber" v="178"/>
    <tag k="website" v="https://www.dm.hu"/>
    <tag k="payment:cash" v="yes"/>
    <tag k="shop" v="chemist"/>
    <tag k="facebook" v="https://www.facebook.com/dm.Magyarorszag"/>
    <tag k="operator" v="dm Kft."/>
    <tag k="payment:debit_cards" v="yes"/>
    <tag k="brand" v="dm"/>
    <tag k="instagram" v="https://www.instagram.com/dm_magyarorszag/"/>
    <tag k="youtube" v="https://www.youtube.com/user/dmMagyarorszag"/>
  </node>
  <node action="modify" id="-62" lat="47.50451" lon="19.09284">
    <tag k="name" v="dm"/>
    <tag k="addr:city" v="Budapest"/>
    <tag k="addr:postcode" v="1146"/>
    <tag k="addr:street" v="Szabó József utca"/>
    <tag k="addr:housenumber" v="6"/>
    <tag k="website" v="https://www.dm.hu"/>
    <tag k="payment:cash" v="yes"/>
    <tag k="shop" v="chemist"/>
    <tag k="facebook" v="https://www.facebook.com/dm.Magyarorszag"/>
    <tag k="operator" v="dm Kft."/>
    <tag k="payment:debit_cards" v="yes"/>
    <tag k="brand" v="dm"/>
    <tag k="instagram" v="https://www.instagram.com/dm_magyarorszag/"/>
    <tag k="youtube" v="https://www.youtube.com/user/dmMagyarorszag"/>
  </node>
  <node action="modify" id="-63" lat="47.52096" lon="19.11449">
    <tag k="name" v="dm"/>
    <tag k="addr:city" v="Budapest"/>
    <tag k="addr:postcode" v="1141"/>
    <tag k="addr:street" v="Csömöri út"/>
    <tag k="addr:housenumber" v="9-11"/>
    <tag k="website" v="https://www.dm.hu"/>
    <tag k="payment:cash" v="yes"/>
    <tag k="shop" v="chemist"/>
    <tag k="facebook" v="https://www.facebook.com/dm.Magyarorszag"/>
    <tag k="operator" v="dm Kft."/>
    <tag k="payment:debit_cards" v="yes"/>
    <tag k="brand" v="dm"/>
    <tag k="instagram" v="https://www.instagram.com/dm_magyarorszag/"/>
    <tag k="youtube" v="https://www.youtube.com/user/dmMagyarorszag"/>
  </node>
  <node action="modify" id="-64" lat="47.51961" lon="19.09111">
    <tag k="name" v="dm"/>
    <tag k="addr:city" v="Budapest"/>
    <tag k="addr:postcode" v="1145"/>
    <tag k="addr:street" v="Mexikói út"/>
    <tag k="addr:housenumber" v="70"/>
    <tag k="website" v="https://www.dm.hu"/>
    <tag k="payment:cash" v="yes"/>
    <tag k="shop" v="chemist"/>
    <tag k="facebook" v="https://www.facebook.com/dm.Magyarorszag"/>
    <tag k="operator" v="dm Kft."/>
    <tag k="payment:debit_cards" v="yes"/>
    <tag k="brand" v="dm"/>
    <tag k="instagram" v="https://www.instagram.com/dm_magyarorszag/"/>
    <tag k="youtube" v="https://www.youtube.com/user/dmMagyarorszag"/>
  </node>
  <node action="modify" id="-65" lat="47.504326" lon="19.1379327">
    <tag k="name" v="dm"/>
    <tag k="addr:city" v="Budapest"/>
    <tag k="addr:postcode" v="1144"/>
    <tag k="addr:street" v="Örs Vezér tér"/>
    <tag k="addr:housenumber" v="24"/>
    <tag k="website" v="https://www.dm.hu"/>
    <tag k="payment:cash" v="yes"/>
    <tag k="shop" v="chemist"/>
    <tag k="facebook" v="https://www.facebook.com/dm.Magyarorszag"/>
    <tag k="operator" v="dm Kft."/>
    <tag k="payment:debit_cards" v="yes"/>
    <tag k="brand" v="dm"/>
    <tag k="instagram" v="https://www.instagram.com/dm_magyarorszag/"/>
    <tag k="youtube" v="https://www.youtube.com/user/dmMagyarorszag"/>
  </node>
  <node action="modify" id="-66" lat="47.5529725" lon="19.1417485">
    <tag k="name" v="dm"/>
    <tag k="addr:city" v="Budapest"/>
    <tag k="addr:postcode" v="1152"/>
    <tag k="addr:street" v="Szentmihályi út"/>
    <tag k="addr:housenumber" v="131"/>
    <tag k="website" v="https://www.dm.hu"/>
    <tag k="payment:cash" v="yes"/>
    <tag k="shop" v="chemist"/>
    <tag k="facebook" v="https://www.facebook.com/dm.Magyarorszag"/>
    <tag k="operator" v="dm Kft."/>
    <tag k="payment:debit_cards" v="yes"/>
    <tag k="brand" v="dm"/>
    <tag k="instagram" v="https://www.instagram.com/dm_magyarorszag/"/>
    <tag k="youtube" v="https://www.youtube.com/user/dmMagyarorszag"/>
  </node>
  <node action="modify" id="-67" lat="47.54026" lon="19.14365">
    <tag k="name" v="dm"/>
    <tag k="addr:city" v="Budapest"/>
    <tag k="addr:postcode" v="1157"/>
    <tag k="addr:street" v="Zsókavár utca"/>
    <tag k="addr:housenumber" v="45"/>
    <tag k="website" v="https://www.dm.hu"/>
    <tag k="payment:cash" v="yes"/>
    <tag k="shop" v="chemist"/>
    <tag k="facebook" v="https://www.facebook.com/dm.Magyarorszag"/>
    <tag k="operator" v="dm Kft."/>
    <tag k="payment:debit_cards" v="yes"/>
    <tag k="brand" v="dm"/>
    <tag k="instagram" v="https://www.instagram.com/dm_magyarorszag/"/>
    <tag k="youtube" v="https://www.youtube.com/user/dmMagyarorszag"/>
  </node>
  <node action="modify" id="-68" lat="47.43273" lon="19.17798">
    <tag k="name" v="dm"/>
    <tag k="addr:city" v="Budapest"/>
    <tag k="addr:postcode" v="1186"/>
    <tag k="addr:street" v="Sallai Imre u."/>
    <tag k="addr:housenumber" v="15/b"/>
    <tag k="website" v="https://www.dm.hu"/>
    <tag k="payment:cash" v="yes"/>
    <tag k="shop" v="chemist"/>
    <tag k="facebook" v="https://www.facebook.com/dm.Magyarorszag"/>
    <tag k="operator" v="dm Kft."/>
    <tag k="payment:debit_cards" v="yes"/>
    <tag k="brand" v="dm"/>
    <tag k="instagram" v="https://www.instagram.com/dm_magyarorszag/"/>
    <tag k="youtube" v="https://www.youtube.com/user/dmMagyarorszag"/>
  </node>
  <node action="modify" id="-69" lat="47.44024" lon="19.18629">
    <tag k="name" v="dm"/>
    <tag k="addr:city" v="Budapest"/>
    <tag k="addr:postcode" v="1183"/>
    <tag k="addr:street" v="Üllői út"/>
    <tag k="addr:housenumber" v="448"/>
    <tag k="website" v="https://www.dm.hu"/>
    <tag k="payment:cash" v="yes"/>
    <tag k="shop" v="chemist"/>
    <tag k="facebook" v="https://www.facebook.com/dm.Magyarorszag"/>
    <tag k="operator" v="dm Kft."/>
    <tag k="payment:debit_cards" v="yes"/>
    <tag k="brand" v="dm"/>
    <tag k="instagram" v="https://www.instagram.com/dm_magyarorszag/"/>
    <tag k="youtube" v="https://www.youtube.com/user/dmMagyarorszag"/>
  </node>
  <node action="modify" id="-70" lat="47.46242" lon="19.14787">
    <tag k="name" v="dm"/>
    <tag k="addr:city" v="Budapest"/>
    <tag k="addr:postcode" v="1191"/>
    <tag k="addr:street" v="Vak Bottyán utca"/>
    <tag k="addr:housenumber" v="75"/>
    <tag k="website" v="https://www.dm.hu"/>
    <tag k="payment:cash" v="yes"/>
    <tag k="shop" v="chemist"/>
    <tag k="facebook" v="https://www.facebook.com/dm.Magyarorszag"/>
    <tag k="operator" v="dm Kft."/>
    <tag k="payment:debit_cards" v="yes"/>
    <tag k="brand" v="dm"/>
    <tag k="instagram" v="https://www.instagram.com/dm_magyarorszag/"/>
    <tag k="youtube" v="https://www.youtube.com/user/dmMagyarorszag"/>
  </node>
  <node action="modify" id="-71" lat="47.45431" lon="19.15118">
    <tag k="name" v="dm"/>
    <tag k="addr:city" v="Budapest"/>
    <tag k="addr:postcode" v="1194"/>
    <tag k="addr:street" v="Árpád utca"/>
    <tag k="addr:housenumber" v="4"/>
    <tag k="website" v="https://www.dm.hu"/>
    <tag k="payment:cash" v="yes"/>
    <tag k="shop" v="chemist"/>
    <tag k="facebook" v="https://www.facebook.com/dm.Magyarorszag"/>
    <tag k="operator" v="dm Kft."/>
    <tag k="payment:debit_cards" v="yes"/>
    <tag k="brand" v="dm"/>
    <tag k="instagram" v="https://www.instagram.com/dm_magyarorszag/"/>
    <tag k="youtube" v="https://www.youtube.com/user/dmMagyarorszag"/>
  </node>
  <node action="modify" id="-72" lat="47.4388" lon="19.10083">
    <tag k="name" v="dm"/>
    <tag k="addr:city" v="Budapest"/>
    <tag k="addr:postcode" v="1203"/>
    <tag k="addr:street" v="Széchenyi út"/>
    <tag k="addr:housenumber" v="1/a"/>
    <tag k="website" v="https://www.dm.hu"/>
    <tag k="payment:cash" v="yes"/>
    <tag k="shop" v="chemist"/>
    <tag k="facebook" v="https://www.facebook.com/dm.Magyarorszag"/>
    <tag k="operator" v="dm Kft."/>
    <tag k="payment:debit_cards" v="yes"/>
    <tag k="brand" v="dm"/>
    <tag k="instagram" v="https://www.instagram.com/dm_magyarorszag/"/>
    <tag k="youtube" v="https://www.youtube.com/user/dmMagyarorszag"/>
  </node>
  <node action="modify" id="-73" lat="47.426" lon="19.06987">
    <tag k="name" v="dm"/>
    <tag k="addr:city" v="Budapest"/>
    <tag k="addr:postcode" v="1211"/>
    <tag k="addr:street" v="Kossuth Lajos utca"/>
    <tag k="addr:housenumber" v="89"/>
    <tag k="website" v="https://www.dm.hu"/>
    <tag k="payment:cash" v="yes"/>
    <tag k="shop" v="chemist"/>
    <tag k="facebook" v="https://www.facebook.com/dm.Magyarorszag"/>
    <tag k="operator" v="dm Kft."/>
    <tag k="payment:debit_cards" v="yes"/>
    <tag k="brand" v="dm"/>
    <tag k="instagram" v="https://www.instagram.com/dm_magyarorszag/"/>
    <tag k="youtube" v="https://www.youtube.com/user/dmMagyarorszag"/>
  </node>
  <node action="modify" id="-74" lat="47.42787" lon="19.03875">
    <tag k="name" v="dm"/>
    <tag k="addr:city" v="Budapest"/>
    <tag k="addr:postcode" v="1221"/>
    <tag k="addr:street" v="Mária Terézia utca"/>
    <tag k="addr:housenumber" v="9"/>
    <tag k="website" v="https://www.dm.hu"/>
    <tag k="payment:cash" v="yes"/>
    <tag k="shop" v="chemist"/>
    <tag k="facebook" v="https://www.facebook.com/dm.Magyarorszag"/>
    <tag k="operator" v="dm Kft."/>
    <tag k="payment:debit_cards" v="yes"/>
    <tag k="brand" v="dm"/>
    <tag k="instagram" v="https://www.instagram.com/dm_magyarorszag/"/>
    <tag k="youtube" v="https://www.youtube.com/user/dmMagyarorszag"/>
  </node>
  <node action="modify" id="-75" lat="47.4067895" lon="19.0174905">
    <tag k="name" v="dm"/>
    <tag k="addr:city" v="Budapest"/>
    <tag k="addr:postcode" v="1223"/>
    <tag k="addr:street" v="Nagytétényi út"/>
    <tag k="addr:housenumber" v="27-47"/>
    <tag k="website" v="https://www.dm.hu"/>
    <tag k="payment:cash" v="yes"/>
    <tag k="shop" v="chemist"/>
    <tag k="facebook" v="https://www.facebook.com/dm.Magyarorszag"/>
    <tag k="operator" v="dm Kft."/>
    <tag k="payment:debit_cards" v="yes"/>
    <tag k="brand" v="dm"/>
    <tag k="instagram" v="https://www.instagram.com/dm_magyarorszag/"/>
    <tag k="youtube" v="https://www.youtube.com/user/dmMagyarorszag"/>
  </node>
  <node action="modify" id="-76" lat="47.4149388" lon="19.1598579">
    <tag k="name" v="dm"/>
    <tag k="addr:city" v="Budapest"/>
    <tag k="addr:postcode" v="1238"/>
    <tag k="addr:street" v="Bevásárló utca"/>
    <tag k="addr:housenumber" v="4"/>
    <tag k="website" v="https://www.dm.hu"/>
    <tag k="payment:cash" v="yes"/>
    <tag k="shop" v="chemist"/>
    <tag k="facebook" v="https://www.facebook.com/dm.Magyarorszag"/>
    <tag k="operator" v="dm Kft."/>
    <tag k="payment:debit_cards" v="yes"/>
    <tag k="brand" v="dm"/>
    <tag k="instagram" v="https://www.instagram.com/dm_magyarorszag/"/>
    <tag k="youtube" v="https://www.youtube.com/user/dmMagyarorszag"/>
  </node>
  <node action="modify" id="-77" lat="47.39938" lon="19.11436">
    <tag k="name" v="dm"/>
    <tag k="addr:city" v="Budapest"/>
    <tag k="addr:postcode" v="1238"/>
    <tag k="addr:street" v="Grassalkovich út"/>
    <tag k="addr:housenumber" v="160"/>
    <tag k="website" v="https://www.dm.hu"/>
    <tag k="payment:cash" v="yes"/>
    <tag k="shop" v="chemist"/>
    <tag k="facebook" v="https://www.facebook.com/dm.Magyarorszag"/>
    <tag k="operator" v="dm Kft."/>
    <tag k="payment:debit_cards" v="yes"/>
    <tag k="brand" v="dm"/>
    <tag k="instagram" v="https://www.instagram.com/dm_magyarorszag/"/>
    <tag k="youtube" v="https://www.youtube.com/user/dmMagyarorszag"/>
  </node>
  <node action="modify" id="-78" lat="47.66176" lon="19.0755">
    <tag k="name" v="dm"/>
    <tag k="addr:city" v="Szentendre"/>
    <tag k="addr:postcode" v="2000"/>
    <tag k="addr:street" v="Dunakanyar körút"/>
    <tag k="addr:housenumber" v="2"/>
    <tag k="website" v="https://www.dm.hu"/>
    <tag k="payment:cash" v="yes"/>
    <tag k="shop" v="chemist"/>
    <tag k="facebook" v="https://www.facebook.com/dm.Magyarorszag"/>
    <tag k="operator" v="dm Kft."/>
    <tag k="payment:debit_cards" v="yes"/>
    <tag k="brand" v="dm"/>
    <tag k="instagram" v="https://www.instagram.com/dm_magyarorszag/"/>
    <tag k="youtube" v="https://www.youtube.com/user/dmMagyarorszag"/>
  </node>
  <node action="modify" id="-79" lat="47.64529" lon="19.06801">
    <tag k="name" v="dm"/>
    <tag k="addr:city" v="Szentendre"/>
    <tag k="addr:postcode" v="2000"/>
    <tag k="addr:street" v="Dobogókői út"/>
    <tag k="addr:housenumber" v="1"/>
    <tag k="website" v="https://www.dm.hu"/>
    <tag k="payment:cash" v="yes"/>
    <tag k="shop" v="chemist"/>
    <tag k="facebook" v="https://www.facebook.com/dm.Magyarorszag"/>
    <tag k="operator" v="dm Kft."/>
    <tag k="payment:debit_cards" v="yes"/>
    <tag k="brand" v="dm"/>
    <tag k="instagram" v="https://www.instagram.com/dm_magyarorszag/"/>
    <tag k="youtube" v="https://www.youtube.com/user/dmMagyarorszag"/>
  </node>
  <node action="modify" id="-80" lat="47.64582" lon="19.02069">
    <tag k="name" v="dm"/>
    <tag k="addr:city" v="Pomáz"/>
    <tag k="addr:postcode" v="2013"/>
    <tag k="addr:street" v="Huszár út"/>
    <tag k="addr:housenumber" v="25"/>
    <tag k="website" v="https://www.dm.hu"/>
    <tag k="payment:cash" v="yes"/>
    <tag k="shop" v="chemist"/>
    <tag k="facebook" v="https://www.facebook.com/dm.Magyarorszag"/>
    <tag k="operator" v="dm Kft."/>
    <tag k="payment:debit_cards" v="yes"/>
    <tag k="brand" v="dm"/>
    <tag k="instagram" v="https://www.instagram.com/dm_magyarorszag/"/>
    <tag k="youtube" v="https://www.youtube.com/user/dmMagyarorszag"/>
  </node>
  <node action="modify" id="-81" lat="47.37922" lon="18.92509">
    <tag k="name" v="dm"/>
    <tag k="addr:city" v="Érd"/>
    <tag k="addr:postcode" v="2030"/>
    <tag k="addr:street" v="Budai út"/>
    <tag k="addr:housenumber" v="13"/>
    <tag k="website" v="https://www.dm.hu"/>
    <tag k="payment:cash" v="yes"/>
    <tag k="shop" v="chemist"/>
    <tag k="facebook" v="https://www.facebook.com/dm.Magyarorszag"/>
    <tag k="operator" v="dm Kft."/>
    <tag k="payment:debit_cards" v="yes"/>
    <tag k="brand" v="dm"/>
    <tag k="instagram" v="https://www.instagram.com/dm_magyarorszag/"/>
    <tag k="youtube" v="https://www.youtube.com/user/dmMagyarorszag"/>
  </node>
  <node action="modify" id="-82" lat="47.4138281" lon="18.8828425">
    <tag k="name" v="dm"/>
    <tag k="addr:city" v="Érd"/>
    <tag k="addr:postcode" v="2030"/>
    <tag k="addr:street" v="Iparos út"/>
    <tag k="website" v="https://www.dm.hu"/>
    <tag k="payment:cash" v="yes"/>
    <tag k="shop" v="chemist"/>
    <tag k="facebook" v="https://www.facebook.com/dm.Magyarorszag"/>
    <tag k="operator" v="dm Kft."/>
    <tag k="payment:debit_cards" v="yes"/>
    <tag k="brand" v="dm"/>
    <tag k="instagram" v="https://www.instagram.com/dm_magyarorszag/"/>
    <tag k="youtube" v="https://www.youtube.com/user/dmMagyarorszag"/>
  </node>
  <node action="modify" id="-83" lat="47.37756" lon="18.93766">
    <tag k="name" v="dm"/>
    <tag k="addr:city" v="Érd"/>
    <tag k="addr:postcode" v="2030"/>
    <tag k="addr:street" v="Budafoki út"/>
    <tag k="addr:housenumber" v="2-4"/>
    <tag k="website" v="https://www.dm.hu"/>
    <tag k="payment:cash" v="yes"/>
    <tag k="shop" v="chemist"/>
    <tag k="facebook" v="https://www.facebook.com/dm.Magyarorszag"/>
    <tag k="operator" v="dm Kft."/>
    <tag k="payment:debit_cards" v="yes"/>
    <tag k="brand" v="dm"/>
    <tag k="instagram" v="https://www.instagram.com/dm_magyarorszag/"/>
    <tag k="youtube" v="https://www.youtube.com/user/dmMagyarorszag"/>
  </node>
  <node action="modify" id="-84" lat="47.45429" lon="18.97466">
    <tag k="name" v="dm"/>
    <tag k="addr:city" v="Budaörs"/>
    <tag k="addr:postcode" v="2040"/>
    <tag k="addr:street" v="Malomkő utca"/>
    <tag k="addr:housenumber" v="7"/>
    <tag k="website" v="https://www.dm.hu"/>
    <tag k="payment:cash" v="yes"/>
    <tag k="shop" v="chemist"/>
    <tag k="facebook" v="https://www.facebook.com/dm.Magyarorszag"/>
    <tag k="operator" v="dm Kft."/>
    <tag k="payment:debit_cards" v="yes"/>
    <tag k="brand" v="dm"/>
    <tag k="instagram" v="https://www.instagram.com/dm_magyarorszag/"/>
    <tag k="youtube" v="https://www.youtube.com/user/dmMagyarorszag"/>
  </node>
  <node action="modify" id="-85" lat="47.46111" lon="18.95892">
    <tag k="name" v="dm"/>
    <tag k="addr:city" v="Budaörs"/>
    <tag k="addr:postcode" v="2040"/>
    <tag k="addr:street" v="Szabadság út"/>
    <tag k="addr:housenumber" v="40"/>
    <tag k="website" v="https://www.dm.hu"/>
    <tag k="payment:cash" v="yes"/>
    <tag k="shop" v="chemist"/>
    <tag k="facebook" v="https://www.facebook.com/dm.Magyarorszag"/>
    <tag k="operator" v="dm Kft."/>
    <tag k="payment:debit_cards" v="yes"/>
    <tag k="brand" v="dm"/>
    <tag k="instagram" v="https://www.instagram.com/dm_magyarorszag/"/>
    <tag k="youtube" v="https://www.youtube.com/user/dmMagyarorszag"/>
  </node>
  <node action="modify" id="-86" lat="47.40415" lon="18.94672">
    <tag k="name" v="dm"/>
    <tag k="addr:city" v="Diósd"/>
    <tag k="addr:postcode" v="2049"/>
    <tag k="addr:street" v="Balatoni út"/>
    <tag k="addr:housenumber" v="2/a"/>
    <tag k="website" v="https://www.dm.hu"/>
    <tag k="payment:cash" v="yes"/>
    <tag k="shop" v="chemist"/>
    <tag k="facebook" v="https://www.facebook.com/dm.Magyarorszag"/>
    <tag k="operator" v="dm Kft."/>
    <tag k="payment:debit_cards" v="yes"/>
    <tag k="brand" v="dm"/>
    <tag k="instagram" v="https://www.instagram.com/dm_magyarorszag/"/>
    <tag k="youtube" v="https://www.youtube.com/user/dmMagyarorszag"/>
  </node>
  <node action="modify" id="-87" lat="47.4647246" lon="18.8882917">
    <tag k="name" v="dm"/>
    <tag k="addr:city" v="Biatorbágy"/>
    <tag k="addr:postcode" v="2051"/>
    <tag k="addr:street" v="Budaörsi út"/>
    <tag k="addr:housenumber" v="4"/>
    <tag k="website" v="https://www.dm.hu"/>
    <tag k="payment:cash" v="yes"/>
    <tag k="shop" v="chemist"/>
    <tag k="facebook" v="https://www.facebook.com/dm.Magyarorszag"/>
    <tag k="operator" v="dm Kft."/>
    <tag k="payment:debit_cards" v="yes"/>
    <tag k="brand" v="dm"/>
    <tag k="instagram" v="https://www.instagram.com/dm_magyarorszag/"/>
    <tag k="youtube" v="https://www.youtube.com/user/dmMagyarorszag"/>
  </node>
  <node action="modify" id="-88" lat="47.49131" lon="18.63528">
    <tag k="name" v="dm"/>
    <tag k="addr:city" v="Bicske"/>
    <tag k="addr:postcode" v="2060"/>
    <tag k="addr:street" v="Kossuth tér"/>
    <tag k="addr:housenumber" v="1"/>
    <tag k="website" v="https://www.dm.hu"/>
    <tag k="payment:cash" v="yes"/>
    <tag k="shop" v="chemist"/>
    <tag k="facebook" v="https://www.facebook.com/dm.Magyarorszag"/>
    <tag k="operator" v="dm Kft."/>
    <tag k="payment:debit_cards" v="yes"/>
    <tag k="brand" v="dm"/>
    <tag k="instagram" v="https://www.instagram.com/dm_magyarorszag/"/>
    <tag k="youtube" v="https://www.youtube.com/user/dmMagyarorszag"/>
  </node>
  <node action="modify" id="-89" lat="47.59821" lon="18.92808">
    <tag k="name" v="dm"/>
    <tag k="addr:city" v="Solymár"/>
    <tag k="addr:postcode" v="2083"/>
    <tag k="addr:street" v="Tersztyánszky út"/>
    <tag k="addr:housenumber" v="100"/>
    <tag k="website" v="https://www.dm.hu"/>
    <tag k="payment:cash" v="yes"/>
    <tag k="shop" v="chemist"/>
    <tag k="facebook" v="https://www.facebook.com/dm.Magyarorszag"/>
    <tag k="operator" v="dm Kft."/>
    <tag k="payment:debit_cards" v="yes"/>
    <tag k="brand" v="dm"/>
    <tag k="instagram" v="https://www.instagram.com/dm_magyarorszag/"/>
    <tag k="youtube" v="https://www.youtube.com/user/dmMagyarorszag"/>
  </node>
  <node action="modify" id="-90" lat="47.61832" lon="18.91354">
    <tag k="name" v="dm"/>
    <tag k="addr:city" v="Pilisvörösvár"/>
    <tag k="addr:postcode" v="2085"/>
    <tag k="addr:street" v="Fő út"/>
    <tag k="addr:housenumber" v="33"/>
    <tag k="website" v="https://www.dm.hu"/>
    <tag k="payment:cash" v="yes"/>
    <tag k="shop" v="chemist"/>
    <tag k="facebook" v="https://www.facebook.com/dm.Magyarorszag"/>
    <tag k="operator" v="dm Kft."/>
    <tag k="payment:debit_cards" v="yes"/>
    <tag k="brand" v="dm"/>
    <tag k="instagram" v="https://www.instagram.com/dm_magyarorszag/"/>
    <tag k="youtube" v="https://www.youtube.com/user/dmMagyarorszag"/>
  </node>
  <node action="modify" id="-91" lat="47.60772" lon="19.3393">
    <tag k="name" v="dm"/>
    <tag k="addr:city" v="Gödöllő"/>
    <tag k="addr:postcode" v="2100"/>
    <tag k="addr:street" v="Bossányi Krisztina u."/>
    <tag k="addr:housenumber" v="2"/>
    <tag k="website" v="https://www.dm.hu"/>
    <tag k="payment:cash" v="yes"/>
    <tag k="shop" v="chemist"/>
    <tag k="facebook" v="https://www.facebook.com/dm.Magyarorszag"/>
    <tag k="operator" v="dm Kft."/>
    <tag k="payment:debit_cards" v="yes"/>
    <tag k="brand" v="dm"/>
    <tag k="instagram" v="https://www.instagram.com/dm_magyarorszag/"/>
    <tag k="youtube" v="https://www.youtube.com/user/dmMagyarorszag"/>
  </node>
  <node action="modify" id="-92" lat="47.59997" lon="19.34636">
    <tag k="name" v="dm"/>
    <tag k="addr:city" v="Gödöllő"/>
    <tag k="addr:postcode" v="2100"/>
    <tag k="addr:street" v="Kossuth Lajos utca"/>
    <tag k="addr:housenumber" v="13"/>
    <tag k="website" v="https://www.dm.hu"/>
    <tag k="payment:cash" v="yes"/>
    <tag k="shop" v="chemist"/>
    <tag k="facebook" v="https://www.facebook.com/dm.Magyarorszag"/>
    <tag k="operator" v="dm Kft."/>
    <tag k="payment:debit_cards" v="yes"/>
    <tag k="brand" v="dm"/>
    <tag k="instagram" v="https://www.instagram.com/dm_magyarorszag/"/>
    <tag k="youtube" v="https://www.youtube.com/user/dmMagyarorszag"/>
  </node>
  <node action="modify" id="-93" lat="47.52976" lon="19.3966">
    <tag k="name" v="dm"/>
    <tag k="addr:city" v="Isaszeg"/>
    <tag k="addr:postcode" v="2117"/>
    <tag k="addr:street" v="Rákóczi út"/>
    <tag k="addr:housenumber" v="21"/>
    <tag k="website" v="https://www.dm.hu"/>
    <tag k="payment:cash" v="yes"/>
    <tag k="shop" v="chemist"/>
    <tag k="facebook" v="https://www.facebook.com/dm.Magyarorszag"/>
    <tag k="operator" v="dm Kft."/>
    <tag k="payment:debit_cards" v="yes"/>
    <tag k="brand" v="dm"/>
    <tag k="instagram" v="https://www.instagram.com/dm_magyarorszag/"/>
    <tag k="youtube" v="https://www.youtube.com/user/dmMagyarorszag"/>
  </node>
  <node action="modify" id="-94" lat="47.65558" lon="19.12972">
    <tag k="name" v="dm"/>
    <tag k="addr:city" v="Dunakesz"/>
    <tag k="addr:postcode" v="2120"/>
    <tag k="addr:street" v="Fő út"/>
    <tag k="addr:housenumber" v="190"/>
    <tag k="website" v="https://www.dm.hu"/>
    <tag k="payment:cash" v="yes"/>
    <tag k="shop" v="chemist"/>
    <tag k="facebook" v="https://www.facebook.com/dm.Magyarorszag"/>
    <tag k="operator" v="dm Kft."/>
    <tag k="payment:debit_cards" v="yes"/>
    <tag k="brand" v="dm"/>
    <tag k="instagram" v="https://www.instagram.com/dm_magyarorszag/"/>
    <tag k="youtube" v="https://www.youtube.com/user/dmMagyarorszag"/>
  </node>
  <node action="modify" id="-95" lat="47.64208" lon="19.12641">
    <tag k="name" v="dm"/>
    <tag k="addr:city" v="Dunakesz"/>
    <tag k="addr:postcode" v="2120"/>
    <tag k="addr:street" v="Cassalgrande tér"/>
    <tag k="addr:housenumber" v="2"/>
    <tag k="website" v="https://www.dm.hu"/>
    <tag k="payment:cash" v="yes"/>
    <tag k="shop" v="chemist"/>
    <tag k="facebook" v="https://www.facebook.com/dm.Magyarorszag"/>
    <tag k="operator" v="dm Kft."/>
    <tag k="payment:debit_cards" v="yes"/>
    <tag k="brand" v="dm"/>
    <tag k="instagram" v="https://www.instagram.com/dm_magyarorszag/"/>
    <tag k="youtube" v="https://www.youtube.com/user/dmMagyarorszag"/>
  </node>
  <node action="modify" id="-96" lat="47.60977" lon="19.11937">
    <tag k="name" v="dm"/>
    <tag k="addr:city" v="Dunakesz"/>
    <tag k="addr:postcode" v="2120"/>
    <tag k="addr:street" v="Nádas utca"/>
    <tag k="addr:housenumber" v="8"/>
    <tag k="website" v="https://www.dm.hu"/>
    <tag k="payment:cash" v="yes"/>
    <tag k="shop" v="chemist"/>
    <tag k="facebook" v="https://www.facebook.com/dm.Magyarorszag"/>
    <tag k="operator" v="dm Kft."/>
    <tag k="payment:debit_cards" v="yes"/>
    <tag k="brand" v="dm"/>
    <tag k="instagram" v="https://www.instagram.com/dm_magyarorszag/"/>
    <tag k="youtube" v="https://www.youtube.com/user/dmMagyarorszag"/>
  </node>
  <node action="modify" id="-97" lat="47.5408332" lon="19.2535981">
    <tag k="name" v="dm"/>
    <tag k="addr:city" v="Kistarcsa"/>
    <tag k="addr:postcode" v="2143"/>
    <tag k="addr:street" v="Kistarcsa Semmelweis tér"/>
    <tag k="addr:housenumber" v="2"/>
    <tag k="website" v="https://www.dm.hu"/>
    <tag k="payment:cash" v="yes"/>
    <tag k="shop" v="chemist"/>
    <tag k="facebook" v="https://www.facebook.com/dm.Magyarorszag"/>
    <tag k="operator" v="dm Kft."/>
    <tag k="payment:debit_cards" v="yes"/>
    <tag k="brand" v="dm"/>
    <tag k="instagram" v="https://www.instagram.com/dm_magyarorszag/"/>
    <tag k="youtube" v="https://www.youtube.com/user/dmMagyarorszag"/>
  </node>
  <node action="modify" id="-98" lat="47.35049" lon="19.44595">
    <tag k="name" v="dm"/>
    <tag k="addr:city" v="Monor"/>
    <tag k="addr:postcode" v="2200"/>
    <tag k="addr:street" v="Kossuth Lajos u."/>
    <tag k="addr:housenumber" v="75"/>
    <tag k="website" v="https://www.dm.hu"/>
    <tag k="payment:cash" v="yes"/>
    <tag k="shop" v="chemist"/>
    <tag k="facebook" v="https://www.facebook.com/dm.Magyarorszag"/>
    <tag k="operator" v="dm Kft."/>
    <tag k="payment:debit_cards" v="yes"/>
    <tag k="brand" v="dm"/>
    <tag k="instagram" v="https://www.instagram.com/dm_magyarorszag/"/>
    <tag k="youtube" v="https://www.youtube.com/user/dmMagyarorszag"/>
  </node>
  <node action="modify" id="-99" lat="47.41631" lon="19.24911">
    <tag k="name" v="dm"/>
    <tag k="addr:city" v="Vecsés"/>
    <tag k="addr:postcode" v="2220"/>
    <tag k="addr:street" v="Fő út"/>
    <tag k="addr:housenumber" v="246-248"/>
    <tag k="website" v="https://www.dm.hu"/>
    <tag k="payment:cash" v="yes"/>
    <tag k="shop" v="chemist"/>
    <tag k="facebook" v="https://www.facebook.com/dm.Magyarorszag"/>
    <tag k="operator" v="dm Kft."/>
    <tag k="payment:debit_cards" v="yes"/>
    <tag k="brand" v="dm"/>
    <tag k="instagram" v="https://www.instagram.com/dm_magyarorszag/"/>
    <tag k="youtube" v="https://www.youtube.com/user/dmMagyarorszag"/>
  </node>
  <node action="modify" id="-100" lat="47.16089" lon="18.94527">
    <tag k="name" v="dm"/>
    <tag k="addr:city" v="Ráckeve"/>
    <tag k="addr:postcode" v="2300"/>
    <tag k="addr:street" v="Kossuth utca"/>
    <tag k="addr:housenumber" v="23"/>
    <tag k="website" v="https://www.dm.hu"/>
    <tag k="payment:cash" v="yes"/>
    <tag k="shop" v="chemist"/>
    <tag k="facebook" v="https://www.facebook.com/dm.Magyarorszag"/>
    <tag k="operator" v="dm Kft."/>
    <tag k="payment:debit_cards" v="yes"/>
    <tag k="brand" v="dm"/>
    <tag k="instagram" v="https://www.instagram.com/dm_magyarorszag/"/>
    <tag k="youtube" v="https://www.youtube.com/user/dmMagyarorszag"/>
  </node>
  <node action="modify" id="-101" lat="47.33891" lon="19.03491">
    <tag k="name" v="dm"/>
    <tag k="addr:city" v="Szigetszentmiklós"/>
    <tag k="addr:postcode" v="2310"/>
    <tag k="addr:street" v="Szentmiklósi út"/>
    <tag k="website" v="https://www.dm.hu"/>
    <tag k="payment:cash" v="yes"/>
    <tag k="shop" v="chemist"/>
    <tag k="facebook" v="https://www.facebook.com/dm.Magyarorszag"/>
    <tag k="operator" v="dm Kft."/>
    <tag k="payment:debit_cards" v="yes"/>
    <tag k="brand" v="dm"/>
    <tag k="instagram" v="https://www.instagram.com/dm_magyarorszag/"/>
    <tag k="youtube" v="https://www.youtube.com/user/dmMagyarorszag"/>
  </node>
  <node action="modify" id="-102" lat="47.33807" lon="18.9959">
    <tag k="name" v="dm"/>
    <tag k="addr:city" v="Tököl"/>
    <tag k="addr:postcode" v="2316"/>
    <tag k="addr:street" v="Hermina út"/>
    <tag k="addr:housenumber" v="032"/>
    <tag k="website" v="https://www.dm.hu"/>
    <tag k="payment:cash" v="yes"/>
    <tag k="shop" v="chemist"/>
    <tag k="facebook" v="https://www.facebook.com/dm.Magyarorszag"/>
    <tag k="operator" v="dm Kft."/>
    <tag k="payment:debit_cards" v="yes"/>
    <tag k="brand" v="dm"/>
    <tag k="instagram" v="https://www.instagram.com/dm_magyarorszag/"/>
    <tag k="youtube" v="https://www.youtube.com/user/dmMagyarorszag"/>
  </node>
  <node action="modify" id="-103" lat="47.34442" lon="19.11919">
    <tag k="name" v="dm"/>
    <tag k="addr:city" v="Dunaharaszt"/>
    <tag k="addr:postcode" v="2330"/>
    <tag k="addr:street" v="Alsónémedi út"/>
    <tag k="website" v="https://www.dm.hu"/>
    <tag k="payment:cash" v="yes"/>
    <tag k="shop" v="chemist"/>
    <tag k="facebook" v="https://www.facebook.com/dm.Magyarorszag"/>
    <tag k="operator" v="dm Kft."/>
    <tag k="payment:debit_cards" v="yes"/>
    <tag k="brand" v="dm"/>
    <tag k="instagram" v="https://www.instagram.com/dm_magyarorszag/"/>
    <tag k="youtube" v="https://www.youtube.com/user/dmMagyarorszag"/>
  </node>
  <node action="modify" id="-104" lat="47.35475" lon="19.09187">
    <tag k="name" v="dm"/>
    <tag k="addr:city" v="Dunaharaszt"/>
    <tag k="addr:postcode" v="2330"/>
    <tag k="addr:street" v="Baktay tér"/>
    <tag k="addr:housenumber" v="5"/>
    <tag k="website" v="https://www.dm.hu"/>
    <tag k="payment:cash" v="yes"/>
    <tag k="shop" v="chemist"/>
    <tag k="facebook" v="https://www.facebook.com/dm.Magyarorszag"/>
    <tag k="operator" v="dm Kft."/>
    <tag k="payment:debit_cards" v="yes"/>
    <tag k="brand" v="dm"/>
    <tag k="instagram" v="https://www.instagram.com/dm_magyarorszag/"/>
    <tag k="youtube" v="https://www.youtube.com/user/dmMagyarorszag"/>
  </node>
  <node action="modify" id="-105" lat="47.29329" lon="19.22729">
    <tag k="name" v="dm"/>
    <tag k="addr:city" v="Ócsa"/>
    <tag k="addr:postcode" v="2364"/>
    <tag k="addr:street" v="Szabadság tér"/>
    <tag k="addr:housenumber" v="3"/>
    <tag k="website" v="https://www.dm.hu"/>
    <tag k="payment:cash" v="yes"/>
    <tag k="shop" v="chemist"/>
    <tag k="facebook" v="https://www.facebook.com/dm.Magyarorszag"/>
    <tag k="operator" v="dm Kft."/>
    <tag k="payment:debit_cards" v="yes"/>
    <tag k="brand" v="dm"/>
    <tag k="instagram" v="https://www.instagram.com/dm_magyarorszag/"/>
    <tag k="youtube" v="https://www.youtube.com/user/dmMagyarorszag"/>
  </node>
  <node action="modify" id="-106" lat="46.96344" lon="18.9364">
    <tag k="name" v="dm"/>
    <tag k="addr:city" v="Dunaújváros"/>
    <tag k="addr:postcode" v="2400"/>
    <tag k="addr:street" v="Dózsa György utca"/>
    <tag k="addr:housenumber" v="4/b"/>
    <tag k="website" v="https://www.dm.hu"/>
    <tag k="payment:cash" v="yes"/>
    <tag k="shop" v="chemist"/>
    <tag k="facebook" v="https://www.facebook.com/dm.Magyarorszag"/>
    <tag k="operator" v="dm Kft."/>
    <tag k="payment:debit_cards" v="yes"/>
    <tag k="brand" v="dm"/>
    <tag k="instagram" v="https://www.instagram.com/dm_magyarorszag/"/>
    <tag k="youtube" v="https://www.youtube.com/user/dmMagyarorszag"/>
  </node>
  <node action="modify" id="-107" lat="46.96093" lon="18.91964">
    <tag k="name" v="dm"/>
    <tag k="addr:city" v="Dunaújváros"/>
    <tag k="addr:postcode" v="2400"/>
    <tag k="addr:street" v="Béke körút"/>
    <tag k="addr:housenumber" v="1"/>
    <tag k="website" v="https://www.dm.hu"/>
    <tag k="payment:cash" v="yes"/>
    <tag k="shop" v="chemist"/>
    <tag k="facebook" v="https://www.facebook.com/dm.Magyarorszag"/>
    <tag k="operator" v="dm Kft."/>
    <tag k="payment:debit_cards" v="yes"/>
    <tag k="brand" v="dm"/>
    <tag k="instagram" v="https://www.instagram.com/dm_magyarorszag/"/>
    <tag k="youtube" v="https://www.youtube.com/user/dmMagyarorszag"/>
  </node>
  <node action="modify" id="-108" lat="47.32203" lon="18.90091">
    <tag k="name" v="dm"/>
    <tag k="addr:city" v="Százhalombatta"/>
    <tag k="addr:postcode" v="2440"/>
    <tag k="addr:street" v="Vörösmarty út"/>
    <tag k="addr:housenumber" v="2"/>
    <tag k="website" v="https://www.dm.hu"/>
    <tag k="payment:cash" v="yes"/>
    <tag k="shop" v="chemist"/>
    <tag k="facebook" v="https://www.facebook.com/dm.Magyarorszag"/>
    <tag k="operator" v="dm Kft."/>
    <tag k="payment:debit_cards" v="yes"/>
    <tag k="brand" v="dm"/>
    <tag k="instagram" v="https://www.instagram.com/dm_magyarorszag/"/>
    <tag k="youtube" v="https://www.youtube.com/user/dmMagyarorszag"/>
  </node>
  <node action="modify" id="-109" lat="47.20756" lon="18.62923">
    <tag k="name" v="dm"/>
    <tag k="addr:city" v="Gárdony"/>
    <tag k="addr:postcode" v="2483"/>
    <tag k="addr:street" v="Szabadság út"/>
    <tag k="addr:housenumber" v="10"/>
    <tag k="website" v="https://www.dm.hu"/>
    <tag k="payment:cash" v="yes"/>
    <tag k="shop" v="chemist"/>
    <tag k="facebook" v="https://www.facebook.com/dm.Magyarorszag"/>
    <tag k="operator" v="dm Kft."/>
    <tag k="payment:debit_cards" v="yes"/>
    <tag k="brand" v="dm"/>
    <tag k="instagram" v="https://www.instagram.com/dm_magyarorszag/"/>
    <tag k="youtube" v="https://www.youtube.com/user/dmMagyarorszag"/>
  </node>
  <node action="modify" id="-110" lat="47.17207" lon="19.79677">
    <tag k="name" v="dm"/>
    <tag k="addr:city" v="Cegléd"/>
    <tag k="addr:postcode" v="2700"/>
    <tag k="addr:street" v="Kossuth F. u"/>
    <tag k="addr:housenumber" v="6"/>
    <tag k="website" v="https://www.dm.hu"/>
    <tag k="payment:cash" v="yes"/>
    <tag k="shop" v="chemist"/>
    <tag k="facebook" v="https://www.facebook.com/dm.Magyarorszag"/>
    <tag k="operator" v="dm Kft."/>
    <tag k="payment:debit_cards" v="yes"/>
    <tag k="brand" v="dm"/>
    <tag k="instagram" v="https://www.instagram.com/dm_magyarorszag/"/>
    <tag k="youtube" v="https://www.youtube.com/user/dmMagyarorszag"/>
  </node>
  <node action="modify" id="-111" lat="47.24392" lon="19.61224">
    <tag k="name" v="dm"/>
    <tag k="addr:city" v="Albertirsa"/>
    <tag k="addr:postcode" v="2730"/>
    <tag k="addr:street" v="Vasút út"/>
    <tag k="addr:housenumber" v="4-11"/>
    <tag k="website" v="https://www.dm.hu"/>
    <tag k="payment:cash" v="yes"/>
    <tag k="shop" v="chemist"/>
    <tag k="facebook" v="https://www.facebook.com/dm.Magyarorszag"/>
    <tag k="operator" v="dm Kft."/>
    <tag k="payment:debit_cards" v="yes"/>
    <tag k="brand" v="dm"/>
    <tag k="instagram" v="https://www.instagram.com/dm_magyarorszag/"/>
    <tag k="youtube" v="https://www.youtube.com/user/dmMagyarorszag"/>
  </node>
  <node action="modify" id="-112" lat="47.03303" lon="19.78355">
    <tag k="name" v="dm"/>
    <tag k="addr:city" v="Nagykőrös"/>
    <tag k="addr:postcode" v="2750"/>
    <tag k="addr:street" v="Kecskeméti utca"/>
    <tag k="addr:housenumber" v="1"/>
    <tag k="website" v="https://www.dm.hu"/>
    <tag k="payment:cash" v="yes"/>
    <tag k="shop" v="chemist"/>
    <tag k="facebook" v="https://www.facebook.com/dm.Magyarorszag"/>
    <tag k="operator" v="dm Kft."/>
    <tag k="payment:debit_cards" v="yes"/>
    <tag k="brand" v="dm"/>
    <tag k="instagram" v="https://www.instagram.com/dm_magyarorszag/"/>
    <tag k="youtube" v="https://www.youtube.com/user/dmMagyarorszag"/>
  </node>
  <node action="modify" id="-113" lat="47.58359" lon="18.3878">
    <tag k="name" v="dm"/>
    <tag k="addr:city" v="Tatabánya"/>
    <tag k="addr:postcode" v="2800"/>
    <tag k="addr:street" v="Vadász u."/>
    <tag k="addr:housenumber" v="34"/>
    <tag k="website" v="https://www.dm.hu"/>
    <tag k="payment:cash" v="yes"/>
    <tag k="shop" v="chemist"/>
    <tag k="facebook" v="https://www.facebook.com/dm.Magyarorszag"/>
    <tag k="operator" v="dm Kft."/>
    <tag k="payment:debit_cards" v="yes"/>
    <tag k="brand" v="dm"/>
    <tag k="instagram" v="https://www.instagram.com/dm_magyarorszag/"/>
    <tag k="youtube" v="https://www.youtube.com/user/dmMagyarorszag"/>
  </node>
  <node action="modify" id="-114" lat="47.5867214" lon="18.3940868">
    <tag k="name" v="dm"/>
    <tag k="addr:city" v="Tatabánya"/>
    <tag k="addr:postcode" v="2800"/>
    <tag k="addr:street" v="Győri út"/>
    <tag k="addr:housenumber" v="7-9"/>
    <tag k="website" v="https://www.dm.hu"/>
    <tag k="payment:cash" v="yes"/>
    <tag k="shop" v="chemist"/>
    <tag k="facebook" v="https://www.facebook.com/dm.Magyarorszag"/>
    <tag k="operator" v="dm Kft."/>
    <tag k="payment:debit_cards" v="yes"/>
    <tag k="brand" v="dm"/>
    <tag k="instagram" v="https://www.instagram.com/dm_magyarorszag/"/>
    <tag k="youtube" v="https://www.youtube.com/user/dmMagyarorszag"/>
  </node>
  <node action="modify" id="-115" lat="47.4861" lon="18.31359">
    <tag k="name" v="dm"/>
    <tag k="addr:city" v="Oroszlány"/>
    <tag k="addr:postcode" v="2840"/>
    <tag k="addr:street" v="Rákóczi Ferenc út"/>
    <tag k="addr:housenumber" v="48"/>
    <tag k="website" v="https://www.dm.hu"/>
    <tag k="payment:cash" v="yes"/>
    <tag k="shop" v="chemist"/>
    <tag k="facebook" v="https://www.facebook.com/dm.Magyarorszag"/>
    <tag k="operator" v="dm Kft."/>
    <tag k="payment:debit_cards" v="yes"/>
    <tag k="brand" v="dm"/>
    <tag k="instagram" v="https://www.instagram.com/dm_magyarorszag/"/>
    <tag k="youtube" v="https://www.youtube.com/user/dmMagyarorszag"/>
  </node>
  <node action="modify" id="-116" lat="47.66709" lon="19.68207">
    <tag k="name" v="dm"/>
    <tag k="addr:city" v="Hatvan"/>
    <tag k="addr:postcode" v="3000"/>
    <tag k="addr:street" v="Kossuth tér"/>
    <tag k="addr:housenumber" v="18"/>
    <tag k="website" v="https://www.dm.hu"/>
    <tag k="payment:cash" v="yes"/>
    <tag k="shop" v="chemist"/>
    <tag k="facebook" v="https://www.facebook.com/dm.Magyarorszag"/>
    <tag k="operator" v="dm Kft."/>
    <tag k="payment:debit_cards" v="yes"/>
    <tag k="brand" v="dm"/>
    <tag k="instagram" v="https://www.instagram.com/dm_magyarorszag/"/>
    <tag k="youtube" v="https://www.youtube.com/user/dmMagyarorszag"/>
  </node>
  <node action="modify" id="-117" lat="47.5326399" lon="21.628941">
    <tag k="name" v="dm"/>
    <tag k="addr:city" v="Debrecen"/>
    <tag k="addr:postcode" v="4024"/>
    <tag k="addr:street" v="Csapó utca"/>
    <tag k="addr:housenumber" v="30"/>
    <tag k="website" v="https://www.dm.hu"/>
    <tag k="payment:cash" v="yes"/>
    <tag k="shop" v="chemist"/>
    <tag k="facebook" v="https://www.facebook.com/dm.Magyarorszag"/>
    <tag k="operator" v="dm Kft."/>
    <tag k="payment:debit_cards" v="yes"/>
    <tag k="brand" v="dm"/>
    <tag k="instagram" v="https://www.instagram.com/dm_magyarorszag/"/>
    <tag k="youtube" v="https://www.youtube.com/user/dmMagyarorszag"/>
  </node>
  <node action="modify" id="-118" lat="47.5348922" lon="21.625441">
    <tag k="name" v="dm"/>
    <tag k="addr:city" v="Debrecen"/>
    <tag k="addr:postcode" v="4026"/>
    <tag k="addr:street" v="Péterfia utca"/>
    <tag k="addr:housenumber" v="18"/>
    <tag k="website" v="https://www.dm.hu"/>
    <tag k="payment:cash" v="yes"/>
    <tag k="shop" v="chemist"/>
    <tag k="facebook" v="https://www.facebook.com/dm.Magyarorszag"/>
    <tag k="operator" v="dm Kft."/>
    <tag k="payment:debit_cards" v="yes"/>
    <tag k="brand" v="dm"/>
    <tag k="instagram" v="https://www.instagram.com/dm_magyarorszag/"/>
    <tag k="youtube" v="https://www.youtube.com/user/dmMagyarorszag"/>
  </node>
  <node action="modify" id="-119" lat="47.54765" lon="21.61126">
    <tag k="name" v="dm"/>
    <tag k="addr:city" v="Debrecen"/>
    <tag k="addr:postcode" v="4032"/>
    <tag k="addr:street" v="56-Osok tere"/>
    <tag k="addr:housenumber" v="6/a"/>
    <tag k="website" v="https://www.dm.hu"/>
    <tag k="payment:cash" v="yes"/>
    <tag k="shop" v="chemist"/>
    <tag k="facebook" v="https://www.facebook.com/dm.Magyarorszag"/>
    <tag k="operator" v="dm Kft."/>
    <tag k="payment:debit_cards" v="yes"/>
    <tag k="brand" v="dm"/>
    <tag k="instagram" v="https://www.instagram.com/dm_magyarorszag/"/>
    <tag k="youtube" v="https://www.youtube.com/user/dmMagyarorszag"/>
  </node>
  <node action="modify" id="-120" lat="47.5306476" lon="21.6077487">
    <tag k="name" v="dm"/>
    <tag k="addr:city" v="Debrecen"/>
    <tag k="addr:postcode" v="4031"/>
    <tag k="addr:street" v="Kishegyesi út"/>
    <tag k="addr:housenumber" v="1-11"/>
    <tag k="website" v="https://www.dm.hu"/>
    <tag k="payment:cash" v="yes"/>
    <tag k="shop" v="chemist"/>
    <tag k="facebook" v="https://www.facebook.com/dm.Magyarorszag"/>
    <tag k="operator" v="dm Kft."/>
    <tag k="payment:debit_cards" v="yes"/>
    <tag k="brand" v="dm"/>
    <tag k="instagram" v="https://www.instagram.com/dm_magyarorszag/"/>
    <tag k="youtube" v="https://www.youtube.com/user/dmMagyarorszag"/>
  </node>
  <node action="modify" id="-121" lat="47.52289" lon="21.60405">
    <tag k="name" v="dm"/>
    <tag k="addr:city" v="Debrecen"/>
    <tag k="addr:postcode" v="4031"/>
    <tag k="addr:street" v="Angyal tér"/>
    <tag k="addr:housenumber" v="17"/>
    <tag k="website" v="https://www.dm.hu"/>
    <tag k="payment:cash" v="yes"/>
    <tag k="shop" v="chemist"/>
    <tag k="facebook" v="https://www.facebook.com/dm.Magyarorszag"/>
    <tag k="operator" v="dm Kft."/>
    <tag k="payment:debit_cards" v="yes"/>
    <tag k="brand" v="dm"/>
    <tag k="instagram" v="https://www.instagram.com/dm_magyarorszag/"/>
    <tag k="youtube" v="https://www.youtube.com/user/dmMagyarorszag"/>
  </node>
  <node action="modify" id="-122" lat="47.54322" lon="21.58129">
    <tag k="name" v="dm"/>
    <tag k="addr:city" v="Debrecen"/>
    <tag k="addr:postcode" v="4031"/>
    <tag k="addr:street" v="Kishatár utca"/>
    <tag k="website" v="https://www.dm.hu"/>
    <tag k="payment:cash" v="yes"/>
    <tag k="shop" v="chemist"/>
    <tag k="facebook" v="https://www.facebook.com/dm.Magyarorszag"/>
    <tag k="operator" v="dm Kft."/>
    <tag k="payment:debit_cards" v="yes"/>
    <tag k="brand" v="dm"/>
    <tag k="instagram" v="https://www.instagram.com/dm_magyarorszag/"/>
    <tag k="youtube" v="https://www.youtube.com/user/dmMagyarorszag"/>
  </node>
  <node action="modify" id="-123" lat="47.22015" lon="21.53641">
    <tag k="name" v="dm"/>
    <tag k="addr:city" v="Berettyóújfalu"/>
    <tag k="addr:postcode" v="4100"/>
    <tag k="addr:street" v="Dózsa György út"/>
    <tag k="addr:housenumber" v="21"/>
    <tag k="website" v="https://www.dm.hu"/>
    <tag k="payment:cash" v="yes"/>
    <tag k="shop" v="chemist"/>
    <tag k="facebook" v="https://www.facebook.com/dm.Magyarorszag"/>
    <tag k="operator" v="dm Kft."/>
    <tag k="payment:debit_cards" v="yes"/>
    <tag k="brand" v="dm"/>
    <tag k="instagram" v="https://www.instagram.com/dm_magyarorszag/"/>
    <tag k="youtube" v="https://www.youtube.com/user/dmMagyarorszag"/>
  </node>
  <node action="modify" id="-124" lat="47.31731" lon="21.11798">
    <tag k="name" v="dm"/>
    <tag k="addr:city" v="Püspökladány"/>
    <tag k="addr:postcode" v="4150"/>
    <tag k="addr:street" v="Bocskai út"/>
    <tag k="addr:housenumber" v="1"/>
    <tag k="website" v="https://www.dm.hu"/>
    <tag k="payment:cash" v="yes"/>
    <tag k="shop" v="chemist"/>
    <tag k="facebook" v="https://www.facebook.com/dm.Magyarorszag"/>
    <tag k="operator" v="dm Kft."/>
    <tag k="payment:debit_cards" v="yes"/>
    <tag k="brand" v="dm"/>
    <tag k="instagram" v="https://www.instagram.com/dm_magyarorszag/"/>
    <tag k="youtube" v="https://www.youtube.com/user/dmMagyarorszag"/>
  </node>
  <node action="modify" id="-125" lat="47.4337163" lon="21.3767736">
    <tag k="name" v="dm"/>
    <tag k="addr:city" v="Hajdúszoboszló"/>
    <tag k="addr:postcode" v="4200"/>
    <tag k="addr:street" v="Kabai út"/>
    <tag k="website" v="https://www.dm.hu"/>
    <tag k="payment:cash" v="yes"/>
    <tag k="shop" v="chemist"/>
    <tag k="facebook" v="https://www.facebook.com/dm.Magyarorszag"/>
    <tag k="operator" v="dm Kft."/>
    <tag k="payment:debit_cards" v="yes"/>
    <tag k="brand" v="dm"/>
    <tag k="instagram" v="https://www.instagram.com/dm_magyarorszag/"/>
    <tag k="youtube" v="https://www.youtube.com/user/dmMagyarorszag"/>
  </node>
  <node action="modify" id="-126" lat="47.6708754" lon="21.5093366">
    <tag k="name" v="dm"/>
    <tag k="addr:city" v="Hajdúböszörmény"/>
    <tag k="addr:postcode" v="4220"/>
    <tag k="addr:street" v="Kossuth utca"/>
    <tag k="addr:housenumber" v="10-16"/>
    <tag k="website" v="https://www.dm.hu"/>
    <tag k="payment:cash" v="yes"/>
    <tag k="shop" v="chemist"/>
    <tag k="facebook" v="https://www.facebook.com/dm.Magyarorszag"/>
    <tag k="operator" v="dm Kft."/>
    <tag k="payment:debit_cards" v="yes"/>
    <tag k="brand" v="dm"/>
    <tag k="instagram" v="https://www.instagram.com/dm_magyarorszag/"/>
    <tag k="youtube" v="https://www.youtube.com/user/dmMagyarorszag"/>
  </node>
  <node action="modify" id="-127" lat="47.5977128" lon="21.5787777">
    <tag k="name" v="dm"/>
    <tag k="addr:city" v="Debrecen"/>
    <tag k="addr:postcode" v="4225"/>
    <tag k="addr:street" v="Szentgyörgyfalvi u."/>
    <tag k="addr:housenumber" v="9"/>
    <tag k="website" v="https://www.dm.hu"/>
    <tag k="payment:cash" v="yes"/>
    <tag k="shop" v="chemist"/>
    <tag k="facebook" v="https://www.facebook.com/dm.Magyarorszag"/>
    <tag k="operator" v="dm Kft."/>
    <tag k="payment:debit_cards" v="yes"/>
    <tag k="brand" v="dm"/>
    <tag k="instagram" v="https://www.instagram.com/dm_magyarorszag/"/>
    <tag k="youtube" v="https://www.youtube.com/user/dmMagyarorszag"/>
  </node>
  <node action="modify" id="-128" lat="47.1802771" lon="20.182412">
    <tag k="name" v="dm"/>
    <tag k="addr:city" v="Szolnok"/>
    <tag k="addr:postcode" v="5000"/>
    <tag k="addr:street" v="Mátyás Király út"/>
    <tag k="addr:housenumber" v="29"/>
    <tag k="website" v="https://www.dm.hu"/>
    <tag k="payment:cash" v="yes"/>
    <tag k="shop" v="chemist"/>
    <tag k="facebook" v="https://www.facebook.com/dm.Magyarorszag"/>
    <tag k="operator" v="dm Kft."/>
    <tag k="payment:debit_cards" v="yes"/>
    <tag k="brand" v="dm"/>
    <tag k="instagram" v="https://www.instagram.com/dm_magyarorszag/"/>
    <tag k="youtube" v="https://www.youtube.com/user/dmMagyarorszag"/>
  </node>
  <node action="modify" id="-129" lat="47.17771" lon="20.19255">
    <tag k="name" v="dm"/>
    <tag k="addr:city" v="Szolnok"/>
    <tag k="addr:postcode" v="5000"/>
    <tag k="addr:street" v="Ady Endre út"/>
    <tag k="addr:housenumber" v="15"/>
    <tag k="website" v="https://www.dm.hu"/>
    <tag k="payment:cash" v="yes"/>
    <tag k="shop" v="chemist"/>
    <tag k="facebook" v="https://www.facebook.com/dm.Magyarorszag"/>
    <tag k="operator" v="dm Kft."/>
    <tag k="payment:debit_cards" v="yes"/>
    <tag k="brand" v="dm"/>
    <tag k="instagram" v="https://www.instagram.com/dm_magyarorszag/"/>
    <tag k="youtube" v="https://www.youtube.com/user/dmMagyarorszag"/>
  </node>
  <node action="modify" id="-130" lat="47.17597" lon="20.19366">
    <tag k="name" v="dm"/>
    <tag k="addr:city" v="Szolnok"/>
    <tag k="addr:postcode" v="5000"/>
    <tag k="addr:street" v="Boldog Sándor István krt."/>
    <tag k="addr:housenumber" v="2/a"/>
    <tag k="website" v="https://www.dm.hu"/>
    <tag k="payment:cash" v="yes"/>
    <tag k="shop" v="chemist"/>
    <tag k="facebook" v="https://www.facebook.com/dm.Magyarorszag"/>
    <tag k="operator" v="dm Kft."/>
    <tag k="payment:debit_cards" v="yes"/>
    <tag k="brand" v="dm"/>
    <tag k="instagram" v="https://www.instagram.com/dm_magyarorszag/"/>
    <tag k="youtube" v="https://www.youtube.com/user/dmMagyarorszag"/>
  </node>
  <node action="modify" id="-131" lat="47.50058" lon="19.91395">
    <tag k="name" v="dm"/>
    <tag k="addr:city" v="Jászberény"/>
    <tag k="addr:postcode" v="5100"/>
    <tag k="addr:street" v="Szövetkezet utca"/>
    <tag k="addr:housenumber" v="1"/>
    <tag k="website" v="https://www.dm.hu"/>
    <tag k="payment:cash" v="yes"/>
    <tag k="shop" v="chemist"/>
    <tag k="facebook" v="https://www.facebook.com/dm.Magyarorszag"/>
    <tag k="operator" v="dm Kft."/>
    <tag k="payment:debit_cards" v="yes"/>
    <tag k="brand" v="dm"/>
    <tag k="instagram" v="https://www.instagram.com/dm_magyarorszag/"/>
    <tag k="youtube" v="https://www.youtube.com/user/dmMagyarorszag"/>
  </node>
  <node action="modify" id="-132" lat="47.4883849" lon="19.8863768">
    <tag k="name" v="dm"/>
    <tag k="addr:city" v="Jászberény"/>
    <tag k="addr:postcode" v="5100"/>
    <tag k="addr:street" v="Nagykátai út"/>
    <tag k="addr:housenumber" v="22/c"/>
    <tag k="website" v="https://www.dm.hu"/>
    <tag k="payment:cash" v="yes"/>
    <tag k="shop" v="chemist"/>
    <tag k="facebook" v="https://www.facebook.com/dm.Magyarorszag"/>
    <tag k="operator" v="dm Kft."/>
    <tag k="payment:debit_cards" v="yes"/>
    <tag k="brand" v="dm"/>
    <tag k="instagram" v="https://www.instagram.com/dm_magyarorszag/"/>
    <tag k="youtube" v="https://www.youtube.com/user/dmMagyarorszag"/>
  </node>
  <node action="modify" id="-133" lat="46.86233" lon="20.54928">
    <tag k="name" v="dm"/>
    <tag k="addr:city" v="Szarvas"/>
    <tag k="addr:postcode" v="5540"/>
    <tag k="addr:street" v="Szabadság utca"/>
    <tag k="addr:housenumber" v="32"/>
    <tag k="website" v="https://www.dm.hu"/>
    <tag k="payment:cash" v="yes"/>
    <tag k="shop" v="chemist"/>
    <tag k="facebook" v="https://www.facebook.com/dm.Magyarorszag"/>
    <tag k="operator" v="dm Kft."/>
    <tag k="payment:debit_cards" v="yes"/>
    <tag k="brand" v="dm"/>
    <tag k="instagram" v="https://www.instagram.com/dm_magyarorszag/"/>
    <tag k="youtube" v="https://www.youtube.com/user/dmMagyarorszag"/>
  </node>
  <node action="modify" id="-134" lat="46.67691" lon="21.09078">
    <tag k="name" v="dm"/>
    <tag k="addr:city" v="Békéscsaba"/>
    <tag k="addr:postcode" v="5600"/>
    <tag k="addr:street" v="Andrássy út"/>
    <tag k="addr:housenumber" v="37-43"/>
    <tag k="website" v="https://www.dm.hu"/>
    <tag k="payment:cash" v="yes"/>
    <tag k="shop" v="chemist"/>
    <tag k="facebook" v="https://www.facebook.com/dm.Magyarorszag"/>
    <tag k="operator" v="dm Kft."/>
    <tag k="payment:debit_cards" v="yes"/>
    <tag k="brand" v="dm"/>
    <tag k="instagram" v="https://www.instagram.com/dm_magyarorszag/"/>
    <tag k="youtube" v="https://www.youtube.com/user/dmMagyarorszag"/>
  </node>
  <node action="modify" id="-135" lat="46.6806683" lon="21.071252">
    <tag k="name" v="dm"/>
    <tag k="addr:city" v="Békéscsaba"/>
    <tag k="addr:postcode" v="5600"/>
    <tag k="addr:street" v="Szarvasi út"/>
    <tag k="addr:housenumber" v="68"/>
    <tag k="website" v="https://www.dm.hu"/>
    <tag k="payment:cash" v="yes"/>
    <tag k="shop" v="chemist"/>
    <tag k="facebook" v="https://www.facebook.com/dm.Magyarorszag"/>
    <tag k="operator" v="dm Kft."/>
    <tag k="payment:debit_cards" v="yes"/>
    <tag k="brand" v="dm"/>
    <tag k="instagram" v="https://www.instagram.com/dm_magyarorszag/"/>
    <tag k="youtube" v="https://www.youtube.com/user/dmMagyarorszag"/>
  </node>
  <node action="modify" id="-136" lat="46.77167" lon="21.13018">
    <tag k="name" v="dm"/>
    <tag k="addr:city" v="Békés"/>
    <tag k="addr:postcode" v="5630"/>
    <tag k="addr:street" v="Kossuth u."/>
    <tag k="addr:housenumber" v="3"/>
    <tag k="website" v="https://www.dm.hu"/>
    <tag k="payment:cash" v="yes"/>
    <tag k="shop" v="chemist"/>
    <tag k="facebook" v="https://www.facebook.com/dm.Magyarorszag"/>
    <tag k="operator" v="dm Kft."/>
    <tag k="payment:debit_cards" v="yes"/>
    <tag k="brand" v="dm"/>
    <tag k="instagram" v="https://www.instagram.com/dm_magyarorszag/"/>
    <tag k="youtube" v="https://www.youtube.com/user/dmMagyarorszag"/>
  </node>
  <node action="modify" id="-137" lat="46.82395" lon="21.0285">
    <tag k="name" v="dm"/>
    <tag k="addr:city" v="Mezőberény"/>
    <tag k="addr:postcode" v="5650"/>
    <tag k="addr:street" v="Kossuth tér"/>
    <tag k="addr:housenumber" v="2"/>
    <tag k="website" v="https://www.dm.hu"/>
    <tag k="payment:cash" v="yes"/>
    <tag k="shop" v="chemist"/>
    <tag k="facebook" v="https://www.facebook.com/dm.Magyarorszag"/>
    <tag k="operator" v="dm Kft."/>
    <tag k="payment:debit_cards" v="yes"/>
    <tag k="brand" v="dm"/>
    <tag k="instagram" v="https://www.instagram.com/dm_magyarorszag/"/>
    <tag k="youtube" v="https://www.youtube.com/user/dmMagyarorszag"/>
  </node>
  <node action="modify" id="-138" lat="46.64547" lon="21.27186">
    <tag k="name" v="dm"/>
    <tag k="addr:city" v="Gyula"/>
    <tag k="addr:postcode" v="5700"/>
    <tag k="addr:street" v="Béke sugárút"/>
    <tag k="addr:housenumber" v="9-11"/>
    <tag k="website" v="https://www.dm.hu"/>
    <tag k="payment:cash" v="yes"/>
    <tag k="shop" v="chemist"/>
    <tag k="facebook" v="https://www.facebook.com/dm.Magyarorszag"/>
    <tag k="operator" v="dm Kft."/>
    <tag k="payment:debit_cards" v="yes"/>
    <tag k="brand" v="dm"/>
    <tag k="instagram" v="https://www.instagram.com/dm_magyarorszag/"/>
    <tag k="youtube" v="https://www.youtube.com/user/dmMagyarorszag"/>
  </node>
  <node action="modify" id="-139" lat="46.64027" lon="21.26149">
    <tag k="name" v="dm"/>
    <tag k="addr:city" v="Gyula"/>
    <tag k="addr:postcode" v="5700"/>
    <tag k="addr:street" v="Kétegyházi u."/>
    <tag k="addr:housenumber" v="4"/>
    <tag k="website" v="https://www.dm.hu"/>
    <tag k="payment:cash" v="yes"/>
    <tag k="shop" v="chemist"/>
    <tag k="facebook" v="https://www.facebook.com/dm.Magyarorszag"/>
    <tag k="operator" v="dm Kft."/>
    <tag k="payment:debit_cards" v="yes"/>
    <tag k="brand" v="dm"/>
    <tag k="instagram" v="https://www.instagram.com/dm_magyarorszag/"/>
    <tag k="youtube" v="https://www.youtube.com/user/dmMagyarorszag"/>
  </node>
  <node action="modify" id="-140" lat="46.8873852" lon="19.63533">
    <tag k="name" v="dm"/>
    <tag k="addr:city" v="Kecskemét"/>
    <tag k="addr:postcode" v="6000"/>
    <tag k="addr:street" v="Dunaföldvári út"/>
    <tag k="addr:housenumber" v="2"/>
    <tag k="website" v="https://www.dm.hu"/>
    <tag k="payment:cash" v="yes"/>
    <tag k="shop" v="chemist"/>
    <tag k="facebook" v="https://www.facebook.com/dm.Magyarorszag"/>
    <tag k="operator" v="dm Kft."/>
    <tag k="payment:debit_cards" v="yes"/>
    <tag k="brand" v="dm"/>
    <tag k="instagram" v="https://www.instagram.com/dm_magyarorszag/"/>
    <tag k="youtube" v="https://www.youtube.com/user/dmMagyarorszag"/>
  </node>
  <node action="modify" id="-141" lat="46.91891" lon="19.67423">
    <tag k="name" v="dm"/>
    <tag k="addr:city" v="Kecskemét"/>
    <tag k="addr:postcode" v="6000"/>
    <tag k="addr:street" v="Március 15. út"/>
    <tag k="addr:housenumber" v="5/a"/>
    <tag k="website" v="https://www.dm.hu"/>
    <tag k="payment:cash" v="yes"/>
    <tag k="shop" v="chemist"/>
    <tag k="facebook" v="https://www.facebook.com/dm.Magyarorszag"/>
    <tag k="operator" v="dm Kft."/>
    <tag k="payment:debit_cards" v="yes"/>
    <tag k="brand" v="dm"/>
    <tag k="instagram" v="https://www.instagram.com/dm_magyarorszag/"/>
    <tag k="youtube" v="https://www.youtube.com/user/dmMagyarorszag"/>
  </node>
  <node action="modify" id="-142" lat="46.90471" lon="19.6865">
    <tag k="name" v="dm"/>
    <tag k="addr:city" v="Kecskemét"/>
    <tag k="addr:postcode" v="6000"/>
    <tag k="addr:street" v="Petőfi Sándor utca"/>
    <tag k="addr:housenumber" v="5-7"/>
    <tag k="website" v="https://www.dm.hu"/>
    <tag k="payment:cash" v="yes"/>
    <tag k="shop" v="chemist"/>
    <tag k="facebook" v="https://www.facebook.com/dm.Magyarorszag"/>
    <tag k="operator" v="dm Kft."/>
    <tag k="payment:debit_cards" v="yes"/>
    <tag k="brand" v="dm"/>
    <tag k="instagram" v="https://www.instagram.com/dm_magyarorszag/"/>
    <tag k="youtube" v="https://www.youtube.com/user/dmMagyarorszag"/>
  </node>
  <node action="modify" id="-143" lat="46.89344" lon="19.66617">
    <tag k="name" v="dm"/>
    <tag k="addr:city" v="Kecskemét"/>
    <tag k="addr:postcode" v="6000"/>
    <tag k="addr:street" v="Izsáki út"/>
    <tag k="addr:housenumber" v="12"/>
    <tag k="website" v="https://www.dm.hu"/>
    <tag k="payment:cash" v="yes"/>
    <tag k="shop" v="chemist"/>
    <tag k="facebook" v="https://www.facebook.com/dm.Magyarorszag"/>
    <tag k="operator" v="dm Kft."/>
    <tag k="payment:debit_cards" v="yes"/>
    <tag k="brand" v="dm"/>
    <tag k="instagram" v="https://www.instagram.com/dm_magyarorszag/"/>
    <tag k="youtube" v="https://www.youtube.com/user/dmMagyarorszag"/>
  </node>
  <node action="modify" id="-144" lat="46.90745" lon="19.68946">
    <tag k="name" v="dm"/>
    <tag k="addr:city" v="Kecskemét"/>
    <tag k="addr:postcode" v="6000"/>
    <tag k="addr:street" v="Korona utca"/>
    <tag k="addr:housenumber" v="2"/>
    <tag k="website" v="https://www.dm.hu"/>
    <tag k="payment:cash" v="yes"/>
    <tag k="shop" v="chemist"/>
    <tag k="facebook" v="https://www.facebook.com/dm.Magyarorszag"/>
    <tag k="operator" v="dm Kft."/>
    <tag k="payment:debit_cards" v="yes"/>
    <tag k="brand" v="dm"/>
    <tag k="instagram" v="https://www.instagram.com/dm_magyarorszag/"/>
    <tag k="youtube" v="https://www.youtube.com/user/dmMagyarorszag"/>
  </node>
  <node action="modify" id="-145" lat="46.7117037" lon="19.8485743">
    <tag k="name" v="dm"/>
    <tag k="addr:city" v="Kiskunfélegyháza"/>
    <tag k="addr:postcode" v="6100"/>
    <tag k="addr:street" v="Mártírok út"/>
    <tag k="addr:housenumber" v="2"/>
    <tag k="website" v="https://www.dm.hu"/>
    <tag k="payment:cash" v="yes"/>
    <tag k="shop" v="chemist"/>
    <tag k="facebook" v="https://www.facebook.com/dm.Magyarorszag"/>
    <tag k="operator" v="dm Kft."/>
    <tag k="payment:debit_cards" v="yes"/>
    <tag k="brand" v="dm"/>
    <tag k="instagram" v="https://www.instagram.com/dm_magyarorszag/"/>
    <tag k="youtube" v="https://www.youtube.com/user/dmMagyarorszag"/>
  </node>
  <node action="modify" id="-146" lat="46.65173" lon="20.26103">
    <tag k="name" v="dm"/>
    <tag k="addr:city" v="Szentes"/>
    <tag k="addr:postcode" v="6600"/>
    <tag k="addr:street" v="Kossuth utca"/>
    <tag k="addr:housenumber" v="14"/>
    <tag k="website" v="https://www.dm.hu"/>
    <tag k="payment:cash" v="yes"/>
    <tag k="shop" v="chemist"/>
    <tag k="facebook" v="https://www.facebook.com/dm.Magyarorszag"/>
    <tag k="operator" v="dm Kft."/>
    <tag k="payment:debit_cards" v="yes"/>
    <tag k="brand" v="dm"/>
    <tag k="instagram" v="https://www.instagram.com/dm_magyarorszag/"/>
    <tag k="youtube" v="https://www.youtube.com/user/dmMagyarorszag"/>
  </node>
  <node action="modify" id="-147" lat="46.71048" lon="20.14869">
    <tag k="name" v="dm"/>
    <tag k="addr:city" v="Csongrád"/>
    <tag k="addr:postcode" v="6640"/>
    <tag k="addr:street" v="Fő utca"/>
    <tag k="addr:housenumber" v="6-10"/>
    <tag k="website" v="https://www.dm.hu"/>
    <tag k="payment:cash" v="yes"/>
    <tag k="shop" v="chemist"/>
    <tag k="facebook" v="https://www.facebook.com/dm.Magyarorszag"/>
    <tag k="operator" v="dm Kft."/>
    <tag k="payment:debit_cards" v="yes"/>
    <tag k="brand" v="dm"/>
    <tag k="instagram" v="https://www.instagram.com/dm_magyarorszag/"/>
    <tag k="youtube" v="https://www.youtube.com/user/dmMagyarorszag"/>
  </node>
  <node action="modify" id="-148" lat="46.80628" lon="18.92488">
    <tag k="name" v="dm"/>
    <tag k="addr:city" v="Dunaföldvár"/>
    <tag k="addr:postcode" v="7020"/>
    <tag k="addr:street" v="Béke tér"/>
    <tag k="addr:housenumber" v="14"/>
    <tag k="website" v="https://www.dm.hu"/>
    <tag k="payment:cash" v="yes"/>
    <tag k="shop" v="chemist"/>
    <tag k="facebook" v="https://www.facebook.com/dm.Magyarorszag"/>
    <tag k="operator" v="dm Kft."/>
    <tag k="payment:debit_cards" v="yes"/>
    <tag k="brand" v="dm"/>
    <tag k="instagram" v="https://www.instagram.com/dm_magyarorszag/"/>
    <tag k="youtube" v="https://www.youtube.com/user/dmMagyarorszag"/>
  </node>
  <node action="modify" id="-149" lat="46.61575" lon="18.84404">
    <tag k="name" v="dm"/>
    <tag k="addr:city" v="Paks"/>
    <tag k="addr:postcode" v="7030"/>
    <tag k="addr:street" v="Barátság utca"/>
    <tag k="addr:housenumber" v="3"/>
    <tag k="website" v="https://www.dm.hu"/>
    <tag k="payment:cash" v="yes"/>
    <tag k="shop" v="chemist"/>
    <tag k="facebook" v="https://www.facebook.com/dm.Magyarorszag"/>
    <tag k="operator" v="dm Kft."/>
    <tag k="payment:debit_cards" v="yes"/>
    <tag k="brand" v="dm"/>
    <tag k="instagram" v="https://www.instagram.com/dm_magyarorszag/"/>
    <tag k="youtube" v="https://www.youtube.com/user/dmMagyarorszag"/>
  </node>
  <node action="modify" id="-150" lat="46.62465" lon="18.86127">
    <tag k="name" v="dm"/>
    <tag k="addr:city" v="Paks"/>
    <tag k="addr:postcode" v="7030"/>
    <tag k="addr:street" v="Dózsa György út"/>
    <tag k="addr:housenumber" v="30"/>
    <tag k="website" v="https://www.dm.hu"/>
    <tag k="payment:cash" v="yes"/>
    <tag k="shop" v="chemist"/>
    <tag k="facebook" v="https://www.facebook.com/dm.Magyarorszag"/>
    <tag k="operator" v="dm Kft."/>
    <tag k="payment:debit_cards" v="yes"/>
    <tag k="brand" v="dm"/>
    <tag k="instagram" v="https://www.instagram.com/dm_magyarorszag/"/>
    <tag k="youtube" v="https://www.youtube.com/user/dmMagyarorszag"/>
  </node>
  <node action="modify" id="-151" lat="46.63255" lon="18.28163">
    <tag k="name" v="dm"/>
    <tag k="addr:city" v="Tamás"/>
    <tag k="addr:postcode" v="7090"/>
    <tag k="addr:street" v="Szabadság utca"/>
    <tag k="addr:housenumber" v="31"/>
    <tag k="website" v="https://www.dm.hu"/>
    <tag k="payment:cash" v="yes"/>
    <tag k="shop" v="chemist"/>
    <tag k="facebook" v="https://www.facebook.com/dm.Magyarorszag"/>
    <tag k="operator" v="dm Kft."/>
    <tag k="payment:debit_cards" v="yes"/>
    <tag k="brand" v="dm"/>
    <tag k="instagram" v="https://www.instagram.com/dm_magyarorszag/"/>
    <tag k="youtube" v="https://www.youtube.com/user/dmMagyarorszag"/>
  </node>
  <node action="modify" id="-152" lat="47.19157" lon="18.42424">
    <tag k="name" v="dm"/>
    <tag k="addr:city" v="Székesfehérvár"/>
    <tag k="addr:postcode" v="8000"/>
    <tag k="addr:street" v="Budai u."/>
    <tag k="addr:housenumber" v="41"/>
    <tag k="website" v="https://www.dm.hu"/>
    <tag k="payment:cash" v="yes"/>
    <tag k="shop" v="chemist"/>
    <tag k="facebook" v="https://www.facebook.com/dm.Magyarorszag"/>
    <tag k="operator" v="dm Kft."/>
    <tag k="payment:debit_cards" v="yes"/>
    <tag k="brand" v="dm"/>
    <tag k="instagram" v="https://www.instagram.com/dm_magyarorszag/"/>
    <tag k="youtube" v="https://www.youtube.com/user/dmMagyarorszag"/>
  </node>
  <node action="modify" id="-153" lat="47.1462192" lon="18.4234762">
    <tag k="name" v="dm"/>
    <tag k="addr:city" v="Székesfehérvár"/>
    <tag k="addr:postcode" v="8000"/>
    <tag k="addr:street" v="Holland fasor"/>
    <tag k="addr:housenumber" v="1"/>
    <tag k="website" v="https://www.dm.hu"/>
    <tag k="payment:cash" v="yes"/>
    <tag k="shop" v="chemist"/>
    <tag k="facebook" v="https://www.facebook.com/dm.Magyarorszag"/>
    <tag k="operator" v="dm Kft."/>
    <tag k="payment:debit_cards" v="yes"/>
    <tag k="brand" v="dm"/>
    <tag k="instagram" v="https://www.instagram.com/dm_magyarorszag/"/>
    <tag k="youtube" v="https://www.youtube.com/user/dmMagyarorszag"/>
  </node>
  <node action="modify" id="-154" lat="47.19232" lon="18.41274">
    <tag k="name" v="dm"/>
    <tag k="addr:city" v="Székesfehérvár"/>
    <tag k="addr:postcode" v="8000"/>
    <tag k="addr:street" v="Távirda utca"/>
    <tag k="addr:housenumber" v="1"/>
    <tag k="website" v="https://www.dm.hu"/>
    <tag k="payment:cash" v="yes"/>
    <tag k="shop" v="chemist"/>
    <tag k="facebook" v="https://www.facebook.com/dm.Magyarorszag"/>
    <tag k="operator" v="dm Kft."/>
    <tag k="payment:debit_cards" v="yes"/>
    <tag k="brand" v="dm"/>
    <tag k="instagram" v="https://www.instagram.com/dm_magyarorszag/"/>
    <tag k="youtube" v="https://www.youtube.com/user/dmMagyarorszag"/>
  </node>
  <node action="modify" id="-155" lat="47.19447" lon="18.40914">
    <tag k="name" v="dm"/>
    <tag k="addr:city" v="Székesfehérvár"/>
    <tag k="addr:postcode" v="8000"/>
    <tag k="addr:street" v="Dr. Koch L. utca"/>
    <tag k="addr:housenumber" v="2"/>
    <tag k="website" v="https://www.dm.hu"/>
    <tag k="payment:cash" v="yes"/>
    <tag k="shop" v="chemist"/>
    <tag k="facebook" v="https://www.facebook.com/dm.Magyarorszag"/>
    <tag k="operator" v="dm Kft."/>
    <tag k="payment:debit_cards" v="yes"/>
    <tag k="brand" v="dm"/>
    <tag k="instagram" v="https://www.instagram.com/dm_magyarorszag/"/>
    <tag k="youtube" v="https://www.youtube.com/user/dmMagyarorszag"/>
  </node>
  <node action="modify" id="-156" lat="47.37217" lon="18.20975">
    <tag k="name" v="dm"/>
    <tag k="addr:city" v="Mór"/>
    <tag k="addr:postcode" v="8060"/>
    <tag k="addr:street" v="Szent István tér"/>
    <tag k="addr:housenumber" v="5/a"/>
    <tag k="website" v="https://www.dm.hu"/>
    <tag k="payment:cash" v="yes"/>
    <tag k="shop" v="chemist"/>
    <tag k="facebook" v="https://www.facebook.com/dm.Magyarorszag"/>
    <tag k="operator" v="dm Kft."/>
    <tag k="payment:debit_cards" v="yes"/>
    <tag k="brand" v="dm"/>
    <tag k="instagram" v="https://www.instagram.com/dm_magyarorszag/"/>
    <tag k="youtube" v="https://www.youtube.com/user/dmMagyarorszag"/>
  </node>
  <node action="modify" id="-157" lat="47.2010498" lon="18.14062">
    <tag k="name" v="dm"/>
    <tag k="addr:city" v="Várpalota"/>
    <tag k="addr:postcode" v="8100"/>
    <tag k="addr:street" v="Szent István utca"/>
    <tag k="addr:housenumber" v="2"/>
    <tag k="website" v="https://www.dm.hu"/>
    <tag k="payment:cash" v="yes"/>
    <tag k="shop" v="chemist"/>
    <tag k="facebook" v="https://www.facebook.com/dm.Magyarorszag"/>
    <tag k="operator" v="dm Kft."/>
    <tag k="payment:debit_cards" v="yes"/>
    <tag k="brand" v="dm"/>
    <tag k="instagram" v="https://www.instagram.com/dm_magyarorszag/"/>
    <tag k="youtube" v="https://www.youtube.com/user/dmMagyarorszag"/>
  </node>
  <node action="modify" id="-158" lat="47.0849472" lon="17.9265076">
    <tag k="name" v="dm"/>
    <tag k="addr:city" v="Veszprém"/>
    <tag k="addr:postcode" v="8200"/>
    <tag k="website" v="https://www.dm.hu"/>
    <tag k="payment:cash" v="yes"/>
    <tag k="shop" v="chemist"/>
    <tag k="facebook" v="https://www.facebook.com/dm.Magyarorszag"/>
    <tag k="operator" v="dm Kft."/>
    <tag k="payment:debit_cards" v="yes"/>
    <tag k="brand" v="dm"/>
    <tag k="instagram" v="https://www.instagram.com/dm_magyarorszag/"/>
    <tag k="youtube" v="https://www.youtube.com/user/dmMagyarorszag"/>
  </node>
  <node action="modify" id="-159" lat="47.09327" lon="17.91157">
    <tag k="name" v="dm"/>
    <tag k="addr:city" v="Veszprém"/>
    <tag k="addr:postcode" v="8200"/>
    <tag k="addr:street" v="Kossuth Lajos utca"/>
    <tag k="addr:housenumber" v="6"/>
    <tag k="website" v="https://www.dm.hu"/>
    <tag k="payment:cash" v="yes"/>
    <tag k="shop" v="chemist"/>
    <tag k="facebook" v="https://www.facebook.com/dm.Magyarorszag"/>
    <tag k="operator" v="dm Kft."/>
    <tag k="payment:debit_cards" v="yes"/>
    <tag k="brand" v="dm"/>
    <tag k="instagram" v="https://www.instagram.com/dm_magyarorszag/"/>
    <tag k="youtube" v="https://www.youtube.com/user/dmMagyarorszag"/>
  </node>
  <node action="modify" id="-160" lat="47.1027" lon="17.89879">
    <tag k="name" v="dm"/>
    <tag k="addr:city" v="Veszprém"/>
    <tag k="addr:postcode" v="8200"/>
    <tag k="addr:street" v="Dózsa György tér"/>
    <tag k="addr:housenumber" v="1"/>
    <tag k="website" v="https://www.dm.hu"/>
    <tag k="payment:cash" v="yes"/>
    <tag k="shop" v="chemist"/>
    <tag k="facebook" v="https://www.facebook.com/dm.Magyarorszag"/>
    <tag k="operator" v="dm Kft."/>
    <tag k="payment:debit_cards" v="yes"/>
    <tag k="brand" v="dm"/>
    <tag k="instagram" v="https://www.instagram.com/dm_magyarorszag/"/>
    <tag k="youtube" v="https://www.youtube.com/user/dmMagyarorszag"/>
  </node>
  <node action="modify" id="-161" lat="47.1028484" lon="17.9333574">
    <tag k="name" v="dm"/>
    <tag k="addr:city" v="Veszprém"/>
    <tag k="addr:postcode" v="8200"/>
    <tag k="addr:street" v="Külső-Kádártai u."/>
    <tag k="addr:housenumber" v="3"/>
    <tag k="website" v="https://www.dm.hu"/>
    <tag k="payment:cash" v="yes"/>
    <tag k="shop" v="chemist"/>
    <tag k="facebook" v="https://www.facebook.com/dm.Magyarorszag"/>
    <tag k="operator" v="dm Kft."/>
    <tag k="payment:debit_cards" v="yes"/>
    <tag k="brand" v="dm"/>
    <tag k="instagram" v="https://www.instagram.com/dm_magyarorszag/"/>
    <tag k="youtube" v="https://www.youtube.com/user/dmMagyarorszag"/>
  </node>
  <node action="modify" id="-162" lat="47.02864" lon="18.01431">
    <tag k="name" v="dm"/>
    <tag k="addr:city" v="Balatonalmád"/>
    <tag k="addr:postcode" v="8220"/>
    <tag k="addr:street" v="Baross utca"/>
    <tag k="addr:housenumber" v="2"/>
    <tag k="website" v="https://www.dm.hu"/>
    <tag k="payment:cash" v="yes"/>
    <tag k="shop" v="chemist"/>
    <tag k="facebook" v="https://www.facebook.com/dm.Magyarorszag"/>
    <tag k="operator" v="dm Kft."/>
    <tag k="payment:debit_cards" v="yes"/>
    <tag k="brand" v="dm"/>
    <tag k="instagram" v="https://www.instagram.com/dm_magyarorszag/"/>
    <tag k="youtube" v="https://www.youtube.com/user/dmMagyarorszag"/>
  </node>
  <node action="modify" id="-163" lat="46.95665" lon="17.88812">
    <tag k="name" v="dm"/>
    <tag k="addr:city" v="Balatonfüred"/>
    <tag k="addr:postcode" v="8230"/>
    <tag k="addr:street" v="Jókai utca"/>
    <tag k="addr:housenumber" v="15"/>
    <tag k="website" v="https://www.dm.hu"/>
    <tag k="payment:cash" v="yes"/>
    <tag k="shop" v="chemist"/>
    <tag k="facebook" v="https://www.facebook.com/dm.Magyarorszag"/>
    <tag k="operator" v="dm Kft."/>
    <tag k="payment:debit_cards" v="yes"/>
    <tag k="brand" v="dm"/>
    <tag k="instagram" v="https://www.instagram.com/dm_magyarorszag/"/>
    <tag k="youtube" v="https://www.youtube.com/user/dmMagyarorszag"/>
  </node>
  <node action="modify" id="-164" lat="46.88259" lon="17.43995">
    <tag k="name" v="dm"/>
    <tag k="addr:city" v="Tapolca"/>
    <tag k="addr:postcode" v="8300"/>
    <tag k="addr:street" v="Fő tér"/>
    <tag k="addr:housenumber" v="4"/>
    <tag k="website" v="https://www.dm.hu"/>
    <tag k="payment:cash" v="yes"/>
    <tag k="shop" v="chemist"/>
    <tag k="facebook" v="https://www.facebook.com/dm.Magyarorszag"/>
    <tag k="operator" v="dm Kft."/>
    <tag k="payment:debit_cards" v="yes"/>
    <tag k="brand" v="dm"/>
    <tag k="instagram" v="https://www.instagram.com/dm_magyarorszag/"/>
    <tag k="youtube" v="https://www.youtube.com/user/dmMagyarorszag"/>
  </node>
  <node action="modify" id="-165" lat="47.10626" lon="17.56411">
    <tag k="name" v="dm"/>
    <tag k="addr:city" v="Ajka"/>
    <tag k="addr:postcode" v="8400"/>
    <tag k="addr:street" v="Csingeri út"/>
    <tag k="addr:housenumber" v="2"/>
    <tag k="website" v="https://www.dm.hu"/>
    <tag k="payment:cash" v="yes"/>
    <tag k="shop" v="chemist"/>
    <tag k="facebook" v="https://www.facebook.com/dm.Magyarorszag"/>
    <tag k="operator" v="dm Kft."/>
    <tag k="payment:debit_cards" v="yes"/>
    <tag k="brand" v="dm"/>
    <tag k="instagram" v="https://www.instagram.com/dm_magyarorszag/"/>
    <tag k="youtube" v="https://www.youtube.com/user/dmMagyarorszag"/>
  </node>
  <node action="modify" id="-166" lat="47.32995" lon="17.45738">
    <tag k="name" v="dm"/>
    <tag k="addr:city" v="Pápa"/>
    <tag k="addr:postcode" v="8500"/>
    <tag k="addr:street" v="Celli utca"/>
    <tag k="addr:housenumber" v="25"/>
    <tag k="website" v="https://www.dm.hu"/>
    <tag k="payment:cash" v="yes"/>
    <tag k="shop" v="chemist"/>
    <tag k="facebook" v="https://www.facebook.com/dm.Magyarorszag"/>
    <tag k="operator" v="dm Kft."/>
    <tag k="payment:debit_cards" v="yes"/>
    <tag k="brand" v="dm"/>
    <tag k="instagram" v="https://www.instagram.com/dm_magyarorszag/"/>
    <tag k="youtube" v="https://www.youtube.com/user/dmMagyarorszag"/>
  </node>
  <node action="modify" id="-167" lat="46.90718" lon="18.05558">
    <tag k="name" v="dm"/>
    <tag k="addr:city" v="Siófok"/>
    <tag k="addr:postcode" v="8600"/>
    <tag k="addr:street" v="Fő utca"/>
    <tag k="addr:housenumber" v="188-190"/>
    <tag k="website" v="https://www.dm.hu"/>
    <tag k="payment:cash" v="yes"/>
    <tag k="shop" v="chemist"/>
    <tag k="facebook" v="https://www.facebook.com/dm.Magyarorszag"/>
    <tag k="operator" v="dm Kft."/>
    <tag k="payment:debit_cards" v="yes"/>
    <tag k="brand" v="dm"/>
    <tag k="instagram" v="https://www.instagram.com/dm_magyarorszag/"/>
    <tag k="youtube" v="https://www.youtube.com/user/dmMagyarorszag"/>
  </node>
  <node action="modify" id="-168" lat="46.90611" lon="18.05194">
    <tag k="name" v="dm"/>
    <tag k="addr:city" v="Siófok"/>
    <tag k="addr:postcode" v="8600"/>
    <tag k="addr:street" v="Fő tér"/>
    <tag k="addr:housenumber" v="6"/>
    <tag k="website" v="https://www.dm.hu"/>
    <tag k="payment:cash" v="yes"/>
    <tag k="shop" v="chemist"/>
    <tag k="facebook" v="https://www.facebook.com/dm.Magyarorszag"/>
    <tag k="operator" v="dm Kft."/>
    <tag k="payment:debit_cards" v="yes"/>
    <tag k="brand" v="dm"/>
    <tag k="instagram" v="https://www.instagram.com/dm_magyarorszag/"/>
    <tag k="youtube" v="https://www.youtube.com/user/dmMagyarorszag"/>
  </node>
  <node action="modify" id="-169" lat="46.86081" lon="17.90378">
    <tag k="name" v="dm"/>
    <tag k="addr:city" v="Szántód"/>
    <tag k="addr:postcode" v="8622"/>
    <tag k="addr:street" v="Siófoki út"/>
    <tag k="addr:housenumber" v="3"/>
    <tag k="website" v="https://www.dm.hu"/>
    <tag k="payment:cash" v="yes"/>
    <tag k="shop" v="chemist"/>
    <tag k="facebook" v="https://www.facebook.com/dm.Magyarorszag"/>
    <tag k="operator" v="dm Kft."/>
    <tag k="payment:debit_cards" v="yes"/>
    <tag k="brand" v="dm"/>
    <tag k="instagram" v="https://www.instagram.com/dm_magyarorszag/"/>
    <tag k="youtube" v="https://www.youtube.com/user/dmMagyarorszag"/>
  </node>
  <node action="modify" id="-170" lat="46.77642" lon="17.6499">
    <tag k="name" v="dm"/>
    <tag k="addr:city" v="Balatonboglár"/>
    <tag k="addr:postcode" v="8630"/>
    <tag k="addr:street" v="Klapka u"/>
    <tag k="addr:housenumber" v="4"/>
    <tag k="website" v="https://www.dm.hu"/>
    <tag k="payment:cash" v="yes"/>
    <tag k="shop" v="chemist"/>
    <tag k="facebook" v="https://www.facebook.com/dm.Magyarorszag"/>
    <tag k="operator" v="dm Kft."/>
    <tag k="payment:debit_cards" v="yes"/>
    <tag k="brand" v="dm"/>
    <tag k="instagram" v="https://www.instagram.com/dm_magyarorszag/"/>
    <tag k="youtube" v="https://www.youtube.com/user/dmMagyarorszag"/>
  </node>
  <node action="modify" id="-171" lat="47.68203" lon="17.63338">
    <tag k="name" v="dm"/>
    <tag k="addr:city" v="Győr"/>
    <tag k="addr:postcode" v="9021"/>
    <tag k="addr:street" v="Révai Miklós utca"/>
    <tag k="addr:housenumber" v="4-6"/>
    <tag k="website" v="https://www.dm.hu"/>
    <tag k="payment:cash" v="yes"/>
    <tag k="shop" v="chemist"/>
    <tag k="facebook" v="https://www.facebook.com/dm.Magyarorszag"/>
    <tag k="operator" v="dm Kft."/>
    <tag k="payment:debit_cards" v="yes"/>
    <tag k="brand" v="dm"/>
    <tag k="instagram" v="https://www.instagram.com/dm_magyarorszag/"/>
    <tag k="youtube" v="https://www.youtube.com/user/dmMagyarorszag"/>
  </node>
  <node action="modify" id="-172" lat="47.68554" lon="17.63359">
    <tag k="name" v="dm"/>
    <tag k="addr:city" v="Győr"/>
    <tag k="addr:postcode" v="9021"/>
    <tag k="addr:street" v="Baross Gábor u."/>
    <tag k="addr:housenumber" v="24"/>
    <tag k="website" v="https://www.dm.hu"/>
    <tag k="payment:cash" v="yes"/>
    <tag k="shop" v="chemist"/>
    <tag k="facebook" v="https://www.facebook.com/dm.Magyarorszag"/>
    <tag k="operator" v="dm Kft."/>
    <tag k="payment:debit_cards" v="yes"/>
    <tag k="brand" v="dm"/>
    <tag k="instagram" v="https://www.instagram.com/dm_magyarorszag/"/>
    <tag k="youtube" v="https://www.youtube.com/user/dmMagyarorszag"/>
  </node>
  <node action="modify" id="-173" lat="47.68921" lon="17.64475">
    <tag k="name" v="dm"/>
    <tag k="addr:city" v="Győr"/>
    <tag k="addr:postcode" v="9022"/>
    <tag k="addr:street" v="Budai út"/>
    <tag k="addr:housenumber" v="1"/>
    <tag k="website" v="https://www.dm.hu"/>
    <tag k="payment:cash" v="yes"/>
    <tag k="shop" v="chemist"/>
    <tag k="facebook" v="https://www.facebook.com/dm.Magyarorszag"/>
    <tag k="operator" v="dm Kft."/>
    <tag k="payment:debit_cards" v="yes"/>
    <tag k="brand" v="dm"/>
    <tag k="instagram" v="https://www.instagram.com/dm_magyarorszag/"/>
    <tag k="youtube" v="https://www.youtube.com/user/dmMagyarorszag"/>
  </node>
  <node action="modify" id="-174" lat="47.68781" lon="17.64859">
    <tag k="name" v="dm"/>
    <tag k="addr:city" v="Győr"/>
    <tag k="addr:postcode" v="9023"/>
    <tag k="addr:street" v="Fehérvári út"/>
    <tag k="addr:housenumber" v="3"/>
    <tag k="website" v="https://www.dm.hu"/>
    <tag k="payment:cash" v="yes"/>
    <tag k="shop" v="chemist"/>
    <tag k="facebook" v="https://www.facebook.com/dm.Magyarorszag"/>
    <tag k="operator" v="dm Kft."/>
    <tag k="payment:debit_cards" v="yes"/>
    <tag k="brand" v="dm"/>
    <tag k="instagram" v="https://www.instagram.com/dm_magyarorszag/"/>
    <tag k="youtube" v="https://www.youtube.com/user/dmMagyarorszag"/>
  </node>
  <node action="modify" id="-175" lat="47.67744" lon="17.61743">
    <tag k="name" v="dm"/>
    <tag k="addr:city" v="Győr"/>
    <tag k="addr:postcode" v="9025"/>
    <tag k="addr:street" v="Csipkegyári utca"/>
    <tag k="addr:housenumber" v="11"/>
    <tag k="website" v="https://www.dm.hu"/>
    <tag k="payment:cash" v="yes"/>
    <tag k="shop" v="chemist"/>
    <tag k="facebook" v="https://www.facebook.com/dm.Magyarorszag"/>
    <tag k="operator" v="dm Kft."/>
    <tag k="payment:debit_cards" v="yes"/>
    <tag k="brand" v="dm"/>
    <tag k="instagram" v="https://www.instagram.com/dm_magyarorszag/"/>
    <tag k="youtube" v="https://www.youtube.com/user/dmMagyarorszag"/>
  </node>
</osm>
