<?xml version='1.0' encoding='UTF-8'?>
<osm generator="JOSM" version="0.6">
  <!-- Original coordinates: POINT (47.557386 19.088351) -->
  <node action="modify" changeset="99999" id="-1" lat="47.557386" lon="19.088351" timestamp="" uid="4579407" user="KAMI" version="99999">
    <tag k="website" v="https://www.prima.hu"/>
    <tag k="email" v="berda@jegcsillag.hu"/>
    <tag k="payment:debit_cards" v="yes"/>
    <tag k="payment:cash" v="yes"/>
    <tag k="shop" v="convenience"/>
    <tag k="phone" v="+3613990559"/>
    <tag k="addr:postcode" v="1043"/>
    <tag k="branch" v="Príma Élelmiszer Berda József u. 48."/>
    <tag k="brand" v="Príma"/>
    <tag k="addr:housenumber" v="48"/>
    <tag k="addr:city" v="Budapest"/>
    <tag k="name" v="Príma"/>
    <tag k="source" v="website"/>
    <tag k="addr:street" v="Berda József utca"/>
  </node>
  <!-- OSM link: https://osm.org/node/2385679967 -->
  <!-- Original coordinates: POINT (47.503092 19.065728) -->
  <node action="modify" changeset="1" id="2385679967" lat="47.503092" lon="19.065728" timestamp="2017-07-19T07:2837Z" uid="4579407" user="KAMI" version="2">
    <tag k="website" v="https://www.prima.hu"/>
    <tag k="phone" v="+3614130085"/>
    <tag k="email" v="kiraly@jegcsillag.hu"/>
    <tag k="payment:debit_cards" v="yes"/>
    <tag k="wheelchair" v="no"/>
    <tag k="brand" v="Príma"/>
    <tag k="name" v="Príma"/>
    <tag k="addr:postcode" v="1073"/>
    <tag k="branch" v="Príma Élelmiszer Erzsébet körút 58."/>
    <tag k="payment:cash" v="yes"/>
    <tag k="addr:housenumber" v="58"/>
    <tag k="addr:city" v="Budapest"/>
    <tag k="shop" v="convenience"/>
    <tag k="source" v="website"/>
    <tag k="addr:street" v="Erzsébet körút"/>
  </node>
  <!-- OSM link: https://osm.org/node/2936159951 -->
  <!-- Original coordinates: POINT (47.488287 19.082548) -->
  <node action="modify" changeset="1" id="2936159951" lat="47.488287" lon="19.082548" timestamp="2015-10-26T15:3019Z" uid="4579407" user="KAMI" version="3">
    <tag k="website" v="https://www.prima.hu"/>
    <tag k="phone" v="+3612100057"/>
    <tag k="email" v="baross@jegcsillag.hu"/>
    <tag k="payment:debit_cards" v="yes"/>
    <tag k="wheelchair" v="limited"/>
    <tag k="brand" v="Príma"/>
    <tag k="name" v="Príma"/>
    <tag k="addr:postcode" v="1083"/>
    <tag k="branch" v="Príma Élelmiszer Baross u.111."/>
    <tag k="payment:cash" v="yes"/>
    <tag k="addr:housenumber" v="111"/>
    <tag k="addr:city" v="Budapest"/>
    <tag k="shop" v="convenience"/>
    <tag k="source" v="website"/>
    <tag k="addr:street" v="Baross utca"/>
  </node>
  <!-- OSM link: https://osm.org/way/183987431 -->
  <!-- Original coordinates: POINT (47.546325 19.038255) -->
  <way action="modify" changeset="1" id="183987431" timestamp="2015-03-15T10:1723Z" uid="4579407" user="KAMI" version="2">
    <nd ref="1944245372"/>
    <nd ref="1944245365"/>
    <nd ref="1944245370"/>
    <nd ref="1944245368"/>
    <nd ref="1944245372"/>
    <tag k="branch" v="Príma Élelmiszer Vihar u. 17."/>
    <tag k="phone" v="+3614390932"/>
    <tag k="email" v="vihar@jegcsillag.hu"/>
    <tag k="payment:debit_cards" v="yes"/>
    <tag k="payment:cash" v="yes"/>
    <tag k="name" v="Príma"/>
    <tag k="addr:postcode" v="1035"/>
    <tag k="contact:website" v="http://www.cbaprima.hu"/>
    <tag k="website" v="https://www.prima.hu"/>
    <tag k="brand" v="Príma"/>
    <tag k="addr:housenumber" v="17"/>
    <tag k="addr:city" v="Budapest"/>
    <tag k="shop" v="convenience"/>
    <tag k="source" v="website"/>
    <tag k="addr:street" v="Vihar utca"/>
  </way>
  <!-- OSM link: https://osm.org/way/47078866 -->
  <!-- Original coordinates: POINT (47.599163 19.0641) -->
  <way action="modify" changeset="1" id="47078866" timestamp="2018-05-03T13:5324Z" uid="4579407" user="KAMI" version="8">
    <nd ref="600417873"/>
    <nd ref="5594634344"/>
    <nd ref="5594634343"/>
    <nd ref="2883224401"/>
    <nd ref="2883224301"/>
    <nd ref="600418053"/>
    <nd ref="2883224601"/>
    <nd ref="2883224302"/>
    <nd ref="600417982"/>
    <nd ref="3417447095"/>
    <nd ref="600418050"/>
    <nd ref="600418056"/>
    <nd ref="600418081"/>
    <nd ref="4490455589"/>
    <nd ref="600417873"/>
    <tag k="website" v="https://www.prima.hu"/>
    <tag k="brand" v="Príma"/>
    <tag k="email" v="hatvany@jegcsillag.hu"/>
    <tag k="shop" v="convenience"/>
    <tag k="payment:debit_cards" v="yes"/>
    <tag k="wheelchair" v="yes"/>
    <tag k="phone" v="+3612502843"/>
    <tag k="addr:postcode" v="1039"/>
    <tag k="opening_hours" v="Mo-Fr 06:00-20:00; Sa 07:00-14:00; 08:00-13:00"/>
    <tag k="branch" v="Príma Élelmiszer Hatvany L.u.10."/>
    <tag k="payment:cash" v="yes"/>
    <tag k="addr:housenumber" v="10"/>
    <tag k="addr:country" v="HU"/>
    <tag k="contact:phone" v="+36 1 2502843"/>
    <tag k="building" v="commercial"/>
    <tag k="addr:city" v="Budapest"/>
    <tag k="name" v="Príma"/>
    <tag k="source" v="website"/>
    <tag k="addr:street" v="Hatvany Lajos utca"/>
  </way>
  <!-- OSM link: https://osm.org/node/1696119025 -->
  <!-- Original coordinates: POINT (47.522094 19.102466) -->
  <node action="modify" changeset="1" id="1696119025" lat="47.522094" lon="19.102466" timestamp="2016-03-13T10:2408Z" uid="4579407" user="KAMI" version="5">
    <tag k="branch" v="Príma Hermina"/>
    <tag k="brand" v="Príma"/>
    <tag k="payment:debit_cards" v="yes"/>
    <tag k="wheelchair" v="yes"/>
    <tag k="addr:city" v="Budapest"/>
    <tag k="addr:postcode" v="1145"/>
    <tag k="contact:website" v="http://www.cbaprima.hu"/>
    <tag k="website" v="https://www.prima.hu"/>
    <tag k="payment:cash" v="yes"/>
    <tag k="addr:housenumber" v="212-214"/>
    <tag k="name" v="Príma"/>
    <tag k="shop" v="convenience"/>
    <tag k="source" v="website"/>
    <tag k="addr:street" v="Nagy Lajos király út"/>
  </node>
  <!-- OSM link: https://osm.org/node/735173768 -->
  <!-- Original coordinates: POINT (47.497012 19.032873) -->
  <node action="modify" changeset="1" id="735173768" lat="47.497012" lon="19.032873" timestamp="2015-12-02T15:5520Z" uid="4579407" user="KAMI" version="3">
    <tag k="website" v="https://www.prima.hu"/>
    <tag k="phone" v="+307082641"/>
    <tag k="email" v="horvathkert@cba-budavar.hu"/>
    <tag k="payment:debit_cards" v="yes"/>
    <tag k="wheelchair" v="yes"/>
    <tag k="operator" v="CBA"/>
    <tag k="brand" v="Príma"/>
    <tag k="name" v="Príma"/>
    <tag k="addr:postcode" v="1013"/>
    <tag k="branch" v="Príma Horváthkert"/>
    <tag k="payment:cash" v="yes"/>
    <tag k="addr:housenumber" v="5"/>
    <tag k="addr:city" v="Budapest"/>
    <tag k="shop" v="convenience"/>
    <tag k="source" v="website"/>
    <tag k="addr:street" v="Alagút utca"/>
  </node>
  <!-- OSM link: https://osm.org/node/1796393701 -->
  <!-- Original coordinates: POINT (47.503271 19.060486) -->
  <node action="modify" changeset="1" id="1796393701" lat="47.503271" lon="19.060486" timestamp="2017-09-24T06:4448Z" uid="4579407" user="KAMI" version="5">
    <tag k="source:date" v="2014-10-29"/>
    <tag k="phone" v="+3613010471"/>
    <tag k="name:en" v="Prima Millenium"/>
    <tag k="payment:debit_cards" v="yes"/>
    <tag k="payment:cash" v="yes"/>
    <tag k="addr:city" v="Budapest"/>
    <tag k="name:pl" v="Prima Millenium"/>
    <tag k="addr:postcode" v="1066"/>
    <tag k="opening_hours" v="Mo-Sa 07:00-22:00; Su 10:00-22:00"/>
    <tag k="branch" v="Millennium Príma Élelmiszerüzlet"/>
    <tag k="brand" v="Príma"/>
    <tag k="addr:housenumber" v="30"/>
    <tag k="name:hu" v="Prima Millenium"/>
    <tag k="name" v="Príma"/>
    <tag k="website" v="https://www.prima.hu"/>
    <tag k="shop" v="convenience"/>
    <tag k="source" v="website"/>
    <tag k="addr:street" v="Andrássy út"/>
  </node>
  <!-- OSM link: https://osm.org/node/1644977908 -->
  <!-- Original coordinates: POINT (47.486377 19.070494) -->
  <node action="modify" changeset="1" id="1644977908" lat="47.486377" lon="19.070494" timestamp="2017-02-03T21:4209Z" uid="4579407" user="KAMI" version="3">
    <tag k="website" v="https://www.prima.hu"/>
    <tag k="phone" v="+36306300792"/>
    <tag k="email" v="wadi.kft@gmail.com"/>
    <tag k="payment:debit_cards" v="yes"/>
    <tag k="wheelchair" v="limited"/>
    <tag k="brand" v="Príma"/>
    <tag k="name" v="Príma"/>
    <tag k="addr:postcode" v="1085"/>
    <tag k="branch" v="Príma Wadi"/>
    <tag k="payment:cash" v="yes"/>
    <tag k="addr:housenumber" v="84"/>
    <tag k="addr:city" v="Budapest"/>
    <tag k="shop" v="convenience"/>
    <tag k="source" v="website"/>
    <tag k="addr:street" v="József körút"/>
  </node>
  <!-- OSM link: https://osm.org/node/4031161893 -->
  <!-- Original coordinates: POINT (47.48622 19.074691) -->
  <node action="modify" changeset="1" id="4031161893" lat="47.48622" lon="19.074691" timestamp="2018-04-05T17:4822Z" uid="4579407" user="KAMI" version="2">
    <tag k="website" v="https://www.prima.hu"/>
    <tag k="phone" v="+3613378139"/>
    <tag k="email" v="pilvax.cba@gmail.com"/>
    <tag k="payment:debit_cards" v="yes"/>
    <tag k="wheelchair" v="yes"/>
    <tag k="brand" v="Príma"/>
    <tag k="name" v="Príma"/>
    <tag k="addr:postcode" v="1082"/>
    <tag k="branch" v="Pilvax Príma Élelmiszerüzlet"/>
    <tag k="payment:cash" v="yes"/>
    <tag k="addr:housenumber" v="14"/>
    <tag k="addr:city" v="Budapest"/>
    <tag k="shop" v="convenience"/>
    <tag k="source" v="website"/>
    <tag k="addr:street" v="Városház utca"/>
  </node>
  <!-- OSM link: https://osm.org/node/4031161893 -->
  <!-- Original coordinates: POINT (47.48622 19.074691) -->
  <node action="modify" changeset="1" id="4031161893" lat="47.48622" lon="19.074691" timestamp="2018-04-05T17:4822Z" uid="4579407" user="KAMI" version="2">
    <tag k="website" v="https://www.prima.hu"/>
    <tag k="phone" v="+3617101230"/>
    <tag k="email" v="igazgato@corvinatriumcba.hu"/>
    <tag k="payment:debit_cards" v="yes"/>
    <tag k="wheelchair" v="yes"/>
    <tag k="brand" v="Príma"/>
    <tag k="name" v="Príma"/>
    <tag k="addr:postcode" v="1082"/>
    <tag k="branch" v="Príma Corvin Átrium"/>
    <tag k="payment:cash" v="yes"/>
    <tag k="addr:housenumber" v="37-45"/>
    <tag k="addr:city" v="Budapest"/>
    <tag k="shop" v="convenience"/>
    <tag k="source" v="website"/>
    <tag k="addr:street" v="Futó utca"/>
  </node>
  <!-- Original coordinates: POINT (47.468021 19.04789) -->
  <node action="modify" changeset="99999" id="-12" lat="47.468021" lon="19.04789" timestamp="" uid="4579407" user="KAMI" version="99999">
    <tag k="website" v="https://www.prima.hu"/>
    <tag k="payment:debit_cards" v="yes"/>
    <tag k="payment:cash" v="yes"/>
    <tag k="name" v="Príma"/>
    <tag k="addr:postcode" v="1117"/>
    <tag k="branch" v="Príma Nádorliget"/>
    <tag k="brand" v="Príma"/>
    <tag k="addr:housenumber" v="5/a"/>
    <tag k="addr:city" v="Budapest"/>
    <tag k="shop" v="convenience"/>
    <tag k="source" v="website"/>
    <tag k="addr:street" v="Nádorliget utca"/>
  </node>
  <!-- Original coordinates: POINT (47.549376 19.072893) -->
  <node action="modify" changeset="99999" id="-13" lat="47.549376" lon="19.072893" timestamp="" uid="4579407" user="KAMI" version="99999">
    <tag k="website" v="https://www.prima.hu"/>
    <tag k="email" v="vevoszolgalat@cbadunaplaza.hu"/>
    <tag k="payment:debit_cards" v="yes"/>
    <tag k="payment:cash" v="yes"/>
    <tag k="shop" v="convenience"/>
    <tag k="phone" v="+3612363000"/>
    <tag k="addr:postcode" v="1138"/>
    <tag k="branch" v="Príma Duna Pláza"/>
    <tag k="brand" v="Príma"/>
    <tag k="addr:housenumber" v="178"/>
    <tag k="addr:city" v="Budapest"/>
    <tag k="name" v="Príma"/>
    <tag k="source" v="website"/>
    <tag k="addr:street" v="Váci út"/>
  </node>
  <!-- Original coordinates: POINT (47.499985 19.025859) -->
  <node action="modify" changeset="99999" id="-14" lat="47.499985" lon="19.025859" timestamp="" uid="4579407" user="KAMI" version="99999">
    <tag k="website" v="https://www.prima.hu"/>
    <tag k="shop" v="convenience"/>
    <tag k="payment:debit_cards" v="yes"/>
    <tag k="payment:cash" v="yes"/>
    <tag k="phone" v="+3614890320"/>
    <tag k="addr:postcode" v="1012"/>
    <tag k="branch" v="Príma Élelmiszer Áruház - Déli"/>
    <tag k="brand" v="Príma"/>
    <tag k="addr:housenumber" v="37"/>
    <tag k="addr:city" v="Budapest"/>
    <tag k="name" v="Príma"/>
    <tag k="source" v="website"/>
    <tag k="addr:street" v="Krisztina körút"/>
  </node>
  <!-- Original coordinates: POINT (47.460852 18.956777) -->
  <node action="modify" changeset="99999" id="-15" lat="47.460852" lon="18.956777" timestamp="" uid="4579407" user="KAMI" version="99999">
    <tag k="website" v="https://www.prima.hu"/>
    <tag k="shop" v="convenience"/>
    <tag k="payment:debit_cards" v="yes"/>
    <tag k="payment:cash" v="yes"/>
    <tag k="phone" v="+3623445750"/>
    <tag k="addr:postcode" v="2040"/>
    <tag k="branch" v="Príma Élelmiszer Áruház - Budaörs"/>
    <tag k="brand" v="Príma"/>
    <tag k="addr:housenumber" v="52-54"/>
    <tag k="addr:city" v="Budaörs"/>
    <tag k="name" v="Príma"/>
    <tag k="source" v="website"/>
    <tag k="addr:street" v="Szabadság út"/>
  </node>
  <!-- Original coordinates: POINT (47.507727 18.919632) -->
  <node action="modify" changeset="99999" id="-16" lat="47.507727" lon="18.919632" timestamp="" uid="4579407" user="KAMI" version="99999">
    <tag k="website" v="https://www.prima.hu"/>
    <tag k="shop" v="convenience"/>
    <tag k="payment:debit_cards" v="yes"/>
    <tag k="payment:cash" v="yes"/>
    <tag k="phone" v="+3623535571"/>
    <tag k="addr:postcode" v="2092"/>
    <tag k="branch" v="Príma Élelmiszer Áruház - Budakeszi, Dózsa"/>
    <tag k="brand" v="Príma"/>
    <tag k="addr:housenumber" v="1/a"/>
    <tag k="addr:city" v="Budakeszi"/>
    <tag k="name" v="Príma"/>
    <tag k="source" v="website"/>
    <tag k="addr:street" v="Dózsa György tér"/>
  </node>
  <!-- OSM link: https://osm.org/node/3008314716 -->
  <!-- Original coordinates: POINT (47.545047 18.726652) -->
  <node action="modify" changeset="1" id="3008314716" lat="47.545047" lon="18.726652" timestamp="2015-11-22T17:2510Z" uid="4579407" user="KAMI" version="2">
    <tag k="website" v="https://www.prima.hu"/>
    <tag k="brand" v="Príma"/>
    <tag k="addr:city" v="Zsámbék"/>
    <tag k="payment:debit_cards" v="yes"/>
    <tag k="wheelchair" v="yes"/>
    <tag k="phone" v="+3623565500"/>
    <tag k="addr:postcode" v="2072"/>
    <tag k="branch" v="Príma Élelmiszer Áruház - Zsámbék"/>
    <tag k="payment:cash" v="yes"/>
    <tag k="addr:housenumber" v="75"/>
    <tag k="name" v="Príma"/>
    <tag k="shop" v="convenience"/>
    <tag k="source" v="website"/>
    <tag k="addr:street" v="Magyar utca"/>
  </node>
  <!-- Original coordinates: POINT (47.47149 18.840432) -->
  <node action="modify" changeset="99999" id="-18" lat="47.47149" lon="18.840432" timestamp="" uid="4579407" user="KAMI" version="99999">
    <tag k="website" v="https://www.prima.hu"/>
    <tag k="shop" v="convenience"/>
    <tag k="payment:debit_cards" v="yes"/>
    <tag k="payment:cash" v="yes"/>
    <tag k="phone" v="+3623530970"/>
    <tag k="addr:postcode" v="2051"/>
    <tag k="branch" v="Príma Élelmiszer Áruház - Biatorbágy"/>
    <tag k="brand" v="Príma"/>
    <tag k="addr:housenumber" v="2"/>
    <tag k="addr:city" v="Biatorbágy"/>
    <tag k="name" v="Príma"/>
    <tag k="source" v="website"/>
    <tag k="addr:street" v="Csodaszarvas utca"/>
  </node>
  <!-- OSM link: https://osm.org/node/2053022477 -->
  <!-- Original coordinates: POINT (47.506012 19.022934) -->
  <node action="modify" changeset="1" id="2053022477" lat="47.506012" lon="19.022934" timestamp="2017-09-20T06:2632Z" uid="4579407" user="KAMI" version="3">
    <tag k="website" v="https://www.prima.hu"/>
    <tag k="brand" v="Príma"/>
    <tag k="payment:debit_cards" v="yes"/>
    <tag k="wheelchair" v="no"/>
    <tag k="phone" v="+3612240056"/>
    <tag k="addr:postcode" v="1122"/>
    <tag k="branch" v="Príma Élelmiszer Áruház - Krisztina krt."/>
    <tag k="payment:cash" v="yes"/>
    <tag k="name" v="Príma"/>
    <tag k="addr:housenumber" v="7"/>
    <tag k="addr:city" v="Budapest"/>
    <tag k="shop" v="convenience"/>
    <tag k="source" v="website"/>
    <tag k="addr:street" v="Krisztina körút"/>
  </node>
  <!-- Original coordinates: POINT (47.407255 18.89134) -->
  <node action="modify" changeset="99999" id="-20" lat="47.407255" lon="18.89134" timestamp="" uid="4579407" user="KAMI" version="99999">
    <tag k="website" v="https://www.prima.hu"/>
    <tag k="shop" v="convenience"/>
    <tag k="payment:debit_cards" v="yes"/>
    <tag k="payment:cash" v="yes"/>
    <tag k="phone" v="+3623520349"/>
    <tag k="addr:postcode" v="2030"/>
    <tag k="branch" v="Príma Élelmiszer Áruház - Érd, Pára"/>
    <tag k="brand" v="Príma"/>
    <tag k="addr:housenumber" v="125-127"/>
    <tag k="addr:city" v="Érd"/>
    <tag k="name" v="Príma"/>
    <tag k="source" v="website"/>
    <tag k="addr:street" v="Bajcsy-Zs. utca"/>
  </node>
  <!-- Original coordinates: POINT (47.515845 18.833571) -->
  <node action="modify" changeset="99999" id="-21" lat="47.515845" lon="18.833571" timestamp="" uid="4579407" user="KAMI" version="99999">
    <tag k="website" v="https://www.prima.hu"/>
    <tag k="shop" v="convenience"/>
    <tag k="payment:debit_cards" v="yes"/>
    <tag k="payment:cash" v="yes"/>
    <tag k="phone" v="+3623555550"/>
    <tag k="addr:postcode" v="2071"/>
    <tag k="branch" v="Príma Élelmiszer Áruház - Páty"/>
    <tag k="brand" v="Príma"/>
    <tag k="addr:housenumber" v="3"/>
    <tag k="addr:city" v="Páty"/>
    <tag k="name" v="Príma"/>
    <tag k="source" v="website"/>
    <tag k="addr:street" v="Somogyi B. utca"/>
  </node>
  <!-- Original coordinates: POINT (47.448444 18.751422) -->
  <node action="modify" changeset="99999" id="-22" lat="47.448444" lon="18.751422" timestamp="" uid="4579407" user="KAMI" version="99999">
    <tag k="website" v="https://www.prima.hu"/>
    <tag k="shop" v="convenience"/>
    <tag k="payment:debit_cards" v="yes"/>
    <tag k="payment:cash" v="yes"/>
    <tag k="phone" v="+3622597058"/>
    <tag k="addr:postcode" v="2091"/>
    <tag k="branch" v="Príma Élelmiszer Áruház - Etyek"/>
    <tag k="brand" v="Príma"/>
    <tag k="addr:housenumber" v="4"/>
    <tag k="addr:city" v="Etyek"/>
    <tag k="name" v="Príma"/>
    <tag k="source" v="website"/>
    <tag k="addr:street" v="Körpince utca"/>
  </node>
  <!-- Original coordinates: POINT (47.509098 19.025322) -->
  <node action="modify" changeset="99999" id="-23" lat="47.509098" lon="19.025322" timestamp="" uid="4579407" user="KAMI" version="99999">
    <tag k="website" v="https://www.prima.hu"/>
    <tag k="shop" v="convenience"/>
    <tag k="payment:debit_cards" v="yes"/>
    <tag k="payment:cash" v="yes"/>
    <tag k="phone" v="+3613360347"/>
    <tag k="addr:postcode" v="1024"/>
    <tag k="branch" v="Príma Élelmiszer Áruház - Lövőház"/>
    <tag k="brand" v="Príma"/>
    <tag k="addr:housenumber" v="12-14"/>
    <tag k="addr:city" v="Budapest"/>
    <tag k="name" v="Príma"/>
    <tag k="source" v="website"/>
    <tag k="addr:street" v="Lövőház utca"/>
  </node>
  <!-- Original coordinates: POINT (47.698687 17.542074) -->
  <node action="modify" changeset="99999" id="-24" lat="47.698687" lon="17.542074" timestamp="" uid="4579407" user="KAMI" version="99999">
    <tag k="website" v="https://www.prima.hu"/>
    <tag k="email" v="delikat6@delikatkft.hu"/>
    <tag k="payment:debit_cards" v="yes"/>
    <tag k="payment:cash" v="yes"/>
    <tag k="shop" v="convenience"/>
    <tag k="phone" v="+3696553200"/>
    <tag k="addr:postcode" v="9151"/>
    <tag k="branch" v="6.számú Delikát ABC Príma"/>
    <tag k="brand" v="Príma"/>
    <tag k="addr:housenumber" v="47"/>
    <tag k="addr:city" v="Abda"/>
    <tag k="name" v="Príma"/>
    <tag k="source" v="website"/>
    <tag k="addr:street" v="Hunyadi út"/>
  </node>
  <!-- Original coordinates: POINT (47.867763 17.271554) -->
  <node action="modify" changeset="99999" id="-25" lat="47.867763" lon="17.271554" timestamp="" uid="4579407" user="KAMI" version="99999">
    <tag k="website" v="https://www.prima.hu"/>
    <tag k="email" v="delikat7@delikatkft.hu"/>
    <tag k="payment:debit_cards" v="yes"/>
    <tag k="payment:cash" v="yes"/>
    <tag k="shop" v="convenience"/>
    <tag k="phone" v="+3696211344"/>
    <tag k="addr:postcode" v="9200"/>
    <tag k="branch" v="7.számú Delikát csemegebolt Príma"/>
    <tag k="brand" v="Príma"/>
    <tag k="addr:city" v="Mosonmagyaróvár"/>
    <tag k="name" v="Príma"/>
    <tag k="source" v="website"/>
  </node>
  <!-- OSM link: https://osm.org/way/280627293 -->
  <!-- Original coordinates: POINT (47.674126 17.65854) -->
  <way action="modify" changeset="1" id="280627293" timestamp="2017-12-25T16:1732Z" uid="4579407" user="KAMI" version="4">
    <nd ref="2847092077"/>
    <nd ref="2847092078"/>
    <nd ref="2847092079"/>
    <nd ref="2847092080"/>
    <nd ref="2847092077"/>
    <tag k="website" v="https://www.prima.hu"/>
    <tag k="brand" v="Príma"/>
    <tag k="email" v="delikat13@delikatkft.hu"/>
    <tag k="payment:debit_cards" v="yes"/>
    <tag k="wheelchair" v="yes"/>
    <tag k="source" v="website"/>
    <tag k="shop" v="convenience"/>
    <tag k="phone" v="+3696424335"/>
    <tag k="addr:postcode" v="9023"/>
    <tag k="branch" v="13.számú Delikát csemege Príma"/>
    <tag k="payment:cash" v="yes"/>
    <tag k="addr:housenumber" v="36"/>
    <tag k="building" v="retail"/>
    <tag k="addr:city" v="Győr"/>
    <tag k="name" v="Príma"/>
    <tag k="toilets:wheelchair" v="no"/>
    <tag k="addr:street" v="Ifjúság körút"/>
  </way>
  <!-- Original coordinates: POINT (46.907408 19.689162) -->
  <node action="modify" changeset="99999" id="-27" lat="46.907408" lon="19.689162" timestamp="" uid="4579407" user="KAMI" version="99999">
    <tag k="website" v="https://www.prima.hu"/>
    <tag k="email" v="kecskemet@lazarmalom.t-online.hu"/>
    <tag k="payment:debit_cards" v="yes"/>
    <tag k="payment:cash" v="yes"/>
    <tag k="shop" v="convenience"/>
    <tag k="phone" v="+3676328431"/>
    <tag k="addr:postcode" v="6000"/>
    <tag k="branch" v="Príma Kecskemét"/>
    <tag k="brand" v="Príma"/>
    <tag k="addr:housenumber" v="2"/>
    <tag k="addr:city" v="Kecskemét"/>
    <tag k="name" v="Príma"/>
    <tag k="source" v="website"/>
    <tag k="addr:street" v="Korona utca"/>
  </node>
  <!-- OSM link: https://osm.org/node/1948190489 -->
  <!-- Original coordinates: POINT (47.510586 19.190814) -->
  <node action="modify" changeset="1" id="1948190489" lat="47.510586" lon="19.190814" timestamp="2016-04-29T09:1200Z" uid="4579407" user="KAMI" version="4">
    <tag k="website" v="https://www.prima.hu"/>
    <tag k="phone" v="+3614010593"/>
    <tag k="email" v="cba-jokai@lazarteam.hu"/>
    <tag k="payment:debit_cards" v="yes"/>
    <tag k="payment:cash" v="yes"/>
    <tag k="name" v="Príma"/>
    <tag k="addr:postcode" v="1165"/>
    <tag k="branch" v="Príma Jókai"/>
    <tag k="brand" v="Príma"/>
    <tag k="addr:housenumber" v="2"/>
    <tag k="addr:city" v="Budapest"/>
    <tag k="shop" v="convenience"/>
    <tag k="source" v="website"/>
    <tag k="addr:street" v="Jókai Mór utca"/>
  </node>
  <!-- OSM link: https://osm.org/way/120259292 -->
  <!-- Original coordinates: POINT (47.559631 19.089965) -->
  <way action="modify" changeset="1" id="120259292" timestamp="2017-12-25T16:1605Z" uid="4579407" user="KAMI" version="11">
    <nd ref="1348878460"/>
    <nd ref="1348878496"/>
    <nd ref="1348878483"/>
    <nd ref="1348895290"/>
    <nd ref="1348878441"/>
    <nd ref="1348878460"/>
    <tag k="branch" v="Príma Munkásotthon"/>
    <tag k="brand" v="Príma"/>
    <tag k="email" v="cba-ujpest@lazarteam.hu"/>
    <tag k="shop" v="convenience"/>
    <tag k="payment:debit_cards" v="yes"/>
    <tag k="wheelchair" v="limited"/>
    <tag k="phone" v="+3612310215"/>
    <tag k="addr:postcode" v="1042"/>
    <tag k="opening_hours" v="Mo-Sa 06:00-22:00; Su 08:00-19:00"/>
    <tag k="website" v="https://www.prima.hu"/>
    <tag k="payment:cash" v="yes"/>
    <tag k="addr:housenumber" v="26"/>
    <tag k="building" v="retail"/>
    <tag k="addr:city" v="Budapest"/>
    <tag k="name" v="Príma"/>
    <tag k="source" v="website"/>
    <tag k="addr:street" v="Munkásotthon utca"/>
  </way>
  <!-- OSM link: https://osm.org/way/102226129 -->
  <!-- Original coordinates: POINT (47.443554 19.037284) -->
  <way action="modify" changeset="1" id="102226129" timestamp="2017-12-25T16:1556Z" uid="4579407" user="KAMI" version="10">
    <nd ref="1179843623"/>
    <nd ref="1179843611"/>
    <nd ref="1179843622"/>
    <nd ref="1201002843"/>
    <nd ref="1201002750"/>
    <nd ref="1179843630"/>
    <nd ref="1179843639"/>
    <nd ref="1179843614"/>
    <nd ref="4597044888"/>
    <nd ref="1179843623"/>
    <tag k="branch" v="Príma Élelmiszer Áruház - Fehérvári"/>
    <tag k="phone" v="+3612053530"/>
    <tag k="payment:debit_cards" v="yes"/>
    <tag k="wheelchair" v="yes"/>
    <tag k="brand" v="Príma"/>
    <tag k="addr:city" v="Budapest"/>
    <tag k="addr:postcode" v="1116"/>
    <tag k="contact:website" v="http://www.cbaprima.hu"/>
    <tag k="website" v="https://www.prima.hu"/>
    <tag k="payment:cash" v="yes"/>
    <tag k="addr:housenumber" v="192"/>
    <tag k="building" v="retail"/>
    <tag k="name" v="Príma"/>
    <tag k="shop" v="convenience"/>
    <tag k="source" v="website"/>
    <tag k="addr:street" v="Fehérvári út"/>
  </way>
  <!-- OSM link: https://osm.org/node/856400311 -->
  <!-- Original coordinates: POINT (47.498062 19.055507) -->
  <node action="modify" changeset="1" id="856400311" lat="47.498062" lon="19.055507" timestamp="2017-07-27T07:0754Z" uid="4579407" user="KAMI" version="8">
    <tag k="website" v="https://www.prima.hu"/>
    <tag k="phone" v="+3612350703"/>
    <tag k="email" v="cba-anker@lazarteam.hu"/>
    <tag k="payment:debit_cards" v="yes"/>
    <tag k="wheelchair" v="limited"/>
    <tag k="brand" v="Príma"/>
    <tag k="name" v="Príma"/>
    <tag k="addr:postcode" v="1061"/>
    <tag k="opening_hours" v="06:00-22:00"/>
    <tag k="branch" v="Príma Anker"/>
    <tag k="payment:cash" v="yes"/>
    <tag k="addr:housenumber" v="1-3"/>
    <tag k="addr:city" v="Budapest"/>
    <tag k="shop" v="convenience"/>
    <tag k="source" v="website"/>
    <tag k="addr:street" v="Anker köz"/>
  </node>
  <!-- OSM link: https://osm.org/node/678832790 -->
  <!-- Original coordinates: POINT (47.479397 19.153384) -->
  <node action="modify" changeset="1" id="678832790" lat="47.479397" lon="19.153384" timestamp="2015-10-26T14:5510Z" uid="4579407" user="KAMI" version="4">
    <tag k="website" v="https://www.prima.hu"/>
    <tag k="phone" v="+3614332082"/>
    <tag k="email" v="cba-kada@lazarteam.hu"/>
    <tag k="payment:debit_cards" v="yes"/>
    <tag k="wheelchair" v="yes"/>
    <tag k="brand" v="Príma"/>
    <tag k="name" v="Príma"/>
    <tag k="addr:postcode" v="1104"/>
    <tag k="branch" v="Príma Kada"/>
    <tag k="payment:cash" v="yes"/>
    <tag k="addr:housenumber" v="122"/>
    <tag k="addr:city" v="Budapest"/>
    <tag k="shop" v="convenience"/>
    <tag k="source" v="website"/>
    <tag k="addr:street" v="Kada utca"/>
  </node>
  <!-- OSM link: https://osm.org/node/264122016 -->
  <!-- Original coordinates: POINT (47.499077 19.051672) -->
  <node action="modify" changeset="1" id="264122016" lat="47.499077" lon="19.051672" timestamp="2016-10-30T16:1309Z" uid="4579407" user="KAMI" version="4">
    <tag k="website" v="https://www.prima.hu"/>
    <tag k="phone" v="+3612350830"/>
    <tag k="created_by" v="JOSM"/>
    <tag k="email" v="cba-jozsefattila@lazarteam.hu"/>
    <tag k="payment:debit_cards" v="yes"/>
    <tag k="wheelchair" v="no"/>
    <tag k="brand" v="Príma"/>
    <tag k="name" v="Príma"/>
    <tag k="addr:postcode" v="1051"/>
    <tag k="branch" v="Príma József Attila"/>
    <tag k="payment:cash" v="yes"/>
    <tag k="addr:housenumber" v="16"/>
    <tag k="addr:city" v="Budapest"/>
    <tag k="shop" v="convenience"/>
    <tag k="source" v="website"/>
    <tag k="addr:street" v="József Attila utca"/>
  </node>
  <!-- OSM link: https://osm.org/node/4275414390 -->
  <!-- Original coordinates: POINT (47.516799 19.184924) -->
  <node action="modify" changeset="1" id="4275414390" lat="47.516799" lon="19.184924" timestamp="2017-09-18T09:4429Z" uid="4579407" user="KAMI" version="3">
    <tag k="website" v="https://www.prima.hu"/>
    <tag k="brand" v="Príma"/>
    <tag k="addr:city" v="Budapest"/>
    <tag k="email" v="cba-centi@lazarteam.hu"/>
    <tag k="payment:debit_cards" v="yes"/>
    <tag k="wheelchair" v="yes"/>
    <tag k="operator" v="Peti Csemege Kft."/>
    <tag k="phone" v="+3614010168"/>
    <tag k="addr:postcode" v="1165"/>
    <tag k="branch" v="Príma Centenárium"/>
    <tag k="payment:cash" v="yes"/>
    <tag k="addr:housenumber" v="16-24"/>
    <tag k="name" v="Príma"/>
    <tag k="shop" v="convenience"/>
    <tag k="source" v="website"/>
    <tag k="addr:street" v="Centenáriumi sétány"/>
  </node>
  <!-- OSM link: https://osm.org/node/702877428 -->
  <!-- Original coordinates: POINT (47.463938 19.033375) -->
  <node action="modify" changeset="1" id="702877428" lat="47.463938" lon="19.033375" timestamp="2017-09-27T13:5649Z" uid="4579407" user="KAMI" version="10">
    <tag k="website" v="https://www.prima.hu"/>
    <tag k="phone" v="+3612053368"/>
    <tag k="payment:debit_cards" v="yes"/>
    <tag k="wheelchair" v="limited"/>
    <tag k="brand" v="Príma"/>
    <tag k="name" v="Príma"/>
    <tag k="addr:postcode" v="1119"/>
    <tag k="opening_hours" v="Mo-Fr 06:00-22:00; Sa 06:00-20:00; Su 07:00-18:00"/>
    <tag k="branch" v="Príma Élelmiszer Áruház - Tétény"/>
    <tag k="payment:cash" v="yes"/>
    <tag k="addr:housenumber" v="63"/>
    <tag k="addr:city" v="Budapest"/>
    <tag k="shop" v="convenience"/>
    <tag k="source" v="website"/>
    <tag k="addr:street" v="Tétényi út"/>
  </node>
  <!-- OSM link: https://osm.org/node/4318606604 -->
  <!-- Original coordinates: POINT (47.432793 19.036832) -->
  <node action="modify" changeset="1" id="4318606604" lat="47.432793" lon="19.036832" timestamp="2017-09-12T08:0005Z" uid="4579407" user="KAMI" version="2">
    <tag k="branch" v="Príma Élelmiszer Áruház - Leányka"/>
    <tag k="phone" v="+3612053560"/>
    <tag k="payment:debit_cards" v="yes"/>
    <tag k="wheelchair" v="yes"/>
    <tag k="operator" v="CBA"/>
    <tag k="brand" v="Príma"/>
    <tag k="name" v="Príma"/>
    <tag k="addr:postcode" v="1221"/>
    <tag k="opening_hours" v="Mo-Sa 06:00-21:00; Su 07:00-18:00"/>
    <tag k="website" v="https://www.prima.hu"/>
    <tag k="payment:cash" v="yes"/>
    <tag k="addr:housenumber" v="13"/>
    <tag k="addr:city" v="Budapest"/>
    <tag k="shop" v="convenience"/>
    <tag k="source" v="website"/>
    <tag k="addr:street" v="Leányka utca"/>
  </node>
  <!-- OSM link: https://osm.org/way/46618551 -->
  <!-- Original coordinates: POINT (47.540759 19.140818) -->
  <way action="modify" changeset="1" id="46618551" timestamp="2017-12-25T16:1548Z" uid="4579407" user="KAMI" version="8">
    <nd ref="595742543"/>
    <nd ref="595742544"/>
    <nd ref="595742545"/>
    <nd ref="460981193"/>
    <nd ref="595742543"/>
    <tag k="branch" v="Príma Legénybíró"/>
    <tag k="brand" v="Príma"/>
    <tag k="email" v="cba-legenybiro@lazarteam.hu"/>
    <tag k="shop" v="convenience"/>
    <tag k="payment:debit_cards" v="yes"/>
    <tag k="wheelchair" v="yes"/>
    <tag k="phone" v="+3614140163"/>
    <tag k="addr:postcode" v="1157"/>
    <tag k="opening_hours" v="Mo-Fr 06:00-20:00; Sa 07:00-16:00; Su 07:00-14:00; PH closed"/>
    <tag k="website" v="https://www.prima.hu"/>
    <tag k="payment:cash" v="yes"/>
    <tag k="addr:housenumber" v="2"/>
    <tag k="building" v="retail"/>
    <tag k="addr:city" v="Budapest"/>
    <tag k="name" v="Príma"/>
    <tag k="wheelchair:description" v="járható"/>
    <tag k="source" v="website"/>
    <tag k="addr:street" v="Legénybíró utca"/>
  </way>
  <!-- OSM link: https://osm.org/node/705517727 -->
  <!-- Original coordinates: POINT (47.616498 18.916228) -->
  <node action="modify" changeset="1" id="705517727" lat="47.616498" lon="18.916228" timestamp="2017-07-20T10:1912Z" uid="4579407" user="KAMI" version="7">
    <tag k="website" v="https://www.prima.hu"/>
    <tag k="brand" v="Príma"/>
    <tag k="payment:debit_cards" v="yes"/>
    <tag k="wheelchair" v="yes"/>
    <tag k="name" v="Príma"/>
    <tag k="addr:postcode" v="2085"/>
    <tag k="branch" v="HTZRT - 01.sz. Príma Élelmiszer üzlet"/>
    <tag k="payment:cash" v="yes"/>
    <tag k="addr:housenumber" v="2/f"/>
    <tag k="addr:city" v="Pilisvörösvár"/>
    <tag k="shop" v="convenience"/>
    <tag k="source" v="website"/>
    <tag k="addr:street" v="Fő utca"/>
  </node>
  <!-- Original coordinates: POINT (47.518915 17.513532) -->
  <node action="modify" changeset="99999" id="-39" lat="47.518915" lon="17.513532" timestamp="" uid="4579407" user="KAMI" version="99999">
    <tag k="website" v="https://www.prima.hu"/>
    <tag k="email" v="delikat24@delikatkft.hu"/>
    <tag k="payment:debit_cards" v="yes"/>
    <tag k="payment:cash" v="yes"/>
    <tag k="shop" v="convenience"/>
    <tag k="phone" v="+3696561088"/>
    <tag k="addr:postcode" v="9100"/>
    <tag k="branch" v="24.sz. Kismegyer-Delikát Kft. Príma"/>
    <tag k="brand" v="Príma"/>
    <tag k="addr:housenumber" v="70"/>
    <tag k="addr:city" v="Tét"/>
    <tag k="name" v="Príma"/>
    <tag k="source" v="website"/>
    <tag k="addr:street" v="Debrecen út"/>
  </node>
  <!-- OSM link: https://osm.org/node/4939179613 -->
  <!-- Original coordinates: POINT (47.669641 19.073815) -->
  <node action="modify" changeset="1" id="4939179613" lat="47.669641" lon="19.073815" timestamp="2017-12-19T13:0831Z" uid="4579407" user="KAMI" version="3">
    <tag k="website" v="https://www.prima.hu"/>
    <tag k="payment:debit_cards" v="yes"/>
    <tag k="payment:cash" v="yes"/>
    <tag k="name" v="Príma"/>
    <tag k="addr:postcode" v="2000"/>
    <tag k="fixme" v="verify"/>
    <tag k="branch" v="HTZRT - 09.sz. Príma Élelmiszer üzlet"/>
    <tag k="brand" v="Príma"/>
    <tag k="addr:housenumber" v="2"/>
    <tag k="addr:city" v="Szentendre"/>
    <tag k="shop" v="convenience"/>
    <tag k="source" v="website"/>
    <tag k="addr:street" v="Dobozi utca"/>
  </node>
  <!-- Original coordinates: POINT (47.374086 16.769627) -->
  <node action="modify" changeset="99999" id="-41" lat="47.374086" lon="16.769627" timestamp="" uid="4579407" user="KAMI" version="99999">
    <tag k="website" v="https://www.prima.hu"/>
    <tag k="email" v="delikat25@delikatkft.hu"/>
    <tag k="payment:debit_cards" v="yes"/>
    <tag k="payment:cash" v="yes"/>
    <tag k="shop" v="convenience"/>
    <tag k="phone" v="+3694655046"/>
    <tag k="addr:postcode" v="9737"/>
    <tag k="branch" v="25.sz. Kismegyer-Delikát Kft. Príma"/>
    <tag k="brand" v="Príma"/>
    <tag k="addr:housenumber" v="127"/>
    <tag k="addr:city" v="Bük"/>
    <tag k="name" v="Príma"/>
    <tag k="source" v="website"/>
    <tag k="addr:street" v="Kossuth utca"/>
  </node>
  <!-- Original coordinates: POINT (47.711773 18.01091) -->
  <node action="modify" changeset="99999" id="-42" lat="47.711773" lon="18.01091" timestamp="" uid="4579407" user="KAMI" version="99999">
    <tag k="website" v="https://www.prima.hu"/>
    <tag k="email" v="delikat26@delikatkft.hu"/>
    <tag k="payment:debit_cards" v="yes"/>
    <tag k="payment:cash" v="yes"/>
    <tag k="shop" v="convenience"/>
    <tag k="phone" v="+3634595010"/>
    <tag k="addr:postcode" v="2941"/>
    <tag k="branch" v="26.sz. Kismegyer-Delikát Kft. Príma"/>
    <tag k="brand" v="Príma"/>
    <tag k="addr:housenumber" v="4"/>
    <tag k="addr:city" v="Ács"/>
    <tag k="name" v="Príma"/>
    <tag k="source" v="website"/>
    <tag k="addr:street" v="Zichy park"/>
  </node>
  <!-- OSM link: https://osm.org/node/1408320846 -->
  <!-- Original coordinates: POINT (47.605135 17.655414) -->
  <node action="modify" changeset="1" id="1408320846" lat="47.605135" lon="17.655414" timestamp="2017-08-31T06:1209Z" uid="4579407" user="KAMI" version="2">
    <tag k="website" v="https://www.prima.hu"/>
    <tag k="phone" v="+3696543141"/>
    <tag k="email" v="delikat31@delikatkft.hu"/>
    <tag k="payment:debit_cards" v="yes"/>
    <tag k="wheelchair" v="yes"/>
    <tag k="source" v="website"/>
    <tag k="brand" v="Príma"/>
    <tag k="name" v="Príma"/>
    <tag k="addr:postcode" v="9081"/>
    <tag k="branch" v="31.sz. Delikát. Príma"/>
    <tag k="payment:cash" v="yes"/>
    <tag k="addr:housenumber" v="18"/>
    <tag k="addr:city" v="Győrújbarát"/>
    <tag k="shop" v="convenience"/>
    <tag k="toilets:wheelchair" v="no"/>
    <tag k="addr:street" v="Széchenyi körút"/>
  </node>
  <!-- Original coordinates: POINT (47.607927 18.384788) -->
  <node action="modify" changeset="99999" id="-44" lat="47.607927" lon="18.384788" timestamp="" uid="4579407" user="KAMI" version="99999">
    <tag k="website" v="https://www.prima.hu"/>
    <tag k="payment:debit_cards" v="yes"/>
    <tag k="payment:cash" v="yes"/>
    <tag k="name" v="Príma"/>
    <tag k="addr:postcode" v="2837"/>
    <tag k="branch" v="HTZRT - 28.sz. Príma Élelmiszer üzlet"/>
    <tag k="brand" v="Príma"/>
    <tag k="addr:housenumber" v="1-3"/>
    <tag k="addr:city" v="Vértesszőlős"/>
    <tag k="shop" v="convenience"/>
    <tag k="source" v="website"/>
    <tag k="addr:street" v="Határ út"/>
  </node>
  <!-- Original coordinates: POINT (47.746246 17.574283) -->
  <node action="modify" changeset="99999" id="-45" lat="47.746246" lon="17.574283" timestamp="" uid="4579407" user="KAMI" version="99999">
    <tag k="website" v="https://www.prima.hu"/>
    <tag k="email" v="delikat32@delikatkft.hu"/>
    <tag k="payment:debit_cards" v="yes"/>
    <tag k="payment:cash" v="yes"/>
    <tag k="shop" v="convenience"/>
    <tag k="phone" v="+3696545003"/>
    <tag k="addr:postcode" v="9172"/>
    <tag k="addr:conscriptionnumber" v="552"/>
    <tag k="branch" v="32.sz. Delikát. Príma"/>
    <tag k="brand" v="Príma"/>
    <tag k="addr:city" v="Győrzámoly"/>
    <tag k="name" v="Príma"/>
    <tag k="source" v="website"/>
    <tag k="addr:street" v="Ancsali utca"/>
  </node>
  <!-- Original coordinates: POINT (47.878456 17.281279) -->
  <node action="modify" changeset="99999" id="-46" lat="47.878456" lon="17.281279" timestamp="" uid="4579407" user="KAMI" version="99999">
    <tag k="website" v="https://www.prima.hu"/>
    <tag k="email" v="delikat33@delikatkft.hu"/>
    <tag k="payment:debit_cards" v="yes"/>
    <tag k="payment:cash" v="yes"/>
    <tag k="shop" v="convenience"/>
    <tag k="phone" v="+3696576554"/>
    <tag k="addr:postcode" v="9200"/>
    <tag k="branch" v="33.sz. Delikát. Príma"/>
    <tag k="brand" v="Príma"/>
    <tag k="addr:housenumber" v="19"/>
    <tag k="addr:city" v="Mosonmagyaróvár"/>
    <tag k="name" v="Príma"/>
    <tag k="source" v="website"/>
    <tag k="addr:street" v="Kálnoki utca"/>
  </node>
  <!-- OSM link: https://osm.org/way/430877032 -->
  <!-- Original coordinates: POINT (47.597003 18.929052) -->
  <way action="modify" changeset="1" id="430877032" timestamp="2017-12-25T16:1812Z" uid="4579407" user="KAMI" version="4">
    <nd ref="4301403569"/>
    <nd ref="4301403570"/>
    <nd ref="4301403571"/>
    <nd ref="4301403572"/>
    <nd ref="4301403569"/>
    <tag k="website" v="https://www.prima.hu"/>
    <tag k="brand" v="Príma"/>
    <tag k="shop" v="convenience"/>
    <tag k="payment:debit_cards" v="yes"/>
    <tag k="wheelchair" v="yes"/>
    <tag k="operator" v="CBA"/>
    <tag k="addr:postcode" v="2083"/>
    <tag k="opening_hours" v="Mo-Fr 06:00-20:00; Sa 06:00-19:00"/>
    <tag k="branch" v="HTZRT - 07.sz. Príma Élelmiszer üzlet"/>
    <tag k="payment:cash" v="yes"/>
    <tag k="addr:housenumber" v="94"/>
    <tag k="building" v="retail"/>
    <tag k="addr:city" v="Solymár"/>
    <tag k="name" v="Príma"/>
    <tag k="source" v="website"/>
    <tag k="addr:street" v="Terstyánszky Ödön utca"/>
  </way>
  <!-- Original coordinates: POINT (47.628646 17.60116) -->
  <node action="modify" changeset="99999" id="-48" lat="47.628646" lon="17.60116" timestamp="" uid="4579407" user="KAMI" version="99999">
    <tag k="website" v="https://www.prima.hu"/>
    <tag k="email" v="delikat39@delikatkft.hu"/>
    <tag k="payment:debit_cards" v="yes"/>
    <tag k="payment:cash" v="yes"/>
    <tag k="shop" v="convenience"/>
    <tag k="phone" v="+3696556106"/>
    <tag k="addr:postcode" v="9012"/>
    <tag k="branch" v="39.sz. Delikát. Príma"/>
    <tag k="brand" v="Príma"/>
    <tag k="addr:housenumber" v="19"/>
    <tag k="addr:city" v="Győr"/>
    <tag k="name" v="Príma"/>
    <tag k="source" v="website"/>
    <tag k="addr:street" v="Új-Élet utca"/>
  </node>
  <!-- OSM link: https://osm.org/node/844607245 -->
  <!-- Original coordinates: POINT (47.718608 19.089245) -->
  <node action="modify" changeset="1" id="844607245" lat="47.718608" lon="19.089245" timestamp="2018-01-30T16:1640Z" uid="4579407" user="KAMI" version="9">
    <tag k="website" v="https://www.prima.hu"/>
    <tag k="brand" v="Príma"/>
    <tag k="payment:debit_cards" v="yes"/>
    <tag k="wheelchair" v="yes"/>
    <tag k="operator" v="Halmschlager Trade Zrt."/>
    <tag k="name" v="Príma"/>
    <tag k="addr:postcode" v="2016"/>
    <tag k="opening_hours" v="Mo-Fr 06:00-20:00; Sa 07:00-19:00; Su 07:00-17:00; PH closed"/>
    <tag k="branch" v="HTZRT - 24.sz. Príma Élelmiszer üzlet"/>
    <tag k="payment:cash" v="yes"/>
    <tag k="addr:housenumber" v="167"/>
    <tag k="addr:city" v="Leányfalu"/>
    <tag k="shop" v="convenience"/>
    <tag k="source" v="website"/>
    <tag k="addr:street" v="Móricz Zsigmond út"/>
  </node>
  <!-- Original coordinates: POINT (47.609706 18.897512) -->
  <node action="modify" changeset="99999" id="-50" lat="47.609706" lon="18.897512" timestamp="" uid="4579407" user="KAMI" version="99999">
    <tag k="website" v="https://www.prima.hu"/>
    <tag k="payment:debit_cards" v="yes"/>
    <tag k="payment:cash" v="yes"/>
    <tag k="name" v="Príma"/>
    <tag k="addr:postcode" v="2084"/>
    <tag k="branch" v="HTZRT - 04.sz. Príma Élelmiszer üzlet"/>
    <tag k="brand" v="Príma"/>
    <tag k="addr:housenumber" v="91"/>
    <tag k="addr:city" v="Pilisszentiván"/>
    <tag k="shop" v="convenience"/>
    <tag k="source" v="website"/>
    <tag k="addr:street" v="Szabadság utca"/>
  </node>
  <!-- Original coordinates: POINT (47.650476 18.316773) -->
  <node action="modify" changeset="99999" id="-51" lat="47.650476" lon="18.316773" timestamp="" uid="4579407" user="KAMI" version="99999">
    <tag k="website" v="https://www.prima.hu"/>
    <tag k="payment:debit_cards" v="yes"/>
    <tag k="payment:cash" v="yes"/>
    <tag k="name" v="Príma"/>
    <tag k="addr:postcode" v="2890"/>
    <tag k="branch" v="HTZRT - 27.sz. Príma Élelmiszer üzlet"/>
    <tag k="brand" v="Príma"/>
    <tag k="addr:housenumber" v="20"/>
    <tag k="addr:city" v="Tata"/>
    <tag k="shop" v="convenience"/>
    <tag k="source" v="website"/>
    <tag k="addr:street" v="Május 1 út"/>
  </node>
  <!-- OSM link: https://osm.org/node/3412995580 -->
  <!-- Original coordinates: POINT (47.490148 19.055388) -->
  <node action="modify" changeset="1" id="3412995580" lat="47.490148" lon="19.055388" timestamp="2016-11-19T16:5004Z" uid="4579407" user="KAMI" version="3">
    <tag k="branch" v="Príma CORSO GOURMET Áruház"/>
    <tag k="brand" v="Príma"/>
    <tag k="email" v="corsogourmet@cba-baldauf.hu"/>
    <tag k="payment:debit_cards" v="yes"/>
    <tag k="wheelchair" v="yes"/>
    <tag k="name" v="Príma"/>
    <tag k="addr:postcode" v="1056"/>
    <tag k="opening_hours" v="Mo-Su 08:00-21:00"/>
    <tag k="website" v="https://www.prima.hu"/>
    <tag k="payment:cash" v="yes"/>
    <tag k="addr:housenumber" v="54"/>
    <tag k="addr:city" v="Budapest"/>
    <tag k="shop" v="convenience"/>
    <tag k="source" v="website"/>
    <tag k="level" v="0"/>
    <tag k="addr:street" v="Váci utca"/>
  </node>
  <!-- OSM link: https://osm.org/node/715863385 -->
  <!-- Original coordinates: POINT (47.450524 19.172698) -->
  <node action="modify" changeset="1" id="715863385" lat="47.450524" lon="19.172698" timestamp="2017-02-26T19:1437Z" uid="4579407" user="KAMI" version="4">
    <tag k="website" v="https://www.prima.hu"/>
    <tag k="phone" v="+3612960573"/>
    <tag k="email" v="cbalakatos@remizker.hu"/>
    <tag k="payment:debit_cards" v="yes"/>
    <tag k="wheelchair" v="limited"/>
    <tag k="brand" v="Príma"/>
    <tag k="name" v="Príma"/>
    <tag k="addr:postcode" v="1184"/>
    <tag k="branch" v="Lakatos Príma Élelmiszer áruház"/>
    <tag k="payment:cash" v="yes"/>
    <tag k="addr:housenumber" v="7"/>
    <tag k="addr:city" v="Budapest"/>
    <tag k="shop" v="convenience"/>
    <tag k="source" v="website"/>
    <tag k="addr:street" v="Lakatos utca"/>
  </node>
  <!-- OSM link: https://osm.org/way/183129029 -->
  <!-- Original coordinates: POINT (47.466284 19.158021) -->
  <way action="modify" changeset="1" id="183129029" timestamp="2018-04-12T15:1154Z" uid="4579407" user="KAMI" version="11">
    <nd ref="1934896552"/>
    <nd ref="1934896556"/>
    <nd ref="1934896553"/>
    <nd ref="2571740957"/>
    <nd ref="1934896554"/>
    <nd ref="1934896552"/>
    <tag k="branch" v="Príma Wellness"/>
    <tag k="phone" v="+3614310132"/>
    <tag k="email" v="info@primawellness.hu"/>
    <tag k="payment:debit_cards" v="yes"/>
    <tag k="wheelchair" v="yes"/>
    <tag k="start_date" v="12 04 2018"/>
    <tag k="brand" v="Príma"/>
    <tag k="name" v="Príma"/>
    <tag k="addr:postcode" v="1103"/>
    <tag k="opening_hours" v="Mo-Sa 06:00-22:00; Su 07:00-20:00"/>
    <tag k="website" v="https://www.prima.hu"/>
    <tag k="payment:cash" v="yes"/>
    <tag k="addr:housenumber" v="99"/>
    <tag k="building" v="retail"/>
    <tag k="addr:city" v="Budapest"/>
    <tag k="shop" v="convenience"/>
    <tag k="opening_date" v="2018-04-12"/>
    <tag k="toilets:wheelchair" v="yes"/>
    <tag k="source" v="website"/>
    <tag k="addr:street" v="Gyömrői út"/>
  </way>
  <!-- Original coordinates: POINT (46.285379 20.086413) -->
  <node action="modify" changeset="99999" id="-55" lat="46.285379" lon="20.086413" timestamp="" uid="4579407" user="KAMI" version="99999">
    <tag k="website" v="https://www.prima.hu"/>
    <tag k="email" v="vevoszolg@hansakontakt.hu"/>
    <tag k="payment:debit_cards" v="yes"/>
    <tag k="payment:cash" v="yes"/>
    <tag k="shop" v="convenience"/>
    <tag k="phone" v="+3662815688"/>
    <tag k="addr:postcode" v="6791"/>
    <tag k="branch" v="Príma5"/>
    <tag k="brand" v="Príma"/>
    <tag k="addr:housenumber" v="7"/>
    <tag k="addr:city" v="Szeged"/>
    <tag k="name" v="Príma"/>
    <tag k="source" v="website"/>
    <tag k="addr:street" v="Back Bernát utca"/>
  </node>
  <!-- Original coordinates: POINT (47.377982 18.920743) -->
  <node action="modify" changeset="99999" id="-56" lat="47.377982" lon="18.920743" timestamp="" uid="4579407" user="KAMI" version="99999">
    <tag k="website" v="https://www.prima.hu"/>
    <tag k="email" v="krupptsa@krupptsa.hu"/>
    <tag k="payment:debit_cards" v="yes"/>
    <tag k="payment:cash" v="yes"/>
    <tag k="shop" v="convenience"/>
    <tag k="phone" v="+3623522620"/>
    <tag k="addr:postcode" v="2030"/>
    <tag k="branch" v="Príma Élelmiszer Áruház - Érd, Kálvin"/>
    <tag k="brand" v="Príma"/>
    <tag k="addr:housenumber" v="1"/>
    <tag k="addr:city" v="Érd"/>
    <tag k="name" v="Príma"/>
    <tag k="source" v="website"/>
    <tag k="addr:street" v="Kálvin tér"/>
  </node>
  <!-- OSM link: https://osm.org/node/2124160110 -->
  <!-- Original coordinates: POINT (47.513271 19.200667) -->
  <node action="modify" changeset="1" id="2124160110" lat="47.513271" lon="19.200667" timestamp="2014-11-04T16:0521Z" uid="4579407" user="KAMI" version="4">
    <tag k="website" v="https://www.prima.hu"/>
    <tag k="phone" v="+364075902"/>
    <tag k="email" v="cbamagyar@cbamagyar.t-onlinee.hu"/>
    <tag k="payment:debit_cards" v="yes"/>
    <tag k="payment:cash" v="yes"/>
    <tag k="name" v="Príma"/>
    <tag k="addr:postcode" v="1165"/>
    <tag k="branch" v="Príma Mátyásföld"/>
    <tag k="brand" v="Príma"/>
    <tag k="addr:housenumber" v="2"/>
    <tag k="addr:city" v="Budapest"/>
    <tag k="shop" v="convenience"/>
    <tag k="source" v="website"/>
    <tag k="addr:street" v="Imre utca"/>
  </node>
  <!-- OSM link: https://osm.org/node/4595891889 -->
  <!-- Original coordinates: POINT (47.318334 18.907242) -->
  <node action="modify" changeset="1" id="4595891889" lat="47.318334" lon="18.907242" timestamp="2018-06-01T13:0358Z" uid="4579407" user="KAMI" version="4">
    <tag k="website" v="https://www.prima.hu"/>
    <tag k="phone" v="+3623540580"/>
    <tag k="email" v="krupptsa@krupptsa.hu"/>
    <tag k="shop" v="convenience"/>
    <tag k="payment:debit_cards" v="yes"/>
    <tag k="wheelchair" v="yes"/>
    <tag k="brand" v="Príma"/>
    <tag k="addr:city" v="Százhalombatta"/>
    <tag k="addr:postcode" v="2440"/>
    <tag k="opening_hours" v="Mo-Sa 06:00-21:00"/>
    <tag k="branch" v="Príma Élelmiszer Áruház - Százhalombatta"/>
    <tag k="payment:cash" v="yes"/>
    <tag k="addr:housenumber" v="23"/>
    <tag k="name:hu" v="CBA Primo"/>
    <tag k="FIXME" v="check real location"/>
    <tag k="name" v="Príma"/>
    <tag k="source" v="website"/>
    <tag k="addr:street" v="Damjanich utca"/>
  </node>
  <!-- Original coordinates: POINT (47.438623 19.166407) -->
  <node action="modify" changeset="99999" id="-59" lat="47.438623" lon="19.166407" timestamp="" uid="4579407" user="KAMI" version="99999">
    <tag k="website" v="https://www.prima.hu"/>
    <tag k="payment:debit_cards" v="yes"/>
    <tag k="payment:cash" v="yes"/>
    <tag k="name" v="Príma"/>
    <tag k="addr:postcode" v="1181"/>
    <tag k="branch" v="Príma Havanna"/>
    <tag k="brand" v="Príma"/>
    <tag k="addr:housenumber" v="11-15"/>
    <tag k="addr:city" v="Budapest"/>
    <tag k="shop" v="convenience"/>
    <tag k="source" v="website"/>
    <tag k="addr:street" v="Kondor Béla sétány"/>
  </node>
  <!-- OSM link: https://osm.org/node/4684021842 -->
  <!-- Original coordinates: POINT (47.508602 19.058084) -->
  <node action="modify" changeset="1" id="4684021842" lat="47.508602" lon="19.058084" timestamp="2017-02-13T19:1641Z" uid="4579407" user="KAMI" version="1">
    <tag k="website" v="https://www.prima.hu"/>
    <tag k="phone" v="+3613010162"/>
    <tag k="email" v="terez@jegcsillag.hu"/>
    <tag k="payment:debit_cards" v="yes"/>
    <tag k="payment:cash" v="yes"/>
    <tag k="name" v="Príma"/>
    <tag k="addr:postcode" v="1066"/>
    <tag k="branch" v="Príma Élelmiszer Teréz körút 54."/>
    <tag k="brand" v="Príma"/>
    <tag k="addr:housenumber" v="54"/>
    <tag k="addr:city" v="Budapest"/>
    <tag k="shop" v="convenience"/>
    <tag k="source" v="website"/>
    <tag k="addr:street" v="Teréz körút"/>
  </node>
  <!-- Original coordinates: POINT (46.235613 20.171842) -->
  <node action="modify" changeset="99999" id="-61" lat="46.235613" lon="20.171842" timestamp="" uid="4579407" user="KAMI" version="99999">
    <tag k="website" v="https://www.prima.hu"/>
    <tag k="payment:debit_cards" v="yes"/>
    <tag k="payment:cash" v="yes"/>
    <tag k="name" v="Príma"/>
    <tag k="addr:postcode" v="6726"/>
    <tag k="branch" v="Príma Nova"/>
    <tag k="brand" v="Príma"/>
    <tag k="addr:housenumber" v="80"/>
    <tag k="addr:city" v="Szeged"/>
    <tag k="shop" v="convenience"/>
    <tag k="source" v="website"/>
    <tag k="addr:street" v="Szőregi út"/>
  </node>
  <!-- Original coordinates: POINT (47.651053 19.473793) -->
  <node action="modify" changeset="99999" id="-62" lat="47.651053" lon="19.473793" timestamp="" uid="4579407" user="KAMI" version="99999">
    <tag k="website" v="https://www.prima.hu"/>
    <tag k="payment:debit_cards" v="yes"/>
    <tag k="payment:cash" v="yes"/>
    <tag k="name" v="Príma"/>
    <tag k="addr:postcode" v="2170"/>
    <tag k="branch" v="Príma Élelmiszer Áruház"/>
    <tag k="brand" v="Príma"/>
    <tag k="addr:housenumber" v="11"/>
    <tag k="addr:city" v="Aszód"/>
    <tag k="shop" v="convenience"/>
    <tag k="source" v="website"/>
    <tag k="addr:street" v="Pesti út"/>
  </node>
  <!-- Original coordinates: POINT (47.620989 16.878877) -->
  <node action="modify" changeset="99999" id="-63" lat="47.620989" lon="16.878877" timestamp="" uid="4579407" user="KAMI" version="99999">
    <tag k="website" v="https://www.prima.hu"/>
    <tag k="email" v="prima.fertod@sicortec.hu"/>
    <tag k="payment:debit_cards" v="yes"/>
    <tag k="payment:cash" v="yes"/>
    <tag k="shop" v="convenience"/>
    <tag k="phone" v="+36305884864"/>
    <tag k="addr:postcode" v="9431"/>
    <tag k="branch" v="Príma Áruház Fertőd"/>
    <tag k="brand" v="Príma"/>
    <tag k="addr:housenumber" v="11"/>
    <tag k="addr:city" v="Fertőd"/>
    <tag k="name" v="Príma"/>
    <tag k="source" v="website"/>
    <tag k="addr:street" v="Gábor Áron utca"/>
  </node>
  <!-- OSM link: https://osm.org/node/4796843424 -->
  <!-- Original coordinates: POINT (47.524394 19.133131) -->
  <node action="modify" changeset="1" id="4796843424" lat="47.524394" lon="19.133131" timestamp="2017-04-18T05:4423Z" uid="4579407" user="KAMI" version="2">
    <tag k="website" v="https://www.prima.hu"/>
    <tag k="email" v="egressy135@gmail.com"/>
    <tag k="payment:debit_cards" v="yes"/>
    <tag k="payment:cash" v="yes"/>
    <tag k="shop" v="convenience"/>
    <tag k="phone" v="+3612200362"/>
    <tag k="addr:postcode" v="1141"/>
    <tag k="branch" v="CBA Príma"/>
    <tag k="brand" v="Príma"/>
    <tag k="addr:housenumber" v="135"/>
    <tag k="name:hu" v="Príma"/>
    <tag k="addr:city" v="Budapest"/>
    <tag k="name" v="Príma"/>
    <tag k="source" v="website"/>
    <tag k="addr:street" v="Egressy út"/>
  </node>
  <!-- Original coordinates: POINT (47.528531 19.037719) -->
  <node action="modify" changeset="99999" id="-65" lat="47.528531" lon="19.037719" timestamp="" uid="4579407" user="KAMI" version="99999">
    <tag k="website" v="https://www.prima.hu"/>
    <tag k="payment:debit_cards" v="yes"/>
    <tag k="payment:cash" v="yes"/>
    <tag k="name" v="Príma"/>
    <tag k="addr:postcode" v="1034"/>
    <tag k="branch" v="Buda Gourmet Príma"/>
    <tag k="brand" v="Príma"/>
    <tag k="addr:housenumber" v="38-44"/>
    <tag k="addr:city" v="Budapest"/>
    <tag k="shop" v="convenience"/>
    <tag k="source" v="website"/>
    <tag k="addr:street" v="Bécsi út"/>
  </node>
  <!-- OSM link: https://osm.org/node/5121641865 -->
  <!-- Original coordinates: POINT (47.474947 19.048063) -->
  <node action="modify" changeset="1" id="5121641865" lat="47.474947" lon="19.048063" timestamp="2017-09-22T11:2935Z" uid="4579407" user="KAMI" version="2">
    <tag k="website" v="https://www.prima.hu"/>
    <tag k="phone" v="+36303307516"/>
    <tag k="email" v="cbapiac@sbedi.com"/>
    <tag k="payment:debit_cards" v="yes"/>
    <tag k="wheelchair" v="yes"/>
    <tag k="brand" v="Príma"/>
    <tag k="name" v="Príma"/>
    <tag k="addr:postcode" v="1117"/>
    <tag k="branch" v="Príma Élelmíszer Fehérvári úti Vásárcsarnok"/>
    <tag k="payment:cash" v="yes"/>
    <tag k="addr:housenumber" v="9"/>
    <tag k="addr:city" v="Budapest"/>
    <tag k="shop" v="convenience"/>
    <tag k="source" v="website"/>
    <tag k="addr:street" v="Körösi József utca"/>
  </node>
  <!-- OSM link: https://osm.org/node/4933474272 -->
  <!-- Original coordinates: POINT (47.386644 18.459975) -->
  <node action="modify" changeset="1" id="4933474272" lat="47.386644" lon="18.459975" timestamp="2017-09-11T11:5353Z" uid="4579407" user="KAMI" version="3">
    <tag k="website" v="https://www.prima.hu"/>
    <tag k="phone" v="+36308700952"/>
    <tag k="email" v="cbacsakvar@sbedi.com"/>
    <tag k="payment:debit_cards" v="yes"/>
    <tag k="wheelchair" v="yes"/>
    <tag k="brand" v="Príma"/>
    <tag k="addr:city" v="Csákvár"/>
    <tag k="addr:postcode" v="8083"/>
    <tag k="fixme" v="verify"/>
    <tag k="branch" v="Príma Csákvár"/>
    <tag k="payment:cash" v="yes"/>
    <tag k="addr:housenumber" v="68"/>
    <tag k="name" v="Príma"/>
    <tag k="shop" v="convenience"/>
    <tag k="source" v="website"/>
    <tag k="addr:street" v="Széchenyi utca"/>
  </node>
  <!-- Original coordinates: POINT (47.580341 18.398799) -->
  <node action="modify" changeset="99999" id="-68" lat="47.580341" lon="18.398799" timestamp="" uid="4579407" user="KAMI" version="99999">
    <tag k="website" v="https://www.prima.hu"/>
    <tag k="payment:debit_cards" v="yes"/>
    <tag k="payment:cash" v="yes"/>
    <tag k="name" v="Príma"/>
    <tag k="addr:postcode" v="2800"/>
    <tag k="branch" v="HTZRT - 22.sz. Príma Élelmiszer üzlet"/>
    <tag k="brand" v="Príma"/>
    <tag k="addr:housenumber" v="1/f"/>
    <tag k="addr:city" v="Tatabánya"/>
    <tag k="shop" v="convenience"/>
    <tag k="source" v="website"/>
    <tag k="addr:street" v="Köztársaság út"/>
  </node>
  <!-- Original coordinates: POINT (47.550481 18.820318) -->
  <node action="modify" changeset="99999" id="-69" lat="47.550481" lon="18.820318" timestamp="" uid="4579407" user="KAMI" version="99999">
    <tag k="website" v="https://www.prima.hu"/>
    <tag k="payment:debit_cards" v="yes"/>
    <tag k="payment:cash" v="yes"/>
    <tag k="name" v="Príma"/>
    <tag k="addr:postcode" v="2089"/>
    <tag k="branch" v="Príma Élelmiszer Áruhát - Telki"/>
    <tag k="brand" v="Príma"/>
    <tag k="addr:housenumber" v="2"/>
    <tag k="addr:city" v="Telki"/>
    <tag k="shop" v="convenience"/>
    <tag k="source" v="website"/>
    <tag k="addr:street" v="Napsugár utca"/>
  </node>
</osm>
