<?xml version='1.0' encoding='UTF-8'?>
<osm generator="JOSM" version="0.6">
  <node action="modify" changeset="99999" id="-1" lat="47.494668291595" lon="19.056129455566" timestamp="" uid="4579407" user="KAMI" version="99999">
    <tag k="name" v="MOL Bubi"/>
    <tag k="addr:city" v="Budapest"/>
    <tag k="addr:postcode" v="1052"/>
    <tag k="branch" v="Vitkovics Mihály utca"/>
    <tag k="website" v="https://molbubi.bkk.hu/"/>
    <tag k="amenity" v="bicycle_rental"/>
    <tag k="network" v="bubi"/>
    <tag k="payment:credit_cards" v="yes"/>
    <tag k="operator" v="BKK MOL Bubi"/>
    <tag k="brand" v="MOL Bubi"/>
  </node>
  <node action="modify" changeset="99999" id="-2" lat="47.49165260743" lon="19.052969813347" timestamp="" uid="4579407" user="KAMI" version="99999">
    <tag k="name" v="MOL Bubi"/>
    <tag k="addr:city" v="Budapest"/>
    <tag k="addr:postcode" v="1056"/>
    <tag k="branch" v="Március 15. tér"/>
    <tag k="website" v="https://molbubi.bkk.hu/"/>
    <tag k="amenity" v="bicycle_rental"/>
    <tag k="network" v="bubi"/>
    <tag k="payment:credit_cards" v="yes"/>
    <tag k="operator" v="BKK MOL Bubi"/>
    <tag k="brand" v="MOL Bubi"/>
  </node>
  <node action="modify" changeset="99999" id="-3" lat="47.491297383232" lon="19.05824303627" timestamp="" uid="4579407" user="KAMI" version="99999">
    <tag k="name" v="MOL Bubi"/>
    <tag k="addr:city" v="Budapest"/>
    <tag k="addr:postcode" v="1053"/>
    <tag k="branch" v="Károlyi utca"/>
    <tag k="website" v="https://molbubi.bkk.hu/"/>
    <tag k="amenity" v="bicycle_rental"/>
    <tag k="network" v="bubi"/>
    <tag k="payment:credit_cards" v="yes"/>
    <tag k="operator" v="BKK MOL Bubi"/>
    <tag k="brand" v="MOL Bubi"/>
  </node>
  <node action="modify" changeset="99999" id="-4" lat="47.514237032226" lon="19.076664447784" timestamp="" uid="4579407" user="KAMI" version="99999">
    <tag k="name" v="MOL Bubi"/>
    <tag k="addr:city" v="Budapest"/>
    <tag k="addr:postcode" v="1068"/>
    <tag k="branch" v="Hősök tere"/>
    <tag k="website" v="https://molbubi.bkk.hu/"/>
    <tag k="amenity" v="bicycle_rental"/>
    <tag k="network" v="bubi"/>
    <tag k="payment:credit_cards" v="yes"/>
    <tag k="operator" v="BKK MOL Bubi"/>
    <tag k="brand" v="MOL Bubi"/>
  </node>
  <node action="modify" changeset="99999" id="-5" lat="47.511265952484" lon="19.057492017746" timestamp="" uid="4579407" user="KAMI" version="99999">
    <tag k="name" v="MOL Bubi"/>
    <tag k="addr:city" v="Budapest"/>
    <tag k="addr:postcode" v="1062"/>
    <tag k="branch" v="Nyugati pályaudvar"/>
    <tag k="website" v="https://molbubi.bkk.hu/"/>
    <tag k="amenity" v="bicycle_rental"/>
    <tag k="network" v="bubi"/>
    <tag k="payment:credit_cards" v="yes"/>
    <tag k="operator" v="BKK MOL Bubi"/>
    <tag k="brand" v="MOL Bubi"/>
  </node>
  <node action="modify" changeset="99999" id="-6" lat="47.509294801892" lon="19.069100618362" timestamp="" uid="4579407" user="KAMI" version="99999">
    <tag k="name" v="MOL Bubi"/>
    <tag k="addr:city" v="Budapest"/>
    <tag k="addr:postcode" v="1063"/>
    <tag k="branch" v="Kodály körönd"/>
    <tag k="website" v="https://molbubi.bkk.hu/"/>
    <tag k="amenity" v="bicycle_rental"/>
    <tag k="network" v="bubi"/>
    <tag k="payment:credit_cards" v="yes"/>
    <tag k="operator" v="BKK MOL Bubi"/>
    <tag k="brand" v="MOL Bubi"/>
  </node>
  <node action="modify" changeset="99999" id="-7" lat="47.506406787652" lon="19.039172530174" timestamp="" uid="4579407" user="KAMI" version="99999">
    <tag k="name" v="MOL Bubi"/>
    <tag k="addr:city" v="Budapest"/>
    <tag k="addr:postcode" v="1011"/>
    <tag k="branch" v="Batthyány tér"/>
    <tag k="website" v="https://molbubi.bkk.hu/"/>
    <tag k="amenity" v="bicycle_rental"/>
    <tag k="network" v="bubi"/>
    <tag k="payment:credit_cards" v="yes"/>
    <tag k="operator" v="BKK MOL Bubi"/>
    <tag k="brand" v="MOL Bubi"/>
  </node>
  <node action="modify" changeset="99999" id="-8" lat="47.491279259484" lon="19.045116305351" timestamp="" uid="4579407" user="KAMI" version="99999">
    <tag k="name" v="MOL Bubi"/>
    <tag k="addr:city" v="Budapest"/>
    <tag k="addr:postcode" v="1013"/>
    <tag k="branch" v="Döbrentei tér"/>
    <tag k="website" v="https://molbubi.bkk.hu/"/>
    <tag k="amenity" v="bicycle_rental"/>
    <tag k="network" v="bubi"/>
    <tag k="payment:credit_cards" v="yes"/>
    <tag k="operator" v="BKK MOL Bubi"/>
    <tag k="brand" v="MOL Bubi"/>
  </node>
  <node action="modify" changeset="99999" id="-9" lat="47.510374595761" lon="19.034371376038" timestamp="" uid="4579407" user="KAMI" version="99999">
    <tag k="name" v="MOL Bubi"/>
    <tag k="addr:city" v="Budapest"/>
    <tag k="addr:postcode" v="1027"/>
    <tag k="branch" v="Horvát utca"/>
    <tag k="website" v="https://molbubi.bkk.hu/"/>
    <tag k="amenity" v="bicycle_rental"/>
    <tag k="network" v="bubi"/>
    <tag k="payment:credit_cards" v="yes"/>
    <tag k="operator" v="BKK MOL Bubi"/>
    <tag k="brand" v="MOL Bubi"/>
  </node>
  <node action="modify" changeset="99999" id="-10" lat="47.515001514559" lon="19.039805531502" timestamp="" uid="4579407" user="KAMI" version="99999">
    <tag k="name" v="MOL Bubi"/>
    <tag k="addr:city" v="Budapest"/>
    <tag k="addr:postcode" v="1023"/>
    <tag k="branch" v="Margit híd"/>
    <tag k="website" v="https://molbubi.bkk.hu/"/>
    <tag k="amenity" v="bicycle_rental"/>
    <tag k="network" v="bubi"/>
    <tag k="payment:credit_cards" v="yes"/>
    <tag k="operator" v="BKK MOL Bubi"/>
    <tag k="brand" v="MOL Bubi"/>
  </node>
  <node action="modify" changeset="99999" id="-11" lat="47.507856250045" lon="19.027065038681" timestamp="" uid="4579407" user="KAMI" version="99999">
    <tag k="name" v="MOL Bubi"/>
    <tag k="addr:city" v="Budapest"/>
    <tag k="addr:postcode" v="0"/>
    <tag k="branch" v="Széna tér"/>
    <tag k="website" v="https://molbubi.bkk.hu/"/>
    <tag k="amenity" v="bicycle_rental"/>
    <tag k="network" v="bubi"/>
    <tag k="payment:credit_cards" v="yes"/>
    <tag k="operator" v="BKK MOL Bubi"/>
    <tag k="brand" v="MOL Bubi"/>
  </node>
  <node action="modify" changeset="99999" id="-12" lat="47.508584589787" lon="19.048211574554" timestamp="" uid="4579407" user="KAMI" version="99999">
    <tag k="name" v="MOL Bubi"/>
    <tag k="addr:city" v="Budapest"/>
    <tag k="addr:postcode" v="1055"/>
    <tag k="branch" v="Szalay utca"/>
    <tag k="website" v="https://molbubi.bkk.hu/"/>
    <tag k="amenity" v="bicycle_rental"/>
    <tag k="network" v="bubi"/>
    <tag k="payment:credit_cards" v="yes"/>
    <tag k="operator" v="BKK MOL Bubi"/>
    <tag k="brand" v="MOL Bubi"/>
  </node>
  <node action="modify" changeset="99999" id="-13" lat="47.506943093402" lon="19.054852724075" timestamp="" uid="4579407" user="KAMI" version="99999">
    <tag k="name" v="MOL Bubi"/>
    <tag k="addr:city" v="Budapest"/>
    <tag k="addr:postcode" v="1054"/>
    <tag k="branch" v="Bajcsy"/>
    <tag k="website" v="https://molbubi.bkk.hu/"/>
    <tag k="amenity" v="bicycle_rental"/>
    <tag k="network" v="bubi"/>
    <tag k="payment:credit_cards" v="yes"/>
    <tag k="operator" v="BKK MOL Bubi"/>
    <tag k="brand" v="MOL Bubi"/>
  </node>
  <node action="modify" changeset="99999" id="-14" lat="47.500760750058" lon="19.047240614891" timestamp="" uid="4579407" user="KAMI" version="99999">
    <tag k="name" v="MOL Bubi"/>
    <tag k="addr:city" v="Budapest"/>
    <tag k="addr:postcode" v="1051"/>
    <tag k="branch" v="Akadémia"/>
    <tag k="website" v="https://molbubi.bkk.hu/"/>
    <tag k="amenity" v="bicycle_rental"/>
    <tag k="network" v="bubi"/>
    <tag k="payment:credit_cards" v="yes"/>
    <tag k="operator" v="BKK MOL Bubi"/>
    <tag k="brand" v="MOL Bubi"/>
  </node>
  <node action="modify" changeset="99999" id="-15" lat="47.50774391814" lon="19.059551954269" timestamp="" uid="4579407" user="KAMI" version="99999">
    <tag k="name" v="MOL Bubi"/>
    <tag k="addr:city" v="Budapest"/>
    <tag k="addr:postcode" v="1066"/>
    <tag k="branch" v="Teréz körút"/>
    <tag k="website" v="https://molbubi.bkk.hu/"/>
    <tag k="amenity" v="bicycle_rental"/>
    <tag k="network" v="bubi"/>
    <tag k="payment:credit_cards" v="yes"/>
    <tag k="operator" v="BKK MOL Bubi"/>
    <tag k="brand" v="MOL Bubi"/>
  </node>
  <node action="modify" changeset="99999" id="-16" lat="47.505758140268" lon="19.063832759857" timestamp="" uid="4579407" user="KAMI" version="99999">
    <tag k="name" v="MOL Bubi"/>
    <tag k="addr:city" v="Budapest"/>
    <tag k="addr:postcode" v="1067"/>
    <tag k="branch" v="Oktogon"/>
    <tag k="website" v="https://molbubi.bkk.hu/"/>
    <tag k="amenity" v="bicycle_rental"/>
    <tag k="network" v="bubi"/>
    <tag k="payment:credit_cards" v="yes"/>
    <tag k="operator" v="BKK MOL Bubi"/>
    <tag k="brand" v="MOL Bubi"/>
  </node>
  <node action="modify" changeset="99999" id="-17" lat="47.500688268092" lon="19.056724905968" timestamp="" uid="4579407" user="KAMI" version="99999">
    <tag k="name" v="MOL Bubi"/>
    <tag k="addr:city" v="Budapest"/>
    <tag k="addr:postcode" v="1061"/>
    <tag k="branch" v="Andrássy út"/>
    <tag k="website" v="https://molbubi.bkk.hu/"/>
    <tag k="amenity" v="bicycle_rental"/>
    <tag k="network" v="bubi"/>
    <tag k="payment:credit_cards" v="yes"/>
    <tag k="operator" v="BKK MOL Bubi"/>
    <tag k="brand" v="MOL Bubi"/>
  </node>
  <node action="modify" changeset="99999" id="-18" lat="47.509675268709" lon="19.055308699608" timestamp="" uid="4579407" user="KAMI" version="99999">
    <tag k="name" v="MOL Bubi"/>
    <tag k="addr:city" v="Budapest"/>
    <tag k="addr:postcode" v="1065"/>
    <tag k="branch" v="Nyugati tér"/>
    <tag k="website" v="https://molbubi.bkk.hu/"/>
    <tag k="amenity" v="bicycle_rental"/>
    <tag k="network" v="bubi"/>
    <tag k="payment:credit_cards" v="yes"/>
    <tag k="operator" v="BKK MOL Bubi"/>
    <tag k="brand" v="MOL Bubi"/>
  </node>
  <node action="modify" changeset="99999" id="-19" lat="47.50791785131" lon="19.08416390419" timestamp="" uid="4579407" user="KAMI" version="99999">
    <tag k="name" v="MOL Bubi"/>
    <tag k="addr:city" v="Budapest"/>
    <tag k="addr:postcode" v="1071"/>
    <tag k="branch" v="Dózsa György út"/>
    <tag k="website" v="https://molbubi.bkk.hu/"/>
    <tag k="amenity" v="bicycle_rental"/>
    <tag k="network" v="bubi"/>
    <tag k="payment:credit_cards" v="yes"/>
    <tag k="operator" v="BKK MOL Bubi"/>
    <tag k="brand" v="MOL Bubi"/>
  </node>
  <node action="modify" changeset="99999" id="-20" lat="47.504489812167" lon="19.085408449173" timestamp="" uid="4579407" user="KAMI" version="99999">
    <tag k="name" v="MOL Bubi"/>
    <tag k="addr:city" v="Budapest"/>
    <tag k="addr:postcode" v="1078"/>
    <tag k="branch" v="Garay tér"/>
    <tag k="website" v="https://molbubi.bkk.hu/"/>
    <tag k="amenity" v="bicycle_rental"/>
    <tag k="network" v="bubi"/>
    <tag k="payment:credit_cards" v="yes"/>
    <tag k="operator" v="BKK MOL Bubi"/>
    <tag k="brand" v="MOL Bubi"/>
  </node>
  <node action="modify" changeset="99999" id="-21" lat="47.500267870719" lon="19.063704013824" timestamp="" uid="4579407" user="KAMI" version="99999">
    <tag k="name" v="MOL Bubi"/>
    <tag k="addr:city" v="Budapest"/>
    <tag k="addr:postcode" v="1072"/>
    <tag k="branch" v="Klauzál tér"/>
    <tag k="website" v="https://molbubi.bkk.hu/"/>
    <tag k="amenity" v="bicycle_rental"/>
    <tag k="network" v="bubi"/>
    <tag k="payment:credit_cards" v="yes"/>
    <tag k="operator" v="BKK MOL Bubi"/>
    <tag k="brand" v="MOL Bubi"/>
  </node>
  <node action="modify" changeset="99999" id="-22" lat="47.500604913708" lon="19.068403244019" timestamp="" uid="4579407" user="KAMI" version="99999">
    <tag k="name" v="MOL Bubi"/>
    <tag k="addr:city" v="Budapest"/>
    <tag k="addr:postcode" v="1073"/>
    <tag k="branch" v="Erzsébet körút"/>
    <tag k="website" v="https://molbubi.bkk.hu/"/>
    <tag k="amenity" v="bicycle_rental"/>
    <tag k="network" v="bubi"/>
    <tag k="payment:credit_cards" v="yes"/>
    <tag k="operator" v="BKK MOL Bubi"/>
    <tag k="brand" v="MOL Bubi"/>
  </node>
  <node action="modify" changeset="99999" id="-23" lat="47.501481940164" lon="19.075291156769" timestamp="" uid="4579407" user="KAMI" version="99999">
    <tag k="name" v="MOL Bubi"/>
    <tag k="addr:city" v="Budapest"/>
    <tag k="addr:postcode" v="1074"/>
    <tag k="branch" v="Rózsák tere"/>
    <tag k="website" v="https://molbubi.bkk.hu/"/>
    <tag k="amenity" v="bicycle_rental"/>
    <tag k="network" v="bubi"/>
    <tag k="payment:credit_cards" v="yes"/>
    <tag k="operator" v="BKK MOL Bubi"/>
    <tag k="brand" v="MOL Bubi"/>
  </node>
  <node action="modify" changeset="99999" id="-24" lat="47.497038671764" lon="19.062073230743" timestamp="" uid="4579407" user="KAMI" version="99999">
    <tag k="name" v="MOL Bubi"/>
    <tag k="addr:city" v="Budapest"/>
    <tag k="addr:postcode" v="1075"/>
    <tag k="branch" v="Wesselényi utca"/>
    <tag k="website" v="https://molbubi.bkk.hu/"/>
    <tag k="amenity" v="bicycle_rental"/>
    <tag k="network" v="bubi"/>
    <tag k="payment:credit_cards" v="yes"/>
    <tag k="operator" v="BKK MOL Bubi"/>
    <tag k="brand" v="MOL Bubi"/>
  </node>
  <node action="modify" changeset="99999" id="-25" lat="47.495827225143" lon="19.066731981911" timestamp="" uid="4579407" user="KAMI" version="99999">
    <tag k="name" v="MOL Bubi"/>
    <tag k="addr:city" v="Budapest"/>
    <tag k="addr:postcode" v="1088"/>
    <tag k="branch" v="Gyulai Pál utca"/>
    <tag k="website" v="https://molbubi.bkk.hu/"/>
    <tag k="amenity" v="bicycle_rental"/>
    <tag k="network" v="bubi"/>
    <tag k="payment:credit_cards" v="yes"/>
    <tag k="operator" v="BKK MOL Bubi"/>
    <tag k="brand" v="MOL Bubi"/>
  </node>
  <node action="modify" changeset="99999" id="-26" lat="47.492754512107" lon="19.071310758591" timestamp="" uid="4579407" user="KAMI" version="99999">
    <tag k="name" v="MOL Bubi"/>
    <tag k="addr:city" v="Budapest"/>
    <tag k="addr:postcode" v="1085"/>
    <tag k="branch" v="Rákóczi tér"/>
    <tag k="website" v="https://molbubi.bkk.hu/"/>
    <tag k="amenity" v="bicycle_rental"/>
    <tag k="network" v="bubi"/>
    <tag k="payment:credit_cards" v="yes"/>
    <tag k="operator" v="BKK MOL Bubi"/>
    <tag k="brand" v="MOL Bubi"/>
  </node>
  <node action="modify" changeset="99999" id="-27" lat="47.500902089603" lon="19.083112478256" timestamp="" uid="4579407" user="KAMI" version="99999">
    <tag k="name" v="MOL Bubi"/>
    <tag k="addr:city" v="Budapest"/>
    <tag k="addr:postcode" v="1087"/>
    <tag k="branch" v="Keleti pályaudvar"/>
    <tag k="website" v="https://molbubi.bkk.hu/"/>
    <tag k="amenity" v="bicycle_rental"/>
    <tag k="network" v="bubi"/>
    <tag k="payment:credit_cards" v="yes"/>
    <tag k="operator" v="BKK MOL Bubi"/>
    <tag k="brand" v="MOL Bubi"/>
  </node>
  <node action="modify" changeset="99999" id="-28" lat="47.486403744132" lon="19.065662026405" timestamp="" uid="4579407" user="KAMI" version="99999">
    <tag k="name" v="MOL Bubi"/>
    <tag k="addr:city" v="Budapest"/>
    <tag k="addr:postcode" v="1092"/>
    <tag k="branch" v="Markusovszky tér"/>
    <tag k="website" v="https://molbubi.bkk.hu/"/>
    <tag k="amenity" v="bicycle_rental"/>
    <tag k="network" v="bubi"/>
    <tag k="payment:credit_cards" v="yes"/>
    <tag k="operator" v="BKK MOL Bubi"/>
    <tag k="brand" v="MOL Bubi"/>
  </node>
  <node action="modify" changeset="99999" id="-29" lat="47.484819557346" lon="19.0597397089" timestamp="" uid="4579407" user="KAMI" version="99999">
    <tag k="name" v="MOL Bubi"/>
    <tag k="addr:city" v="Budapest"/>
    <tag k="addr:postcode" v="1093"/>
    <tag k="branch" v="Corvinus Egyetem"/>
    <tag k="website" v="https://molbubi.bkk.hu/"/>
    <tag k="amenity" v="bicycle_rental"/>
    <tag k="network" v="bubi"/>
    <tag k="payment:credit_cards" v="yes"/>
    <tag k="operator" v="BKK MOL Bubi"/>
    <tag k="brand" v="MOL Bubi"/>
  </node>
  <node action="modify" changeset="99999" id="-30" lat="47.479580887855" lon="19.066118001938" timestamp="" uid="4579407" user="KAMI" version="99999">
    <tag k="name" v="MOL Bubi"/>
    <tag k="addr:city" v="Budapest"/>
    <tag k="addr:postcode" v="1095"/>
    <tag k="branch" v="Boráros tér"/>
    <tag k="website" v="https://molbubi.bkk.hu/"/>
    <tag k="amenity" v="bicycle_rental"/>
    <tag k="network" v="bubi"/>
    <tag k="payment:credit_cards" v="yes"/>
    <tag k="operator" v="BKK MOL Bubi"/>
    <tag k="brand" v="MOL Bubi"/>
  </node>
  <node action="modify" changeset="99999" id="-31" lat="47.484504164343" lon="19.053457975388" timestamp="" uid="4579407" user="KAMI" version="99999">
    <tag k="name" v="MOL Bubi"/>
    <tag k="addr:city" v="Budapest"/>
    <tag k="addr:postcode" v="1111"/>
    <tag k="branch" v="Szent Gellért tér"/>
    <tag k="website" v="https://molbubi.bkk.hu/"/>
    <tag k="amenity" v="bicycle_rental"/>
    <tag k="network" v="bubi"/>
    <tag k="payment:credit_cards" v="yes"/>
    <tag k="operator" v="BKK MOL Bubi"/>
    <tag k="brand" v="MOL Bubi"/>
  </node>
  <node action="modify" changeset="99999" id="-32" lat="47.47641568076" lon="19.058994054794" timestamp="" uid="4579407" user="KAMI" version="99999">
    <tag k="name" v="MOL Bubi"/>
    <tag k="addr:city" v="Budapest"/>
    <tag k="addr:postcode" v="1117"/>
    <tag k="branch" v="Petőfi híd"/>
    <tag k="website" v="https://molbubi.bkk.hu/"/>
    <tag k="amenity" v="bicycle_rental"/>
    <tag k="network" v="bubi"/>
    <tag k="payment:credit_cards" v="yes"/>
    <tag k="operator" v="BKK MOL Bubi"/>
    <tag k="brand" v="MOL Bubi"/>
  </node>
  <node action="modify" changeset="99999" id="-33" lat="47.513602974448" lon="19.048072099686" timestamp="" uid="4579407" user="KAMI" version="99999">
    <tag k="name" v="MOL Bubi"/>
    <tag k="addr:city" v="Budapest"/>
    <tag k="addr:postcode" v="1137"/>
    <tag k="branch" v="Jászai Mari tér"/>
    <tag k="website" v="https://molbubi.bkk.hu/"/>
    <tag k="amenity" v="bicycle_rental"/>
    <tag k="network" v="bubi"/>
    <tag k="payment:credit_cards" v="yes"/>
    <tag k="operator" v="BKK MOL Bubi"/>
    <tag k="brand" v="MOL Bubi"/>
  </node>
  <node action="modify" changeset="99999" id="-34" lat="47.517497779783" lon="19.060007929802" timestamp="" uid="4579407" user="KAMI" version="99999">
    <tag k="name" v="MOL Bubi"/>
    <tag k="addr:city" v="Budapest"/>
    <tag k="addr:postcode" v="1132"/>
    <tag k="branch" v="Váci út"/>
    <tag k="website" v="https://molbubi.bkk.hu/"/>
    <tag k="amenity" v="bicycle_rental"/>
    <tag k="network" v="bubi"/>
    <tag k="payment:credit_cards" v="yes"/>
    <tag k="operator" v="BKK MOL Bubi"/>
    <tag k="brand" v="MOL Bubi"/>
  </node>
  <node action="modify" changeset="99999" id="-35" lat="47.518349163838" lon="19.04482126236" timestamp="" uid="4579407" user="KAMI" version="99999">
    <tag k="name" v="MOL Bubi"/>
    <tag k="addr:city" v="Budapest"/>
    <tag k="addr:postcode" v="1007"/>
    <tag k="branch" v="Margitsziget"/>
    <tag k="website" v="https://molbubi.bkk.hu/"/>
    <tag k="amenity" v="bicycle_rental"/>
    <tag k="network" v="bubi"/>
    <tag k="payment:credit_cards" v="yes"/>
    <tag k="operator" v="BKK MOL Bubi"/>
    <tag k="brand" v="MOL Bubi"/>
  </node>
  <node action="modify" changeset="99999" id="-36" lat="47.514490653192" lon="19.052535295486" timestamp="" uid="4579407" user="KAMI" version="99999">
    <tag k="name" v="MOL Bubi"/>
    <tag k="addr:city" v="Budapest"/>
    <tag k="addr:postcode" v="1136"/>
    <tag k="branch" v="Pannónia utca"/>
    <tag k="website" v="https://molbubi.bkk.hu/"/>
    <tag k="amenity" v="bicycle_rental"/>
    <tag k="network" v="bubi"/>
    <tag k="payment:credit_cards" v="yes"/>
    <tag k="operator" v="BKK MOL Bubi"/>
    <tag k="brand" v="MOL Bubi"/>
  </node>
  <node action="modify" changeset="99999" id="-37" lat="47.518845496254" lon="19.081320762634" timestamp="" uid="4579407" user="KAMI" version="99999">
    <tag k="name" v="MOL Bubi"/>
    <tag k="addr:city" v="Budapest"/>
    <tag k="addr:postcode" v="1146"/>
    <tag k="branch" v="Széchenyi fürdő"/>
    <tag k="website" v="https://molbubi.bkk.hu/"/>
    <tag k="amenity" v="bicycle_rental"/>
    <tag k="network" v="bubi"/>
    <tag k="payment:credit_cards" v="yes"/>
    <tag k="operator" v="BKK MOL Bubi"/>
    <tag k="brand" v="MOL Bubi"/>
  </node>
  <node action="modify" changeset="99999" id="-38" lat="47.499858342454" lon="19.02548789978" timestamp="" uid="4579407" user="KAMI" version="99999">
    <tag k="name" v="MOL Bubi"/>
    <tag k="addr:city" v="Budapest"/>
    <tag k="addr:postcode" v="1012"/>
    <tag k="branch" v="Déli pályaudvar"/>
    <tag k="website" v="https://molbubi.bkk.hu/"/>
    <tag k="amenity" v="bicycle_rental"/>
    <tag k="network" v="bubi"/>
    <tag k="payment:credit_cards" v="yes"/>
    <tag k="operator" v="BKK MOL Bubi"/>
    <tag k="brand" v="MOL Bubi"/>
  </node>
  <node action="modify" changeset="99999" id="-39" lat="47.508345" lon="19.023556" timestamp="" uid="4579407" user="KAMI" version="99999">
    <tag k="name" v="MOL Bubi"/>
    <tag k="addr:city" v="Budapest"/>
    <tag k="addr:postcode" v="1024"/>
    <tag k="branch" v="Fény utcai piac"/>
    <tag k="website" v="https://molbubi.bkk.hu/"/>
    <tag k="amenity" v="bicycle_rental"/>
    <tag k="network" v="bubi"/>
    <tag k="payment:credit_cards" v="yes"/>
    <tag k="operator" v="BKK MOL Bubi"/>
    <tag k="brand" v="MOL Bubi"/>
  </node>
  <node action="modify" changeset="99999" id="-40" lat="47.489343" lon="19.075943" timestamp="" uid="4579407" user="KAMI" version="99999">
    <tag k="name" v="MOL Bubi"/>
    <tag k="addr:city" v="Budapest"/>
    <tag k="addr:postcode" v="1082"/>
    <tag k="branch" v="Horváth Mihály tér"/>
    <tag k="website" v="https://molbubi.bkk.hu/"/>
    <tag k="amenity" v="bicycle_rental"/>
    <tag k="network" v="bubi"/>
    <tag k="payment:credit_cards" v="yes"/>
    <tag k="operator" v="BKK MOL Bubi"/>
    <tag k="brand" v="MOL Bubi"/>
  </node>
  <node action="modify" changeset="99999" id="-41" lat="47.495046" lon="19.077116" timestamp="" uid="4579407" user="KAMI" version="99999">
    <tag k="name" v="MOL Bubi"/>
    <tag k="addr:city" v="Budapest"/>
    <tag k="addr:postcode" v="1081"/>
    <tag k="branch" v="II. János Pál Pápa tér M"/>
    <tag k="website" v="https://molbubi.bkk.hu/"/>
    <tag k="amenity" v="bicycle_rental"/>
    <tag k="network" v="bubi"/>
    <tag k="payment:credit_cards" v="yes"/>
    <tag k="operator" v="BKK MOL Bubi"/>
    <tag k="brand" v="MOL Bubi"/>
  </node>
  <node action="modify" changeset="99999" id="-42" lat="47.478589" lon="19.040798" timestamp="" uid="4579407" user="KAMI" version="99999">
    <tag k="name" v="MOL Bubi"/>
    <tag k="addr:city" v="Budapest"/>
    <tag k="addr:postcode" v="1114"/>
    <tag k="branch" v="Villányi út"/>
    <tag k="website" v="https://molbubi.bkk.hu/"/>
    <tag k="amenity" v="bicycle_rental"/>
    <tag k="network" v="bubi"/>
    <tag k="payment:credit_cards" v="yes"/>
    <tag k="operator" v="BKK MOL Bubi"/>
    <tag k="brand" v="MOL Bubi"/>
  </node>
  <node action="modify" changeset="99999" id="-43" lat="47.482587" lon="19.030513" timestamp="" uid="4579407" user="KAMI" version="99999">
    <tag k="name" v="MOL Bubi"/>
    <tag k="addr:city" v="Budapest"/>
    <tag k="addr:postcode" v="1113"/>
    <tag k="branch" v="Villányi út"/>
    <tag k="website" v="https://molbubi.bkk.hu/"/>
    <tag k="amenity" v="bicycle_rental"/>
    <tag k="network" v="bubi"/>
    <tag k="payment:credit_cards" v="yes"/>
    <tag k="operator" v="BKK MOL Bubi"/>
    <tag k="brand" v="MOL Bubi"/>
  </node>
  <node action="modify" changeset="99999" id="-44" lat="47.487812" lon="19.024279" timestamp="" uid="4579407" user="KAMI" version="99999">
    <tag k="name" v="MOL Bubi"/>
    <tag k="addr:city" v="Budapest"/>
    <tag k="addr:postcode" v="1124"/>
    <tag k="branch" v="BAH csomópont"/>
    <tag k="website" v="https://molbubi.bkk.hu/"/>
    <tag k="amenity" v="bicycle_rental"/>
    <tag k="network" v="bubi"/>
    <tag k="payment:credit_cards" v="yes"/>
    <tag k="operator" v="BKK MOL Bubi"/>
    <tag k="brand" v="MOL Bubi"/>
  </node>
  <node action="modify" changeset="99999" id="-45" lat="47.51964976217" lon="19.061311483383" timestamp="" uid="4579407" user="KAMI" version="99999">
    <tag k="name" v="MOL Bubi"/>
    <tag k="addr:city" v="Budapest"/>
    <tag k="addr:postcode" v="1134"/>
    <tag k="branch" v="Váci út"/>
    <tag k="website" v="https://molbubi.bkk.hu/"/>
    <tag k="amenity" v="bicycle_rental"/>
    <tag k="network" v="bubi"/>
    <tag k="payment:credit_cards" v="yes"/>
    <tag k="operator" v="BKK MOL Bubi"/>
    <tag k="brand" v="MOL Bubi"/>
  </node>
  <node action="modify" changeset="99999" id="-46" lat="47.524844588231" lon="19.062716960907" timestamp="" uid="4579407" user="KAMI" version="99999">
    <tag k="name" v="MOL Bubi"/>
    <tag k="addr:city" v="Budapest"/>
    <tag k="addr:postcode" v="1133"/>
    <tag k="branch" v="Dózsa György út M"/>
    <tag k="website" v="https://molbubi.bkk.hu/"/>
    <tag k="amenity" v="bicycle_rental"/>
    <tag k="network" v="bubi"/>
    <tag k="payment:credit_cards" v="yes"/>
    <tag k="operator" v="BKK MOL Bubi"/>
    <tag k="brand" v="MOL Bubi"/>
  </node>
  <node action="modify" changeset="99999" id="-47" lat="47.480799061076" lon="19.077243804932" timestamp="" uid="4579407" user="KAMI" version="99999">
    <tag k="name" v="MOL Bubi"/>
    <tag k="addr:city" v="Budapest"/>
    <tag k="addr:postcode" v="1096"/>
    <tag k="branch" v="SOTE"/>
    <tag k="website" v="https://molbubi.bkk.hu/"/>
    <tag k="amenity" v="bicycle_rental"/>
    <tag k="network" v="bubi"/>
    <tag k="payment:credit_cards" v="yes"/>
    <tag k="operator" v="BKK MOL Bubi"/>
    <tag k="brand" v="MOL Bubi"/>
  </node>
  <node action="modify" changeset="99999" id="-48" lat="47.481640164197" lon="19.073832035065" timestamp="" uid="4579407" user="KAMI" version="99999">
    <tag k="name" v="MOL Bubi"/>
    <tag k="addr:city" v="Budapest"/>
    <tag k="addr:postcode" v="1094"/>
    <tag k="branch" v="Ferenc tér"/>
    <tag k="website" v="https://molbubi.bkk.hu/"/>
    <tag k="amenity" v="bicycle_rental"/>
    <tag k="network" v="bubi"/>
    <tag k="payment:credit_cards" v="yes"/>
    <tag k="operator" v="BKK MOL Bubi"/>
    <tag k="brand" v="MOL Bubi"/>
  </node>
  <node action="modify" changeset="99999" id="-49" lat="47.507765659818" lon="19.035111665726" timestamp="" uid="4579407" user="KAMI" version="99999">
    <tag k="name" v="MOL Bubi"/>
    <tag k="addr:city" v="Budapest"/>
    <tag k="addr:postcode" v="1015"/>
    <tag k="branch" v="Csalogány utca"/>
    <tag k="website" v="https://molbubi.bkk.hu/"/>
    <tag k="amenity" v="bicycle_rental"/>
    <tag k="network" v="bubi"/>
    <tag k="payment:credit_cards" v="yes"/>
    <tag k="operator" v="BKK MOL Bubi"/>
    <tag k="brand" v="MOL Bubi"/>
  </node>
  <node action="modify" changeset="99999" id="-50" lat="47.528003254662" lon="19.038593173027" timestamp="" uid="4579407" user="KAMI" version="99999">
    <tag k="name" v="MOL Bubi"/>
    <tag k="addr:city" v="Budapest"/>
    <tag k="addr:postcode" v="1036"/>
    <tag k="branch" v="Kolosy tér"/>
    <tag k="website" v="https://molbubi.bkk.hu/"/>
    <tag k="amenity" v="bicycle_rental"/>
    <tag k="network" v="bubi"/>
    <tag k="payment:credit_cards" v="yes"/>
    <tag k="operator" v="BKK MOL Bubi"/>
    <tag k="brand" v="MOL Bubi"/>
  </node>
  <node action="modify" changeset="99999" id="-51" lat="47.533660849057" lon="19.03545498848" timestamp="" uid="4579407" user="KAMI" version="99999">
    <tag k="name" v="MOL Bubi"/>
    <tag k="addr:city" v="Budapest"/>
    <tag k="addr:postcode" v="1034"/>
    <tag k="branch" v="Bécsi út"/>
    <tag k="website" v="https://molbubi.bkk.hu/"/>
    <tag k="amenity" v="bicycle_rental"/>
    <tag k="network" v="bubi"/>
    <tag k="payment:credit_cards" v="yes"/>
    <tag k="operator" v="BKK MOL Bubi"/>
    <tag k="brand" v="MOL Bubi"/>
  </node>
  <node action="modify" changeset="99999" id="-52" lat="47.540063843103" lon="19.030830860138" timestamp="" uid="4579407" user="KAMI" version="99999">
    <tag k="name" v="MOL Bubi"/>
    <tag k="addr:city" v="Budapest"/>
    <tag k="addr:postcode" v="1037"/>
    <tag k="branch" v="Szent Margit Kórház"/>
    <tag k="website" v="https://molbubi.bkk.hu/"/>
    <tag k="amenity" v="bicycle_rental"/>
    <tag k="network" v="bubi"/>
    <tag k="payment:credit_cards" v="yes"/>
    <tag k="operator" v="BKK MOL Bubi"/>
    <tag k="brand" v="MOL Bubi"/>
  </node>
  <node action="modify" changeset="99999" id="-53" lat="47.538999146031" lon="19.035868048668" timestamp="" uid="4579407" user="KAMI" version="99999">
    <tag k="name" v="MOL Bubi"/>
    <tag k="addr:city" v="Budapest"/>
    <tag k="addr:postcode" v="1032"/>
    <tag k="branch" v="Kiscelli utca"/>
    <tag k="website" v="https://molbubi.bkk.hu/"/>
    <tag k="amenity" v="bicycle_rental"/>
    <tag k="network" v="bubi"/>
    <tag k="payment:credit_cards" v="yes"/>
    <tag k="operator" v="BKK MOL Bubi"/>
    <tag k="brand" v="MOL Bubi"/>
  </node>
  <node action="modify" changeset="99999" id="-54" lat="47.490412937033" lon="19.024157524109" timestamp="" uid="4579407" user="KAMI" version="99999">
    <tag k="name" v="MOL Bubi"/>
    <tag k="addr:city" v="Budapest"/>
    <tag k="addr:postcode" v="1123"/>
    <tag k="branch" v="MOM Park"/>
    <tag k="website" v="https://molbubi.bkk.hu/"/>
    <tag k="amenity" v="bicycle_rental"/>
    <tag k="network" v="bubi"/>
    <tag k="payment:credit_cards" v="yes"/>
    <tag k="operator" v="BKK MOL Bubi"/>
    <tag k="brand" v="MOL Bubi"/>
  </node>
  <node action="modify" changeset="99999" id="-55" lat="47.508765767257" lon="19.017409086227" timestamp="" uid="4579407" user="KAMI" version="99999">
    <tag k="name" v="MOL Bubi"/>
    <tag k="addr:city" v="Budapest"/>
    <tag k="addr:postcode" v="1122"/>
    <tag k="branch" v="Városmajor"/>
    <tag k="website" v="https://molbubi.bkk.hu/"/>
    <tag k="amenity" v="bicycle_rental"/>
    <tag k="network" v="bubi"/>
    <tag k="payment:credit_cards" v="yes"/>
    <tag k="operator" v="BKK MOL Bubi"/>
    <tag k="brand" v="MOL Bubi"/>
  </node>
  <node action="modify" changeset="99999" id="-56" lat="47.53829657898" lon="19.061236381531" timestamp="" uid="4579407" user="KAMI" version="99999">
    <tag k="name" v="MOL Bubi"/>
    <tag k="addr:city" v="Budapest"/>
    <tag k="addr:postcode" v="1138"/>
    <tag k="branch" v="Duna Aréna"/>
    <tag k="website" v="https://molbubi.bkk.hu/"/>
    <tag k="amenity" v="bicycle_rental"/>
    <tag k="network" v="bubi"/>
    <tag k="payment:credit_cards" v="yes"/>
    <tag k="operator" v="BKK MOL Bubi"/>
    <tag k="brand" v="MOL Bubi"/>
  </node>
</osm>
