<?xml version='1.0' encoding='UTF-8'?>
<osm generator="JOSM" version="0.6">
  <!-- Original coordinates: POINT (47.48529 19.074741) -->
  <node action="modify" changeset="99999" id="-1" lat="47.48529" lon="19.074741" timestamp="" uid="4579407" user="KAMI" version="99999">
    <tag k="brand" v="K&amp;H"/>
    <tag k="bic" v="OKHBHUHB"/>
    <tag k="operator" v="K&amp;H Bank Zrt."/>
    <tag k="atm" v="yes"/>
    <tag k="addr:postcode" v="1082"/>
    <tag k="amenity" v="bank"/>
    <tag k="website" v="https://www.kh.hu"/>
    <tag k="addr:housenumber" v="47-53"/>
    <tag k="addr:city" v="Budapest"/>
    <tag k="name" v="K&amp;H bank"/>
    <tag k="source" v="website"/>
    <tag k="addr:street" v="Futó utca"/>
  </node>
  <!-- Original coordinates: POINT (47.495307 19.070888) -->
  <node action="modify" changeset="99999" id="-2" lat="47.495307" lon="19.070888" timestamp="" uid="4579407" user="KAMI" version="99999">
    <tag k="brand" v="K&amp;H"/>
    <tag k="bic" v="OKHBHUHB"/>
    <tag k="operator" v="K&amp;H Bank Zrt."/>
    <tag k="atm" v="yes"/>
    <tag k="addr:postcode" v="1085"/>
    <tag k="amenity" v="bank"/>
    <tag k="website" v="https://www.kh.hu"/>
    <tag k="addr:housenumber" v="10-12"/>
    <tag k="addr:city" v="Budapest"/>
    <tag k="name" v="K&amp;H bank"/>
    <tag k="source" v="website"/>
    <tag k="addr:street" v="József körút"/>
  </node>
  <!-- Original coordinates: POINT (47.499627 19.079696) -->
  <node action="modify" changeset="99999" id="-3" lat="47.499627" lon="19.079696" timestamp="" uid="4579407" user="KAMI" version="99999">
    <tag k="brand" v="K&amp;H"/>
    <tag k="bic" v="OKHBHUHB"/>
    <tag k="operator" v="K&amp;H Bank Zrt."/>
    <tag k="atm" v="yes"/>
    <tag k="addr:postcode" v="1076"/>
    <tag k="amenity" v="bank"/>
    <tag k="website" v="https://www.kh.hu"/>
    <tag k="addr:housenumber" v="2"/>
    <tag k="addr:city" v="Budapest"/>
    <tag k="name" v="K&amp;H bank"/>
    <tag k="source" v="website"/>
    <tag k="addr:street" v="Baross tér"/>
  </node>
  <!-- Original coordinates: POINT (47.480921 19.067144) -->
  <node action="modify" changeset="99999" id="-4" lat="47.480921" lon="19.067144" timestamp="" uid="4579407" user="KAMI" version="99999">
    <tag k="brand" v="K&amp;H"/>
    <tag k="bic" v="OKHBHUHB"/>
    <tag k="operator" v="K&amp;H Bank Zrt."/>
    <tag k="atm" v="yes"/>
    <tag k="addr:postcode" v="1093"/>
    <tag k="amenity" v="bank"/>
    <tag k="website" v="https://www.kh.hu"/>
    <tag k="addr:housenumber" v="1"/>
    <tag k="addr:city" v="Budapest"/>
    <tag k="name" v="K&amp;H bank"/>
    <tag k="source" v="website"/>
    <tag k="addr:street" v="Ferenc körút"/>
  </node>
  <!-- Original coordinates: POINT (47.471721 19.072311) -->
  <node action="modify" changeset="99999" id="-5" lat="47.471721" lon="19.072311" timestamp="" uid="4579407" user="KAMI" version="99999">
    <tag k="brand" v="K&amp;H"/>
    <tag k="bic" v="OKHBHUHB"/>
    <tag k="operator" v="K&amp;H Bank Zrt."/>
    <tag k="atm" v="yes"/>
    <tag k="addr:postcode" v="1095"/>
    <tag k="amenity" v="bank"/>
    <tag k="website" v="https://www.kh.hu"/>
    <tag k="addr:housenumber" v="9"/>
    <tag k="addr:city" v="Budapest"/>
    <tag k="name" v="K&amp;H bank"/>
    <tag k="source" v="website"/>
    <tag k="addr:street" v="Lechner Ödön fasor"/>
  </node>
  <!-- Original coordinates: POINT (47.483477 19.129208) -->
  <node action="modify" changeset="99999" id="-6" lat="47.483477" lon="19.129208" timestamp="" uid="4579407" user="KAMI" version="99999">
    <tag k="brand" v="K&amp;H"/>
    <tag k="bic" v="OKHBHUHB"/>
    <tag k="operator" v="K&amp;H Bank Zrt."/>
    <tag k="atm" v="yes"/>
    <tag k="addr:postcode" v="1102"/>
    <tag k="amenity" v="bank"/>
    <tag k="website" v="https://www.kh.hu"/>
    <tag k="addr:housenumber" v="3"/>
    <tag k="addr:city" v="Budapest"/>
    <tag k="name" v="K&amp;H bank"/>
    <tag k="source" v="website"/>
    <tag k="addr:street" v="Liget tér"/>
  </node>
  <!-- Original coordinates: POINT (47.463637 19.034035) -->
  <node action="modify" changeset="99999" id="-7" lat="47.463637" lon="19.034035" timestamp="" uid="4579407" user="KAMI" version="99999">
    <tag k="brand" v="K&amp;H"/>
    <tag k="bic" v="OKHBHUHB"/>
    <tag k="operator" v="K&amp;H Bank Zrt."/>
    <tag k="atm" v="yes"/>
    <tag k="addr:postcode" v="1119"/>
    <tag k="amenity" v="bank"/>
    <tag k="website" v="https://www.kh.hu"/>
    <tag k="addr:housenumber" v="63"/>
    <tag k="addr:city" v="Budapest"/>
    <tag k="name" v="K&amp;H bank"/>
    <tag k="source" v="website"/>
    <tag k="addr:street" v="Tétényi út"/>
  </node>
  <!-- Original coordinates: POINT (47.476511 19.047589) -->
  <node action="modify" changeset="99999" id="-8" lat="47.476511" lon="19.047589" timestamp="" uid="4579407" user="KAMI" version="99999">
    <tag k="brand" v="K&amp;H"/>
    <tag k="bic" v="OKHBHUHB"/>
    <tag k="operator" v="K&amp;H Bank Zrt."/>
    <tag k="atm" v="yes"/>
    <tag k="addr:postcode" v="1117"/>
    <tag k="amenity" v="bank"/>
    <tag k="website" v="https://www.kh.hu"/>
    <tag k="addr:housenumber" v="14"/>
    <tag k="addr:city" v="Budapest"/>
    <tag k="name" v="K&amp;H bank"/>
    <tag k="source" v="website"/>
    <tag k="addr:street" v="Móricz Zsigmond körtér"/>
  </node>
  <!-- Original coordinates: POINT (47.709377 18.014248) -->
  <node action="modify" changeset="99999" id="-9" lat="47.709377" lon="18.014248" timestamp="" uid="4579407" user="KAMI" version="99999">
    <tag k="brand" v="K&amp;H"/>
    <tag k="bic" v="OKHBHUHB"/>
    <tag k="operator" v="K&amp;H Bank Zrt."/>
    <tag k="atm" v="yes"/>
    <tag k="addr:postcode" v="2941"/>
    <tag k="amenity" v="bank"/>
    <tag k="website" v="https://www.kh.hu"/>
    <tag k="addr:housenumber" v="9"/>
    <tag k="addr:city" v="Ács"/>
    <tag k="name" v="K&amp;H bank"/>
    <tag k="source" v="website"/>
    <tag k="addr:street" v="Fő út"/>
  </node>
  <!-- Original coordinates: POINT (47.465544 19.005693) -->
  <node action="modify" changeset="99999" id="-10" lat="47.465544" lon="19.005693" timestamp="" uid="4579407" user="KAMI" version="99999">
    <tag k="brand" v="K&amp;H"/>
    <tag k="bic" v="OKHBHUHB"/>
    <tag k="operator" v="K&amp;H Bank Zrt."/>
    <tag k="atm" v="yes"/>
    <tag k="addr:postcode" v="1118"/>
    <tag k="amenity" v="bank"/>
    <tag k="website" v="https://www.kh.hu"/>
    <tag k="addr:housenumber" v="5"/>
    <tag k="addr:city" v="Budapest"/>
    <tag k="name" v="K&amp;H bank"/>
    <tag k="source" v="website"/>
    <tag k="addr:street" v="Rétköz utca"/>
  </node>
  <!-- Original coordinates: POINT (47.465536 19.04337) -->
  <node action="modify" changeset="99999" id="-11" lat="47.465536" lon="19.04337" timestamp="" uid="4579407" user="KAMI" version="99999">
    <tag k="brand" v="K&amp;H"/>
    <tag k="bic" v="OKHBHUHB"/>
    <tag k="operator" v="K&amp;H Bank Zrt."/>
    <tag k="atm" v="yes"/>
    <tag k="addr:postcode" v="1117"/>
    <tag k="amenity" v="bank"/>
    <tag k="website" v="https://www.kh.hu"/>
    <tag k="addr:housenumber" v="79"/>
    <tag k="addr:city" v="Budapest"/>
    <tag k="name" v="K&amp;H bank"/>
    <tag k="source" v="website"/>
    <tag k="addr:street" v="Fehérvári út"/>
  </node>
  <!-- Original coordinates: POINT (47.508413 19.026097) -->
  <node action="modify" changeset="99999" id="-12" lat="47.508413" lon="19.026097" timestamp="" uid="4579407" user="KAMI" version="99999">
    <tag k="brand" v="K&amp;H"/>
    <tag k="bic" v="OKHBHUHB"/>
    <tag k="operator" v="K&amp;H Bank Zrt."/>
    <tag k="atm" v="yes"/>
    <tag k="addr:postcode" v="1024"/>
    <tag k="amenity" v="bank"/>
    <tag k="website" v="https://www.kh.hu"/>
    <tag k="addr:housenumber" v="2-6"/>
    <tag k="addr:city" v="Budapest"/>
    <tag k="name" v="K&amp;H bank"/>
    <tag k="source" v="website"/>
    <tag k="addr:street" v="Lövőház utca"/>
  </node>
  <!-- Original coordinates: POINT (47.511246 19.032588) -->
  <node action="modify" changeset="99999" id="-13" lat="47.511246" lon="19.032588" timestamp="" uid="4579407" user="KAMI" version="99999">
    <tag k="brand" v="K&amp;H"/>
    <tag k="bic" v="OKHBHUHB"/>
    <tag k="operator" v="K&amp;H Bank Zrt."/>
    <tag k="atm" v="yes"/>
    <tag k="addr:postcode" v="1024"/>
    <tag k="amenity" v="bank"/>
    <tag k="website" v="https://www.kh.hu"/>
    <tag k="addr:housenumber" v="43-45"/>
    <tag k="addr:city" v="Budapest"/>
    <tag k="name" v="K&amp;H bank"/>
    <tag k="source" v="website"/>
    <tag k="addr:street" v="Margit körút"/>
  </node>
  <!-- Original coordinates: POINT (47.514538 19.037204) -->
  <node action="modify" changeset="99999" id="-14" lat="47.514538" lon="19.037204" timestamp="" uid="4579407" user="KAMI" version="99999">
    <tag k="brand" v="K&amp;H"/>
    <tag k="bic" v="OKHBHUHB"/>
    <tag k="operator" v="K&amp;H Bank Zrt."/>
    <tag k="atm" v="yes"/>
    <tag k="addr:postcode" v="1027"/>
    <tag k="amenity" v="bank"/>
    <tag k="website" v="https://www.kh.hu"/>
    <tag k="addr:housenumber" v="5/a"/>
    <tag k="addr:city" v="Budapest"/>
    <tag k="name" v="K&amp;H bank"/>
    <tag k="source" v="website"/>
    <tag k="addr:street" v="Margit körút"/>
  </node>
  <!-- Original coordinates: POINT (47.516303 18.999204) -->
  <node action="modify" changeset="99999" id="-15" lat="47.516303" lon="18.999204" timestamp="" uid="4579407" user="KAMI" version="99999">
    <tag k="brand" v="K&amp;H"/>
    <tag k="bic" v="OKHBHUHB"/>
    <tag k="operator" v="K&amp;H Bank Zrt."/>
    <tag k="atm" v="yes"/>
    <tag k="addr:postcode" v="1026"/>
    <tag k="amenity" v="bank"/>
    <tag k="website" v="https://www.kh.hu"/>
    <tag k="addr:housenumber" v="2"/>
    <tag k="addr:city" v="Budapest"/>
    <tag k="name" v="K&amp;H bank"/>
    <tag k="source" v="website"/>
    <tag k="addr:street" v="Pázsit utca"/>
  </node>
  <!-- Original coordinates: POINT (47.563575 18.962558) -->
  <node action="modify" changeset="99999" id="-16" lat="47.563575" lon="18.962558" timestamp="" uid="4579407" user="KAMI" version="99999">
    <tag k="brand" v="K&amp;H"/>
    <tag k="bic" v="OKHBHUHB"/>
    <tag k="operator" v="K&amp;H Bank Zrt."/>
    <tag k="atm" v="yes"/>
    <tag k="addr:postcode" v="1028"/>
    <tag k="amenity" v="bank"/>
    <tag k="website" v="https://www.kh.hu"/>
    <tag k="addr:housenumber" v="167"/>
    <tag k="addr:city" v="Budapest"/>
    <tag k="name" v="K&amp;H bank"/>
    <tag k="source" v="website"/>
    <tag k="addr:street" v="Hidegkúti út"/>
  </node>
  <!-- Original coordinates: POINT (47.541392 19.041058) -->
  <node action="modify" changeset="99999" id="-17" lat="47.541392" lon="19.041058" timestamp="" uid="4579407" user="KAMI" version="99999">
    <tag k="brand" v="K&amp;H"/>
    <tag k="bic" v="OKHBHUHB"/>
    <tag k="operator" v="K&amp;H Bank Zrt."/>
    <tag k="atm" v="yes"/>
    <tag k="addr:postcode" v="1035"/>
    <tag k="amenity" v="bank"/>
    <tag k="website" v="https://www.kh.hu"/>
    <tag k="addr:housenumber" v="1"/>
    <tag k="addr:city" v="Budapest"/>
    <tag k="name" v="K&amp;H bank"/>
    <tag k="source" v="website"/>
    <tag k="addr:street" v="Flórián tér"/>
  </node>
  <!-- Original coordinates: POINT (47.528736 19.038125) -->
  <node action="modify" changeset="99999" id="-18" lat="47.528736" lon="19.038125" timestamp="" uid="4579407" user="KAMI" version="99999">
    <tag k="brand" v="K&amp;H"/>
    <tag k="bic" v="OKHBHUHB"/>
    <tag k="operator" v="K&amp;H Bank Zrt."/>
    <tag k="atm" v="yes"/>
    <tag k="addr:postcode" v="1036"/>
    <tag k="amenity" v="bank"/>
    <tag k="website" v="https://www.kh.hu"/>
    <tag k="addr:housenumber" v="57-61"/>
    <tag k="addr:city" v="Budapest"/>
    <tag k="name" v="K&amp;H bank"/>
    <tag k="source" v="website"/>
    <tag k="addr:street" v="Bécsi út"/>
  </node>
  <!-- Original coordinates: POINT (47.597412 19.056123) -->
  <node action="modify" changeset="99999" id="-19" lat="47.597412" lon="19.056123" timestamp="" uid="4579407" user="KAMI" version="99999">
    <tag k="brand" v="K&amp;H"/>
    <tag k="bic" v="OKHBHUHB"/>
    <tag k="operator" v="K&amp;H Bank Zrt."/>
    <tag k="atm" v="yes"/>
    <tag k="addr:postcode" v="1039"/>
    <tag k="amenity" v="bank"/>
    <tag k="website" v="https://www.kh.hu"/>
    <tag k="addr:housenumber" v="15"/>
    <tag k="addr:city" v="Budapest"/>
    <tag k="name" v="K&amp;H bank"/>
    <tag k="source" v="website"/>
    <tag k="addr:street" v="Heltai Jenő tér"/>
  </node>
  <!-- Original coordinates: POINT (47.560642 19.098622) -->
  <node action="modify" changeset="99999" id="-20" lat="47.560642" lon="19.098622" timestamp="" uid="4579407" user="KAMI" version="99999">
    <tag k="brand" v="K&amp;H"/>
    <tag k="bic" v="OKHBHUHB"/>
    <tag k="operator" v="K&amp;H Bank Zrt."/>
    <tag k="atm" v="yes"/>
    <tag k="addr:postcode" v="1042"/>
    <tag k="amenity" v="bank"/>
    <tag k="website" v="https://www.kh.hu"/>
    <tag k="addr:housenumber" v="112"/>
    <tag k="addr:city" v="Budapest"/>
    <tag k="name" v="K&amp;H bank"/>
    <tag k="source" v="website"/>
    <tag k="addr:street" v="Árpád út"/>
  </node>
  <!-- Original coordinates: POINT (47.560361 19.086114) -->
  <node action="modify" changeset="99999" id="-21" lat="47.560361" lon="19.086114" timestamp="" uid="4579407" user="KAMI" version="99999">
    <tag k="brand" v="K&amp;H"/>
    <tag k="bic" v="OKHBHUHB"/>
    <tag k="operator" v="K&amp;H Bank Zrt."/>
    <tag k="atm" v="yes"/>
    <tag k="addr:postcode" v="1042"/>
    <tag k="amenity" v="bank"/>
    <tag k="website" v="https://www.kh.hu"/>
    <tag k="addr:housenumber" v="41-43"/>
    <tag k="addr:city" v="Budapest"/>
    <tag k="name" v="K&amp;H bank"/>
    <tag k="source" v="website"/>
    <tag k="addr:street" v="Árpád út"/>
  </node>
  <!-- Original coordinates: POINT (47.502283 19.050608) -->
  <node action="modify" changeset="99999" id="-22" lat="47.502283" lon="19.050608" timestamp="" uid="4579407" user="KAMI" version="99999">
    <tag k="brand" v="K&amp;H"/>
    <tag k="bic" v="OKHBHUHB"/>
    <tag k="operator" v="K&amp;H Bank Zrt."/>
    <tag k="atm" v="yes"/>
    <tag k="addr:postcode" v="1051"/>
    <tag k="amenity" v="bank"/>
    <tag k="website" v="https://www.kh.hu"/>
    <tag k="addr:housenumber" v="20"/>
    <tag k="addr:city" v="Budapest"/>
    <tag k="name" v="K&amp;H bank"/>
    <tag k="source" v="website"/>
    <tag k="addr:street" v="Arany János utca"/>
  </node>
  <!-- Original coordinates: POINT (47.499177 19.05367) -->
  <node action="modify" changeset="99999" id="-23" lat="47.499177" lon="19.05367" timestamp="" uid="4579407" user="KAMI" version="99999">
    <tag k="brand" v="K&amp;H"/>
    <tag k="bic" v="OKHBHUHB"/>
    <tag k="operator" v="K&amp;H Bank Zrt."/>
    <tag k="atm" v="yes"/>
    <tag k="addr:postcode" v="1051"/>
    <tag k="amenity" v="bank"/>
    <tag k="website" v="https://www.kh.hu"/>
    <tag k="addr:housenumber" v="24"/>
    <tag k="addr:city" v="Budapest"/>
    <tag k="name" v="K&amp;H bank"/>
    <tag k="source" v="website"/>
    <tag k="addr:street" v="József Attila utca"/>
  </node>
  <!-- Original coordinates: POINT (47.489279 19.061107) -->
  <node action="modify" changeset="99999" id="-24" lat="47.489279" lon="19.061107" timestamp="" uid="4579407" user="KAMI" version="99999">
    <tag k="brand" v="K&amp;H"/>
    <tag k="bic" v="OKHBHUHB"/>
    <tag k="operator" v="K&amp;H Bank Zrt."/>
    <tag k="atm" v="yes"/>
    <tag k="addr:postcode" v="1053"/>
    <tag k="amenity" v="bank"/>
    <tag k="website" v="https://www.kh.hu"/>
    <tag k="addr:housenumber" v="3"/>
    <tag k="addr:city" v="Budapest"/>
    <tag k="name" v="K&amp;H bank"/>
    <tag k="source" v="website"/>
    <tag k="addr:street" v="Kálvin tér"/>
  </node>
  <!-- Original coordinates: POINT (47.509496 19.045913) -->
  <node action="modify" changeset="99999" id="-25" lat="47.509496" lon="19.045913" timestamp="" uid="4579407" user="KAMI" version="99999">
    <tag k="brand" v="K&amp;H"/>
    <tag k="bic" v="OKHBHUHB"/>
    <tag k="operator" v="K&amp;H Bank Zrt."/>
    <tag k="atm" v="yes"/>
    <tag k="addr:postcode" v="1055"/>
    <tag k="amenity" v="bank"/>
    <tag k="website" v="https://www.kh.hu"/>
    <tag k="addr:housenumber" v="18"/>
    <tag k="addr:city" v="Budapest"/>
    <tag k="name" v="K&amp;H bank"/>
    <tag k="source" v="website"/>
    <tag k="addr:street" v="Kossuth Lajos tér"/>
  </node>
  <!-- Original coordinates: POINT (47.510081 19.054801) -->
  <node action="modify" changeset="99999" id="-26" lat="47.510081" lon="19.054801" timestamp="" uid="4579407" user="KAMI" version="99999">
    <tag k="brand" v="K&amp;H"/>
    <tag k="bic" v="OKHBHUHB"/>
    <tag k="operator" v="K&amp;H Bank Zrt."/>
    <tag k="atm" v="yes"/>
    <tag k="addr:postcode" v="1055"/>
    <tag k="amenity" v="bank"/>
    <tag k="website" v="https://www.kh.hu"/>
    <tag k="addr:housenumber" v="9"/>
    <tag k="addr:city" v="Budapest"/>
    <tag k="name" v="K&amp;H bank"/>
    <tag k="source" v="website"/>
    <tag k="addr:street" v="Nyugati tér"/>
  </node>
  <!-- Original coordinates: POINT (47.504984 19.063276) -->
  <node action="modify" changeset="99999" id="-27" lat="47.504984" lon="19.063276" timestamp="" uid="4579407" user="KAMI" version="99999">
    <tag k="brand" v="K&amp;H"/>
    <tag k="bic" v="OKHBHUHB"/>
    <tag k="operator" v="K&amp;H Bank Zrt."/>
    <tag k="atm" v="yes"/>
    <tag k="addr:postcode" v="1066"/>
    <tag k="amenity" v="bank"/>
    <tag k="website" v="https://www.kh.hu"/>
    <tag k="addr:housenumber" v="49"/>
    <tag k="addr:city" v="Budapest"/>
    <tag k="name" v="K&amp;H bank"/>
    <tag k="source" v="website"/>
    <tag k="addr:street" v="Andrássy út"/>
  </node>
  <!-- Original coordinates: POINT (47.51259 19.05794) -->
  <node action="modify" changeset="99999" id="-28" lat="47.51259" lon="19.05794" timestamp="" uid="4579407" user="KAMI" version="99999">
    <tag k="brand" v="K&amp;H"/>
    <tag k="bic" v="OKHBHUHB"/>
    <tag k="operator" v="K&amp;H Bank Zrt."/>
    <tag k="atm" v="yes"/>
    <tag k="addr:postcode" v="1062"/>
    <tag k="amenity" v="bank"/>
    <tag k="website" v="https://www.kh.hu"/>
    <tag k="addr:housenumber" v="1-3"/>
    <tag k="addr:city" v="Budapest"/>
    <tag k="name" v="K&amp;H bank"/>
    <tag k="source" v="website"/>
    <tag k="addr:street" v="Váci út"/>
  </node>
  <!-- Original coordinates: POINT (47.503613 19.065414) -->
  <node action="modify" changeset="99999" id="-29" lat="47.503613" lon="19.065414" timestamp="" uid="4579407" user="KAMI" version="99999">
    <tag k="brand" v="K&amp;H"/>
    <tag k="bic" v="OKHBHUHB"/>
    <tag k="operator" v="K&amp;H Bank Zrt."/>
    <tag k="atm" v="yes"/>
    <tag k="addr:postcode" v="1068"/>
    <tag k="amenity" v="bank"/>
    <tag k="website" v="https://www.kh.hu"/>
    <tag k="addr:housenumber" v="1"/>
    <tag k="addr:city" v="Budapest"/>
    <tag k="name" v="K&amp;H bank"/>
    <tag k="source" v="website"/>
    <tag k="addr:street" v="Teréz körút"/>
  </node>
  <!-- Original coordinates: POINT (47.497334 19.056083) -->
  <node action="modify" changeset="99999" id="-30" lat="47.497334" lon="19.056083" timestamp="" uid="4579407" user="KAMI" version="99999">
    <tag k="brand" v="K&amp;H"/>
    <tag k="bic" v="OKHBHUHB"/>
    <tag k="operator" v="K&amp;H Bank Zrt."/>
    <tag k="atm" v="yes"/>
    <tag k="addr:postcode" v="1075"/>
    <tag k="amenity" v="bank"/>
    <tag k="website" v="https://www.kh.hu"/>
    <tag k="addr:housenumber" v="17-19"/>
    <tag k="addr:city" v="Budapest"/>
    <tag k="name" v="K&amp;H bank"/>
    <tag k="source" v="website"/>
    <tag k="addr:street" v="Károly körút"/>
  </node>
  <!-- Original coordinates: POINT (47.501744 19.023818) -->
  <node action="modify" changeset="99999" id="-31" lat="47.501744" lon="19.023818" timestamp="" uid="4579407" user="KAMI" version="99999">
    <tag k="brand" v="K&amp;H"/>
    <tag k="bic" v="OKHBHUHB"/>
    <tag k="operator" v="K&amp;H Bank Zrt."/>
    <tag k="atm" v="yes"/>
    <tag k="addr:postcode" v="1122"/>
    <tag k="amenity" v="bank"/>
    <tag k="website" v="https://www.kh.hu"/>
    <tag k="addr:housenumber" v="1"/>
    <tag k="addr:city" v="Budapest"/>
    <tag k="name" v="K&amp;H bank"/>
    <tag k="source" v="website"/>
    <tag k="addr:street" v="Magyar Jakobinusok tere"/>
  </node>
  <!-- Original coordinates: POINT (47.490147 19.021028) -->
  <node action="modify" changeset="99999" id="-32" lat="47.490147" lon="19.021028" timestamp="" uid="4579407" user="KAMI" version="99999">
    <tag k="brand" v="K&amp;H"/>
    <tag k="bic" v="OKHBHUHB"/>
    <tag k="operator" v="K&amp;H Bank Zrt."/>
    <tag k="atm" v="yes"/>
    <tag k="addr:postcode" v="1124"/>
    <tag k="amenity" v="bank"/>
    <tag k="website" v="https://www.kh.hu"/>
    <tag k="addr:housenumber" v="43"/>
    <tag k="addr:city" v="Budapest"/>
    <tag k="name" v="K&amp;H bank"/>
    <tag k="source" v="website"/>
    <tag k="addr:street" v="Csörsz utca"/>
  </node>
  <!-- Original coordinates: POINT (47.524771 19.063475) -->
  <node action="modify" changeset="99999" id="-33" lat="47.524771" lon="19.063475" timestamp="" uid="4579407" user="KAMI" version="99999">
    <tag k="brand" v="K&amp;H"/>
    <tag k="bic" v="OKHBHUHB"/>
    <tag k="operator" v="K&amp;H Bank Zrt."/>
    <tag k="atm" v="yes"/>
    <tag k="addr:postcode" v="1134"/>
    <tag k="amenity" v="bank"/>
    <tag k="website" v="https://www.kh.hu"/>
    <tag k="addr:housenumber" v="76"/>
    <tag k="addr:city" v="Budapest"/>
    <tag k="name" v="K&amp;H bank"/>
    <tag k="source" v="website"/>
    <tag k="addr:street" v="Váci út"/>
  </node>
  <!-- Original coordinates: POINT (47.532097 19.081243) -->
  <node action="modify" changeset="99999" id="-34" lat="47.532097" lon="19.081243" timestamp="" uid="4579407" user="KAMI" version="99999">
    <tag k="brand" v="K&amp;H"/>
    <tag k="bic" v="OKHBHUHB"/>
    <tag k="operator" v="K&amp;H Bank Zrt."/>
    <tag k="atm" v="yes"/>
    <tag k="addr:postcode" v="1135"/>
    <tag k="amenity" v="bank"/>
    <tag k="website" v="https://www.kh.hu"/>
    <tag k="addr:housenumber" v="9"/>
    <tag k="addr:city" v="Budapest"/>
    <tag k="name" v="K&amp;H bank"/>
    <tag k="source" v="website"/>
    <tag k="addr:street" v="Béke utca"/>
  </node>
  <!-- Original coordinates: POINT (47.549296 19.073519) -->
  <node action="modify" changeset="99999" id="-35" lat="47.549296" lon="19.073519" timestamp="" uid="4579407" user="KAMI" version="99999">
    <tag k="brand" v="K&amp;H"/>
    <tag k="bic" v="OKHBHUHB"/>
    <tag k="operator" v="K&amp;H Bank Zrt."/>
    <tag k="atm" v="yes"/>
    <tag k="addr:postcode" v="1138"/>
    <tag k="amenity" v="bank"/>
    <tag k="website" v="https://www.kh.hu"/>
    <tag k="addr:housenumber" v="178"/>
    <tag k="addr:city" v="Budapest"/>
    <tag k="name" v="K&amp;H bank"/>
    <tag k="source" v="website"/>
    <tag k="addr:street" v="Váci út"/>
  </node>
  <!-- Original coordinates: POINT (47.51714 19.107644) -->
  <node action="modify" changeset="99999" id="-36" lat="47.51714" lon="19.107644" timestamp="" uid="4579407" user="KAMI" version="99999">
    <tag k="brand" v="K&amp;H"/>
    <tag k="bic" v="OKHBHUHB"/>
    <tag k="operator" v="K&amp;H Bank Zrt."/>
    <tag k="atm" v="yes"/>
    <tag k="addr:postcode" v="1145"/>
    <tag k="amenity" v="bank"/>
    <tag k="website" v="https://www.kh.hu"/>
    <tag k="addr:housenumber" v="147"/>
    <tag k="addr:city" v="Budapest"/>
    <tag k="name" v="K&amp;H bank"/>
    <tag k="source" v="website"/>
    <tag k="addr:street" v="Róna utca"/>
  </node>
  <!-- Original coordinates: POINT (47.514384 19.096032) -->
  <node action="modify" changeset="99999" id="-37" lat="47.514384" lon="19.096032" timestamp="" uid="4579407" user="KAMI" version="99999">
    <tag k="brand" v="K&amp;H"/>
    <tag k="bic" v="OKHBHUHB"/>
    <tag k="operator" v="K&amp;H Bank Zrt."/>
    <tag k="atm" v="yes"/>
    <tag k="addr:postcode" v="1146"/>
    <tag k="amenity" v="bank"/>
    <tag k="website" v="https://www.kh.hu"/>
    <tag k="addr:housenumber" v="10"/>
    <tag k="addr:city" v="Budapest"/>
    <tag k="name" v="K&amp;H bank"/>
    <tag k="source" v="website"/>
    <tag k="addr:street" v="Ajtósi Dürer sor"/>
  </node>
  <!-- Original coordinates: POINT (47.504081 19.135939) -->
  <node action="modify" changeset="99999" id="-38" lat="47.504081" lon="19.135939" timestamp="" uid="4579407" user="KAMI" version="99999">
    <tag k="brand" v="K&amp;H"/>
    <tag k="bic" v="OKHBHUHB"/>
    <tag k="operator" v="K&amp;H Bank Zrt."/>
    <tag k="atm" v="yes"/>
    <tag k="addr:postcode" v="1148"/>
    <tag k="amenity" v="bank"/>
    <tag k="website" v="https://www.kh.hu"/>
    <tag k="addr:housenumber" v="2"/>
    <tag k="addr:city" v="Budapest"/>
    <tag k="name" v="K&amp;H bank"/>
    <tag k="source" v="website"/>
    <tag k="addr:street" v="Örs vezér tere"/>
  </node>
  <!-- Original coordinates: POINT (47.54375 19.138998) -->
  <node action="modify" changeset="99999" id="-39" lat="47.54375" lon="19.138998" timestamp="" uid="4579407" user="KAMI" version="99999">
    <tag k="brand" v="K&amp;H"/>
    <tag k="bic" v="OKHBHUHB"/>
    <tag k="operator" v="K&amp;H Bank Zrt."/>
    <tag k="atm" v="yes"/>
    <tag k="addr:postcode" v="1156"/>
    <tag k="amenity" v="bank"/>
    <tag k="website" v="https://www.kh.hu"/>
    <tag k="addr:housenumber" v="40-46"/>
    <tag k="addr:city" v="Budapest"/>
    <tag k="name" v="K&amp;H bank"/>
    <tag k="source" v="website"/>
    <tag k="addr:street" v="Nyírpalota út"/>
  </node>
  <!-- Original coordinates: POINT (47.511061 19.19107) -->
  <node action="modify" changeset="99999" id="-40" lat="47.511061" lon="19.19107" timestamp="" uid="4579407" user="KAMI" version="99999">
    <tag k="brand" v="K&amp;H"/>
    <tag k="bic" v="OKHBHUHB"/>
    <tag k="operator" v="K&amp;H Bank Zrt."/>
    <tag k="atm" v="yes"/>
    <tag k="addr:postcode" v="1165"/>
    <tag k="amenity" v="bank"/>
    <tag k="website" v="https://www.kh.hu"/>
    <tag k="addr:housenumber" v="105-107"/>
    <tag k="addr:city" v="Budapest"/>
    <tag k="name" v="K&amp;H bank"/>
    <tag k="source" v="website"/>
    <tag k="addr:street" v="Veres Péter út"/>
  </node>
  <!-- Original coordinates: POINT (47.47906 19.256897) -->
  <node action="modify" changeset="99999" id="-41" lat="47.47906" lon="19.256897" timestamp="" uid="4579407" user="KAMI" version="99999">
    <tag k="brand" v="K&amp;H"/>
    <tag k="bic" v="OKHBHUHB"/>
    <tag k="operator" v="K&amp;H Bank Zrt."/>
    <tag k="atm" v="yes"/>
    <tag k="addr:postcode" v="1173"/>
    <tag k="amenity" v="bank"/>
    <tag k="website" v="https://www.kh.hu"/>
    <tag k="addr:housenumber" v="74"/>
    <tag k="addr:city" v="Budapest"/>
    <tag k="name" v="K&amp;H bank"/>
    <tag k="source" v="website"/>
    <tag k="addr:street" v="Ferihegyi út"/>
  </node>
  <!-- Original coordinates: POINT (47.434363 19.201498) -->
  <node action="modify" changeset="99999" id="-42" lat="47.434363" lon="19.201498" timestamp="" uid="4579407" user="KAMI" version="99999">
    <tag k="brand" v="K&amp;H"/>
    <tag k="bic" v="OKHBHUHB"/>
    <tag k="operator" v="K&amp;H Bank Zrt."/>
    <tag k="atm" v="yes"/>
    <tag k="addr:postcode" v="1182"/>
    <tag k="amenity" v="bank"/>
    <tag k="website" v="https://www.kh.hu"/>
    <tag k="addr:housenumber" v="661"/>
    <tag k="addr:city" v="Budapest"/>
    <tag k="name" v="K&amp;H bank"/>
    <tag k="source" v="website"/>
    <tag k="addr:street" v="Üllői út"/>
  </node>
  <!-- Original coordinates: POINT (47.457269 19.14541) -->
  <node action="modify" changeset="99999" id="-43" lat="47.457269" lon="19.14541" timestamp="" uid="4579407" user="KAMI" version="99999">
    <tag k="brand" v="K&amp;H"/>
    <tag k="bic" v="OKHBHUHB"/>
    <tag k="operator" v="K&amp;H Bank Zrt."/>
    <tag k="atm" v="yes"/>
    <tag k="addr:postcode" v="1191"/>
    <tag k="amenity" v="bank"/>
    <tag k="website" v="https://www.kh.hu"/>
    <tag k="addr:housenumber" v="234"/>
    <tag k="addr:city" v="Budapest"/>
    <tag k="name" v="K&amp;H bank"/>
    <tag k="source" v="website"/>
    <tag k="addr:street" v="Üllői út"/>
  </node>
  <!-- Original coordinates: POINT (47.437776 19.103309) -->
  <node action="modify" changeset="99999" id="-44" lat="47.437776" lon="19.103309" timestamp="" uid="4579407" user="KAMI" version="99999">
    <tag k="brand" v="K&amp;H"/>
    <tag k="bic" v="OKHBHUHB"/>
    <tag k="operator" v="K&amp;H Bank Zrt."/>
    <tag k="atm" v="yes"/>
    <tag k="addr:postcode" v="1201"/>
    <tag k="amenity" v="bank"/>
    <tag k="website" v="https://www.kh.hu"/>
    <tag k="addr:housenumber" v="37/b"/>
    <tag k="addr:city" v="Budapest"/>
    <tag k="name" v="K&amp;H bank"/>
    <tag k="source" v="website"/>
    <tag k="addr:street" v="Kossuth Lajos utca"/>
  </node>
  <!-- Original coordinates: POINT (47.425693 19.070165) -->
  <node action="modify" changeset="99999" id="-45" lat="47.425693" lon="19.070165" timestamp="" uid="4579407" user="KAMI" version="99999">
    <tag k="brand" v="K&amp;H"/>
    <tag k="bic" v="OKHBHUHB"/>
    <tag k="operator" v="K&amp;H Bank Zrt."/>
    <tag k="atm" v="yes"/>
    <tag k="addr:postcode" v="1211"/>
    <tag k="amenity" v="bank"/>
    <tag k="website" v="https://www.kh.hu"/>
    <tag k="addr:housenumber" v="97"/>
    <tag k="addr:city" v="Budapest"/>
    <tag k="name" v="K&amp;H bank"/>
    <tag k="source" v="website"/>
    <tag k="addr:street" v="Kossuth Lajos utca"/>
  </node>
  <!-- Original coordinates: POINT (47.426577 19.038899) -->
  <node action="modify" changeset="99999" id="-46" lat="47.426577" lon="19.038899" timestamp="" uid="4579407" user="KAMI" version="99999">
    <tag k="brand" v="K&amp;H"/>
    <tag k="bic" v="OKHBHUHB"/>
    <tag k="operator" v="K&amp;H Bank Zrt."/>
    <tag k="atm" v="yes"/>
    <tag k="addr:postcode" v="1221"/>
    <tag k="amenity" v="bank"/>
    <tag k="website" v="https://www.kh.hu"/>
    <tag k="addr:housenumber" v="25-29"/>
    <tag k="addr:city" v="Budapest"/>
    <tag k="name" v="K&amp;H bank"/>
    <tag k="source" v="website"/>
    <tag k="addr:street" v="Kossuth Lajos utca"/>
  </node>
  <!-- Original coordinates: POINT (47.399138 19.114673) -->
  <node action="modify" changeset="99999" id="-47" lat="47.399138" lon="19.114673" timestamp="" uid="4579407" user="KAMI" version="99999">
    <tag k="brand" v="K&amp;H"/>
    <tag k="bic" v="OKHBHUHB"/>
    <tag k="operator" v="K&amp;H Bank Zrt."/>
    <tag k="atm" v="yes"/>
    <tag k="addr:postcode" v="1239"/>
    <tag k="amenity" v="bank"/>
    <tag k="website" v="https://www.kh.hu"/>
    <tag k="addr:housenumber" v="14"/>
    <tag k="addr:city" v="Budapest"/>
    <tag k="name" v="K&amp;H bank"/>
    <tag k="source" v="website"/>
    <tag k="addr:street" v="Hősök tere"/>
  </node>
  <!-- Original coordinates: POINT (47.667642 19.076022) -->
  <node action="modify" changeset="99999" id="-48" lat="47.667642" lon="19.076022" timestamp="" uid="4579407" user="KAMI" version="99999">
    <tag k="brand" v="K&amp;H"/>
    <tag k="bic" v="OKHBHUHB"/>
    <tag k="operator" v="K&amp;H Bank Zrt."/>
    <tag k="atm" v="yes"/>
    <tag k="addr:postcode" v="2000"/>
    <tag k="amenity" v="bank"/>
    <tag k="website" v="https://www.kh.hu"/>
    <tag k="addr:housenumber" v="10"/>
    <tag k="addr:city" v="Szentendre"/>
    <tag k="name" v="K&amp;H bank"/>
    <tag k="source" v="website"/>
    <tag k="addr:street" v="Fő tér"/>
  </node>
  <!-- Original coordinates: POINT (47.645852 19.020879) -->
  <node action="modify" changeset="99999" id="-49" lat="47.645852" lon="19.020879" timestamp="" uid="4579407" user="KAMI" version="99999">
    <tag k="brand" v="K&amp;H"/>
    <tag k="bic" v="OKHBHUHB"/>
    <tag k="operator" v="K&amp;H Bank Zrt."/>
    <tag k="atm" v="yes"/>
    <tag k="addr:postcode" v="2013"/>
    <tag k="amenity" v="bank"/>
    <tag k="website" v="https://www.kh.hu"/>
    <tag k="addr:housenumber" v="25"/>
    <tag k="addr:city" v="Pomáz"/>
    <tag k="name" v="K&amp;H bank"/>
    <tag k="source" v="website"/>
    <tag k="addr:street" v="Huszár utca"/>
  </node>
  <!-- Original coordinates: POINT (47.378535 18.924558) -->
  <node action="modify" changeset="99999" id="-50" lat="47.378535" lon="18.924558" timestamp="" uid="4579407" user="KAMI" version="99999">
    <tag k="brand" v="K&amp;H"/>
    <tag k="bic" v="OKHBHUHB"/>
    <tag k="operator" v="K&amp;H Bank Zrt."/>
    <tag k="atm" v="yes"/>
    <tag k="addr:postcode" v="2030"/>
    <tag k="amenity" v="bank"/>
    <tag k="website" v="https://www.kh.hu"/>
    <tag k="addr:housenumber" v="26"/>
    <tag k="addr:city" v="Érd"/>
    <tag k="name" v="K&amp;H bank"/>
    <tag k="source" v="website"/>
    <tag k="addr:street" v="Budai út"/>
  </node>
  <!-- Original coordinates: POINT (47.46073 18.959021) -->
  <node action="modify" changeset="99999" id="-51" lat="47.46073" lon="18.959021" timestamp="" uid="4579407" user="KAMI" version="99999">
    <tag k="brand" v="K&amp;H"/>
    <tag k="bic" v="OKHBHUHB"/>
    <tag k="operator" v="K&amp;H Bank Zrt."/>
    <tag k="atm" v="yes"/>
    <tag k="addr:postcode" v="2040"/>
    <tag k="amenity" v="bank"/>
    <tag k="website" v="https://www.kh.hu"/>
    <tag k="addr:housenumber" v="47"/>
    <tag k="addr:city" v="Budaörs"/>
    <tag k="name" v="K&amp;H bank"/>
    <tag k="source" v="website"/>
    <tag k="addr:street" v="Szabadság út"/>
  </node>
  <!-- Original coordinates: POINT (47.471038 18.824751) -->
  <node action="modify" changeset="99999" id="-52" lat="47.471038" lon="18.824751" timestamp="" uid="4579407" user="KAMI" version="99999">
    <tag k="brand" v="K&amp;H"/>
    <tag k="bic" v="OKHBHUHB"/>
    <tag k="operator" v="K&amp;H Bank Zrt."/>
    <tag k="atm" v="yes"/>
    <tag k="addr:postcode" v="2051"/>
    <tag k="amenity" v="bank"/>
    <tag k="website" v="https://www.kh.hu"/>
    <tag k="addr:housenumber" v="76"/>
    <tag k="addr:city" v="Biatorbágy"/>
    <tag k="name" v="K&amp;H bank"/>
    <tag k="source" v="website"/>
    <tag k="addr:street" v="Szabadság utca"/>
  </node>
  <!-- Original coordinates: POINT (47.490786 18.635912) -->
  <node action="modify" changeset="99999" id="-53" lat="47.490786" lon="18.635912" timestamp="" uid="4579407" user="KAMI" version="99999">
    <tag k="brand" v="K&amp;H"/>
    <tag k="bic" v="OKHBHUHB"/>
    <tag k="operator" v="K&amp;H Bank Zrt."/>
    <tag k="atm" v="yes"/>
    <tag k="addr:postcode" v="2060"/>
    <tag k="amenity" v="bank"/>
    <tag k="website" v="https://www.kh.hu"/>
    <tag k="addr:housenumber" v="2"/>
    <tag k="addr:city" v="Bicske"/>
    <tag k="name" v="K&amp;H bank"/>
    <tag k="source" v="website"/>
    <tag k="addr:street" v="Szent István út"/>
  </node>
  <!-- Original coordinates: POINT (47.61908 18.912723) -->
  <node action="modify" changeset="99999" id="-54" lat="47.61908" lon="18.912723" timestamp="" uid="4579407" user="KAMI" version="99999">
    <tag k="brand" v="K&amp;H"/>
    <tag k="bic" v="OKHBHUHB"/>
    <tag k="operator" v="K&amp;H Bank Zrt."/>
    <tag k="atm" v="yes"/>
    <tag k="addr:postcode" v="2085"/>
    <tag k="amenity" v="bank"/>
    <tag k="website" v="https://www.kh.hu"/>
    <tag k="addr:housenumber" v="30"/>
    <tag k="addr:city" v="Pilisvörösvár"/>
    <tag k="name" v="K&amp;H bank"/>
    <tag k="source" v="website"/>
    <tag k="addr:street" v="Fő út"/>
  </node>
  <!-- Original coordinates: POINT (47.512435 18.931808) -->
  <node action="modify" changeset="99999" id="-55" lat="47.512435" lon="18.931808" timestamp="" uid="4579407" user="KAMI" version="99999">
    <tag k="brand" v="K&amp;H"/>
    <tag k="bic" v="OKHBHUHB"/>
    <tag k="operator" v="K&amp;H Bank Zrt."/>
    <tag k="atm" v="yes"/>
    <tag k="addr:postcode" v="2092"/>
    <tag k="amenity" v="bank"/>
    <tag k="website" v="https://www.kh.hu"/>
    <tag k="addr:housenumber" v="128"/>
    <tag k="addr:city" v="Budakeszi"/>
    <tag k="name" v="K&amp;H bank"/>
    <tag k="source" v="website"/>
    <tag k="addr:street" v="Fő út"/>
  </node>
  <!-- Original coordinates: POINT (47.599209 19.348688) -->
  <node action="modify" changeset="99999" id="-56" lat="47.599209" lon="19.348688" timestamp="" uid="4579407" user="KAMI" version="99999">
    <tag k="brand" v="K&amp;H"/>
    <tag k="bic" v="OKHBHUHB"/>
    <tag k="operator" v="K&amp;H Bank Zrt."/>
    <tag k="atm" v="yes"/>
    <tag k="addr:postcode" v="2100"/>
    <tag k="amenity" v="bank"/>
    <tag k="website" v="https://www.kh.hu"/>
    <tag k="addr:housenumber" v="6"/>
    <tag k="addr:city" v="Gödöllő"/>
    <tag k="name" v="K&amp;H bank"/>
    <tag k="source" v="website"/>
    <tag k="addr:street" v="Szabadság tér"/>
  </node>
  <!-- Original coordinates: POINT (47.657254 19.284904) -->
  <node action="modify" changeset="99999" id="-57" lat="47.657254" lon="19.284904" timestamp="" uid="4579407" user="KAMI" version="99999">
    <tag k="brand" v="K&amp;H"/>
    <tag k="bic" v="OKHBHUHB"/>
    <tag k="operator" v="K&amp;H Bank Zrt."/>
    <tag k="atm" v="yes"/>
    <tag k="addr:postcode" v="2112"/>
    <tag k="amenity" v="bank"/>
    <tag k="website" v="https://www.kh.hu"/>
    <tag k="addr:housenumber" v="39"/>
    <tag k="addr:city" v="Veresegyház"/>
    <tag k="name" v="K&amp;H bank"/>
    <tag k="source" v="website"/>
    <tag k="addr:street" v="Fő út"/>
  </node>
  <!-- Original coordinates: POINT (47.63123 19.128654) -->
  <node action="modify" changeset="99999" id="-58" lat="47.63123" lon="19.128654" timestamp="" uid="4579407" user="KAMI" version="99999">
    <tag k="brand" v="K&amp;H"/>
    <tag k="bic" v="OKHBHUHB"/>
    <tag k="operator" v="K&amp;H Bank Zrt."/>
    <tag k="atm" v="yes"/>
    <tag k="addr:postcode" v="2120"/>
    <tag k="amenity" v="bank"/>
    <tag k="website" v="https://www.kh.hu"/>
    <tag k="addr:housenumber" v="31"/>
    <tag k="addr:city" v="Dunakeszi"/>
    <tag k="name" v="K&amp;H bank"/>
    <tag k="source" v="website"/>
    <tag k="addr:street" v="Fő út"/>
  </node>
  <!-- Original coordinates: POINT (47.678592 19.13333) -->
  <node action="modify" changeset="99999" id="-59" lat="47.678592" lon="19.13333" timestamp="" uid="4579407" user="KAMI" version="99999">
    <tag k="brand" v="K&amp;H"/>
    <tag k="bic" v="OKHBHUHB"/>
    <tag k="operator" v="K&amp;H Bank Zrt."/>
    <tag k="atm" v="yes"/>
    <tag k="addr:postcode" v="2131"/>
    <tag k="amenity" v="bank"/>
    <tag k="website" v="https://www.kh.hu"/>
    <tag k="addr:housenumber" v="46"/>
    <tag k="addr:city" v="Göd"/>
    <tag k="name" v="K&amp;H bank"/>
    <tag k="source" v="website"/>
    <tag k="addr:street" v="Pesti út"/>
  </node>
  <!-- Original coordinates: POINT (47.610952 19.193867) -->
  <node action="modify" changeset="99999" id="-60" lat="47.610952" lon="19.193867" timestamp="" uid="4579407" user="KAMI" version="99999">
    <tag k="brand" v="K&amp;H"/>
    <tag k="bic" v="OKHBHUHB"/>
    <tag k="operator" v="K&amp;H Bank Zrt."/>
    <tag k="atm" v="yes"/>
    <tag k="addr:postcode" v="2151"/>
    <tag k="amenity" v="bank"/>
    <tag k="website" v="https://www.kh.hu"/>
    <tag k="addr:housenumber" v="18"/>
    <tag k="addr:city" v="Fót"/>
    <tag k="name" v="K&amp;H bank"/>
    <tag k="source" v="website"/>
    <tag k="addr:street" v="Dózsa György út"/>
  </node>
  <!-- Original coordinates: POINT (47.651317 19.478429) -->
  <node action="modify" changeset="99999" id="-61" lat="47.651317" lon="19.478429" timestamp="" uid="4579407" user="KAMI" version="99999">
    <tag k="brand" v="K&amp;H"/>
    <tag k="bic" v="OKHBHUHB"/>
    <tag k="operator" v="K&amp;H Bank Zrt."/>
    <tag k="atm" v="yes"/>
    <tag k="addr:postcode" v="2170"/>
    <tag k="amenity" v="bank"/>
    <tag k="website" v="https://www.kh.hu"/>
    <tag k="addr:housenumber" v="27"/>
    <tag k="addr:city" v="Aszód"/>
    <tag k="name" v="K&amp;H bank"/>
    <tag k="source" v="website"/>
    <tag k="addr:street" v="Kossuth Lajos út"/>
  </node>
  <!-- Original coordinates: POINT (47.351381 19.445375) -->
  <node action="modify" changeset="99999" id="-62" lat="47.351381" lon="19.445375" timestamp="" uid="4579407" user="KAMI" version="99999">
    <tag k="brand" v="K&amp;H"/>
    <tag k="bic" v="OKHBHUHB"/>
    <tag k="operator" v="K&amp;H Bank Zrt."/>
    <tag k="atm" v="yes"/>
    <tag k="addr:postcode" v="2200"/>
    <tag k="amenity" v="bank"/>
    <tag k="website" v="https://www.kh.hu"/>
    <tag k="addr:housenumber" v="71/a"/>
    <tag k="addr:city" v="Monor"/>
    <tag k="name" v="K&amp;H bank"/>
    <tag k="source" v="website"/>
    <tag k="addr:street" v="Kossuth Lajos utca"/>
  </node>
  <!-- Original coordinates: POINT (47.413805 19.263971) -->
  <node action="modify" changeset="99999" id="-63" lat="47.413805" lon="19.263971" timestamp="" uid="4579407" user="KAMI" version="99999">
    <tag k="brand" v="K&amp;H"/>
    <tag k="bic" v="OKHBHUHB"/>
    <tag k="operator" v="K&amp;H Bank Zrt."/>
    <tag k="atm" v="yes"/>
    <tag k="addr:postcode" v="2220"/>
    <tag k="amenity" v="bank"/>
    <tag k="website" v="https://www.kh.hu"/>
    <tag k="addr:housenumber" v="183"/>
    <tag k="addr:city" v="Vecsés"/>
    <tag k="name" v="K&amp;H bank"/>
    <tag k="source" v="website"/>
    <tag k="addr:street" v="Fő út"/>
  </node>
  <!-- Original coordinates: POINT (47.421692 19.392549) -->
  <node action="modify" changeset="99999" id="-64" lat="47.421692" lon="19.392549" timestamp="" uid="4579407" user="KAMI" version="99999">
    <tag k="brand" v="K&amp;H"/>
    <tag k="bic" v="OKHBHUHB"/>
    <tag k="operator" v="K&amp;H Bank Zrt."/>
    <tag k="atm" v="yes"/>
    <tag k="addr:postcode" v="2230"/>
    <tag k="amenity" v="bank"/>
    <tag k="website" v="https://www.kh.hu"/>
    <tag k="addr:housenumber" v="20/a"/>
    <tag k="addr:city" v="Gyömrő"/>
    <tag k="name" v="K&amp;H bank"/>
    <tag k="source" v="website"/>
    <tag k="addr:street" v="Szent István út"/>
  </node>
  <!-- Original coordinates: POINT (47.158374 18.944536) -->
  <node action="modify" changeset="99999" id="-65" lat="47.158374" lon="18.944536" timestamp="" uid="4579407" user="KAMI" version="99999">
    <tag k="brand" v="K&amp;H"/>
    <tag k="bic" v="OKHBHUHB"/>
    <tag k="operator" v="K&amp;H Bank Zrt."/>
    <tag k="atm" v="yes"/>
    <tag k="addr:postcode" v="2300"/>
    <tag k="amenity" v="bank"/>
    <tag k="website" v="https://www.kh.hu"/>
    <tag k="addr:housenumber" v="7"/>
    <tag k="addr:city" v="Ráckeve"/>
    <tag k="name" v="K&amp;H bank"/>
    <tag k="source" v="website"/>
    <tag k="addr:street" v="Móricz Zsigmond utca"/>
  </node>
  <!-- Original coordinates: POINT (47.342273 19.040905) -->
  <node action="modify" changeset="99999" id="-66" lat="47.342273" lon="19.040905" timestamp="" uid="4579407" user="KAMI" version="99999">
    <tag k="brand" v="K&amp;H"/>
    <tag k="bic" v="OKHBHUHB"/>
    <tag k="operator" v="K&amp;H Bank Zrt."/>
    <tag k="atm" v="yes"/>
    <tag k="addr:postcode" v="2310"/>
    <tag k="amenity" v="bank"/>
    <tag k="website" v="https://www.kh.hu"/>
    <tag k="addr:housenumber" v="16"/>
    <tag k="addr:city" v="Szigetszentmiklós"/>
    <tag k="name" v="K&amp;H bank"/>
    <tag k="source" v="website"/>
    <tag k="addr:street" v="Ifjúság utca"/>
  </node>
  <!-- Original coordinates: POINT (47.353999 19.09152) -->
  <node action="modify" changeset="99999" id="-67" lat="47.353999" lon="19.09152" timestamp="" uid="4579407" user="KAMI" version="99999">
    <tag k="brand" v="K&amp;H"/>
    <tag k="bic" v="OKHBHUHB"/>
    <tag k="operator" v="K&amp;H Bank Zrt."/>
    <tag k="atm" v="yes"/>
    <tag k="addr:postcode" v="2330"/>
    <tag k="amenity" v="bank"/>
    <tag k="website" v="https://www.kh.hu"/>
    <tag k="addr:housenumber" v="47"/>
    <tag k="addr:city" v="Dunaharaszti"/>
    <tag k="name" v="K&amp;H bank"/>
    <tag k="source" v="website"/>
    <tag k="addr:street" v="Dózsa György út"/>
  </node>
  <!-- Original coordinates: POINT (47.188281 19.321595) -->
  <node action="modify" changeset="99999" id="-68" lat="47.188281" lon="19.321595" timestamp="" uid="4579407" user="KAMI" version="99999">
    <tag k="brand" v="K&amp;H"/>
    <tag k="bic" v="OKHBHUHB"/>
    <tag k="operator" v="K&amp;H Bank Zrt."/>
    <tag k="atm" v="yes"/>
    <tag k="addr:postcode" v="2370"/>
    <tag k="amenity" v="bank"/>
    <tag k="website" v="https://www.kh.hu"/>
    <tag k="addr:housenumber" v="2"/>
    <tag k="addr:city" v="Dabas"/>
    <tag k="name" v="K&amp;H bank"/>
    <tag k="source" v="website"/>
    <tag k="addr:street" v="Szent István tér"/>
  </node>
  <!-- Original coordinates: POINT (46.963634 18.940928) -->
  <node action="modify" changeset="99999" id="-69" lat="46.963634" lon="18.940928" timestamp="" uid="4579407" user="KAMI" version="99999">
    <tag k="brand" v="K&amp;H"/>
    <tag k="bic" v="OKHBHUHB"/>
    <tag k="operator" v="K&amp;H Bank Zrt."/>
    <tag k="atm" v="yes"/>
    <tag k="addr:postcode" v="2400"/>
    <tag k="amenity" v="bank"/>
    <tag k="website" v="https://www.kh.hu"/>
    <tag k="addr:housenumber" v="39"/>
    <tag k="addr:city" v="Dunaújváros"/>
    <tag k="name" v="K&amp;H bank"/>
    <tag k="source" v="website"/>
    <tag k="addr:street" v="Vasmű út"/>
  </node>
  <!-- Original coordinates: POINT (47.313236 18.788031) -->
  <node action="modify" changeset="99999" id="-70" lat="47.313236" lon="18.788031" timestamp="" uid="4579407" user="KAMI" version="99999">
    <tag k="brand" v="K&amp;H"/>
    <tag k="bic" v="OKHBHUHB"/>
    <tag k="operator" v="K&amp;H Bank Zrt."/>
    <tag k="atm" v="yes"/>
    <tag k="addr:postcode" v="2462"/>
    <tag k="amenity" v="bank"/>
    <tag k="website" v="https://www.kh.hu"/>
    <tag k="addr:housenumber" v="1/a"/>
    <tag k="addr:city" v="Martonvásár"/>
    <tag k="name" v="K&amp;H bank"/>
    <tag k="source" v="website"/>
    <tag k="addr:street" v="Fehérvár utca"/>
  </node>
  <!-- Original coordinates: POINT (47.207513 18.627994) -->
  <node action="modify" changeset="99999" id="-71" lat="47.207513" lon="18.627994" timestamp="" uid="4579407" user="KAMI" version="99999">
    <tag k="brand" v="K&amp;H"/>
    <tag k="bic" v="OKHBHUHB"/>
    <tag k="operator" v="K&amp;H Bank Zrt."/>
    <tag k="atm" v="yes"/>
    <tag k="addr:postcode" v="2483"/>
    <tag k="amenity" v="bank"/>
    <tag k="website" v="https://www.kh.hu"/>
    <tag k="addr:housenumber" v="5"/>
    <tag k="addr:city" v="Gárdony"/>
    <tag k="name" v="K&amp;H bank"/>
    <tag k="source" v="website"/>
    <tag k="addr:street" v="Szabadság utca"/>
  </node>
  <!-- Original coordinates: POINT (47.793257 18.74195) -->
  <node action="modify" changeset="99999" id="-72" lat="47.793257" lon="18.74195" timestamp="" uid="4579407" user="KAMI" version="99999">
    <tag k="brand" v="K&amp;H"/>
    <tag k="bic" v="OKHBHUHB"/>
    <tag k="operator" v="K&amp;H Bank Zrt."/>
    <tag k="atm" v="yes"/>
    <tag k="addr:postcode" v="2500"/>
    <tag k="amenity" v="bank"/>
    <tag k="website" v="https://www.kh.hu"/>
    <tag k="addr:housenumber" v="1-3"/>
    <tag k="addr:city" v="Esztergom"/>
    <tag k="name" v="K&amp;H bank"/>
    <tag k="source" v="website"/>
    <tag k="addr:street" v="Rákóczi tér"/>
  </node>
  <!-- Original coordinates: POINT (47.717698 18.732752) -->
  <node action="modify" changeset="99999" id="-73" lat="47.717698" lon="18.732752" timestamp="" uid="4579407" user="KAMI" version="99999">
    <tag k="brand" v="K&amp;H"/>
    <tag k="bic" v="OKHBHUHB"/>
    <tag k="operator" v="K&amp;H Bank Zrt."/>
    <tag k="atm" v="yes"/>
    <tag k="addr:postcode" v="2510"/>
    <tag k="amenity" v="bank"/>
    <tag k="website" v="https://www.kh.hu"/>
    <tag k="addr:housenumber" v="45"/>
    <tag k="addr:city" v="Dorog"/>
    <tag k="name" v="K&amp;H bank"/>
    <tag k="source" v="website"/>
    <tag k="addr:street" v="Bécsi út"/>
  </node>
  <!-- Original coordinates: POINT (47.781352 19.1319) -->
  <node action="modify" changeset="99999" id="-74" lat="47.781352" lon="19.1319" timestamp="" uid="4579407" user="KAMI" version="99999">
    <tag k="brand" v="K&amp;H"/>
    <tag k="bic" v="OKHBHUHB"/>
    <tag k="operator" v="K&amp;H Bank Zrt."/>
    <tag k="atm" v="yes"/>
    <tag k="addr:postcode" v="2600"/>
    <tag k="amenity" v="bank"/>
    <tag k="website" v="https://www.kh.hu"/>
    <tag k="addr:housenumber" v="34"/>
    <tag k="addr:city" v="Vác"/>
    <tag k="name" v="K&amp;H bank"/>
    <tag k="source" v="website"/>
    <tag k="addr:street" v="Széchenyi utca"/>
  </node>
  <!-- Original coordinates: POINT (48.079834 19.29816) -->
  <node action="modify" changeset="99999" id="-75" lat="48.079834" lon="19.29816" timestamp="" uid="4579407" user="KAMI" version="99999">
    <tag k="brand" v="K&amp;H"/>
    <tag k="bic" v="OKHBHUHB"/>
    <tag k="operator" v="K&amp;H Bank Zrt."/>
    <tag k="atm" v="yes"/>
    <tag k="addr:postcode" v="2660"/>
    <tag k="amenity" v="bank"/>
    <tag k="website" v="https://www.kh.hu"/>
    <tag k="addr:housenumber" v="46"/>
    <tag k="addr:city" v="Balassagyarmat"/>
    <tag k="name" v="K&amp;H bank"/>
    <tag k="source" v="website"/>
    <tag k="addr:street" v="Rákóczi fejedelem út"/>
  </node>
  <!-- Original coordinates: POINT (47.171308 19.797733) -->
  <node action="modify" changeset="99999" id="-76" lat="47.171308" lon="19.797733" timestamp="" uid="4579407" user="KAMI" version="99999">
    <tag k="brand" v="K&amp;H"/>
    <tag k="bic" v="OKHBHUHB"/>
    <tag k="operator" v="K&amp;H Bank Zrt."/>
    <tag k="atm" v="yes"/>
    <tag k="addr:postcode" v="2700"/>
    <tag k="amenity" v="bank"/>
    <tag k="website" v="https://www.kh.hu"/>
    <tag k="addr:housenumber" v="1"/>
    <tag k="addr:city" v="Cegléd"/>
    <tag k="name" v="K&amp;H bank"/>
    <tag k="source" v="website"/>
    <tag k="addr:street" v="Szabadság tér"/>
  </node>
  <!-- Original coordinates: POINT (47.033026 19.781191) -->
  <node action="modify" changeset="99999" id="-77" lat="47.033026" lon="19.781191" timestamp="" uid="4579407" user="KAMI" version="99999">
    <tag k="brand" v="K&amp;H"/>
    <tag k="bic" v="OKHBHUHB"/>
    <tag k="operator" v="K&amp;H Bank Zrt."/>
    <tag k="atm" v="yes"/>
    <tag k="addr:postcode" v="2750"/>
    <tag k="amenity" v="bank"/>
    <tag k="website" v="https://www.kh.hu"/>
    <tag k="addr:housenumber" v="1"/>
    <tag k="addr:city" v="Nagykőrös"/>
    <tag k="name" v="K&amp;H bank"/>
    <tag k="source" v="website"/>
    <tag k="addr:street" v="Deák tér"/>
  </node>
  <!-- Original coordinates: POINT (47.580454 18.399673) -->
  <node action="modify" changeset="99999" id="-78" lat="47.580454" lon="18.399673" timestamp="" uid="4579407" user="KAMI" version="99999">
    <tag k="brand" v="K&amp;H"/>
    <tag k="bic" v="OKHBHUHB"/>
    <tag k="operator" v="K&amp;H Bank Zrt."/>
    <tag k="atm" v="yes"/>
    <tag k="addr:postcode" v="2800"/>
    <tag k="amenity" v="bank"/>
    <tag k="website" v="https://www.kh.hu"/>
    <tag k="addr:housenumber" v="2"/>
    <tag k="addr:city" v="Tatabánya"/>
    <tag k="name" v="K&amp;H bank"/>
    <tag k="source" v="website"/>
    <tag k="addr:street" v="Szent Borbála tér"/>
  </node>
  <!-- Original coordinates: POINT (47.488202 18.31669) -->
  <node action="modify" changeset="99999" id="-79" lat="47.488202" lon="18.31669" timestamp="" uid="4579407" user="KAMI" version="99999">
    <tag k="brand" v="K&amp;H"/>
    <tag k="bic" v="OKHBHUHB"/>
    <tag k="operator" v="K&amp;H Bank Zrt."/>
    <tag k="atm" v="yes"/>
    <tag k="addr:postcode" v="2840"/>
    <tag k="amenity" v="bank"/>
    <tag k="website" v="https://www.kh.hu"/>
    <tag k="addr:housenumber" v="80"/>
    <tag k="addr:city" v="Oroszlány"/>
    <tag k="name" v="K&amp;H bank"/>
    <tag k="source" v="website"/>
    <tag k="addr:street" v="Rákóczi út"/>
  </node>
  <!-- Original coordinates: POINT (47.502496 18.025462) -->
  <node action="modify" changeset="99999" id="-80" lat="47.502496" lon="18.025462" timestamp="" uid="4579407" user="KAMI" version="99999">
    <tag k="brand" v="K&amp;H"/>
    <tag k="bic" v="OKHBHUHB"/>
    <tag k="operator" v="K&amp;H Bank Zrt."/>
    <tag k="atm" v="yes"/>
    <tag k="addr:postcode" v="2870"/>
    <tag k="amenity" v="bank"/>
    <tag k="website" v="https://www.kh.hu"/>
    <tag k="addr:housenumber" v="5"/>
    <tag k="addr:city" v="Kisbér"/>
    <tag k="name" v="K&amp;H bank"/>
    <tag k="source" v="website"/>
    <tag k="addr:street" v="Kossuth Lajos utca"/>
  </node>
  <!-- Original coordinates: POINT (47.651159 18.324704) -->
  <node action="modify" changeset="99999" id="-81" lat="47.651159" lon="18.324704" timestamp="" uid="4579407" user="KAMI" version="99999">
    <tag k="brand" v="K&amp;H"/>
    <tag k="bic" v="OKHBHUHB"/>
    <tag k="operator" v="K&amp;H Bank Zrt."/>
    <tag k="atm" v="yes"/>
    <tag k="addr:postcode" v="2890"/>
    <tag k="amenity" v="bank"/>
    <tag k="website" v="https://www.kh.hu"/>
    <tag k="addr:housenumber" v="3"/>
    <tag k="addr:city" v="Tata"/>
    <tag k="name" v="K&amp;H bank"/>
    <tag k="source" v="website"/>
    <tag k="addr:street" v="Ady Endre utca"/>
  </node>
  <!-- Original coordinates: POINT (47.743534 18.118264) -->
  <node action="modify" changeset="99999" id="-82" lat="47.743534" lon="18.118264" timestamp="" uid="4579407" user="KAMI" version="99999">
    <tag k="brand" v="K&amp;H"/>
    <tag k="bic" v="OKHBHUHB"/>
    <tag k="operator" v="K&amp;H Bank Zrt."/>
    <tag k="atm" v="yes"/>
    <tag k="addr:postcode" v="2900"/>
    <tag k="amenity" v="bank"/>
    <tag k="website" v="https://www.kh.hu"/>
    <tag k="addr:housenumber" v="3"/>
    <tag k="addr:city" v="Komárom"/>
    <tag k="name" v="K&amp;H bank"/>
    <tag k="source" v="website"/>
    <tag k="addr:street" v="Klapka György utca"/>
  </node>
  <!-- Original coordinates: POINT (47.667923 19.681215) -->
  <node action="modify" changeset="99999" id="-83" lat="47.667923" lon="19.681215" timestamp="" uid="4579407" user="KAMI" version="99999">
    <tag k="brand" v="K&amp;H"/>
    <tag k="bic" v="OKHBHUHB"/>
    <tag k="operator" v="K&amp;H Bank Zrt."/>
    <tag k="atm" v="yes"/>
    <tag k="addr:postcode" v="3000"/>
    <tag k="amenity" v="bank"/>
    <tag k="website" v="https://www.kh.hu"/>
    <tag k="addr:housenumber" v="3-5"/>
    <tag k="addr:city" v="Hatvan"/>
    <tag k="name" v="K&amp;H bank"/>
    <tag k="source" v="website"/>
    <tag k="addr:street" v="Grassalkovich utca"/>
  </node>
  <!-- Original coordinates: POINT (47.920213 19.697326) -->
  <node action="modify" changeset="99999" id="-84" lat="47.920213" lon="19.697326" timestamp="" uid="4579407" user="KAMI" version="99999">
    <tag k="brand" v="K&amp;H"/>
    <tag k="bic" v="OKHBHUHB"/>
    <tag k="operator" v="K&amp;H Bank Zrt."/>
    <tag k="atm" v="yes"/>
    <tag k="addr:postcode" v="3060"/>
    <tag k="amenity" v="bank"/>
    <tag k="website" v="https://www.kh.hu"/>
    <tag k="addr:housenumber" v="4"/>
    <tag k="addr:city" v="Pásztó"/>
    <tag k="name" v="K&amp;H bank"/>
    <tag k="source" v="website"/>
    <tag k="addr:street" v="Kölcsey út"/>
  </node>
  <!-- Original coordinates: POINT (48.104375 19.808052) -->
  <node action="modify" changeset="99999" id="-85" lat="48.104375" lon="19.808052" timestamp="" uid="4579407" user="KAMI" version="99999">
    <tag k="brand" v="K&amp;H"/>
    <tag k="bic" v="OKHBHUHB"/>
    <tag k="operator" v="K&amp;H Bank Zrt."/>
    <tag k="atm" v="yes"/>
    <tag k="addr:postcode" v="3100"/>
    <tag k="amenity" v="bank"/>
    <tag k="website" v="https://www.kh.hu"/>
    <tag k="addr:housenumber" v="4"/>
    <tag k="addr:city" v="Salgótarján"/>
    <tag k="name" v="K&amp;H bank"/>
    <tag k="source" v="website"/>
    <tag k="addr:street" v="Fő tér"/>
  </node>
  <!-- Original coordinates: POINT (47.783473 19.926379) -->
  <node action="modify" changeset="99999" id="-86" lat="47.783473" lon="19.926379" timestamp="" uid="4579407" user="KAMI" version="99999">
    <tag k="brand" v="K&amp;H"/>
    <tag k="bic" v="OKHBHUHB"/>
    <tag k="operator" v="K&amp;H Bank Zrt."/>
    <tag k="atm" v="yes"/>
    <tag k="addr:postcode" v="3200"/>
    <tag k="amenity" v="bank"/>
    <tag k="website" v="https://www.kh.hu"/>
    <tag k="addr:housenumber" v="6"/>
    <tag k="addr:city" v="Gyöngyös"/>
    <tag k="name" v="K&amp;H bank"/>
    <tag k="source" v="website"/>
    <tag k="addr:street" v="Bugát Pál tér"/>
  </node>
  <!-- Original coordinates: POINT (47.900345 20.370201) -->
  <node action="modify" changeset="99999" id="-87" lat="47.900345" lon="20.370201" timestamp="" uid="4579407" user="KAMI" version="99999">
    <tag k="brand" v="K&amp;H"/>
    <tag k="bic" v="OKHBHUHB"/>
    <tag k="operator" v="K&amp;H Bank Zrt."/>
    <tag k="atm" v="yes"/>
    <tag k="addr:postcode" v="3300"/>
    <tag k="amenity" v="bank"/>
    <tag k="website" v="https://www.kh.hu"/>
    <tag k="addr:housenumber" v="3"/>
    <tag k="addr:city" v="Eger"/>
    <tag k="name" v="K&amp;H bank"/>
    <tag k="source" v="website"/>
    <tag k="addr:street" v="Barkóczy utca"/>
  </node>
  <!-- Original coordinates: POINT (47.901207 20.374565) -->
  <node action="modify" changeset="99999" id="-88" lat="47.901207" lon="20.374565" timestamp="" uid="4579407" user="KAMI" version="99999">
    <tag k="brand" v="K&amp;H"/>
    <tag k="bic" v="OKHBHUHB"/>
    <tag k="operator" v="K&amp;H Bank Zrt."/>
    <tag k="atm" v="yes"/>
    <tag k="addr:postcode" v="3300"/>
    <tag k="amenity" v="bank"/>
    <tag k="website" v="https://www.kh.hu"/>
    <tag k="addr:housenumber" v="4"/>
    <tag k="addr:city" v="Eger"/>
    <tag k="name" v="K&amp;H bank"/>
    <tag k="source" v="website"/>
    <tag k="addr:street" v="Széchenyi utca"/>
  </node>
  <!-- Original coordinates: POINT (47.593561 20.283407) -->
  <node action="modify" changeset="99999" id="-89" lat="47.593561" lon="20.283407" timestamp="" uid="4579407" user="KAMI" version="99999">
    <tag k="brand" v="K&amp;H"/>
    <tag k="bic" v="OKHBHUHB"/>
    <tag k="operator" v="K&amp;H Bank Zrt."/>
    <tag k="atm" v="yes"/>
    <tag k="addr:postcode" v="3360"/>
    <tag k="amenity" v="bank"/>
    <tag k="website" v="https://www.kh.hu"/>
    <tag k="addr:housenumber" v="8"/>
    <tag k="addr:city" v="Heves"/>
    <tag k="name" v="K&amp;H bank"/>
    <tag k="source" v="website"/>
    <tag k="addr:street" v="Fő út"/>
  </node>
  <!-- Original coordinates: POINT (47.80764 20.566917) -->
  <node action="modify" changeset="99999" id="-90" lat="47.80764" lon="20.566917" timestamp="" uid="4579407" user="KAMI" version="99999">
    <tag k="brand" v="K&amp;H"/>
    <tag k="bic" v="OKHBHUHB"/>
    <tag k="operator" v="K&amp;H Bank Zrt."/>
    <tag k="atm" v="yes"/>
    <tag k="addr:postcode" v="3400"/>
    <tag k="amenity" v="bank"/>
    <tag k="website" v="https://www.kh.hu"/>
    <tag k="addr:housenumber" v="91-93"/>
    <tag k="addr:city" v="Mezőkövesd"/>
    <tag k="name" v="K&amp;H bank"/>
    <tag k="source" v="website"/>
    <tag k="addr:street" v="Mátyás király utca"/>
  </node>
  <!-- Original coordinates: POINT (48.102825 20.78015) -->
  <node action="modify" changeset="99999" id="-91" lat="48.102825" lon="20.78015" timestamp="" uid="4579407" user="KAMI" version="99999">
    <tag k="brand" v="K&amp;H"/>
    <tag k="bic" v="OKHBHUHB"/>
    <tag k="operator" v="K&amp;H Bank Zrt."/>
    <tag k="atm" v="yes"/>
    <tag k="addr:postcode" v="3530"/>
    <tag k="amenity" v="bank"/>
    <tag k="website" v="https://www.kh.hu"/>
    <tag k="addr:housenumber" v="3-9"/>
    <tag k="addr:city" v="Miskolc"/>
    <tag k="name" v="K&amp;H bank"/>
    <tag k="source" v="website"/>
    <tag k="addr:street" v="Széchenyi István út"/>
  </node>
  <!-- Original coordinates: POINT (48.103041 20.790767) -->
  <node action="modify" changeset="99999" id="-92" lat="48.103041" lon="20.790767" timestamp="" uid="4579407" user="KAMI" version="99999">
    <tag k="brand" v="K&amp;H"/>
    <tag k="bic" v="OKHBHUHB"/>
    <tag k="operator" v="K&amp;H Bank Zrt."/>
    <tag k="atm" v="yes"/>
    <tag k="addr:postcode" v="3530"/>
    <tag k="amenity" v="bank"/>
    <tag k="website" v="https://www.kh.hu"/>
    <tag k="addr:housenumber" v="88"/>
    <tag k="addr:city" v="Miskolc"/>
    <tag k="name" v="K&amp;H bank"/>
    <tag k="source" v="website"/>
    <tag k="addr:street" v="Széchenyi István út"/>
  </node>
  <!-- Original coordinates: POINT (47.930778 21.033954) -->
  <node action="modify" changeset="99999" id="-93" lat="47.930778" lon="21.033954" timestamp="" uid="4579407" user="KAMI" version="99999">
    <tag k="brand" v="K&amp;H"/>
    <tag k="bic" v="OKHBHUHB"/>
    <tag k="operator" v="K&amp;H Bank Zrt."/>
    <tag k="atm" v="yes"/>
    <tag k="addr:postcode" v="3580"/>
    <tag k="amenity" v="bank"/>
    <tag k="website" v="https://www.kh.hu"/>
    <tag k="addr:housenumber" v="4/b"/>
    <tag k="addr:city" v="Tiszaújváros"/>
    <tag k="name" v="K&amp;H bank"/>
    <tag k="source" v="website"/>
    <tag k="addr:street" v="Szent István utca"/>
  </node>
  <!-- Original coordinates: POINT (48.219328 20.284294) -->
  <node action="modify" changeset="99999" id="-94" lat="48.219328" lon="20.284294" timestamp="" uid="4579407" user="KAMI" version="99999">
    <tag k="brand" v="K&amp;H"/>
    <tag k="bic" v="OKHBHUHB"/>
    <tag k="operator" v="K&amp;H Bank Zrt."/>
    <tag k="atm" v="yes"/>
    <tag k="addr:postcode" v="3600"/>
    <tag k="amenity" v="bank"/>
    <tag k="website" v="https://www.kh.hu"/>
    <tag k="addr:housenumber" v="48"/>
    <tag k="addr:city" v="Ózd"/>
    <tag k="name" v="K&amp;H bank"/>
    <tag k="source" v="website"/>
    <tag k="addr:street" v="Vasvár utca"/>
  </node>
  <!-- Original coordinates: POINT (48.251988 20.622337) -->
  <node action="modify" changeset="99999" id="-95" lat="48.251988" lon="20.622337" timestamp="" uid="4579407" user="KAMI" version="99999">
    <tag k="brand" v="K&amp;H"/>
    <tag k="bic" v="OKHBHUHB"/>
    <tag k="operator" v="K&amp;H Bank Zrt."/>
    <tag k="atm" v="yes"/>
    <tag k="addr:postcode" v="3700"/>
    <tag k="amenity" v="bank"/>
    <tag k="website" v="https://www.kh.hu"/>
    <tag k="addr:housenumber" v="46/a"/>
    <tag k="addr:city" v="Kazincbarcika"/>
    <tag k="name" v="K&amp;H bank"/>
    <tag k="source" v="website"/>
    <tag k="addr:street" v="Egressy Béni út"/>
  </node>
  <!-- Original coordinates: POINT (48.333059 21.115392) -->
  <node action="modify" changeset="99999" id="-96" lat="48.333059" lon="21.115392" timestamp="" uid="4579407" user="KAMI" version="99999">
    <tag k="brand" v="K&amp;H"/>
    <tag k="bic" v="OKHBHUHB"/>
    <tag k="operator" v="K&amp;H Bank Zrt."/>
    <tag k="atm" v="yes"/>
    <tag k="addr:postcode" v="3860"/>
    <tag k="amenity" v="bank"/>
    <tag k="website" v="https://www.kh.hu"/>
    <tag k="addr:housenumber" v="63-65"/>
    <tag k="addr:city" v="Encs"/>
    <tag k="name" v="K&amp;H bank"/>
    <tag k="source" v="website"/>
    <tag k="addr:street" v="Petőfi Sándor út"/>
  </node>
  <!-- Original coordinates: POINT (48.163385 21.199432) -->
  <node action="modify" changeset="99999" id="-97" lat="48.163385" lon="21.199432" timestamp="" uid="4579407" user="KAMI" version="99999">
    <tag k="brand" v="K&amp;H"/>
    <tag k="bic" v="OKHBHUHB"/>
    <tag k="operator" v="K&amp;H Bank Zrt."/>
    <tag k="atm" v="yes"/>
    <tag k="addr:postcode" v="3900"/>
    <tag k="amenity" v="bank"/>
    <tag k="website" v="https://www.kh.hu"/>
    <tag k="addr:housenumber" v="1"/>
    <tag k="addr:city" v="Szerencs"/>
    <tag k="name" v="K&amp;H bank"/>
    <tag k="source" v="website"/>
    <tag k="addr:street" v="Kossuth tér"/>
  </node>
  <!-- Original coordinates: POINT (48.32057 21.566981) -->
  <node action="modify" changeset="99999" id="-98" lat="48.32057" lon="21.566981" timestamp="" uid="4579407" user="KAMI" version="99999">
    <tag k="brand" v="K&amp;H"/>
    <tag k="bic" v="OKHBHUHB"/>
    <tag k="operator" v="K&amp;H Bank Zrt."/>
    <tag k="atm" v="yes"/>
    <tag k="addr:postcode" v="3950"/>
    <tag k="amenity" v="bank"/>
    <tag k="website" v="https://www.kh.hu"/>
    <tag k="addr:housenumber" v="3"/>
    <tag k="addr:city" v="Sárospatak"/>
    <tag k="name" v="K&amp;H bank"/>
    <tag k="source" v="website"/>
    <tag k="addr:street" v="Hild tér"/>
  </node>
  <!-- Original coordinates: POINT (48.396803 21.655393) -->
  <node action="modify" changeset="99999" id="-99" lat="48.396803" lon="21.655393" timestamp="" uid="4579407" user="KAMI" version="99999">
    <tag k="brand" v="K&amp;H"/>
    <tag k="bic" v="OKHBHUHB"/>
    <tag k="operator" v="K&amp;H Bank Zrt."/>
    <tag k="atm" v="yes"/>
    <tag k="addr:postcode" v="3980"/>
    <tag k="amenity" v="bank"/>
    <tag k="website" v="https://www.kh.hu"/>
    <tag k="addr:housenumber" v="3"/>
    <tag k="addr:city" v="Sátoraljaújhely"/>
    <tag k="name" v="K&amp;H bank"/>
    <tag k="source" v="website"/>
    <tag k="addr:street" v="Petőfi utca"/>
  </node>
  <!-- Original coordinates: POINT (47.526459 21.626586) -->
  <node action="modify" changeset="99999" id="-100" lat="47.526459" lon="21.626586" timestamp="" uid="4579407" user="KAMI" version="99999">
    <tag k="brand" v="K&amp;H"/>
    <tag k="bic" v="OKHBHUHB"/>
    <tag k="operator" v="K&amp;H Bank Zrt."/>
    <tag k="atm" v="yes"/>
    <tag k="addr:postcode" v="4024"/>
    <tag k="amenity" v="bank"/>
    <tag k="website" v="https://www.kh.hu"/>
    <tag k="addr:housenumber" v="52"/>
    <tag k="addr:city" v="Debrecen"/>
    <tag k="name" v="K&amp;H bank"/>
    <tag k="source" v="website"/>
    <tag k="addr:street" v="Piac utca"/>
  </node>
  <!-- Original coordinates: POINT (47.532632 21.626012) -->
  <node action="modify" changeset="99999" id="-101" lat="47.532632" lon="21.626012" timestamp="" uid="4579407" user="KAMI" version="99999">
    <tag k="brand" v="K&amp;H"/>
    <tag k="bic" v="OKHBHUHB"/>
    <tag k="operator" v="K&amp;H Bank Zrt."/>
    <tag k="atm" v="yes"/>
    <tag k="addr:postcode" v="4026"/>
    <tag k="amenity" v="bank"/>
    <tag k="website" v="https://www.kh.hu"/>
    <tag k="addr:housenumber" v="8"/>
    <tag k="addr:city" v="Debrecen"/>
    <tag k="name" v="K&amp;H bank"/>
    <tag k="source" v="website"/>
    <tag k="addr:street" v="Kálvin tér"/>
  </node>
  <!-- Original coordinates: POINT (47.612794 21.34217) -->
  <node action="modify" changeset="99999" id="-102" lat="47.612794" lon="21.34217" timestamp="" uid="4579407" user="KAMI" version="99999">
    <tag k="brand" v="K&amp;H"/>
    <tag k="bic" v="OKHBHUHB"/>
    <tag k="operator" v="K&amp;H Bank Zrt."/>
    <tag k="atm" v="yes"/>
    <tag k="addr:postcode" v="4060"/>
    <tag k="amenity" v="bank"/>
    <tag k="website" v="https://www.kh.hu"/>
    <tag k="addr:housenumber" v="1"/>
    <tag k="addr:city" v="Balmazújváros"/>
    <tag k="name" v="K&amp;H bank"/>
    <tag k="source" v="website"/>
    <tag k="addr:street" v="Kossuth tér"/>
  </node>
  <!-- Original coordinates: POINT (47.843121 21.428865) -->
  <node action="modify" changeset="99999" id="-103" lat="47.843121" lon="21.428865" timestamp="" uid="4579407" user="KAMI" version="99999">
    <tag k="brand" v="K&amp;H"/>
    <tag k="bic" v="OKHBHUHB"/>
    <tag k="operator" v="K&amp;H Bank Zrt."/>
    <tag k="atm" v="yes"/>
    <tag k="addr:postcode" v="4080"/>
    <tag k="amenity" v="bank"/>
    <tag k="website" v="https://www.kh.hu"/>
    <tag k="addr:housenumber" v="2"/>
    <tag k="addr:city" v="Hajdúnánás"/>
    <tag k="name" v="K&amp;H bank"/>
    <tag k="source" v="website"/>
    <tag k="addr:street" v="Bocskai út"/>
  </node>
  <!-- Original coordinates: POINT (47.220725 21.536162) -->
  <node action="modify" changeset="99999" id="-104" lat="47.220725" lon="21.536162" timestamp="" uid="4579407" user="KAMI" version="99999">
    <tag k="brand" v="K&amp;H"/>
    <tag k="bic" v="OKHBHUHB"/>
    <tag k="operator" v="K&amp;H Bank Zrt."/>
    <tag k="atm" v="yes"/>
    <tag k="addr:postcode" v="4100"/>
    <tag k="amenity" v="bank"/>
    <tag k="website" v="https://www.kh.hu"/>
    <tag k="addr:housenumber" v="15-17"/>
    <tag k="addr:city" v="Berettyóújfalu"/>
    <tag k="name" v="K&amp;H bank"/>
    <tag k="source" v="website"/>
    <tag k="addr:street" v="Dózsa György út"/>
  </node>
  <!-- Original coordinates: POINT (47.315225 21.114432) -->
  <node action="modify" changeset="99999" id="-105" lat="47.315225" lon="21.114432" timestamp="" uid="4579407" user="KAMI" version="99999">
    <tag k="brand" v="K&amp;H"/>
    <tag k="bic" v="OKHBHUHB"/>
    <tag k="operator" v="K&amp;H Bank Zrt."/>
    <tag k="atm" v="yes"/>
    <tag k="addr:postcode" v="4150"/>
    <tag k="amenity" v="bank"/>
    <tag k="website" v="https://www.kh.hu"/>
    <tag k="addr:housenumber" v="22"/>
    <tag k="addr:city" v="Püspökladány"/>
    <tag k="name" v="K&amp;H bank"/>
    <tag k="source" v="website"/>
    <tag k="addr:street" v="Kossuth Lajos utca"/>
  </node>
  <!-- Original coordinates: POINT (47.44638 21.394199) -->
  <node action="modify" changeset="99999" id="-106" lat="47.44638" lon="21.394199" timestamp="" uid="4579407" user="KAMI" version="99999">
    <tag k="brand" v="K&amp;H"/>
    <tag k="bic" v="OKHBHUHB"/>
    <tag k="operator" v="K&amp;H Bank Zrt."/>
    <tag k="atm" v="yes"/>
    <tag k="addr:postcode" v="4200"/>
    <tag k="amenity" v="bank"/>
    <tag k="website" v="https://www.kh.hu"/>
    <tag k="addr:housenumber" v="10-12"/>
    <tag k="addr:city" v="Hajdúszoboszló"/>
    <tag k="name" v="K&amp;H bank"/>
    <tag k="source" v="website"/>
    <tag k="addr:street" v="Szilfákalja utca"/>
  </node>
  <!-- Original coordinates: POINT (47.671297 21.513277) -->
  <node action="modify" changeset="99999" id="-107" lat="47.671297" lon="21.513277" timestamp="" uid="4579407" user="KAMI" version="99999">
    <tag k="brand" v="K&amp;H"/>
    <tag k="bic" v="OKHBHUHB"/>
    <tag k="operator" v="K&amp;H Bank Zrt."/>
    <tag k="atm" v="yes"/>
    <tag k="addr:postcode" v="4220"/>
    <tag k="amenity" v="bank"/>
    <tag k="website" v="https://www.kh.hu"/>
    <tag k="addr:housenumber" v="14"/>
    <tag k="addr:city" v="Hajdúböszörmény"/>
    <tag k="name" v="K&amp;H bank"/>
    <tag k="source" v="website"/>
    <tag k="addr:street" v="Korpona utca"/>
  </node>
  <!-- Original coordinates: POINT (47.835294 22.13012) -->
  <node action="modify" changeset="99999" id="-108" lat="47.835294" lon="22.13012" timestamp="" uid="4579407" user="KAMI" version="99999">
    <tag k="brand" v="K&amp;H"/>
    <tag k="bic" v="OKHBHUHB"/>
    <tag k="operator" v="K&amp;H Bank Zrt."/>
    <tag k="atm" v="yes"/>
    <tag k="addr:postcode" v="4300"/>
    <tag k="amenity" v="bank"/>
    <tag k="website" v="https://www.kh.hu"/>
    <tag k="addr:housenumber" v="6"/>
    <tag k="addr:city" v="Nyírbátor"/>
    <tag k="name" v="K&amp;H bank"/>
    <tag k="source" v="website"/>
    <tag k="addr:street" v="Zrínyi Ilona út"/>
  </node>
  <!-- Original coordinates: POINT (47.95398 21.717496) -->
  <node action="modify" changeset="99999" id="-109" lat="47.95398" lon="21.717496" timestamp="" uid="4579407" user="KAMI" version="99999">
    <tag k="brand" v="K&amp;H"/>
    <tag k="bic" v="OKHBHUHB"/>
    <tag k="operator" v="K&amp;H Bank Zrt."/>
    <tag k="atm" v="yes"/>
    <tag k="addr:postcode" v="4400"/>
    <tag k="amenity" v="bank"/>
    <tag k="website" v="https://www.kh.hu"/>
    <tag k="addr:housenumber" v="3"/>
    <tag k="addr:city" v="Nyíregyháza"/>
    <tag k="name" v="K&amp;H bank"/>
    <tag k="source" v="website"/>
    <tag k="addr:street" v="Luther utca"/>
  </node>
  <!-- Original coordinates: POINT (47.955706 21.359475) -->
  <node action="modify" changeset="99999" id="-110" lat="47.955706" lon="21.359475" timestamp="" uid="4579407" user="KAMI" version="99999">
    <tag k="brand" v="K&amp;H"/>
    <tag k="bic" v="OKHBHUHB"/>
    <tag k="operator" v="K&amp;H Bank Zrt."/>
    <tag k="atm" v="yes"/>
    <tag k="addr:postcode" v="4440"/>
    <tag k="amenity" v="bank"/>
    <tag k="website" v="https://www.kh.hu"/>
    <tag k="addr:housenumber" v="17"/>
    <tag k="addr:city" v="Tiszavasvári"/>
    <tag k="name" v="K&amp;H bank"/>
    <tag k="source" v="website"/>
    <tag k="addr:street" v="Kossuth Lajos utca"/>
  </node>
  <!-- Original coordinates: POINT (48.223486 22.076522) -->
  <node action="modify" changeset="99999" id="-111" lat="48.223486" lon="22.076522" timestamp="" uid="4579407" user="KAMI" version="99999">
    <tag k="brand" v="K&amp;H"/>
    <tag k="bic" v="OKHBHUHB"/>
    <tag k="operator" v="K&amp;H Bank Zrt."/>
    <tag k="atm" v="yes"/>
    <tag k="addr:postcode" v="4600"/>
    <tag k="amenity" v="bank"/>
    <tag k="website" v="https://www.kh.hu"/>
    <tag k="addr:housenumber" v="11"/>
    <tag k="addr:city" v="Kisvárda"/>
    <tag k="name" v="K&amp;H bank"/>
    <tag k="source" v="website"/>
    <tag k="addr:street" v="Somogyi Rezső utca"/>
  </node>
  <!-- Original coordinates: POINT (47.954767 22.322943) -->
  <node action="modify" changeset="99999" id="-112" lat="47.954767" lon="22.322943" timestamp="" uid="4579407" user="KAMI" version="99999">
    <tag k="brand" v="K&amp;H"/>
    <tag k="bic" v="OKHBHUHB"/>
    <tag k="operator" v="K&amp;H Bank Zrt."/>
    <tag k="atm" v="yes"/>
    <tag k="addr:postcode" v="4700"/>
    <tag k="amenity" v="bank"/>
    <tag k="website" v="https://www.kh.hu"/>
    <tag k="addr:housenumber" v="1"/>
    <tag k="addr:city" v="Mátészalka"/>
    <tag k="name" v="K&amp;H bank"/>
    <tag k="source" v="website"/>
    <tag k="addr:street" v="Kálvin tér"/>
  </node>
  <!-- Original coordinates: POINT (48.130748 22.31627) -->
  <node action="modify" changeset="99999" id="-113" lat="48.130748" lon="22.31627" timestamp="" uid="4579407" user="KAMI" version="99999">
    <tag k="brand" v="K&amp;H"/>
    <tag k="bic" v="OKHBHUHB"/>
    <tag k="operator" v="K&amp;H Bank Zrt."/>
    <tag k="atm" v="yes"/>
    <tag k="addr:postcode" v="4800"/>
    <tag k="amenity" v="bank"/>
    <tag k="website" v="https://www.kh.hu"/>
    <tag k="addr:housenumber" v="32"/>
    <tag k="addr:city" v="Vásárosnamény"/>
    <tag k="name" v="K&amp;H bank"/>
    <tag k="source" v="website"/>
    <tag k="addr:street" v="Szabadság tér"/>
  </node>
  <!-- Original coordinates: POINT (47.988825 22.514101) -->
  <node action="modify" changeset="99999" id="-114" lat="47.988825" lon="22.514101" timestamp="" uid="4579407" user="KAMI" version="99999">
    <tag k="brand" v="K&amp;H"/>
    <tag k="bic" v="OKHBHUHB"/>
    <tag k="operator" v="K&amp;H Bank Zrt."/>
    <tag k="atm" v="yes"/>
    <tag k="addr:postcode" v="4900"/>
    <tag k="amenity" v="bank"/>
    <tag k="website" v="https://www.kh.hu"/>
    <tag k="addr:housenumber" v="2"/>
    <tag k="addr:city" v="Fehérgyarmat"/>
    <tag k="name" v="K&amp;H bank"/>
    <tag k="source" v="website"/>
    <tag k="addr:street" v="Móricz Zsigmond utca"/>
  </node>
  <!-- Original coordinates: POINT (47.173911 20.193582) -->
  <node action="modify" changeset="99999" id="-115" lat="47.173911" lon="20.193582" timestamp="" uid="4579407" user="KAMI" version="99999">
    <tag k="brand" v="K&amp;H"/>
    <tag k="bic" v="OKHBHUHB"/>
    <tag k="operator" v="K&amp;H Bank Zrt."/>
    <tag k="atm" v="yes"/>
    <tag k="addr:postcode" v="5000"/>
    <tag k="amenity" v="bank"/>
    <tag k="website" v="https://www.kh.hu"/>
    <tag k="addr:housenumber" v="25-29"/>
    <tag k="addr:city" v="Szolnok"/>
    <tag k="name" v="K&amp;H bank"/>
    <tag k="source" v="website"/>
    <tag k="addr:street" v="Szapáry utca"/>
  </node>
  <!-- Original coordinates: POINT (47.500375 19.913957) -->
  <node action="modify" changeset="99999" id="-116" lat="47.500375" lon="19.913957" timestamp="" uid="4579407" user="KAMI" version="99999">
    <tag k="brand" v="K&amp;H"/>
    <tag k="bic" v="OKHBHUHB"/>
    <tag k="operator" v="K&amp;H Bank Zrt."/>
    <tag k="atm" v="yes"/>
    <tag k="addr:postcode" v="5100"/>
    <tag k="amenity" v="bank"/>
    <tag k="website" v="https://www.kh.hu"/>
    <tag k="addr:housenumber" v="1"/>
    <tag k="addr:city" v="Jászberény"/>
    <tag k="name" v="K&amp;H bank"/>
    <tag k="source" v="website"/>
    <tag k="addr:street" v="Szabadság tér"/>
  </node>
  <!-- Original coordinates: POINT (47.179684 20.412166) -->
  <node action="modify" changeset="99999" id="-117" lat="47.179684" lon="20.412166" timestamp="" uid="4579407" user="KAMI" version="99999">
    <tag k="brand" v="K&amp;H"/>
    <tag k="bic" v="OKHBHUHB"/>
    <tag k="operator" v="K&amp;H Bank Zrt."/>
    <tag k="atm" v="yes"/>
    <tag k="addr:postcode" v="5200"/>
    <tag k="amenity" v="bank"/>
    <tag k="website" v="https://www.kh.hu"/>
    <tag k="addr:housenumber" v="125"/>
    <tag k="addr:city" v="Törökszentmiklós"/>
    <tag k="name" v="K&amp;H bank"/>
    <tag k="source" v="website"/>
    <tag k="addr:street" v="Kossuth Lajos utca"/>
  </node>
  <!-- Original coordinates: POINT (47.318476 20.922785) -->
  <node action="modify" changeset="99999" id="-118" lat="47.318476" lon="20.922785" timestamp="" uid="4579407" user="KAMI" version="99999">
    <tag k="brand" v="K&amp;H"/>
    <tag k="bic" v="OKHBHUHB"/>
    <tag k="operator" v="K&amp;H Bank Zrt."/>
    <tag k="atm" v="yes"/>
    <tag k="addr:postcode" v="5300"/>
    <tag k="amenity" v="bank"/>
    <tag k="website" v="https://www.kh.hu"/>
    <tag k="addr:housenumber" v="2-3"/>
    <tag k="addr:city" v="Karcag"/>
    <tag k="name" v="K&amp;H bank"/>
    <tag k="source" v="website"/>
    <tag k="addr:street" v="Kossuth tér"/>
  </node>
  <!-- Original coordinates: POINT (47.217385 20.757479) -->
  <node action="modify" changeset="99999" id="-119" lat="47.217385" lon="20.757479" timestamp="" uid="4579407" user="KAMI" version="99999">
    <tag k="brand" v="K&amp;H"/>
    <tag k="bic" v="OKHBHUHB"/>
    <tag k="operator" v="K&amp;H Bank Zrt."/>
    <tag k="atm" v="yes"/>
    <tag k="addr:postcode" v="5310"/>
    <tag k="amenity" v="bank"/>
    <tag k="website" v="https://www.kh.hu"/>
    <tag k="addr:housenumber" v="1"/>
    <tag k="addr:city" v="Kisújszállás"/>
    <tag k="name" v="K&amp;H bank"/>
    <tag k="source" v="website"/>
    <tag k="addr:street" v="Szabadság utca"/>
  </node>
  <!-- Original coordinates: POINT (47.617453 20.75732) -->
  <node action="modify" changeset="99999" id="-120" lat="47.617453" lon="20.75732" timestamp="" uid="4579407" user="KAMI" version="99999">
    <tag k="brand" v="K&amp;H"/>
    <tag k="bic" v="OKHBHUHB"/>
    <tag k="operator" v="K&amp;H Bank Zrt."/>
    <tag k="atm" v="yes"/>
    <tag k="addr:postcode" v="5350"/>
    <tag k="amenity" v="bank"/>
    <tag k="website" v="https://www.kh.hu"/>
    <tag k="addr:housenumber" v="1"/>
    <tag k="addr:city" v="Tiszafüred"/>
    <tag k="name" v="K&amp;H bank"/>
    <tag k="source" v="website"/>
    <tag k="addr:street" v="Örvényi út"/>
  </node>
  <!-- Original coordinates: POINT (47.001313 20.629443) -->
  <node action="modify" changeset="99999" id="-121" lat="47.001313" lon="20.629443" timestamp="" uid="4579407" user="KAMI" version="99999">
    <tag k="brand" v="K&amp;H"/>
    <tag k="bic" v="OKHBHUHB"/>
    <tag k="operator" v="K&amp;H Bank Zrt."/>
    <tag k="atm" v="yes"/>
    <tag k="addr:postcode" v="5400"/>
    <tag k="amenity" v="bank"/>
    <tag k="website" v="https://www.kh.hu"/>
    <tag k="addr:housenumber" v="3-5"/>
    <tag k="addr:city" v="Mezőtúr"/>
    <tag k="name" v="K&amp;H bank"/>
    <tag k="source" v="website"/>
    <tag k="addr:street" v="Kossuth Lajos tér"/>
  </node>
  <!-- Original coordinates: POINT (46.979467 20.255244) -->
  <node action="modify" changeset="99999" id="-122" lat="46.979467" lon="20.255244" timestamp="" uid="4579407" user="KAMI" version="99999">
    <tag k="brand" v="K&amp;H"/>
    <tag k="bic" v="OKHBHUHB"/>
    <tag k="operator" v="K&amp;H Bank Zrt."/>
    <tag k="atm" v="yes"/>
    <tag k="addr:postcode" v="5430"/>
    <tag k="amenity" v="bank"/>
    <tag k="website" v="https://www.kh.hu"/>
    <tag k="addr:housenumber" v="132"/>
    <tag k="addr:city" v="Tiszaföldvár"/>
    <tag k="name" v="K&amp;H bank"/>
    <tag k="source" v="website"/>
    <tag k="addr:street" v="Kossuth Lajos út"/>
  </node>
  <!-- Original coordinates: POINT (47.020516 21.177264) -->
  <node action="modify" changeset="99999" id="-123" lat="47.020516" lon="21.177264" timestamp="" uid="4579407" user="KAMI" version="99999">
    <tag k="brand" v="K&amp;H"/>
    <tag k="bic" v="OKHBHUHB"/>
    <tag k="operator" v="K&amp;H Bank Zrt."/>
    <tag k="atm" v="yes"/>
    <tag k="addr:postcode" v="5520"/>
    <tag k="amenity" v="bank"/>
    <tag k="website" v="https://www.kh.hu"/>
    <tag k="addr:housenumber" v="2"/>
    <tag k="addr:city" v="Szeghalom"/>
    <tag k="name" v="K&amp;H bank"/>
    <tag k="source" v="website"/>
    <tag k="addr:street" v="Szabadság tér"/>
  </node>
  <!-- Original coordinates: POINT (46.862705 20.548333) -->
  <node action="modify" changeset="99999" id="-124" lat="46.862705" lon="20.548333" timestamp="" uid="4579407" user="KAMI" version="99999">
    <tag k="brand" v="K&amp;H"/>
    <tag k="bic" v="OKHBHUHB"/>
    <tag k="operator" v="K&amp;H Bank Zrt."/>
    <tag k="atm" v="yes"/>
    <tag k="addr:postcode" v="5540"/>
    <tag k="amenity" v="bank"/>
    <tag k="website" v="https://www.kh.hu"/>
    <tag k="addr:housenumber" v="30"/>
    <tag k="addr:city" v="Szarvas"/>
    <tag k="name" v="K&amp;H bank"/>
    <tag k="source" v="website"/>
    <tag k="addr:street" v="Szabadság utca"/>
  </node>
  <!-- Original coordinates: POINT (46.679155 21.09623) -->
  <node action="modify" changeset="99999" id="-125" lat="46.679155" lon="21.09623" timestamp="" uid="4579407" user="KAMI" version="99999">
    <tag k="brand" v="K&amp;H"/>
    <tag k="bic" v="OKHBHUHB"/>
    <tag k="operator" v="K&amp;H Bank Zrt."/>
    <tag k="atm" v="yes"/>
    <tag k="addr:postcode" v="5600"/>
    <tag k="amenity" v="bank"/>
    <tag k="website" v="https://www.kh.hu"/>
    <tag k="addr:housenumber" v="37-43"/>
    <tag k="addr:city" v="Békéscsaba"/>
    <tag k="name" v="K&amp;H bank"/>
    <tag k="source" v="website"/>
    <tag k="addr:street" v="Andrássy út"/>
  </node>
  <!-- Original coordinates: POINT (46.680482 21.098583) -->
  <node action="modify" changeset="99999" id="-126" lat="46.680482" lon="21.098583" timestamp="" uid="4579407" user="KAMI" version="99999">
    <tag k="brand" v="K&amp;H"/>
    <tag k="bic" v="OKHBHUHB"/>
    <tag k="operator" v="K&amp;H Bank Zrt."/>
    <tag k="atm" v="yes"/>
    <tag k="addr:postcode" v="5600"/>
    <tag k="amenity" v="bank"/>
    <tag k="website" v="https://www.kh.hu"/>
    <tag k="addr:housenumber" v="5"/>
    <tag k="addr:city" v="Békéscsaba"/>
    <tag k="name" v="K&amp;H bank"/>
    <tag k="source" v="website"/>
    <tag k="addr:street" v="Szent István tér"/>
  </node>
  <!-- Original coordinates: POINT (46.771972 21.132634) -->
  <node action="modify" changeset="99999" id="-127" lat="46.771972" lon="21.132634" timestamp="" uid="4579407" user="KAMI" version="99999">
    <tag k="brand" v="K&amp;H"/>
    <tag k="bic" v="OKHBHUHB"/>
    <tag k="operator" v="K&amp;H Bank Zrt."/>
    <tag k="atm" v="yes"/>
    <tag k="addr:postcode" v="5630"/>
    <tag k="amenity" v="bank"/>
    <tag k="website" v="https://www.kh.hu"/>
    <tag k="addr:housenumber" v="4"/>
    <tag k="addr:city" v="Békés"/>
    <tag k="name" v="K&amp;H bank"/>
    <tag k="source" v="website"/>
    <tag k="addr:street" v="Széchenyi tér"/>
  </node>
  <!-- Original coordinates: POINT (46.645195 21.276384) -->
  <node action="modify" changeset="99999" id="-128" lat="46.645195" lon="21.276384" timestamp="" uid="4579407" user="KAMI" version="99999">
    <tag k="brand" v="K&amp;H"/>
    <tag k="bic" v="OKHBHUHB"/>
    <tag k="operator" v="K&amp;H Bank Zrt."/>
    <tag k="atm" v="yes"/>
    <tag k="addr:postcode" v="5700"/>
    <tag k="amenity" v="bank"/>
    <tag k="website" v="https://www.kh.hu"/>
    <tag k="addr:housenumber" v="17-19"/>
    <tag k="addr:city" v="Gyula"/>
    <tag k="name" v="K&amp;H bank"/>
    <tag k="source" v="website"/>
    <tag k="addr:street" v="Városház utca"/>
  </node>
  <!-- Original coordinates: POINT (46.40659 20.920208) -->
  <node action="modify" changeset="99999" id="-129" lat="46.40659" lon="20.920208" timestamp="" uid="4579407" user="KAMI" version="99999">
    <tag k="brand" v="K&amp;H"/>
    <tag k="bic" v="OKHBHUHB"/>
    <tag k="operator" v="K&amp;H Bank Zrt."/>
    <tag k="atm" v="yes"/>
    <tag k="addr:postcode" v="5800"/>
    <tag k="amenity" v="bank"/>
    <tag k="website" v="https://www.kh.hu"/>
    <tag k="addr:housenumber" v="160"/>
    <tag k="addr:city" v="Mezőkovácsháza"/>
    <tag k="name" v="K&amp;H bank"/>
    <tag k="source" v="website"/>
    <tag k="addr:street" v="Árpád út"/>
  </node>
  <!-- Original coordinates: POINT (46.557552 20.666029) -->
  <node action="modify" changeset="99999" id="-130" lat="46.557552" lon="20.666029" timestamp="" uid="4579407" user="KAMI" version="99999">
    <tag k="brand" v="K&amp;H"/>
    <tag k="bic" v="OKHBHUHB"/>
    <tag k="operator" v="K&amp;H Bank Zrt."/>
    <tag k="atm" v="yes"/>
    <tag k="addr:postcode" v="5900"/>
    <tag k="amenity" v="bank"/>
    <tag k="website" v="https://www.kh.hu"/>
    <tag k="addr:housenumber" v="5"/>
    <tag k="addr:city" v="Orosháza"/>
    <tag k="name" v="K&amp;H bank"/>
    <tag k="source" v="website"/>
    <tag k="addr:street" v="Rákóczi út"/>
  </node>
  <!-- Original coordinates: POINT (46.904353 19.689603) -->
  <node action="modify" changeset="99999" id="-131" lat="46.904353" lon="19.689603" timestamp="" uid="4579407" user="KAMI" version="99999">
    <tag k="brand" v="K&amp;H"/>
    <tag k="bic" v="OKHBHUHB"/>
    <tag k="operator" v="K&amp;H Bank Zrt."/>
    <tag k="atm" v="yes"/>
    <tag k="addr:postcode" v="6000"/>
    <tag k="amenity" v="bank"/>
    <tag k="website" v="https://www.kh.hu"/>
    <tag k="addr:housenumber" v="9"/>
    <tag k="addr:city" v="Kecskemét"/>
    <tag k="name" v="K&amp;H bank"/>
    <tag k="source" v="website"/>
    <tag k="addr:street" v="Dobó István körút"/>
  </node>
  <!-- Original coordinates: POINT (46.910453 19.694357) -->
  <node action="modify" changeset="99999" id="-132" lat="46.910453" lon="19.694357" timestamp="" uid="4579407" user="KAMI" version="99999">
    <tag k="brand" v="K&amp;H"/>
    <tag k="bic" v="OKHBHUHB"/>
    <tag k="operator" v="K&amp;H Bank Zrt."/>
    <tag k="atm" v="yes"/>
    <tag k="addr:postcode" v="6000"/>
    <tag k="amenity" v="bank"/>
    <tag k="website" v="https://www.kh.hu"/>
    <tag k="addr:housenumber" v="9/a"/>
    <tag k="addr:city" v="Kecskemét"/>
    <tag k="name" v="K&amp;H bank"/>
    <tag k="source" v="website"/>
    <tag k="addr:street" v="Nagykőrösi út"/>
  </node>
  <!-- Original coordinates: POINT (47.025524 19.558446) -->
  <node action="modify" changeset="99999" id="-133" lat="47.025524" lon="19.558446" timestamp="" uid="4579407" user="KAMI" version="99999">
    <tag k="brand" v="K&amp;H"/>
    <tag k="bic" v="OKHBHUHB"/>
    <tag k="operator" v="K&amp;H Bank Zrt."/>
    <tag k="atm" v="yes"/>
    <tag k="addr:postcode" v="6050"/>
    <tag k="amenity" v="bank"/>
    <tag k="website" v="https://www.kh.hu"/>
    <tag k="addr:housenumber" v="10"/>
    <tag k="addr:city" v="Lajosmizse"/>
    <tag k="name" v="K&amp;H bank"/>
    <tag k="source" v="website"/>
    <tag k="addr:street" v="Szabadság tér"/>
  </node>
  <!-- Original coordinates: POINT (46.932295 20.095714) -->
  <node action="modify" changeset="99999" id="-134" lat="46.932295" lon="20.095714" timestamp="" uid="4579407" user="KAMI" version="99999">
    <tag k="brand" v="K&amp;H"/>
    <tag k="bic" v="OKHBHUHB"/>
    <tag k="operator" v="K&amp;H Bank Zrt."/>
    <tag k="atm" v="yes"/>
    <tag k="addr:postcode" v="6060"/>
    <tag k="amenity" v="bank"/>
    <tag k="website" v="https://www.kh.hu"/>
    <tag k="addr:housenumber" v="6"/>
    <tag k="addr:city" v="Tiszakécske"/>
    <tag k="name" v="K&amp;H bank"/>
    <tag k="source" v="website"/>
    <tag k="addr:street" v="Béke tér"/>
  </node>
  <!-- Original coordinates: POINT (46.712764 19.850377) -->
  <node action="modify" changeset="99999" id="-135" lat="46.712764" lon="19.850377" timestamp="" uid="4579407" user="KAMI" version="99999">
    <tag k="brand" v="K&amp;H"/>
    <tag k="bic" v="OKHBHUHB"/>
    <tag k="operator" v="K&amp;H Bank Zrt."/>
    <tag k="atm" v="yes"/>
    <tag k="addr:postcode" v="6100"/>
    <tag k="amenity" v="bank"/>
    <tag k="website" v="https://www.kh.hu"/>
    <tag k="addr:housenumber" v="2"/>
    <tag k="addr:city" v="Kiskunfélegyháza"/>
    <tag k="name" v="K&amp;H bank"/>
    <tag k="source" v="website"/>
    <tag k="addr:street" v="Petőfi tér"/>
  </node>
  <!-- Original coordinates: POINT (46.492212 19.736342) -->
  <node action="modify" changeset="99999" id="-136" lat="46.492212" lon="19.736342" timestamp="" uid="4579407" user="KAMI" version="99999">
    <tag k="brand" v="K&amp;H"/>
    <tag k="bic" v="OKHBHUHB"/>
    <tag k="operator" v="K&amp;H Bank Zrt."/>
    <tag k="atm" v="yes"/>
    <tag k="addr:postcode" v="6120"/>
    <tag k="amenity" v="bank"/>
    <tag k="website" v="https://www.kh.hu"/>
    <tag k="addr:housenumber" v="67"/>
    <tag k="addr:city" v="Kiskunmajsa"/>
    <tag k="name" v="K&amp;H bank"/>
    <tag k="source" v="website"/>
    <tag k="addr:street" v="Fő utca"/>
  </node>
  <!-- Original coordinates: POINT (46.619999 19.284153) -->
  <node action="modify" changeset="99999" id="-137" lat="46.619999" lon="19.284153" timestamp="" uid="4579407" user="KAMI" version="99999">
    <tag k="brand" v="K&amp;H"/>
    <tag k="bic" v="OKHBHUHB"/>
    <tag k="operator" v="K&amp;H Bank Zrt."/>
    <tag k="atm" v="yes"/>
    <tag k="addr:postcode" v="6200"/>
    <tag k="amenity" v="bank"/>
    <tag k="website" v="https://www.kh.hu"/>
    <tag k="addr:housenumber" v="2"/>
    <tag k="addr:city" v="Kiskőrös"/>
    <tag k="name" v="K&amp;H bank"/>
    <tag k="source" v="website"/>
    <tag k="addr:street" v="Petőfi tér"/>
  </node>
  <!-- Original coordinates: POINT (46.581182 19.390012) -->
  <node action="modify" changeset="99999" id="-138" lat="46.581182" lon="19.390012" timestamp="" uid="4579407" user="KAMI" version="99999">
    <tag k="brand" v="K&amp;H"/>
    <tag k="bic" v="OKHBHUHB"/>
    <tag k="operator" v="K&amp;H Bank Zrt."/>
    <tag k="atm" v="yes"/>
    <tag k="addr:postcode" v="6230"/>
    <tag k="amenity" v="bank"/>
    <tag k="website" v="https://www.kh.hu"/>
    <tag k="addr:housenumber" v="21"/>
    <tag k="addr:city" v="Soltvadkert"/>
    <tag k="name" v="K&amp;H bank"/>
    <tag k="source" v="website"/>
    <tag k="addr:street" v="Kossuth Lajos utca"/>
  </node>
  <!-- Original coordinates: POINT (46.526626 18.977531) -->
  <node action="modify" changeset="99999" id="-139" lat="46.526626" lon="18.977531" timestamp="" uid="4579407" user="KAMI" version="99999">
    <tag k="brand" v="K&amp;H"/>
    <tag k="bic" v="OKHBHUHB"/>
    <tag k="operator" v="K&amp;H Bank Zrt."/>
    <tag k="atm" v="yes"/>
    <tag k="addr:postcode" v="6300"/>
    <tag k="amenity" v="bank"/>
    <tag k="website" v="https://www.kh.hu"/>
    <tag k="addr:housenumber" v="28"/>
    <tag k="addr:city" v="Kalocsa"/>
    <tag k="name" v="K&amp;H bank"/>
    <tag k="source" v="website"/>
    <tag k="addr:street" v="Szent István út"/>
  </node>
  <!-- Original coordinates: POINT (46.429954 19.479846) -->
  <node action="modify" changeset="99999" id="-140" lat="46.429954" lon="19.479846" timestamp="" uid="4579407" user="KAMI" version="99999">
    <tag k="brand" v="K&amp;H"/>
    <tag k="bic" v="OKHBHUHB"/>
    <tag k="operator" v="K&amp;H Bank Zrt."/>
    <tag k="atm" v="yes"/>
    <tag k="addr:postcode" v="6400"/>
    <tag k="amenity" v="bank"/>
    <tag k="website" v="https://www.kh.hu"/>
    <tag k="addr:housenumber" v="1"/>
    <tag k="addr:city" v="Kiskunhalas"/>
    <tag k="name" v="K&amp;H bank"/>
    <tag k="source" v="website"/>
    <tag k="addr:street" v="Sétáló utca"/>
  </node>
  <!-- Original coordinates: POINT (46.297881 19.326512) -->
  <node action="modify" changeset="99999" id="-141" lat="46.297881" lon="19.326512" timestamp="" uid="4579407" user="KAMI" version="99999">
    <tag k="brand" v="K&amp;H"/>
    <tag k="bic" v="OKHBHUHB"/>
    <tag k="operator" v="K&amp;H Bank Zrt."/>
    <tag k="atm" v="yes"/>
    <tag k="addr:postcode" v="6440"/>
    <tag k="amenity" v="bank"/>
    <tag k="website" v="https://www.kh.hu"/>
    <tag k="addr:housenumber" v="10"/>
    <tag k="addr:city" v="Jánoshalma"/>
    <tag k="name" v="K&amp;H bank"/>
    <tag k="source" v="website"/>
    <tag k="addr:street" v="Rákóczi út"/>
  </node>
  <!-- Original coordinates: POINT (46.178009 18.950688) -->
  <node action="modify" changeset="99999" id="-142" lat="46.178009" lon="18.950688" timestamp="" uid="4579407" user="KAMI" version="99999">
    <tag k="brand" v="K&amp;H"/>
    <tag k="bic" v="OKHBHUHB"/>
    <tag k="operator" v="K&amp;H Bank Zrt."/>
    <tag k="atm" v="yes"/>
    <tag k="addr:postcode" v="6500"/>
    <tag k="amenity" v="bank"/>
    <tag k="website" v="https://www.kh.hu"/>
    <tag k="addr:housenumber" v="8-10"/>
    <tag k="addr:city" v="Baja"/>
    <tag k="name" v="K&amp;H bank"/>
    <tag k="source" v="website"/>
    <tag k="addr:street" v="Szentháromság tér"/>
  </node>
  <!-- Original coordinates: POINT (46.651444 20.262536) -->
  <node action="modify" changeset="99999" id="-143" lat="46.651444" lon="20.262536" timestamp="" uid="4579407" user="KAMI" version="99999">
    <tag k="brand" v="K&amp;H"/>
    <tag k="bic" v="OKHBHUHB"/>
    <tag k="operator" v="K&amp;H Bank Zrt."/>
    <tag k="atm" v="yes"/>
    <tag k="addr:postcode" v="6600"/>
    <tag k="amenity" v="bank"/>
    <tag k="website" v="https://www.kh.hu"/>
    <tag k="addr:housenumber" v="13"/>
    <tag k="addr:city" v="Szentes"/>
    <tag k="name" v="K&amp;H bank"/>
    <tag k="source" v="website"/>
    <tag k="addr:street" v="Kossuth Lajos utca"/>
  </node>
  <!-- Original coordinates: POINT (46.707211 20.147681) -->
  <node action="modify" changeset="99999" id="-144" lat="46.707211" lon="20.147681" timestamp="" uid="4579407" user="KAMI" version="99999">
    <tag k="brand" v="K&amp;H"/>
    <tag k="bic" v="OKHBHUHB"/>
    <tag k="operator" v="K&amp;H Bank Zrt."/>
    <tag k="atm" v="yes"/>
    <tag k="addr:postcode" v="6640"/>
    <tag k="amenity" v="bank"/>
    <tag k="website" v="https://www.kh.hu"/>
    <tag k="addr:housenumber" v="10-16"/>
    <tag k="addr:city" v="Csongrád"/>
    <tag k="name" v="K&amp;H bank"/>
    <tag k="source" v="website"/>
    <tag k="addr:street" v="Hunyadi tér"/>
  </node>
  <!-- Original coordinates: POINT (46.252187 20.14752) -->
  <node action="modify" changeset="99999" id="-145" lat="46.252187" lon="20.14752" timestamp="" uid="4579407" user="KAMI" version="99999">
    <tag k="brand" v="K&amp;H"/>
    <tag k="bic" v="OKHBHUHB"/>
    <tag k="operator" v="K&amp;H Bank Zrt."/>
    <tag k="atm" v="yes"/>
    <tag k="addr:postcode" v="6720"/>
    <tag k="amenity" v="bank"/>
    <tag k="website" v="https://www.kh.hu"/>
    <tag k="addr:housenumber" v="5"/>
    <tag k="addr:city" v="Szeged"/>
    <tag k="name" v="K&amp;H bank"/>
    <tag k="source" v="website"/>
    <tag k="addr:street" v="Klauzál tér"/>
  </node>
  <!-- Original coordinates: POINT (46.254718 20.148376) -->
  <node action="modify" changeset="99999" id="-146" lat="46.254718" lon="20.148376" timestamp="" uid="4579407" user="KAMI" version="99999">
    <tag k="brand" v="K&amp;H"/>
    <tag k="bic" v="OKHBHUHB"/>
    <tag k="operator" v="K&amp;H Bank Zrt."/>
    <tag k="atm" v="yes"/>
    <tag k="addr:postcode" v="6720"/>
    <tag k="amenity" v="bank"/>
    <tag k="website" v="https://www.kh.hu"/>
    <tag k="addr:housenumber" v="9"/>
    <tag k="addr:city" v="Szeged"/>
    <tag k="name" v="K&amp;H bank"/>
    <tag k="source" v="website"/>
    <tag k="addr:street" v="Széchenyi tér"/>
  </node>
  <!-- Original coordinates: POINT (46.470695 19.979498) -->
  <node action="modify" changeset="99999" id="-147" lat="46.470695" lon="19.979498" timestamp="" uid="4579407" user="KAMI" version="99999">
    <tag k="brand" v="K&amp;H"/>
    <tag k="bic" v="OKHBHUHB"/>
    <tag k="operator" v="K&amp;H Bank Zrt."/>
    <tag k="atm" v="yes"/>
    <tag k="addr:postcode" v="6760"/>
    <tag k="amenity" v="bank"/>
    <tag k="website" v="https://www.kh.hu"/>
    <tag k="addr:housenumber" v="6-8"/>
    <tag k="addr:city" v="Kistelek"/>
    <tag k="name" v="K&amp;H bank"/>
    <tag k="source" v="website"/>
    <tag k="addr:street" v="Kossuth Lajos utca"/>
  </node>
  <!-- Original coordinates: POINT (46.415089 20.317484) -->
  <node action="modify" changeset="99999" id="-148" lat="46.415089" lon="20.317484" timestamp="" uid="4579407" user="KAMI" version="99999">
    <tag k="brand" v="K&amp;H"/>
    <tag k="bic" v="OKHBHUHB"/>
    <tag k="operator" v="K&amp;H Bank Zrt."/>
    <tag k="atm" v="yes"/>
    <tag k="addr:postcode" v="6800"/>
    <tag k="amenity" v="bank"/>
    <tag k="website" v="https://www.kh.hu"/>
    <tag k="addr:housenumber" v="5"/>
    <tag k="addr:city" v="Hódmezővásárhely"/>
    <tag k="name" v="K&amp;H bank"/>
    <tag k="source" v="website"/>
    <tag k="addr:street" v="Kossuth tér"/>
  </node>
  <!-- Original coordinates: POINT (46.214909 20.475924) -->
  <node action="modify" changeset="99999" id="-149" lat="46.214909" lon="20.475924" timestamp="" uid="4579407" user="KAMI" version="99999">
    <tag k="brand" v="K&amp;H"/>
    <tag k="bic" v="OKHBHUHB"/>
    <tag k="operator" v="K&amp;H Bank Zrt."/>
    <tag k="atm" v="yes"/>
    <tag k="addr:postcode" v="6900"/>
    <tag k="amenity" v="bank"/>
    <tag k="website" v="https://www.kh.hu"/>
    <tag k="addr:housenumber" v="13-15"/>
    <tag k="addr:city" v="Makó"/>
    <tag k="name" v="K&amp;H bank"/>
    <tag k="source" v="website"/>
    <tag k="addr:street" v="Széchenyi tér"/>
  </node>
  <!-- Original coordinates: POINT (46.885766 18.620328) -->
  <node action="modify" changeset="99999" id="-150" lat="46.885766" lon="18.620328" timestamp="" uid="4579407" user="KAMI" version="99999">
    <tag k="brand" v="K&amp;H"/>
    <tag k="bic" v="OKHBHUHB"/>
    <tag k="operator" v="K&amp;H Bank Zrt."/>
    <tag k="atm" v="yes"/>
    <tag k="addr:postcode" v="7000"/>
    <tag k="amenity" v="bank"/>
    <tag k="website" v="https://www.kh.hu"/>
    <tag k="addr:housenumber" v="162"/>
    <tag k="addr:city" v="Sárbogárd"/>
    <tag k="name" v="K&amp;H bank"/>
    <tag k="source" v="website"/>
    <tag k="addr:street" v="Ady Endre utca"/>
  </node>
  <!-- Original coordinates: POINT (46.80606 18.924166) -->
  <node action="modify" changeset="99999" id="-151" lat="46.80606" lon="18.924166" timestamp="" uid="4579407" user="KAMI" version="99999">
    <tag k="brand" v="K&amp;H"/>
    <tag k="bic" v="OKHBHUHB"/>
    <tag k="operator" v="K&amp;H Bank Zrt."/>
    <tag k="atm" v="yes"/>
    <tag k="addr:postcode" v="7020"/>
    <tag k="amenity" v="bank"/>
    <tag k="website" v="https://www.kh.hu"/>
    <tag k="addr:housenumber" v="13"/>
    <tag k="addr:city" v="Dunaföldvár"/>
    <tag k="name" v="K&amp;H bank"/>
    <tag k="source" v="website"/>
    <tag k="addr:street" v="Béke tér"/>
  </node>
  <!-- Original coordinates: POINT (46.62559 18.863329) -->
  <node action="modify" changeset="99999" id="-152" lat="46.62559" lon="18.863329" timestamp="" uid="4579407" user="KAMI" version="99999">
    <tag k="brand" v="K&amp;H"/>
    <tag k="bic" v="OKHBHUHB"/>
    <tag k="operator" v="K&amp;H Bank Zrt."/>
    <tag k="atm" v="yes"/>
    <tag k="addr:postcode" v="7030"/>
    <tag k="amenity" v="bank"/>
    <tag k="website" v="https://www.kh.hu"/>
    <tag k="addr:housenumber" v="21"/>
    <tag k="addr:city" v="Paks"/>
    <tag k="name" v="K&amp;H bank"/>
    <tag k="source" v="website"/>
    <tag k="addr:street" v="Dózsa György utca"/>
  </node>
  <!-- Original coordinates: POINT (46.633506 18.280932) -->
  <node action="modify" changeset="99999" id="-153" lat="46.633506" lon="18.280932" timestamp="" uid="4579407" user="KAMI" version="99999">
    <tag k="brand" v="K&amp;H"/>
    <tag k="bic" v="OKHBHUHB"/>
    <tag k="operator" v="K&amp;H Bank Zrt."/>
    <tag k="atm" v="yes"/>
    <tag k="addr:postcode" v="7090"/>
    <tag k="amenity" v="bank"/>
    <tag k="website" v="https://www.kh.hu"/>
    <tag k="addr:housenumber" v="1"/>
    <tag k="addr:city" v="Tamási"/>
    <tag k="name" v="K&amp;H bank"/>
    <tag k="source" v="website"/>
    <tag k="addr:street" v="Garai utca"/>
  </node>
  <!-- Original coordinates: POINT (46.35044 18.70194) -->
  <node action="modify" changeset="99999" id="-154" lat="46.35044" lon="18.70194" timestamp="" uid="4579407" user="KAMI" version="99999">
    <tag k="brand" v="K&amp;H"/>
    <tag k="bic" v="OKHBHUHB"/>
    <tag k="operator" v="K&amp;H Bank Zrt."/>
    <tag k="atm" v="yes"/>
    <tag k="addr:postcode" v="7100"/>
    <tag k="amenity" v="bank"/>
    <tag k="website" v="https://www.kh.hu"/>
    <tag k="addr:housenumber" v="18-20"/>
    <tag k="addr:city" v="Szekszárd"/>
    <tag k="name" v="K&amp;H bank"/>
    <tag k="source" v="website"/>
    <tag k="addr:street" v="Széchenyi utca"/>
  </node>
  <!-- Original coordinates: POINT (46.422682 18.788425) -->
  <node action="modify" changeset="99999" id="-155" lat="46.422682" lon="18.788425" timestamp="" uid="4579407" user="KAMI" version="99999">
    <tag k="brand" v="K&amp;H"/>
    <tag k="bic" v="OKHBHUHB"/>
    <tag k="operator" v="K&amp;H Bank Zrt."/>
    <tag k="atm" v="yes"/>
    <tag k="addr:postcode" v="7130"/>
    <tag k="amenity" v="bank"/>
    <tag k="website" v="https://www.kh.hu"/>
    <tag k="addr:housenumber" v="33"/>
    <tag k="addr:city" v="Tolna"/>
    <tag k="name" v="K&amp;H bank"/>
    <tag k="source" v="website"/>
    <tag k="addr:street" v="Kossuth Lajos utca"/>
  </node>
  <!-- Original coordinates: POINT (46.296942 18.528974) -->
  <node action="modify" changeset="99999" id="-156" lat="46.296942" lon="18.528974" timestamp="" uid="4579407" user="KAMI" version="99999">
    <tag k="brand" v="K&amp;H"/>
    <tag k="bic" v="OKHBHUHB"/>
    <tag k="operator" v="K&amp;H Bank Zrt."/>
    <tag k="atm" v="yes"/>
    <tag k="addr:postcode" v="7150"/>
    <tag k="amenity" v="bank"/>
    <tag k="website" v="https://www.kh.hu"/>
    <tag k="addr:housenumber" v="20"/>
    <tag k="addr:city" v="Bonyhád"/>
    <tag k="name" v="K&amp;H bank"/>
    <tag k="source" v="website"/>
    <tag k="addr:street" v="Perczel Mór utca"/>
  </node>
  <!-- Original coordinates: POINT (46.374971 18.13) -->
  <node action="modify" changeset="99999" id="-157" lat="46.374971" lon="18.13" timestamp="" uid="4579407" user="KAMI" version="99999">
    <tag k="brand" v="K&amp;H"/>
    <tag k="bic" v="OKHBHUHB"/>
    <tag k="operator" v="K&amp;H Bank Zrt."/>
    <tag k="atm" v="yes"/>
    <tag k="addr:postcode" v="7200"/>
    <tag k="amenity" v="bank"/>
    <tag k="website" v="https://www.kh.hu"/>
    <tag k="addr:housenumber" v="12"/>
    <tag k="addr:city" v="Dombóvár"/>
    <tag k="name" v="K&amp;H bank"/>
    <tag k="source" v="website"/>
    <tag k="addr:street" v="Hunyadi tér"/>
  </node>
  <!-- Original coordinates: POINT (46.190889 18.260449) -->
  <node action="modify" changeset="99999" id="-158" lat="46.190889" lon="18.260449" timestamp="" uid="4579407" user="KAMI" version="99999">
    <tag k="brand" v="K&amp;H"/>
    <tag k="bic" v="OKHBHUHB"/>
    <tag k="operator" v="K&amp;H Bank Zrt."/>
    <tag k="atm" v="yes"/>
    <tag k="addr:postcode" v="7300"/>
    <tag k="amenity" v="bank"/>
    <tag k="website" v="https://www.kh.hu"/>
    <tag k="addr:housenumber" v="1"/>
    <tag k="addr:city" v="Komló"/>
    <tag k="name" v="K&amp;H bank"/>
    <tag k="source" v="website"/>
    <tag k="addr:street" v="Városház tér"/>
  </node>
  <!-- Original coordinates: POINT (46.357092 17.794633) -->
  <node action="modify" changeset="99999" id="-159" lat="46.357092" lon="17.794633" timestamp="" uid="4579407" user="KAMI" version="99999">
    <tag k="brand" v="K&amp;H"/>
    <tag k="bic" v="OKHBHUHB"/>
    <tag k="operator" v="K&amp;H Bank Zrt."/>
    <tag k="atm" v="yes"/>
    <tag k="addr:postcode" v="7400"/>
    <tag k="amenity" v="bank"/>
    <tag k="website" v="https://www.kh.hu"/>
    <tag k="addr:housenumber" v="8"/>
    <tag k="addr:city" v="Kaposvár"/>
    <tag k="name" v="K&amp;H bank"/>
    <tag k="source" v="website"/>
    <tag k="addr:street" v="Széchenyi tér"/>
  </node>
  <!-- Original coordinates: POINT (46.23036 17.360868) -->
  <node action="modify" changeset="99999" id="-160" lat="46.23036" lon="17.360868" timestamp="" uid="4579407" user="KAMI" version="99999">
    <tag k="brand" v="K&amp;H"/>
    <tag k="bic" v="OKHBHUHB"/>
    <tag k="operator" v="K&amp;H Bank Zrt."/>
    <tag k="atm" v="yes"/>
    <tag k="addr:postcode" v="7500"/>
    <tag k="amenity" v="bank"/>
    <tag k="website" v="https://www.kh.hu"/>
    <tag k="addr:housenumber" v="1/a"/>
    <tag k="addr:city" v="Nagyatád"/>
    <tag k="name" v="K&amp;H bank"/>
    <tag k="source" v="website"/>
    <tag k="addr:street" v="Bajcsy-Zsilinszky utca"/>
  </node>
  <!-- Original coordinates: POINT (45.959325 17.465509) -->
  <node action="modify" changeset="99999" id="-161" lat="45.959325" lon="17.465509" timestamp="" uid="4579407" user="KAMI" version="99999">
    <tag k="brand" v="K&amp;H"/>
    <tag k="bic" v="OKHBHUHB"/>
    <tag k="operator" v="K&amp;H Bank Zrt."/>
    <tag k="atm" v="yes"/>
    <tag k="addr:postcode" v="7570"/>
    <tag k="amenity" v="bank"/>
    <tag k="website" v="https://www.kh.hu"/>
    <tag k="addr:housenumber" v="79"/>
    <tag k="addr:city" v="Barcs"/>
    <tag k="name" v="K&amp;H bank"/>
    <tag k="source" v="website"/>
    <tag k="addr:street" v="Bajcsy-Zsilinszky utca"/>
  </node>
  <!-- Original coordinates: POINT (46.075138 18.228827) -->
  <node action="modify" changeset="99999" id="-162" lat="46.075138" lon="18.228827" timestamp="" uid="4579407" user="KAMI" version="99999">
    <tag k="brand" v="K&amp;H"/>
    <tag k="bic" v="OKHBHUHB"/>
    <tag k="operator" v="K&amp;H Bank Zrt."/>
    <tag k="atm" v="yes"/>
    <tag k="addr:postcode" v="7621"/>
    <tag k="amenity" v="bank"/>
    <tag k="website" v="https://www.kh.hu"/>
    <tag k="addr:housenumber" v="2"/>
    <tag k="addr:city" v="Pécs"/>
    <tag k="name" v="K&amp;H bank"/>
    <tag k="source" v="website"/>
    <tag k="addr:street" v="Irgalmasok utcája"/>
  </node>
  <!-- Original coordinates: POINT (46.07653 18.237702) -->
  <node action="modify" changeset="99999" id="-163" lat="46.07653" lon="18.237702" timestamp="" uid="4579407" user="KAMI" version="99999">
    <tag k="brand" v="K&amp;H"/>
    <tag k="bic" v="OKHBHUHB"/>
    <tag k="operator" v="K&amp;H Bank Zrt."/>
    <tag k="atm" v="yes"/>
    <tag k="addr:postcode" v="7626"/>
    <tag k="amenity" v="bank"/>
    <tag k="website" v="https://www.kh.hu"/>
    <tag k="addr:housenumber" v="6/a"/>
    <tag k="addr:city" v="Pécs"/>
    <tag k="name" v="K&amp;H bank"/>
    <tag k="source" v="website"/>
    <tag k="addr:street" v="Búza tér"/>
  </node>
  <!-- Original coordinates: POINT (45.991772 18.69201) -->
  <node action="modify" changeset="99999" id="-164" lat="45.991772" lon="18.69201" timestamp="" uid="4579407" user="KAMI" version="99999">
    <tag k="brand" v="K&amp;H"/>
    <tag k="bic" v="OKHBHUHB"/>
    <tag k="operator" v="K&amp;H Bank Zrt."/>
    <tag k="atm" v="yes"/>
    <tag k="addr:postcode" v="7700"/>
    <tag k="amenity" v="bank"/>
    <tag k="website" v="https://www.kh.hu"/>
    <tag k="addr:housenumber" v="1-3"/>
    <tag k="addr:city" v="Mohács"/>
    <tag k="name" v="K&amp;H bank"/>
    <tag k="source" v="website"/>
    <tag k="addr:street" v="Szentháromság utca"/>
  </node>
  <!-- Original coordinates: POINT (45.85495 18.296921) -->
  <node action="modify" changeset="99999" id="-165" lat="45.85495" lon="18.296921" timestamp="" uid="4579407" user="KAMI" version="99999">
    <tag k="brand" v="K&amp;H"/>
    <tag k="bic" v="OKHBHUHB"/>
    <tag k="operator" v="K&amp;H Bank Zrt."/>
    <tag k="atm" v="yes"/>
    <tag k="addr:postcode" v="7800"/>
    <tag k="amenity" v="bank"/>
    <tag k="website" v="https://www.kh.hu"/>
    <tag k="addr:housenumber" v="42"/>
    <tag k="addr:city" v="Siklós"/>
    <tag k="name" v="K&amp;H bank"/>
    <tag k="source" v="website"/>
    <tag k="addr:street" v="Felszabadulás utca"/>
  </node>
  <!-- Original coordinates: POINT (46.047327 17.798305) -->
  <node action="modify" changeset="99999" id="-166" lat="46.047327" lon="17.798305" timestamp="" uid="4579407" user="KAMI" version="99999">
    <tag k="brand" v="K&amp;H"/>
    <tag k="bic" v="OKHBHUHB"/>
    <tag k="operator" v="K&amp;H Bank Zrt."/>
    <tag k="atm" v="yes"/>
    <tag k="addr:postcode" v="7900"/>
    <tag k="amenity" v="bank"/>
    <tag k="website" v="https://www.kh.hu"/>
    <tag k="addr:housenumber" v="4"/>
    <tag k="addr:city" v="Szigetvár"/>
    <tag k="name" v="K&amp;H bank"/>
    <tag k="source" v="website"/>
    <tag k="addr:street" v="Széchenyi utca"/>
  </node>
  <!-- Original coordinates: POINT (47.193444 18.40913) -->
  <node action="modify" changeset="99999" id="-167" lat="47.193444" lon="18.40913" timestamp="" uid="4579407" user="KAMI" version="99999">
    <tag k="brand" v="K&amp;H"/>
    <tag k="bic" v="OKHBHUHB"/>
    <tag k="operator" v="K&amp;H Bank Zrt."/>
    <tag k="atm" v="yes"/>
    <tag k="addr:postcode" v="8000"/>
    <tag k="amenity" v="bank"/>
    <tag k="website" v="https://www.kh.hu"/>
    <tag k="addr:housenumber" v="2"/>
    <tag k="addr:city" v="Székesfehérvár"/>
    <tag k="name" v="K&amp;H bank"/>
    <tag k="source" v="website"/>
    <tag k="addr:street" v="Ady Endre utca"/>
  </node>
  <!-- Original coordinates: POINT (47.193966 18.410035) -->
  <node action="modify" changeset="99999" id="-168" lat="47.193966" lon="18.410035" timestamp="" uid="4579407" user="KAMI" version="99999">
    <tag k="brand" v="K&amp;H"/>
    <tag k="bic" v="OKHBHUHB"/>
    <tag k="operator" v="K&amp;H Bank Zrt."/>
    <tag k="atm" v="yes"/>
    <tag k="addr:postcode" v="8000"/>
    <tag k="amenity" v="bank"/>
    <tag k="website" v="https://www.kh.hu"/>
    <tag k="addr:housenumber" v="5"/>
    <tag k="addr:city" v="Székesfehérvár"/>
    <tag k="name" v="K&amp;H bank"/>
    <tag k="source" v="website"/>
    <tag k="addr:street" v="Dózsa György út"/>
  </node>
  <!-- Original coordinates: POINT (47.190048 18.408203) -->
  <node action="modify" changeset="99999" id="-169" lat="47.190048" lon="18.408203" timestamp="" uid="4579407" user="KAMI" version="99999">
    <tag k="brand" v="K&amp;H"/>
    <tag k="bic" v="OKHBHUHB"/>
    <tag k="operator" v="K&amp;H Bank Zrt."/>
    <tag k="atm" v="yes"/>
    <tag k="addr:postcode" v="8000"/>
    <tag k="amenity" v="bank"/>
    <tag k="website" v="https://www.kh.hu"/>
    <tag k="addr:housenumber" v="11"/>
    <tag k="addr:city" v="Székesfehérvár"/>
    <tag k="name" v="K&amp;H bank"/>
    <tag k="source" v="website"/>
    <tag k="addr:street" v="Liszt Ferenc utca"/>
  </node>
  <!-- Original coordinates: POINT (47.373966 18.212845) -->
  <node action="modify" changeset="99999" id="-170" lat="47.373966" lon="18.212845" timestamp="" uid="4579407" user="KAMI" version="99999">
    <tag k="brand" v="K&amp;H"/>
    <tag k="bic" v="OKHBHUHB"/>
    <tag k="operator" v="K&amp;H Bank Zrt."/>
    <tag k="atm" v="yes"/>
    <tag k="addr:postcode" v="8060"/>
    <tag k="amenity" v="bank"/>
    <tag k="website" v="https://www.kh.hu"/>
    <tag k="addr:housenumber" v="10"/>
    <tag k="addr:city" v="Mór"/>
    <tag k="name" v="K&amp;H bank"/>
    <tag k="source" v="website"/>
    <tag k="addr:street" v="Bajcsy-Zsilinszky utca"/>
  </node>
  <!-- Original coordinates: POINT (47.201381 18.140143) -->
  <node action="modify" changeset="99999" id="-171" lat="47.201381" lon="18.140143" timestamp="" uid="4579407" user="KAMI" version="99999">
    <tag k="brand" v="K&amp;H"/>
    <tag k="bic" v="OKHBHUHB"/>
    <tag k="operator" v="K&amp;H Bank Zrt."/>
    <tag k="atm" v="yes"/>
    <tag k="addr:postcode" v="8100"/>
    <tag k="amenity" v="bank"/>
    <tag k="website" v="https://www.kh.hu"/>
    <tag k="addr:housenumber" v="5"/>
    <tag k="addr:city" v="Várpalota"/>
    <tag k="name" v="K&amp;H bank"/>
    <tag k="source" v="website"/>
    <tag k="addr:street" v="Táncsics utca"/>
  </node>
  <!-- Original coordinates: POINT (46.930437 18.242406) -->
  <node action="modify" changeset="99999" id="-172" lat="46.930437" lon="18.242406" timestamp="" uid="4579407" user="KAMI" version="99999">
    <tag k="brand" v="K&amp;H"/>
    <tag k="bic" v="OKHBHUHB"/>
    <tag k="operator" v="K&amp;H Bank Zrt."/>
    <tag k="atm" v="yes"/>
    <tag k="addr:postcode" v="8130"/>
    <tag k="amenity" v="bank"/>
    <tag k="website" v="https://www.kh.hu"/>
    <tag k="addr:housenumber" v="18"/>
    <tag k="addr:city" v="Enying"/>
    <tag k="name" v="K&amp;H bank"/>
    <tag k="source" v="website"/>
    <tag k="addr:street" v="Kossuth Lajos utca"/>
  </node>
  <!-- Original coordinates: POINT (47.093623 17.909192) -->
  <node action="modify" changeset="99999" id="-173" lat="47.093623" lon="17.909192" timestamp="" uid="4579407" user="KAMI" version="99999">
    <tag k="brand" v="K&amp;H"/>
    <tag k="bic" v="OKHBHUHB"/>
    <tag k="operator" v="K&amp;H Bank Zrt."/>
    <tag k="atm" v="yes"/>
    <tag k="addr:postcode" v="8200"/>
    <tag k="amenity" v="bank"/>
    <tag k="website" v="https://www.kh.hu"/>
    <tag k="addr:housenumber" v="8"/>
    <tag k="addr:city" v="Veszprém"/>
    <tag k="name" v="K&amp;H bank"/>
    <tag k="source" v="website"/>
    <tag k="addr:street" v="Cserhát lakótelep"/>
  </node>
  <!-- Original coordinates: POINT (47.09226 17.912304) -->
  <node action="modify" changeset="99999" id="-174" lat="47.09226" lon="17.912304" timestamp="" uid="4579407" user="KAMI" version="99999">
    <tag k="brand" v="K&amp;H"/>
    <tag k="bic" v="OKHBHUHB"/>
    <tag k="operator" v="K&amp;H Bank Zrt."/>
    <tag k="atm" v="yes"/>
    <tag k="addr:postcode" v="8200"/>
    <tag k="amenity" v="bank"/>
    <tag k="website" v="https://www.kh.hu"/>
    <tag k="addr:housenumber" v="4"/>
    <tag k="addr:city" v="Veszprém"/>
    <tag k="name" v="K&amp;H bank"/>
    <tag k="source" v="website"/>
    <tag k="addr:street" v="Mindszenty József utca"/>
  </node>
  <!-- Original coordinates: POINT (47.0294 18.014176) -->
  <node action="modify" changeset="99999" id="-175" lat="47.0294" lon="18.014176" timestamp="" uid="4579407" user="KAMI" version="99999">
    <tag k="brand" v="K&amp;H"/>
    <tag k="bic" v="OKHBHUHB"/>
    <tag k="operator" v="K&amp;H Bank Zrt."/>
    <tag k="atm" v="yes"/>
    <tag k="addr:postcode" v="8220"/>
    <tag k="amenity" v="bank"/>
    <tag k="website" v="https://www.kh.hu"/>
    <tag k="addr:housenumber" v="5"/>
    <tag k="addr:city" v="Balatonalmádi"/>
    <tag k="name" v="K&amp;H bank"/>
    <tag k="source" v="website"/>
    <tag k="addr:street" v="Városház tér"/>
  </node>
  <!-- Original coordinates: POINT (46.961182 17.87386) -->
  <node action="modify" changeset="99999" id="-176" lat="46.961182" lon="17.87386" timestamp="" uid="4579407" user="KAMI" version="99999">
    <tag k="brand" v="K&amp;H"/>
    <tag k="bic" v="OKHBHUHB"/>
    <tag k="operator" v="K&amp;H Bank Zrt."/>
    <tag k="atm" v="yes"/>
    <tag k="addr:postcode" v="8230"/>
    <tag k="amenity" v="bank"/>
    <tag k="website" v="https://www.kh.hu"/>
    <tag k="addr:housenumber" v="5"/>
    <tag k="addr:city" v="Balatonfüred"/>
    <tag k="name" v="K&amp;H bank"/>
    <tag k="source" v="website"/>
    <tag k="addr:street" v="Kossuth Lajos utca"/>
  </node>
  <!-- Original coordinates: POINT (46.882992 17.44009) -->
  <node action="modify" changeset="99999" id="-177" lat="46.882992" lon="17.44009" timestamp="" uid="4579407" user="KAMI" version="99999">
    <tag k="brand" v="K&amp;H"/>
    <tag k="bic" v="OKHBHUHB"/>
    <tag k="operator" v="K&amp;H Bank Zrt."/>
    <tag k="atm" v="yes"/>
    <tag k="addr:postcode" v="8300"/>
    <tag k="amenity" v="bank"/>
    <tag k="website" v="https://www.kh.hu"/>
    <tag k="addr:housenumber" v="5"/>
    <tag k="addr:city" v="Tapolca"/>
    <tag k="name" v="K&amp;H bank"/>
    <tag k="source" v="website"/>
    <tag k="addr:street" v="Fő tér"/>
  </node>
  <!-- Original coordinates: POINT (46.978518 17.280973) -->
  <node action="modify" changeset="99999" id="-178" lat="46.978518" lon="17.280973" timestamp="" uid="4579407" user="KAMI" version="99999">
    <tag k="brand" v="K&amp;H"/>
    <tag k="bic" v="OKHBHUHB"/>
    <tag k="operator" v="K&amp;H Bank Zrt."/>
    <tag k="atm" v="yes"/>
    <tag k="addr:postcode" v="8330"/>
    <tag k="amenity" v="bank"/>
    <tag k="website" v="https://www.kh.hu"/>
    <tag k="addr:housenumber" v="8"/>
    <tag k="addr:city" v="Sümeg"/>
    <tag k="name" v="K&amp;H bank"/>
    <tag k="source" v="website"/>
    <tag k="addr:street" v="Kossuth Lajos utca"/>
  </node>
  <!-- Original coordinates: POINT (46.765396 17.244165) -->
  <node action="modify" changeset="99999" id="-179" lat="46.765396" lon="17.244165" timestamp="" uid="4579407" user="KAMI" version="99999">
    <tag k="brand" v="K&amp;H"/>
    <tag k="bic" v="OKHBHUHB"/>
    <tag k="operator" v="K&amp;H Bank Zrt."/>
    <tag k="atm" v="yes"/>
    <tag k="addr:postcode" v="8360"/>
    <tag k="amenity" v="bank"/>
    <tag k="website" v="https://www.kh.hu"/>
    <tag k="addr:housenumber" v="6-8"/>
    <tag k="addr:city" v="Keszthely"/>
    <tag k="name" v="K&amp;H bank"/>
    <tag k="source" v="website"/>
    <tag k="addr:street" v="Fő tér"/>
  </node>
  <!-- Original coordinates: POINT (46.788289 17.189295) -->
  <node action="modify" changeset="99999" id="-180" lat="46.788289" lon="17.189295" timestamp="" uid="4579407" user="KAMI" version="99999">
    <tag k="brand" v="K&amp;H"/>
    <tag k="bic" v="OKHBHUHB"/>
    <tag k="operator" v="K&amp;H Bank Zrt."/>
    <tag k="atm" v="yes"/>
    <tag k="addr:postcode" v="8380"/>
    <tag k="amenity" v="bank"/>
    <tag k="website" v="https://www.kh.hu"/>
    <tag k="addr:housenumber" v="16"/>
    <tag k="addr:city" v="Hévíz"/>
    <tag k="name" v="K&amp;H bank"/>
    <tag k="source" v="website"/>
    <tag k="addr:street" v="Rákóczi utca"/>
  </node>
  <!-- Original coordinates: POINT (47.105574 17.564969) -->
  <node action="modify" changeset="99999" id="-181" lat="47.105574" lon="17.564969" timestamp="" uid="4579407" user="KAMI" version="99999">
    <tag k="brand" v="K&amp;H"/>
    <tag k="bic" v="OKHBHUHB"/>
    <tag k="operator" v="K&amp;H Bank Zrt."/>
    <tag k="atm" v="yes"/>
    <tag k="addr:postcode" v="8400"/>
    <tag k="amenity" v="bank"/>
    <tag k="website" v="https://www.kh.hu"/>
    <tag k="addr:housenumber" v="8"/>
    <tag k="addr:city" v="Ajka"/>
    <tag k="name" v="K&amp;H bank"/>
    <tag k="source" v="website"/>
    <tag k="addr:street" v="Szabadság tér"/>
  </node>
  <!-- Original coordinates: POINT (47.261614 17.874515) -->
  <node action="modify" changeset="99999" id="-182" lat="47.261614" lon="17.874515" timestamp="" uid="4579407" user="KAMI" version="99999">
    <tag k="brand" v="K&amp;H"/>
    <tag k="bic" v="OKHBHUHB"/>
    <tag k="operator" v="K&amp;H Bank Zrt."/>
    <tag k="atm" v="yes"/>
    <tag k="addr:postcode" v="8420"/>
    <tag k="amenity" v="bank"/>
    <tag k="website" v="https://www.kh.hu"/>
    <tag k="addr:housenumber" v="2"/>
    <tag k="addr:city" v="Zirc"/>
    <tag k="name" v="K&amp;H bank"/>
    <tag k="source" v="website"/>
    <tag k="addr:street" v="Petőfi Sándor utca"/>
  </node>
  <!-- Original coordinates: POINT (47.328438 17.467264) -->
  <node action="modify" changeset="99999" id="-183" lat="47.328438" lon="17.467264" timestamp="" uid="4579407" user="KAMI" version="99999">
    <tag k="brand" v="K&amp;H"/>
    <tag k="bic" v="OKHBHUHB"/>
    <tag k="operator" v="K&amp;H Bank Zrt."/>
    <tag k="atm" v="yes"/>
    <tag k="addr:postcode" v="8500"/>
    <tag k="amenity" v="bank"/>
    <tag k="website" v="https://www.kh.hu"/>
    <tag k="addr:housenumber" v="21"/>
    <tag k="addr:city" v="Pápa"/>
    <tag k="name" v="K&amp;H bank"/>
    <tag k="source" v="website"/>
    <tag k="addr:street" v="Kossuth Lajos utca"/>
  </node>
  <!-- Original coordinates: POINT (46.905626 18.05186) -->
  <node action="modify" changeset="99999" id="-184" lat="46.905626" lon="18.05186" timestamp="" uid="4579407" user="KAMI" version="99999">
    <tag k="brand" v="K&amp;H"/>
    <tag k="bic" v="OKHBHUHB"/>
    <tag k="operator" v="K&amp;H Bank Zrt."/>
    <tag k="atm" v="yes"/>
    <tag k="addr:postcode" v="8600"/>
    <tag k="amenity" v="bank"/>
    <tag k="website" v="https://www.kh.hu"/>
    <tag k="addr:housenumber" v="8"/>
    <tag k="addr:city" v="Siófok"/>
    <tag k="name" v="K&amp;H bank"/>
    <tag k="source" v="website"/>
    <tag k="addr:street" v="Fő tér"/>
  </node>
  <!-- Original coordinates: POINT (46.778092 17.653651) -->
  <node action="modify" changeset="99999" id="-185" lat="46.778092" lon="17.653651" timestamp="" uid="4579407" user="KAMI" version="99999">
    <tag k="brand" v="K&amp;H"/>
    <tag k="bic" v="OKHBHUHB"/>
    <tag k="operator" v="K&amp;H Bank Zrt."/>
    <tag k="atm" v="yes"/>
    <tag k="addr:postcode" v="8630"/>
    <tag k="amenity" v="bank"/>
    <tag k="website" v="https://www.kh.hu"/>
    <tag k="addr:housenumber" v="7"/>
    <tag k="addr:city" v="Balatonboglár"/>
    <tag k="name" v="K&amp;H bank"/>
    <tag k="source" v="website"/>
    <tag k="addr:street" v="Sétáló utca"/>
  </node>
  <!-- Original coordinates: POINT (46.728481 18.029425) -->
  <node action="modify" changeset="99999" id="-186" lat="46.728481" lon="18.029425" timestamp="" uid="4579407" user="KAMI" version="99999">
    <tag k="brand" v="K&amp;H"/>
    <tag k="bic" v="OKHBHUHB"/>
    <tag k="operator" v="K&amp;H Bank Zrt."/>
    <tag k="atm" v="yes"/>
    <tag k="addr:postcode" v="8660"/>
    <tag k="amenity" v="bank"/>
    <tag k="website" v="https://www.kh.hu"/>
    <tag k="addr:housenumber" v="134"/>
    <tag k="addr:city" v="Tab"/>
    <tag k="name" v="K&amp;H bank"/>
    <tag k="source" v="website"/>
    <tag k="addr:street" v="Kossuth Lajos út"/>
  </node>
  <!-- Original coordinates: POINT (46.580922 17.412542) -->
  <node action="modify" changeset="99999" id="-187" lat="46.580922" lon="17.412542" timestamp="" uid="4579407" user="KAMI" version="99999">
    <tag k="brand" v="K&amp;H"/>
    <tag k="bic" v="OKHBHUHB"/>
    <tag k="operator" v="K&amp;H Bank Zrt."/>
    <tag k="atm" v="yes"/>
    <tag k="addr:postcode" v="8700"/>
    <tag k="amenity" v="bank"/>
    <tag k="website" v="https://www.kh.hu"/>
    <tag k="addr:housenumber" v="21"/>
    <tag k="addr:city" v="Marcali"/>
    <tag k="name" v="K&amp;H bank"/>
    <tag k="source" v="website"/>
    <tag k="addr:street" v="Rákóczi út"/>
  </node>
  <!-- Original coordinates: POINT (46.945376 17.079012) -->
  <node action="modify" changeset="99999" id="-188" lat="46.945376" lon="17.079012" timestamp="" uid="4579407" user="KAMI" version="99999">
    <tag k="brand" v="K&amp;H"/>
    <tag k="bic" v="OKHBHUHB"/>
    <tag k="operator" v="K&amp;H Bank Zrt."/>
    <tag k="atm" v="yes"/>
    <tag k="addr:postcode" v="8790"/>
    <tag k="amenity" v="bank"/>
    <tag k="website" v="https://www.kh.hu"/>
    <tag k="addr:housenumber" v="16-18"/>
    <tag k="addr:city" v="Zalaszentgrót"/>
    <tag k="name" v="K&amp;H bank"/>
    <tag k="source" v="website"/>
    <tag k="addr:street" v="Dózsa György utca"/>
  </node>
  <!-- Original coordinates: POINT (46.454842 16.99049) -->
  <node action="modify" changeset="99999" id="-189" lat="46.454842" lon="16.99049" timestamp="" uid="4579407" user="KAMI" version="99999">
    <tag k="brand" v="K&amp;H"/>
    <tag k="bic" v="OKHBHUHB"/>
    <tag k="operator" v="K&amp;H Bank Zrt."/>
    <tag k="atm" v="yes"/>
    <tag k="addr:postcode" v="8800"/>
    <tag k="amenity" v="bank"/>
    <tag k="website" v="https://www.kh.hu"/>
    <tag k="addr:housenumber" v="2"/>
    <tag k="addr:city" v="Nagykanizsa"/>
    <tag k="name" v="K&amp;H bank"/>
    <tag k="source" v="website"/>
    <tag k="addr:street" v="Fő utca"/>
  </node>
  <!-- Original coordinates: POINT (46.432738 16.722269) -->
  <node action="modify" changeset="99999" id="-190" lat="46.432738" lon="16.722269" timestamp="" uid="4579407" user="KAMI" version="99999">
    <tag k="brand" v="K&amp;H"/>
    <tag k="bic" v="OKHBHUHB"/>
    <tag k="operator" v="K&amp;H Bank Zrt."/>
    <tag k="atm" v="yes"/>
    <tag k="addr:postcode" v="8868"/>
    <tag k="amenity" v="bank"/>
    <tag k="website" v="https://www.kh.hu"/>
    <tag k="addr:housenumber" v="7"/>
    <tag k="addr:city" v="Letenye"/>
    <tag k="name" v="K&amp;H bank"/>
    <tag k="source" v="website"/>
    <tag k="addr:street" v="Szabadság tér"/>
  </node>
  <!-- Original coordinates: POINT (46.841993 16.845963) -->
  <node action="modify" changeset="99999" id="-191" lat="46.841993" lon="16.845963" timestamp="" uid="4579407" user="KAMI" version="99999">
    <tag k="brand" v="K&amp;H"/>
    <tag k="bic" v="OKHBHUHB"/>
    <tag k="operator" v="K&amp;H Bank Zrt."/>
    <tag k="atm" v="yes"/>
    <tag k="addr:postcode" v="8900"/>
    <tag k="amenity" v="bank"/>
    <tag k="website" v="https://www.kh.hu"/>
    <tag k="addr:housenumber" v="8"/>
    <tag k="addr:city" v="Zalaegerszeg"/>
    <tag k="name" v="K&amp;H bank"/>
    <tag k="source" v="website"/>
    <tag k="addr:street" v="Kossuth Lajos utca"/>
  </node>
  <!-- Original coordinates: POINT (46.622697 16.538419) -->
  <node action="modify" changeset="99999" id="-192" lat="46.622697" lon="16.538419" timestamp="" uid="4579407" user="KAMI" version="99999">
    <tag k="brand" v="K&amp;H"/>
    <tag k="bic" v="OKHBHUHB"/>
    <tag k="operator" v="K&amp;H Bank Zrt."/>
    <tag k="atm" v="yes"/>
    <tag k="addr:postcode" v="8960"/>
    <tag k="amenity" v="bank"/>
    <tag k="website" v="https://www.kh.hu"/>
    <tag k="addr:housenumber" v="6"/>
    <tag k="addr:city" v="Lenti"/>
    <tag k="name" v="K&amp;H bank"/>
    <tag k="source" v="website"/>
    <tag k="addr:street" v="Kossuth Lajos utca"/>
  </node>
  <!-- Original coordinates: POINT (47.682585 17.631141) -->
  <node action="modify" changeset="99999" id="-193" lat="47.682585" lon="17.631141" timestamp="" uid="4579407" user="KAMI" version="99999">
    <tag k="brand" v="K&amp;H"/>
    <tag k="bic" v="OKHBHUHB"/>
    <tag k="operator" v="K&amp;H Bank Zrt."/>
    <tag k="atm" v="yes"/>
    <tag k="addr:postcode" v="9021"/>
    <tag k="amenity" v="bank"/>
    <tag k="website" v="https://www.kh.hu"/>
    <tag k="addr:housenumber" v="13"/>
    <tag k="addr:city" v="Győr"/>
    <tag k="name" v="K&amp;H bank"/>
    <tag k="source" v="website"/>
    <tag k="addr:street" v="Szent István út"/>
  </node>
  <!-- Original coordinates: POINT (47.684422 17.635989) -->
  <node action="modify" changeset="99999" id="-194" lat="47.684422" lon="17.635989" timestamp="" uid="4579407" user="KAMI" version="99999">
    <tag k="brand" v="K&amp;H"/>
    <tag k="bic" v="OKHBHUHB"/>
    <tag k="operator" v="K&amp;H Bank Zrt."/>
    <tag k="atm" v="yes"/>
    <tag k="addr:postcode" v="9021"/>
    <tag k="amenity" v="bank"/>
    <tag k="website" v="https://www.kh.hu"/>
    <tag k="addr:housenumber" v="29-31"/>
    <tag k="addr:city" v="Győr"/>
    <tag k="name" v="K&amp;H bank"/>
    <tag k="source" v="website"/>
    <tag k="addr:street" v="Szent István út"/>
  </node>
  <!-- Original coordinates: POINT (47.669892 17.650949) -->
  <node action="modify" changeset="99999" id="-195" lat="47.669892" lon="17.650949" timestamp="" uid="4579407" user="KAMI" version="99999">
    <tag k="brand" v="K&amp;H"/>
    <tag k="bic" v="OKHBHUHB"/>
    <tag k="operator" v="K&amp;H Bank Zrt."/>
    <tag k="atm" v="yes"/>
    <tag k="addr:postcode" v="9023"/>
    <tag k="amenity" v="bank"/>
    <tag k="website" v="https://www.kh.hu"/>
    <tag k="addr:housenumber" v="1/a"/>
    <tag k="addr:city" v="Győr"/>
    <tag k="name" v="K&amp;H bank"/>
    <tag k="source" v="website"/>
    <tag k="addr:street" v="Vasvári Pál utca"/>
  </node>
  <!-- Original coordinates: POINT (47.875519 17.268673) -->
  <node action="modify" changeset="99999" id="-196" lat="47.875519" lon="17.268673" timestamp="" uid="4579407" user="KAMI" version="99999">
    <tag k="brand" v="K&amp;H"/>
    <tag k="bic" v="OKHBHUHB"/>
    <tag k="operator" v="K&amp;H Bank Zrt."/>
    <tag k="atm" v="yes"/>
    <tag k="addr:postcode" v="9200"/>
    <tag k="amenity" v="bank"/>
    <tag k="website" v="https://www.kh.hu"/>
    <tag k="addr:housenumber" v="26"/>
    <tag k="addr:city" v="Mosonmagyaróvár"/>
    <tag k="name" v="K&amp;H bank"/>
    <tag k="source" v="website"/>
    <tag k="addr:street" v="Fő utca"/>
  </node>
  <!-- Original coordinates: POINT (47.611322 17.248448) -->
  <node action="modify" changeset="99999" id="-197" lat="47.611322" lon="17.248448" timestamp="" uid="4579407" user="KAMI" version="99999">
    <tag k="brand" v="K&amp;H"/>
    <tag k="bic" v="OKHBHUHB"/>
    <tag k="operator" v="K&amp;H Bank Zrt."/>
    <tag k="atm" v="yes"/>
    <tag k="addr:postcode" v="9300"/>
    <tag k="amenity" v="bank"/>
    <tag k="website" v="https://www.kh.hu"/>
    <tag k="addr:housenumber" v="60"/>
    <tag k="addr:city" v="Csorna"/>
    <tag k="name" v="K&amp;H bank"/>
    <tag k="source" v="website"/>
    <tag k="addr:street" v="Soproni út"/>
  </node>
  <!-- Original coordinates: POINT (47.593342 17.025251) -->
  <node action="modify" changeset="99999" id="-198" lat="47.593342" lon="17.025251" timestamp="" uid="4579407" user="KAMI" version="99999">
    <tag k="brand" v="K&amp;H"/>
    <tag k="bic" v="OKHBHUHB"/>
    <tag k="operator" v="K&amp;H Bank Zrt."/>
    <tag k="atm" v="yes"/>
    <tag k="addr:postcode" v="9330"/>
    <tag k="amenity" v="bank"/>
    <tag k="website" v="https://www.kh.hu"/>
    <tag k="addr:housenumber" v="13"/>
    <tag k="addr:city" v="Kapuvár"/>
    <tag k="name" v="K&amp;H bank"/>
    <tag k="source" v="website"/>
    <tag k="addr:street" v="Fő tér"/>
  </node>
  <!-- Original coordinates: POINT (47.689411 16.584013) -->
  <node action="modify" changeset="99999" id="-199" lat="47.689411" lon="16.584013" timestamp="" uid="4579407" user="KAMI" version="99999">
    <tag k="brand" v="K&amp;H"/>
    <tag k="bic" v="OKHBHUHB"/>
    <tag k="operator" v="K&amp;H Bank Zrt."/>
    <tag k="atm" v="yes"/>
    <tag k="addr:postcode" v="9400"/>
    <tag k="amenity" v="bank"/>
    <tag k="website" v="https://www.kh.hu"/>
    <tag k="addr:housenumber" v="15-17"/>
    <tag k="addr:city" v="Sopron"/>
    <tag k="name" v="K&amp;H bank"/>
    <tag k="source" v="website"/>
    <tag k="addr:street" v="Selmeci utca"/>
  </node>
  <!-- Original coordinates: POINT (47.686549 16.593173) -->
  <node action="modify" changeset="99999" id="-200" lat="47.686549" lon="16.593173" timestamp="" uid="4579407" user="KAMI" version="99999">
    <tag k="brand" v="K&amp;H"/>
    <tag k="operator" v="K&amp;H Bank Zrt."/>
    <tag k="atm" v="yes"/>
    <tag k="addr:postcode" v="9400"/>
    <tag k="amenity" v="bank"/>
    <tag k="website" v="https://www.kh.hu"/>
    <tag k="bic" v="OKHBHUHB"/>
    <tag k="addr:city" v="Sopron"/>
    <tag k="name" v="K&amp;H bank"/>
    <tag k="source" v="website"/>
  </node>
  <!-- Original coordinates: POINT (47.257439 17.152292) -->
  <node action="modify" changeset="99999" id="-201" lat="47.257439" lon="17.152292" timestamp="" uid="4579407" user="KAMI" version="99999">
    <tag k="brand" v="K&amp;H"/>
    <tag k="bic" v="OKHBHUHB"/>
    <tag k="operator" v="K&amp;H Bank Zrt."/>
    <tag k="atm" v="yes"/>
    <tag k="addr:postcode" v="9500"/>
    <tag k="amenity" v="bank"/>
    <tag k="website" v="https://www.kh.hu"/>
    <tag k="addr:housenumber" v="13"/>
    <tag k="addr:city" v="Celldömölk"/>
    <tag k="name" v="K&amp;H bank"/>
    <tag k="source" v="website"/>
    <tag k="addr:street" v="dr. Géfin Lajos tér"/>
  </node>
  <!-- Original coordinates: POINT (47.253781 16.935651) -->
  <node action="modify" changeset="99999" id="-202" lat="47.253781" lon="16.935651" timestamp="" uid="4579407" user="KAMI" version="99999">
    <tag k="brand" v="K&amp;H"/>
    <tag k="bic" v="OKHBHUHB"/>
    <tag k="operator" v="K&amp;H Bank Zrt."/>
    <tag k="atm" v="yes"/>
    <tag k="addr:postcode" v="9600"/>
    <tag k="amenity" v="bank"/>
    <tag k="website" v="https://www.kh.hu"/>
    <tag k="addr:housenumber" v="1-3"/>
    <tag k="addr:city" v="Sárvár"/>
    <tag k="name" v="K&amp;H bank"/>
    <tag k="source" v="website"/>
    <tag k="addr:street" v="Batthyány utca"/>
  </node>
  <!-- Original coordinates: POINT (47.23241 16.621143) -->
  <node action="modify" changeset="99999" id="-203" lat="47.23241" lon="16.621143" timestamp="" uid="4579407" user="KAMI" version="99999">
    <tag k="brand" v="K&amp;H"/>
    <tag k="bic" v="OKHBHUHB"/>
    <tag k="operator" v="K&amp;H Bank Zrt."/>
    <tag k="atm" v="yes"/>
    <tag k="addr:postcode" v="9700"/>
    <tag k="amenity" v="bank"/>
    <tag k="website" v="https://www.kh.hu"/>
    <tag k="addr:housenumber" v="10"/>
    <tag k="addr:city" v="Szombathely"/>
    <tag k="name" v="K&amp;H bank"/>
    <tag k="source" v="website"/>
    <tag k="addr:street" v="Kőszegi utca"/>
  </node>
  <!-- Original coordinates: POINT (47.388264 16.542416) -->
  <node action="modify" changeset="99999" id="-204" lat="47.388264" lon="16.542416" timestamp="" uid="4579407" user="KAMI" version="99999">
    <tag k="brand" v="K&amp;H"/>
    <tag k="bic" v="OKHBHUHB"/>
    <tag k="operator" v="K&amp;H Bank Zrt."/>
    <tag k="atm" v="yes"/>
    <tag k="addr:postcode" v="9730"/>
    <tag k="amenity" v="bank"/>
    <tag k="website" v="https://www.kh.hu"/>
    <tag k="addr:housenumber" v="4"/>
    <tag k="addr:city" v="Kőszeg"/>
    <tag k="name" v="K&amp;H bank"/>
    <tag k="source" v="website"/>
    <tag k="addr:street" v="Fő tér"/>
  </node>
  <!-- Original coordinates: POINT (47.009922 16.603959) -->
  <node action="modify" changeset="99999" id="-205" lat="47.009922" lon="16.603959" timestamp="" uid="4579407" user="KAMI" version="99999">
    <tag k="brand" v="K&amp;H"/>
    <tag k="bic" v="OKHBHUHB"/>
    <tag k="operator" v="K&amp;H Bank Zrt."/>
    <tag k="atm" v="yes"/>
    <tag k="addr:postcode" v="9900"/>
    <tag k="amenity" v="bank"/>
    <tag k="website" v="https://www.kh.hu"/>
    <tag k="addr:housenumber" v="1/a"/>
    <tag k="addr:city" v="Körmend"/>
    <tag k="name" v="K&amp;H bank"/>
    <tag k="source" v="website"/>
    <tag k="addr:street" v="Vida utca"/>
  </node>
  <!-- Original coordinates: POINT (46.952975 16.273825) -->
  <node action="modify" changeset="99999" id="-206" lat="46.952975" lon="16.273825" timestamp="" uid="4579407" user="KAMI" version="99999">
    <tag k="brand" v="K&amp;H"/>
    <tag k="bic" v="OKHBHUHB"/>
    <tag k="operator" v="K&amp;H Bank Zrt."/>
    <tag k="atm" v="yes"/>
    <tag k="addr:postcode" v="9970"/>
    <tag k="amenity" v="bank"/>
    <tag k="website" v="https://www.kh.hu"/>
    <tag k="addr:housenumber" v="23"/>
    <tag k="addr:city" v="Szentgotthárd"/>
    <tag k="name" v="K&amp;H bank"/>
    <tag k="source" v="website"/>
    <tag k="addr:street" v="Széll Kálmán tér"/>
  </node>
</osm>
