<?xml version='1.0' encoding='UTF-8'?>
<osm generator="JOSM" version="0.6">
  <!-- Original coordinates: POINT (47.557386 19.088351) -->
  <!-- Original tags: None -->
  <node action="modify" changeset="99999" id="-1" lat="47.557386" lon="19.088351" timestamp="" uid="4579407" user="KAMI" version="99999">
    <tag k="branch" v="Príma Élelmiszer Berda József u. 48."/>
    <tag k="brand" v="Príma"/>
    <tag k="source" v="website"/>
    <tag k="name" v="Príma"/>
    <tag k="phone" v="+3613990559"/>
    <tag k="addr:housenumber" v="48"/>
    <tag k="payment:debit_cards" v="yes"/>
    <tag k="email" v="berda@jegcsillag.hu"/>
    <tag k="opening_hours" v="Fr,Mo,Th,Tu,We 06:30-20:00;Sa 07:00-16:00;Su 07:30-14:00"/>
    <tag k="addr:city" v="Budapest"/>
    <tag k="payment:cash" v="yes"/>
    <tag k="shop" v="convenience"/>
    <tag k="addr:postcode" v="1043"/>
    <tag k="website" v="https://www.prima.hu"/>
    <tag k="addr:street" v="Berda József utca"/>
  </node>
  <!-- Original coordinates: POINT (47.503092 19.065728) -->
  <!-- Original tags: None -->
  <node action="modify" changeset="99999" id="-2" lat="47.503092" lon="19.065728" timestamp="" uid="4579407" user="KAMI" version="99999">
    <tag k="branch" v="Príma Élelmiszer Erzsébet körút 58."/>
    <tag k="brand" v="Príma"/>
    <tag k="source" v="website"/>
    <tag k="name" v="Príma"/>
    <tag k="phone" v="+3614130085"/>
    <tag k="addr:housenumber" v="58"/>
    <tag k="payment:debit_cards" v="yes"/>
    <tag k="email" v="kiraly@jegcsillag.hu"/>
    <tag k="opening_hours" v="Fr,Mo,Th,Tu,We 06:30-21:30;Sa 10:00-21:30;Su 11:00-21:30"/>
    <tag k="addr:city" v="Budapest"/>
    <tag k="payment:cash" v="yes"/>
    <tag k="shop" v="convenience"/>
    <tag k="addr:postcode" v="1073"/>
    <tag k="website" v="https://www.prima.hu"/>
    <tag k="addr:street" v="Erzsébet körút"/>
  </node>
  <!-- Original coordinates: POINT (47.488287 19.082548) -->
  <!-- Original tags: None -->
  <node action="modify" changeset="99999" id="-3" lat="47.488287" lon="19.082548" timestamp="" uid="4579407" user="KAMI" version="99999">
    <tag k="branch" v="Príma Élelmiszer Baross u.111."/>
    <tag k="brand" v="Príma"/>
    <tag k="source" v="website"/>
    <tag k="name" v="Príma"/>
    <tag k="phone" v="+3612100057"/>
    <tag k="addr:housenumber" v="111"/>
    <tag k="payment:debit_cards" v="yes"/>
    <tag k="email" v="baross@jegcsillag.hu"/>
    <tag k="opening_hours" v="Fr,Mo,Th,Tu,We 06:30-21:00;Sa 07:00-16:00;Su 07:30-14:00"/>
    <tag k="addr:city" v="Budapest"/>
    <tag k="payment:cash" v="yes"/>
    <tag k="shop" v="convenience"/>
    <tag k="addr:postcode" v="1083"/>
    <tag k="website" v="https://www.prima.hu"/>
    <tag k="addr:street" v="Baross utca"/>
  </node>
  <!-- Original coordinates: POINT (47.546325 19.038255) -->
  <!-- Original tags: None -->
  <node action="modify" changeset="99999" id="-4" lat="47.546325" lon="19.038255" timestamp="" uid="4579407" user="KAMI" version="99999">
    <tag k="branch" v="Príma Élelmiszer Vihar u. 17."/>
    <tag k="brand" v="Príma"/>
    <tag k="source" v="website"/>
    <tag k="name" v="Príma"/>
    <tag k="phone" v="+3614390932"/>
    <tag k="addr:housenumber" v="17"/>
    <tag k="payment:debit_cards" v="yes"/>
    <tag k="email" v="vihar@jegcsillag.hu"/>
    <tag k="opening_hours" v="Fr,Mo,Th,Tu,We 06:30-20:00;Sa 07:00-17:00;Su 07:30-14:00"/>
    <tag k="addr:city" v="Budapest"/>
    <tag k="payment:cash" v="yes"/>
    <tag k="shop" v="convenience"/>
    <tag k="addr:postcode" v="1035"/>
    <tag k="website" v="https://www.prima.hu"/>
    <tag k="addr:street" v="Vihar utca"/>
  </node>
  <!-- Original coordinates: POINT (47.599163 19.0641) -->
  <!-- Original tags: None -->
  <node action="modify" changeset="99999" id="-5" lat="47.599163" lon="19.0641" timestamp="" uid="4579407" user="KAMI" version="99999">
    <tag k="branch" v="Príma Élelmiszer Hatvany L.u.10."/>
    <tag k="brand" v="Príma"/>
    <tag k="source" v="website"/>
    <tag k="name" v="Príma"/>
    <tag k="phone" v="+3612502843"/>
    <tag k="addr:housenumber" v="10"/>
    <tag k="payment:debit_cards" v="yes"/>
    <tag k="email" v="hatvany@jegcsillag.hu"/>
    <tag k="opening_hours" v="Fr,Mo,Th,Tu,We 06:30-20:00;Sa 07:00-14:00"/>
    <tag k="addr:city" v="Budapest"/>
    <tag k="payment:cash" v="yes"/>
    <tag k="shop" v="convenience"/>
    <tag k="addr:postcode" v="1039"/>
    <tag k="website" v="https://www.prima.hu"/>
    <tag k="addr:street" v="Hatvany Lajos utca"/>
  </node>
  <!-- Original coordinates: POINT (47.522094 19.102466) -->
  <!-- Original tags: None -->
  <node action="modify" changeset="99999" id="-6" lat="47.522094" lon="19.102466" timestamp="" uid="4579407" user="KAMI" version="99999">
    <tag k="branch" v="Príma Hermina"/>
    <tag k="brand" v="Príma"/>
    <tag k="source" v="website"/>
    <tag k="name" v="Príma"/>
    <tag k="payment:cash" v="yes"/>
    <tag k="addr:housenumber" v="212-214"/>
    <tag k="payment:debit_cards" v="yes"/>
    <tag k="opening_hours" v="Fr,Mo,Th,Tu,We 06:30-22:00;Sa 07:00-21:00;Su 08:00-18:00"/>
    <tag k="addr:city" v="Budapest"/>
    <tag k="shop" v="convenience"/>
    <tag k="addr:postcode" v="1145"/>
    <tag k="website" v="https://www.prima.hu"/>
    <tag k="addr:street" v="Nagy Lajos király út"/>
  </node>
  <!-- Original coordinates: POINT (47.497012 19.032873) -->
  <!-- Original tags: None -->
  <node action="modify" changeset="99999" id="-7" lat="47.497012" lon="19.032873" timestamp="" uid="4579407" user="KAMI" version="99999">
    <tag k="branch" v="Príma Horváthkert"/>
    <tag k="brand" v="Príma"/>
    <tag k="source" v="website"/>
    <tag k="name" v="Príma"/>
    <tag k="phone" v="+307082641"/>
    <tag k="addr:housenumber" v="5"/>
    <tag k="payment:debit_cards" v="yes"/>
    <tag k="email" v="horvathkert@cba-budavar.hu"/>
    <tag k="opening_hours" v="Fr,Mo,Sa,Th,Tu,We 07:00-22:00"/>
    <tag k="addr:city" v="Budapest"/>
    <tag k="payment:cash" v="yes"/>
    <tag k="shop" v="convenience"/>
    <tag k="addr:postcode" v="1013"/>
    <tag k="website" v="https://www.prima.hu"/>
    <tag k="addr:street" v="Alagút utca"/>
  </node>
  <!-- Original coordinates: POINT (47.503271 19.060486) -->
  <!-- Original tags: None -->
  <node action="modify" changeset="99999" id="-8" lat="47.503271" lon="19.060486" timestamp="" uid="4579407" user="KAMI" version="99999">
    <tag k="branch" v="Millennium Príma Élelmiszerüzlet"/>
    <tag k="brand" v="Príma"/>
    <tag k="source" v="website"/>
    <tag k="name" v="Príma"/>
    <tag k="phone" v="+3613010471"/>
    <tag k="addr:housenumber" v="30"/>
    <tag k="payment:debit_cards" v="yes"/>
    <tag k="opening_hours" v="Fr,Mo,Th,Tu,We 07:00-22:00;Sa 08:00-20:00;Su 10:00-20:00"/>
    <tag k="addr:city" v="Budapest"/>
    <tag k="payment:cash" v="yes"/>
    <tag k="shop" v="convenience"/>
    <tag k="addr:postcode" v="1066"/>
    <tag k="website" v="https://www.prima.hu"/>
    <tag k="addr:street" v="Andrássy út"/>
  </node>
  <!-- Original coordinates: POINT (47.486377 19.070494) -->
  <!-- Original tags: None -->
  <node action="modify" changeset="99999" id="-9" lat="47.486377" lon="19.070494" timestamp="" uid="4579407" user="KAMI" version="99999">
    <tag k="branch" v="Príma Wadi"/>
    <tag k="brand" v="Príma"/>
    <tag k="source" v="website"/>
    <tag k="name" v="Príma"/>
    <tag k="phone" v="+36306300792"/>
    <tag k="addr:housenumber" v="84"/>
    <tag k="payment:debit_cards" v="yes"/>
    <tag k="email" v="wadi.kft@gmail.com"/>
    <tag k="opening_hours" v="Fr,Mo,Sa,Th,Tu,We 06:00-21:30"/>
    <tag k="addr:city" v="Budapest"/>
    <tag k="payment:cash" v="yes"/>
    <tag k="shop" v="convenience"/>
    <tag k="addr:postcode" v="1085"/>
    <tag k="website" v="https://www.prima.hu"/>
    <tag k="addr:street" v="József körút"/>
  </node>
  <!-- Original coordinates: POINT (47.48622 19.074691) -->
  <!-- Original tags: None -->
  <node action="modify" changeset="99999" id="-10" lat="47.48622" lon="19.074691" timestamp="" uid="4579407" user="KAMI" version="99999">
    <tag k="branch" v="Pilvax Príma Élelmiszerüzlet"/>
    <tag k="brand" v="Príma"/>
    <tag k="source" v="website"/>
    <tag k="name" v="Príma"/>
    <tag k="phone" v="+3613378139"/>
    <tag k="addr:housenumber" v="14"/>
    <tag k="payment:debit_cards" v="yes"/>
    <tag k="email" v="pilvax.cba@gmail.com"/>
    <tag k="opening_hours" v="Fr,Mo,Th,Tu,We 07:00-21:00;Sa 07:00-15:00"/>
    <tag k="addr:city" v="Budapest"/>
    <tag k="payment:cash" v="yes"/>
    <tag k="shop" v="convenience"/>
    <tag k="addr:postcode" v="1082"/>
    <tag k="website" v="https://www.prima.hu"/>
    <tag k="addr:street" v="Városház utca"/>
  </node>
  <!-- Original coordinates: POINT (47.48622 19.074691) -->
  <!-- Original tags: None -->
  <node action="modify" changeset="99999" id="-11" lat="47.48622" lon="19.074691" timestamp="" uid="4579407" user="KAMI" version="99999">
    <tag k="branch" v="Príma Corvin Átrium"/>
    <tag k="brand" v="Príma"/>
    <tag k="source" v="website"/>
    <tag k="name" v="Príma"/>
    <tag k="phone" v="+3617101230"/>
    <tag k="addr:housenumber" v="37-45"/>
    <tag k="payment:debit_cards" v="yes"/>
    <tag k="email" v="igazgato@corvinatriumcba.hu"/>
    <tag k="opening_hours" v="Fr,Mo,Th,Tu,We 07:00-22:00;Sa 07:00-20:00;Su 08:00-20:00"/>
    <tag k="addr:city" v="Budapest"/>
    <tag k="payment:cash" v="yes"/>
    <tag k="shop" v="convenience"/>
    <tag k="addr:postcode" v="1082"/>
    <tag k="website" v="https://www.prima.hu"/>
    <tag k="addr:street" v="Futó utca"/>
  </node>
  <!-- Original coordinates: POINT (47.468021 19.04789) -->
  <!-- Original tags: None -->
  <node action="modify" changeset="99999" id="-12" lat="47.468021" lon="19.04789" timestamp="" uid="4579407" user="KAMI" version="99999">
    <tag k="branch" v="Príma Nádorliget"/>
    <tag k="brand" v="Príma"/>
    <tag k="source" v="website"/>
    <tag k="name" v="Príma"/>
    <tag k="payment:cash" v="yes"/>
    <tag k="addr:housenumber" v="5/a"/>
    <tag k="payment:debit_cards" v="yes"/>
    <tag k="opening_hours" v="Fr,Mo,Th,Tu,We 06:30-21:00;Sa 07:00-17:00;Su 07:00-14:00"/>
    <tag k="addr:city" v="Budapest"/>
    <tag k="shop" v="convenience"/>
    <tag k="addr:postcode" v="1117"/>
    <tag k="website" v="https://www.prima.hu"/>
    <tag k="addr:street" v="Nádorliget utca"/>
  </node>
  <!-- Original coordinates: POINT (47.549376 19.072893) -->
  <!-- Original tags: None -->
  <node action="modify" changeset="99999" id="-13" lat="47.549376" lon="19.072893" timestamp="" uid="4579407" user="KAMI" version="99999">
    <tag k="branch" v="Príma Duna Pláza"/>
    <tag k="brand" v="Príma"/>
    <tag k="source" v="website"/>
    <tag k="name" v="Príma"/>
    <tag k="phone" v="+3612363000"/>
    <tag k="addr:housenumber" v="178"/>
    <tag k="payment:debit_cards" v="yes"/>
    <tag k="email" v="vevoszolgalat@cbadunaplaza.hu"/>
    <tag k="opening_hours" v="Fr,Mo,Th,Tu,We 07:00-21:00;Sa 07:00-20:00;Su 08:00-20:00"/>
    <tag k="addr:city" v="Budapest"/>
    <tag k="payment:cash" v="yes"/>
    <tag k="shop" v="convenience"/>
    <tag k="addr:postcode" v="1138"/>
    <tag k="website" v="https://www.prima.hu"/>
    <tag k="addr:street" v="Váci út"/>
  </node>
  <!-- Original coordinates: POINT (47.499985 19.025859) -->
  <!-- Original tags: None -->
  <node action="modify" changeset="99999" id="-14" lat="47.499985" lon="19.025859" timestamp="" uid="4579407" user="KAMI" version="99999">
    <tag k="branch" v="Príma Élelmiszer Áruház - Déli"/>
    <tag k="brand" v="Príma"/>
    <tag k="source" v="website"/>
    <tag k="name" v="Príma"/>
    <tag k="phone" v="+3614890320"/>
    <tag k="addr:housenumber" v="37"/>
    <tag k="payment:debit_cards" v="yes"/>
    <tag k="opening_hours" v="Fr,Mo,Sa,Th,Tu,We 06:00-22:00;Su 06:00-21:00"/>
    <tag k="addr:city" v="Budapest"/>
    <tag k="payment:cash" v="yes"/>
    <tag k="shop" v="convenience"/>
    <tag k="addr:postcode" v="1012"/>
    <tag k="website" v="https://www.prima.hu"/>
    <tag k="addr:street" v="Krisztina körút"/>
  </node>
  <!-- Original coordinates: POINT (47.460852 18.956777) -->
  <!-- Original tags: None -->
  <node action="modify" changeset="99999" id="-15" lat="47.460852" lon="18.956777" timestamp="" uid="4579407" user="KAMI" version="99999">
    <tag k="branch" v="Príma Élelmiszer Áruház - Budaörs"/>
    <tag k="brand" v="Príma"/>
    <tag k="source" v="website"/>
    <tag k="name" v="Príma"/>
    <tag k="phone" v="+3623445750"/>
    <tag k="addr:housenumber" v="52-54"/>
    <tag k="payment:debit_cards" v="yes"/>
    <tag k="opening_hours" v="Fr,Mo,Sa,Th,Tu,We 06:00-21:00;Su 07:00-18:00"/>
    <tag k="addr:city" v="Budaörs"/>
    <tag k="payment:cash" v="yes"/>
    <tag k="shop" v="convenience"/>
    <tag k="addr:postcode" v="2040"/>
    <tag k="website" v="https://www.prima.hu"/>
    <tag k="addr:street" v="Szabadság út"/>
  </node>
  <!-- Original coordinates: POINT (47.507727 18.919632) -->
  <!-- Original tags: None -->
  <node action="modify" changeset="99999" id="-16" lat="47.507727" lon="18.919632" timestamp="" uid="4579407" user="KAMI" version="99999">
    <tag k="branch" v="Príma Élelmiszer Áruház - Budakeszi, Dózsa"/>
    <tag k="brand" v="Príma"/>
    <tag k="source" v="website"/>
    <tag k="name" v="Príma"/>
    <tag k="phone" v="+3623535571"/>
    <tag k="addr:housenumber" v="1/a"/>
    <tag k="payment:debit_cards" v="yes"/>
    <tag k="opening_hours" v="Fr,Mo,Sa,Th,Tu,We 06:00-21:00;Su 07:00-18:00"/>
    <tag k="addr:city" v="Budakeszi"/>
    <tag k="payment:cash" v="yes"/>
    <tag k="shop" v="convenience"/>
    <tag k="addr:postcode" v="2092"/>
    <tag k="website" v="https://www.prima.hu"/>
    <tag k="addr:street" v="Dózsa György tér"/>
  </node>
  <!-- Original coordinates: POINT (47.545047 18.726652) -->
  <!-- Original tags: None -->
  <node action="modify" changeset="99999" id="-17" lat="47.545047" lon="18.726652" timestamp="" uid="4579407" user="KAMI" version="99999">
    <tag k="branch" v="Príma Élelmiszer Áruház - Zsámbék"/>
    <tag k="brand" v="Príma"/>
    <tag k="source" v="website"/>
    <tag k="name" v="Príma"/>
    <tag k="phone" v="+3623565500"/>
    <tag k="addr:housenumber" v="75"/>
    <tag k="payment:debit_cards" v="yes"/>
    <tag k="opening_hours" v="Fr,Mo,Sa,Th,Tu,We 06:00-21:00;Su 07:00-18:00"/>
    <tag k="addr:city" v="Zsámbék"/>
    <tag k="payment:cash" v="yes"/>
    <tag k="shop" v="convenience"/>
    <tag k="addr:postcode" v="2072"/>
    <tag k="website" v="https://www.prima.hu"/>
    <tag k="addr:street" v="Magyar utca"/>
  </node>
  <!-- Original coordinates: POINT (47.47149 18.840432) -->
  <!-- Original tags: None -->
  <node action="modify" changeset="99999" id="-18" lat="47.47149" lon="18.840432" timestamp="" uid="4579407" user="KAMI" version="99999">
    <tag k="branch" v="Príma Élelmiszer Áruház - Biatorbágy"/>
    <tag k="brand" v="Príma"/>
    <tag k="source" v="website"/>
    <tag k="name" v="Príma"/>
    <tag k="phone" v="+3623530970"/>
    <tag k="addr:housenumber" v="2"/>
    <tag k="payment:debit_cards" v="yes"/>
    <tag k="opening_hours" v="Fr,Mo,Sa,Th,Tu,We 06:00-21:00;Su 07:00-18:00"/>
    <tag k="addr:city" v="Biatorbágy"/>
    <tag k="payment:cash" v="yes"/>
    <tag k="shop" v="convenience"/>
    <tag k="addr:postcode" v="2051"/>
    <tag k="website" v="https://www.prima.hu"/>
    <tag k="addr:street" v="Csodaszarvas utca"/>
  </node>
  <!-- Original coordinates: POINT (47.506012 19.022934) -->
  <!-- Original tags: None -->
  <node action="modify" changeset="99999" id="-19" lat="47.506012" lon="19.022934" timestamp="" uid="4579407" user="KAMI" version="99999">
    <tag k="branch" v="Príma Élelmiszer Áruház - Krisztina krt."/>
    <tag k="brand" v="Príma"/>
    <tag k="source" v="website"/>
    <tag k="name" v="Príma"/>
    <tag k="phone" v="+3612240056"/>
    <tag k="addr:housenumber" v="7"/>
    <tag k="payment:debit_cards" v="yes"/>
    <tag k="opening_hours" v="Fr,Mo,Sa,Th,Tu,We 06:00-22:00;Su 07:00-18:00"/>
    <tag k="addr:city" v="Budapest"/>
    <tag k="payment:cash" v="yes"/>
    <tag k="shop" v="convenience"/>
    <tag k="addr:postcode" v="1122"/>
    <tag k="website" v="https://www.prima.hu"/>
    <tag k="addr:street" v="Krisztina körút"/>
  </node>
  <!-- Original coordinates: POINT (47.407255 18.89134) -->
  <!-- Original tags: None -->
  <node action="modify" changeset="99999" id="-20" lat="47.407255" lon="18.89134" timestamp="" uid="4579407" user="KAMI" version="99999">
    <tag k="branch" v="Príma Élelmiszer Áruház - Érd, Pára"/>
    <tag k="brand" v="Príma"/>
    <tag k="source" v="website"/>
    <tag k="name" v="Príma"/>
    <tag k="phone" v="+3623520349"/>
    <tag k="addr:housenumber" v="125-127"/>
    <tag k="payment:debit_cards" v="yes"/>
    <tag k="opening_hours" v="Fr,Mo,Sa,Th,Tu,We 06:00-21:00;Su 07:00-18:00"/>
    <tag k="addr:city" v="Érd"/>
    <tag k="payment:cash" v="yes"/>
    <tag k="shop" v="convenience"/>
    <tag k="addr:postcode" v="2030"/>
    <tag k="website" v="https://www.prima.hu"/>
    <tag k="addr:street" v="Bajcsy-Zs. utca"/>
  </node>
  <!-- Original coordinates: POINT (47.515845 18.833571) -->
  <!-- Original tags: None -->
  <node action="modify" changeset="99999" id="-21" lat="47.515845" lon="18.833571" timestamp="" uid="4579407" user="KAMI" version="99999">
    <tag k="branch" v="Príma Élelmiszer Áruház - Páty"/>
    <tag k="brand" v="Príma"/>
    <tag k="source" v="website"/>
    <tag k="name" v="Príma"/>
    <tag k="phone" v="+3623555550"/>
    <tag k="addr:housenumber" v="3"/>
    <tag k="payment:debit_cards" v="yes"/>
    <tag k="opening_hours" v="Fr,Mo,Sa,Th,Tu,We 06:00-21:00;Su 07:00-18:00"/>
    <tag k="addr:city" v="Páty"/>
    <tag k="payment:cash" v="yes"/>
    <tag k="shop" v="convenience"/>
    <tag k="addr:postcode" v="2071"/>
    <tag k="website" v="https://www.prima.hu"/>
    <tag k="addr:street" v="Somogyi B. utca"/>
  </node>
  <!-- Original coordinates: POINT (47.448444 18.751422) -->
  <!-- Original tags: None -->
  <node action="modify" changeset="99999" id="-22" lat="47.448444" lon="18.751422" timestamp="" uid="4579407" user="KAMI" version="99999">
    <tag k="branch" v="Príma Élelmiszer Áruház - Etyek"/>
    <tag k="brand" v="Príma"/>
    <tag k="source" v="website"/>
    <tag k="name" v="Príma"/>
    <tag k="phone" v="+3622597058"/>
    <tag k="addr:housenumber" v="4"/>
    <tag k="payment:debit_cards" v="yes"/>
    <tag k="opening_hours" v="Fr,Mo,Th,Tu,We 06:00-21:00;Sa 06:00-20:00;Su 07:00-18:00"/>
    <tag k="addr:city" v="Etyek"/>
    <tag k="payment:cash" v="yes"/>
    <tag k="shop" v="convenience"/>
    <tag k="addr:postcode" v="2091"/>
    <tag k="website" v="https://www.prima.hu"/>
    <tag k="addr:street" v="Körpince utca"/>
  </node>
  <!-- Original coordinates: POINT (47.509098 19.025322) -->
  <!-- Original tags: None -->
  <node action="modify" changeset="99999" id="-23" lat="47.509098" lon="19.025322" timestamp="" uid="4579407" user="KAMI" version="99999">
    <tag k="branch" v="Príma Élelmiszer Áruház - Lövőház"/>
    <tag k="brand" v="Príma"/>
    <tag k="source" v="website"/>
    <tag k="name" v="Príma"/>
    <tag k="phone" v="+3613360347"/>
    <tag k="addr:housenumber" v="12-14"/>
    <tag k="payment:debit_cards" v="yes"/>
    <tag k="opening_hours" v="Fr,Mo,Sa,Th,Tu,We 06:00-21:00;Su 08:00-20:00"/>
    <tag k="addr:city" v="Budapest"/>
    <tag k="payment:cash" v="yes"/>
    <tag k="shop" v="convenience"/>
    <tag k="addr:postcode" v="1024"/>
    <tag k="website" v="https://www.prima.hu"/>
    <tag k="addr:street" v="Lövőház utca"/>
  </node>
  <!-- Original coordinates: POINT (47.698687 17.542074) -->
  <!-- Original tags: None -->
  <node action="modify" changeset="99999" id="-24" lat="47.698687" lon="17.542074" timestamp="" uid="4579407" user="KAMI" version="99999">
    <tag k="branch" v="6.számú Delikát ABC Príma"/>
    <tag k="brand" v="Príma"/>
    <tag k="source" v="website"/>
    <tag k="name" v="Príma"/>
    <tag k="phone" v="+3696553200"/>
    <tag k="addr:housenumber" v="47"/>
    <tag k="payment:debit_cards" v="yes"/>
    <tag k="email" v="delikat6@delikatkft.hu"/>
    <tag k="opening_hours" v="Fr,Mo,Th,Tu,We 07:00-19:30;Sa 07:00-18:00;Su 07:00-11:00"/>
    <tag k="addr:city" v="Abda"/>
    <tag k="payment:cash" v="yes"/>
    <tag k="shop" v="convenience"/>
    <tag k="addr:postcode" v="9151"/>
    <tag k="website" v="https://www.prima.hu"/>
    <tag k="addr:street" v="Hunyadi út"/>
  </node>
  <!-- Original coordinates: POINT (47.867763 17.271554) -->
  <!-- Original tags: None -->
  <node action="modify" changeset="99999" id="-25" lat="47.867763" lon="17.271554" timestamp="" uid="4579407" user="KAMI" version="99999">
    <tag k="branch" v="7.számú Delikát csemegebolt Príma"/>
    <tag k="brand" v="Príma"/>
    <tag k="source" v="website"/>
    <tag k="name" v="Príma"/>
    <tag k="phone" v="+3696211344"/>
    <tag k="payment:debit_cards" v="yes"/>
    <tag k="email" v="delikat7@delikatkft.hu"/>
    <tag k="opening_hours" v="Fr,Mo,Th,Tu,We 06:00-19:00;Sa 06:00-13:00;Su 07:00-11:00"/>
    <tag k="addr:city" v="Mosonmagyaróvár"/>
    <tag k="payment:cash" v="yes"/>
    <tag k="shop" v="convenience"/>
    <tag k="addr:postcode" v="9200"/>
    <tag k="website" v="https://www.prima.hu"/>
  </node>
  <!-- Original coordinates: POINT (47.674126 17.65854) -->
  <!-- Original tags: None -->
  <node action="modify" changeset="99999" id="-26" lat="47.674126" lon="17.65854" timestamp="" uid="4579407" user="KAMI" version="99999">
    <tag k="branch" v="13.számú Delikát csemege Príma"/>
    <tag k="brand" v="Príma"/>
    <tag k="source" v="website"/>
    <tag k="name" v="Príma"/>
    <tag k="phone" v="+3696424335"/>
    <tag k="addr:housenumber" v="36"/>
    <tag k="payment:debit_cards" v="yes"/>
    <tag k="email" v="delikat13@delikatkft.hu"/>
    <tag k="opening_hours" v="Fr,Mo,Th,Tu,We 06:00-19:00;Sa 06:00-13:00;Su 07:00-11:00"/>
    <tag k="addr:city" v="Győr"/>
    <tag k="payment:cash" v="yes"/>
    <tag k="shop" v="convenience"/>
    <tag k="addr:postcode" v="9023"/>
    <tag k="website" v="https://www.prima.hu"/>
    <tag k="addr:street" v="Ifjúság körút"/>
  </node>
  <!-- Original coordinates: POINT (46.907408 19.689162) -->
  <!-- Original tags: None -->
  <node action="modify" changeset="99999" id="-27" lat="46.907408" lon="19.689162" timestamp="" uid="4579407" user="KAMI" version="99999">
    <tag k="branch" v="Príma Kecskemét"/>
    <tag k="brand" v="Príma"/>
    <tag k="source" v="website"/>
    <tag k="name" v="Príma"/>
    <tag k="phone" v="+3676328431"/>
    <tag k="addr:housenumber" v="2"/>
    <tag k="payment:debit_cards" v="yes"/>
    <tag k="email" v="kecskemet@lazarmalom.t-online.hu"/>
    <tag k="opening_hours" v="Fr,Mo,Sa,Th,Tu,We 07:00-21:00;Su 08:00-18:00"/>
    <tag k="addr:city" v="Kecskemét"/>
    <tag k="payment:cash" v="yes"/>
    <tag k="shop" v="convenience"/>
    <tag k="addr:postcode" v="6000"/>
    <tag k="website" v="https://www.prima.hu"/>
    <tag k="addr:street" v="Korona utca"/>
  </node>
  <!-- Original coordinates: POINT (47.510586 19.190814) -->
  <!-- Original tags: None -->
  <node action="modify" changeset="99999" id="-28" lat="47.510586" lon="19.190814" timestamp="" uid="4579407" user="KAMI" version="99999">
    <tag k="branch" v="Príma Jókai"/>
    <tag k="brand" v="Príma"/>
    <tag k="source" v="website"/>
    <tag k="name" v="Príma"/>
    <tag k="phone" v="+3614010593"/>
    <tag k="addr:housenumber" v="2"/>
    <tag k="payment:debit_cards" v="yes"/>
    <tag k="email" v="cba-jokai@lazarteam.hu"/>
    <tag k="opening_hours" v="Fr,Mo,Th,Tu,We 06:00-20:00;Sa 06:30-18:00"/>
    <tag k="addr:city" v="Budapest"/>
    <tag k="payment:cash" v="yes"/>
    <tag k="shop" v="convenience"/>
    <tag k="addr:postcode" v="1165"/>
    <tag k="website" v="https://www.prima.hu"/>
    <tag k="addr:street" v="Jókai Mór utca"/>
  </node>
  <!-- Original coordinates: POINT (47.559631 19.089965) -->
  <!-- Original tags: None -->
  <node action="modify" changeset="99999" id="-29" lat="47.559631" lon="19.089965" timestamp="" uid="4579407" user="KAMI" version="99999">
    <tag k="branch" v="Príma Munkásotthon"/>
    <tag k="brand" v="Príma"/>
    <tag k="source" v="website"/>
    <tag k="name" v="Príma"/>
    <tag k="phone" v="+3612310215"/>
    <tag k="addr:housenumber" v="26"/>
    <tag k="payment:debit_cards" v="yes"/>
    <tag k="email" v="cba-ujpest@lazarteam.hu"/>
    <tag k="opening_hours" v="Fr,Mo,Sa,Th,Tu,We 06:00-22:00;Su 08:00-19:00"/>
    <tag k="addr:city" v="Budapest"/>
    <tag k="payment:cash" v="yes"/>
    <tag k="shop" v="convenience"/>
    <tag k="addr:postcode" v="1042"/>
    <tag k="website" v="https://www.prima.hu"/>
    <tag k="addr:street" v="Munkásotthon utca"/>
  </node>
  <!-- Original coordinates: POINT (47.443554 19.037284) -->
  <!-- Original tags: None -->
  <node action="modify" changeset="99999" id="-30" lat="47.443554" lon="19.037284" timestamp="" uid="4579407" user="KAMI" version="99999">
    <tag k="branch" v="Príma Élelmiszer Áruház - Fehérvári"/>
    <tag k="brand" v="Príma"/>
    <tag k="source" v="website"/>
    <tag k="name" v="Príma"/>
    <tag k="phone" v="+3612053530"/>
    <tag k="addr:housenumber" v="192"/>
    <tag k="payment:debit_cards" v="yes"/>
    <tag k="opening_hours" v="Fr,Mo,Sa,Th,Tu,We 06:00-21:00;Su 07:00-18:00"/>
    <tag k="addr:city" v="Budapest"/>
    <tag k="payment:cash" v="yes"/>
    <tag k="shop" v="convenience"/>
    <tag k="addr:postcode" v="1116"/>
    <tag k="website" v="https://www.prima.hu"/>
    <tag k="addr:street" v="Fehérvári út"/>
  </node>
  <!-- Original coordinates: POINT (47.498062 19.055507) -->
  <!-- Original tags: None -->
  <node action="modify" changeset="99999" id="-31" lat="47.498062" lon="19.055507" timestamp="" uid="4579407" user="KAMI" version="99999">
    <tag k="branch" v="Príma Anker"/>
    <tag k="brand" v="Príma"/>
    <tag k="source" v="website"/>
    <tag k="name" v="Príma"/>
    <tag k="phone" v="+3612350703"/>
    <tag k="addr:housenumber" v="1-3"/>
    <tag k="payment:debit_cards" v="yes"/>
    <tag k="email" v="cba-anker@lazarteam.hu"/>
    <tag k="opening_hours" v="Fr,Mo,Sa,Th,Tu,We 06:00-22:00;Su 07:00-21:00"/>
    <tag k="addr:city" v="Budapest"/>
    <tag k="payment:cash" v="yes"/>
    <tag k="shop" v="convenience"/>
    <tag k="addr:postcode" v="1061"/>
    <tag k="website" v="https://www.prima.hu"/>
    <tag k="addr:street" v="Anker köz"/>
  </node>
  <!-- Original coordinates: POINT (47.479397 19.153384) -->
  <!-- Original tags: None -->
  <node action="modify" changeset="99999" id="-32" lat="47.479397" lon="19.153384" timestamp="" uid="4579407" user="KAMI" version="99999">
    <tag k="branch" v="Príma Kada"/>
    <tag k="brand" v="Príma"/>
    <tag k="source" v="website"/>
    <tag k="name" v="Príma"/>
    <tag k="phone" v="+3614332082"/>
    <tag k="addr:housenumber" v="122"/>
    <tag k="payment:debit_cards" v="yes"/>
    <tag k="email" v="cba-kada@lazarteam.hu"/>
    <tag k="opening_hours" v="Fr,Mo,Th,Tu,We 06:00-20:00;Sa 06:30-14:00;Su 07:00-13:00"/>
    <tag k="addr:city" v="Budapest"/>
    <tag k="payment:cash" v="yes"/>
    <tag k="shop" v="convenience"/>
    <tag k="addr:postcode" v="1104"/>
    <tag k="website" v="https://www.prima.hu"/>
    <tag k="addr:street" v="Kada utca"/>
  </node>
  <!-- Original coordinates: POINT (47.499077 19.051672) -->
  <!-- Original tags: None -->
  <node action="modify" changeset="99999" id="-33" lat="47.499077" lon="19.051672" timestamp="" uid="4579407" user="KAMI" version="99999">
    <tag k="branch" v="Príma József Attila"/>
    <tag k="brand" v="Príma"/>
    <tag k="source" v="website"/>
    <tag k="name" v="Príma"/>
    <tag k="phone" v="+3612350830"/>
    <tag k="addr:housenumber" v="16"/>
    <tag k="payment:debit_cards" v="yes"/>
    <tag k="email" v="cba-jozsefattila@lazarteam.hu"/>
    <tag k="opening_hours" v="Fr,Mo,Th,Tu,We 07:00-21:00;Sa 08:00-20:00;Su 09:00-20:00"/>
    <tag k="addr:city" v="Budapest"/>
    <tag k="payment:cash" v="yes"/>
    <tag k="shop" v="convenience"/>
    <tag k="addr:postcode" v="1051"/>
    <tag k="website" v="https://www.prima.hu"/>
    <tag k="addr:street" v="József Attila utca"/>
  </node>
  <!-- Original coordinates: POINT (47.516799 19.184924) -->
  <!-- Original tags: None -->
  <node action="modify" changeset="99999" id="-34" lat="47.516799" lon="19.184924" timestamp="" uid="4579407" user="KAMI" version="99999">
    <tag k="branch" v="Príma Centenárium"/>
    <tag k="brand" v="Príma"/>
    <tag k="source" v="website"/>
    <tag k="name" v="Príma"/>
    <tag k="phone" v="+3614010168"/>
    <tag k="addr:housenumber" v="16-24"/>
    <tag k="payment:debit_cards" v="yes"/>
    <tag k="email" v="cba-centi@lazarteam.hu"/>
    <tag k="opening_hours" v="Fr,Mo,Th,Tu,We 06:00-20:00;Sa 06:30-18:00"/>
    <tag k="addr:city" v="Budapest"/>
    <tag k="payment:cash" v="yes"/>
    <tag k="shop" v="convenience"/>
    <tag k="addr:postcode" v="1165"/>
    <tag k="website" v="https://www.prima.hu"/>
    <tag k="addr:street" v="Centenáriumi sétány"/>
  </node>
  <!-- Original coordinates: POINT (47.463938 19.033375) -->
  <!-- Original tags: None -->
  <node action="modify" changeset="99999" id="-35" lat="47.463938" lon="19.033375" timestamp="" uid="4579407" user="KAMI" version="99999">
    <tag k="branch" v="Príma Élelmiszer Áruház - Tétény"/>
    <tag k="brand" v="Príma"/>
    <tag k="source" v="website"/>
    <tag k="name" v="Príma"/>
    <tag k="phone" v="+3612053368"/>
    <tag k="addr:housenumber" v="63"/>
    <tag k="payment:debit_cards" v="yes"/>
    <tag k="opening_hours" v="Fr,Mo,Th,Tu,We 06:00-22:00;Sa 06:00-20:00;Su 07:00-18:00"/>
    <tag k="addr:city" v="Budapest"/>
    <tag k="payment:cash" v="yes"/>
    <tag k="shop" v="convenience"/>
    <tag k="addr:postcode" v="1119"/>
    <tag k="website" v="https://www.prima.hu"/>
    <tag k="addr:street" v="Tétényi út"/>
  </node>
  <!-- Original coordinates: POINT (47.432793 19.036832) -->
  <!-- Original tags: None -->
  <node action="modify" changeset="99999" id="-36" lat="47.432793" lon="19.036832" timestamp="" uid="4579407" user="KAMI" version="99999">
    <tag k="branch" v="Príma Élelmiszer Áruház - Leányka"/>
    <tag k="brand" v="Príma"/>
    <tag k="source" v="website"/>
    <tag k="name" v="Príma"/>
    <tag k="phone" v="+3612053560"/>
    <tag k="addr:housenumber" v="13"/>
    <tag k="payment:debit_cards" v="yes"/>
    <tag k="opening_hours" v="Fr,Mo,Sa,Th,Tu,We 06:00-21:00;Su 07:00-18:00"/>
    <tag k="addr:city" v="Budapest"/>
    <tag k="payment:cash" v="yes"/>
    <tag k="shop" v="convenience"/>
    <tag k="addr:postcode" v="1221"/>
    <tag k="website" v="https://www.prima.hu"/>
    <tag k="addr:street" v="Leányka utca"/>
  </node>
  <!-- Original coordinates: POINT (47.540759 19.140818) -->
  <!-- Original tags: None -->
  <node action="modify" changeset="99999" id="-37" lat="47.540759" lon="19.140818" timestamp="" uid="4579407" user="KAMI" version="99999">
    <tag k="branch" v="Príma Legénybíró"/>
    <tag k="brand" v="Príma"/>
    <tag k="source" v="website"/>
    <tag k="name" v="Príma"/>
    <tag k="phone" v="+3614140163"/>
    <tag k="addr:housenumber" v="2"/>
    <tag k="payment:debit_cards" v="yes"/>
    <tag k="email" v="cba-legenybiro@lazarteam.hu"/>
    <tag k="opening_hours" v="Fr,Mo,Th,Tu,We 06:00-20:00;Sa 07:00-16:00;Su 07:00-14:00"/>
    <tag k="addr:city" v="Budapest"/>
    <tag k="payment:cash" v="yes"/>
    <tag k="shop" v="convenience"/>
    <tag k="addr:postcode" v="1157"/>
    <tag k="website" v="https://www.prima.hu"/>
    <tag k="addr:street" v="Legénybíró utca"/>
  </node>
  <!-- Original coordinates: POINT (47.616498 18.916228) -->
  <!-- Original tags: None -->
  <node action="modify" changeset="99999" id="-38" lat="47.616498" lon="18.916228" timestamp="" uid="4579407" user="KAMI" version="99999">
    <tag k="branch" v="HTZRT - 01.sz. Príma Élelmiszer üzlet"/>
    <tag k="brand" v="Príma"/>
    <tag k="source" v="website"/>
    <tag k="name" v="Príma"/>
    <tag k="payment:cash" v="yes"/>
    <tag k="addr:housenumber" v="2/f"/>
    <tag k="payment:debit_cards" v="yes"/>
    <tag k="opening_hours" v="Fr,Mo,Th,Tu,We 06:00-20:00;Sa 06:00-15:00;Su 07:00-13:00"/>
    <tag k="addr:city" v="Pilisvörösvár"/>
    <tag k="shop" v="convenience"/>
    <tag k="addr:postcode" v="2085"/>
    <tag k="website" v="https://www.prima.hu"/>
    <tag k="addr:street" v="Fő utca"/>
  </node>
  <!-- Original coordinates: POINT (47.518915 17.513532) -->
  <!-- Original tags: None -->
  <node action="modify" changeset="99999" id="-39" lat="47.518915" lon="17.513532" timestamp="" uid="4579407" user="KAMI" version="99999">
    <tag k="branch" v="24.sz. Kismegyer-Delikát Kft. Príma"/>
    <tag k="brand" v="Príma"/>
    <tag k="source" v="website"/>
    <tag k="name" v="Príma"/>
    <tag k="phone" v="+3696561088"/>
    <tag k="addr:housenumber" v="70"/>
    <tag k="payment:debit_cards" v="yes"/>
    <tag k="email" v="delikat24@delikatkft.hu"/>
    <tag k="opening_hours" v="Fr,Mo,Th,Tu,We 06:00-19:30;Sa 07:00-18:30;Su 07:00-11:00"/>
    <tag k="addr:city" v="Tét"/>
    <tag k="payment:cash" v="yes"/>
    <tag k="shop" v="convenience"/>
    <tag k="addr:postcode" v="9100"/>
    <tag k="website" v="https://www.prima.hu"/>
    <tag k="addr:street" v="Debrecen út"/>
  </node>
  <!-- Original coordinates: POINT (47.669641 19.073815) -->
  <!-- Original tags: None -->
  <node action="modify" changeset="99999" id="-40" lat="47.669641" lon="19.073815" timestamp="" uid="4579407" user="KAMI" version="99999">
    <tag k="branch" v="HTZRT - 09.sz. Príma Élelmiszer üzlet"/>
    <tag k="brand" v="Príma"/>
    <tag k="source" v="website"/>
    <tag k="name" v="Príma"/>
    <tag k="payment:cash" v="yes"/>
    <tag k="addr:housenumber" v="2"/>
    <tag k="payment:debit_cards" v="yes"/>
    <tag k="opening_hours" v="Fr,Mo,Th,Tu,We 06:00-20:00;Sa 06:00-14:00;Su 07:00-13:00"/>
    <tag k="addr:city" v="Szentendre"/>
    <tag k="shop" v="convenience"/>
    <tag k="addr:postcode" v="2000"/>
    <tag k="website" v="https://www.prima.hu"/>
    <tag k="addr:street" v="Dobozi utca"/>
  </node>
  <!-- Original coordinates: POINT (47.374086 16.769627) -->
  <!-- Original tags: None -->
  <node action="modify" changeset="99999" id="-41" lat="47.374086" lon="16.769627" timestamp="" uid="4579407" user="KAMI" version="99999">
    <tag k="branch" v="25.sz. Kismegyer-Delikát Kft. Príma"/>
    <tag k="brand" v="Príma"/>
    <tag k="source" v="website"/>
    <tag k="name" v="Príma"/>
    <tag k="phone" v="+3694655046"/>
    <tag k="addr:housenumber" v="127"/>
    <tag k="payment:debit_cards" v="yes"/>
    <tag k="email" v="delikat25@delikatkft.hu"/>
    <tag k="opening_hours" v="Fr,Mo,Sa,Th,Tu,We 06:00-19:30;Su 07:00-11:00"/>
    <tag k="addr:city" v="Bük"/>
    <tag k="payment:cash" v="yes"/>
    <tag k="shop" v="convenience"/>
    <tag k="addr:postcode" v="9737"/>
    <tag k="website" v="https://www.prima.hu"/>
    <tag k="addr:street" v="Kossuth utca"/>
  </node>
  <!-- Original coordinates: POINT (47.711773 18.01091) -->
  <!-- Original tags: None -->
  <node action="modify" changeset="99999" id="-42" lat="47.711773" lon="18.01091" timestamp="" uid="4579407" user="KAMI" version="99999">
    <tag k="branch" v="26.sz. Kismegyer-Delikát Kft. Príma"/>
    <tag k="brand" v="Príma"/>
    <tag k="source" v="website"/>
    <tag k="name" v="Príma"/>
    <tag k="phone" v="+3634595010"/>
    <tag k="addr:housenumber" v="4"/>
    <tag k="payment:debit_cards" v="yes"/>
    <tag k="email" v="delikat26@delikatkft.hu"/>
    <tag k="opening_hours" v="Fr,Mo,Th,Tu,We 06:00-19:30;Sa 06:00-18:30;Su 07:00-11:00"/>
    <tag k="addr:city" v="Ács"/>
    <tag k="payment:cash" v="yes"/>
    <tag k="shop" v="convenience"/>
    <tag k="addr:postcode" v="2941"/>
    <tag k="website" v="https://www.prima.hu"/>
    <tag k="addr:street" v="Zichy park"/>
  </node>
  <!-- Original coordinates: POINT (47.605135 17.655414) -->
  <!-- Original tags: None -->
  <node action="modify" changeset="99999" id="-43" lat="47.605135" lon="17.655414" timestamp="" uid="4579407" user="KAMI" version="99999">
    <tag k="branch" v="31.sz. Delikát. Príma"/>
    <tag k="brand" v="Príma"/>
    <tag k="source" v="website"/>
    <tag k="name" v="Príma"/>
    <tag k="phone" v="+3696543141"/>
    <tag k="addr:housenumber" v="18"/>
    <tag k="payment:debit_cards" v="yes"/>
    <tag k="email" v="delikat31@delikatkft.hu"/>
    <tag k="opening_hours" v="Fr,Mo,Th,Tu,We 06:00-19:30;Sa 06:00-18:00;Su 07:00-11:00"/>
    <tag k="addr:city" v="Győrújbarát"/>
    <tag k="payment:cash" v="yes"/>
    <tag k="shop" v="convenience"/>
    <tag k="addr:postcode" v="9081"/>
    <tag k="website" v="https://www.prima.hu"/>
    <tag k="addr:street" v="Széchenyi körút"/>
  </node>
  <!-- Original coordinates: POINT (47.607927 18.384788) -->
  <!-- Original tags: None -->
  <node action="modify" changeset="99999" id="-44" lat="47.607927" lon="18.384788" timestamp="" uid="4579407" user="KAMI" version="99999">
    <tag k="branch" v="HTZRT - 28.sz. Príma Élelmiszer üzlet"/>
    <tag k="brand" v="Príma"/>
    <tag k="source" v="website"/>
    <tag k="name" v="Príma"/>
    <tag k="payment:cash" v="yes"/>
    <tag k="addr:housenumber" v="1-3"/>
    <tag k="payment:debit_cards" v="yes"/>
    <tag k="opening_hours" v="Fr,Mo,Th,Tu,We 07:00-20:00;Sa 07:00-18:00;Su 09:00-18:00"/>
    <tag k="addr:city" v="Vértesszőlős"/>
    <tag k="shop" v="convenience"/>
    <tag k="addr:postcode" v="2837"/>
    <tag k="website" v="https://www.prima.hu"/>
    <tag k="addr:street" v="Határ út"/>
  </node>
  <!-- Original coordinates: POINT (47.746246 17.574283) -->
  <!-- Original tags: None -->
  <node action="modify" changeset="99999" id="-45" lat="47.746246" lon="17.574283" timestamp="" uid="4579407" user="KAMI" version="99999">
    <tag k="branch" v="32.sz. Delikát. Príma"/>
    <tag k="brand" v="Príma"/>
    <tag k="addr:conscriptionnumber" v="552"/>
    <tag k="name" v="Príma"/>
    <tag k="phone" v="+3696545003"/>
    <tag k="payment:debit_cards" v="yes"/>
    <tag k="email" v="delikat32@delikatkft.hu"/>
    <tag k="opening_hours" v="Fr,Mo,Th,Tu,We 06:00-19:30;Sa 06:00-18:00;Su 07:00-11:00"/>
    <tag k="addr:city" v="Győrzámoly"/>
    <tag k="payment:cash" v="yes"/>
    <tag k="shop" v="convenience"/>
    <tag k="addr:postcode" v="9172"/>
    <tag k="website" v="https://www.prima.hu"/>
    <tag k="addr:street" v="Ancsali utca"/>
    <tag k="source" v="website"/>
  </node>
  <!-- Original coordinates: POINT (47.878456 17.281279) -->
  <!-- Original tags: None -->
  <node action="modify" changeset="99999" id="-46" lat="47.878456" lon="17.281279" timestamp="" uid="4579407" user="KAMI" version="99999">
    <tag k="branch" v="33.sz. Delikát. Príma"/>
    <tag k="brand" v="Príma"/>
    <tag k="source" v="website"/>
    <tag k="name" v="Príma"/>
    <tag k="phone" v="+3696576554"/>
    <tag k="addr:housenumber" v="19"/>
    <tag k="payment:debit_cards" v="yes"/>
    <tag k="email" v="delikat33@delikatkft.hu"/>
    <tag k="opening_hours" v="Fr,Mo,Th,Tu,We 06:00-19:30;Sa 06:00-18:00;Su 07:00-11:00"/>
    <tag k="addr:city" v="Mosonmagyaróvár"/>
    <tag k="payment:cash" v="yes"/>
    <tag k="shop" v="convenience"/>
    <tag k="addr:postcode" v="9200"/>
    <tag k="website" v="https://www.prima.hu"/>
    <tag k="addr:street" v="Kálnoki utca"/>
  </node>
  <!-- Original coordinates: POINT (47.597003 18.929052) -->
  <!-- Original tags: None -->
  <node action="modify" changeset="99999" id="-47" lat="47.597003" lon="18.929052" timestamp="" uid="4579407" user="KAMI" version="99999">
    <tag k="branch" v="HTZRT - 07.sz. Príma Élelmiszer üzlet"/>
    <tag k="brand" v="Príma"/>
    <tag k="source" v="website"/>
    <tag k="name" v="Príma"/>
    <tag k="payment:cash" v="yes"/>
    <tag k="addr:housenumber" v="94"/>
    <tag k="payment:debit_cards" v="yes"/>
    <tag k="opening_hours" v="Fr,Mo,Th,Tu,We 06:00-20:00;Sa 06:00-13:00"/>
    <tag k="addr:city" v="Solymár"/>
    <tag k="shop" v="convenience"/>
    <tag k="addr:postcode" v="2083"/>
    <tag k="website" v="https://www.prima.hu"/>
    <tag k="addr:street" v="Terstyánszky Ödön utca"/>
  </node>
  <!-- Original coordinates: POINT (47.628646 17.60116) -->
  <!-- Original tags: None -->
  <node action="modify" changeset="99999" id="-48" lat="47.628646" lon="17.60116" timestamp="" uid="4579407" user="KAMI" version="99999">
    <tag k="branch" v="39.sz. Delikát. Príma"/>
    <tag k="brand" v="Príma"/>
    <tag k="source" v="website"/>
    <tag k="name" v="Príma"/>
    <tag k="phone" v="+3696556106"/>
    <tag k="addr:housenumber" v="19"/>
    <tag k="payment:debit_cards" v="yes"/>
    <tag k="email" v="delikat39@delikatkft.hu"/>
    <tag k="opening_hours" v="Fr,Mo,Th,Tu,We 06:00-19:30;Sa 07:00-18:00;Su 07:00-11:00"/>
    <tag k="addr:city" v="Győr"/>
    <tag k="payment:cash" v="yes"/>
    <tag k="shop" v="convenience"/>
    <tag k="addr:postcode" v="9012"/>
    <tag k="website" v="https://www.prima.hu"/>
    <tag k="addr:street" v="Új-Élet utca"/>
  </node>
  <!-- Original coordinates: POINT (47.718608 19.089245) -->
  <!-- Original tags: None -->
  <node action="modify" changeset="99999" id="-49" lat="47.718608" lon="19.089245" timestamp="" uid="4579407" user="KAMI" version="99999">
    <tag k="branch" v="HTZRT - 24.sz. Príma Élelmiszer üzlet"/>
    <tag k="brand" v="Príma"/>
    <tag k="source" v="website"/>
    <tag k="name" v="Príma"/>
    <tag k="payment:cash" v="yes"/>
    <tag k="addr:housenumber" v="167"/>
    <tag k="payment:debit_cards" v="yes"/>
    <tag k="opening_hours" v="Fr,Mo,Th,Tu,We 06:00-20:00;Sa 07:00-17:00;Su 07:00-16:00"/>
    <tag k="addr:city" v="Leányfalu"/>
    <tag k="shop" v="convenience"/>
    <tag k="addr:postcode" v="2016"/>
    <tag k="website" v="https://www.prima.hu"/>
    <tag k="addr:street" v="Móricz Zsigmond út"/>
  </node>
  <!-- Original coordinates: POINT (47.609706 18.897512) -->
  <!-- Original tags: None -->
  <node action="modify" changeset="99999" id="-50" lat="47.609706" lon="18.897512" timestamp="" uid="4579407" user="KAMI" version="99999">
    <tag k="branch" v="HTZRT - 04.sz. Príma Élelmiszer üzlet"/>
    <tag k="brand" v="Príma"/>
    <tag k="source" v="website"/>
    <tag k="name" v="Príma"/>
    <tag k="payment:cash" v="yes"/>
    <tag k="addr:housenumber" v="91"/>
    <tag k="payment:debit_cards" v="yes"/>
    <tag k="opening_hours" v="Fr,Mo,Th,Tu,We 06:00-20:00;Sa 06:00-15:00;Su 07:00-13:00"/>
    <tag k="addr:city" v="Pilisszentiván"/>
    <tag k="shop" v="convenience"/>
    <tag k="addr:postcode" v="2084"/>
    <tag k="website" v="https://www.prima.hu"/>
    <tag k="addr:street" v="Szabadság utca"/>
  </node>
  <!-- Original coordinates: POINT (47.650476 18.316773) -->
  <!-- Original tags: None -->
  <node action="modify" changeset="99999" id="-51" lat="47.650476" lon="18.316773" timestamp="" uid="4579407" user="KAMI" version="99999">
    <tag k="branch" v="HTZRT - 27.sz. Príma Élelmiszer üzlet"/>
    <tag k="brand" v="Príma"/>
    <tag k="source" v="website"/>
    <tag k="name" v="Príma"/>
    <tag k="payment:cash" v="yes"/>
    <tag k="addr:housenumber" v="20"/>
    <tag k="payment:debit_cards" v="yes"/>
    <tag k="opening_hours" v="Fr,Mo,Th,Tu,We 06:00-20:00;Sa 06:00-16:00;Su 07:00-13:00"/>
    <tag k="addr:city" v="Tata"/>
    <tag k="shop" v="convenience"/>
    <tag k="addr:postcode" v="2890"/>
    <tag k="website" v="https://www.prima.hu"/>
    <tag k="addr:street" v="Május 1 út"/>
  </node>
  <!-- Original coordinates: POINT (47.490148 19.055388) -->
  <!-- Original tags: None -->
  <node action="modify" changeset="99999" id="-52" lat="47.490148" lon="19.055388" timestamp="" uid="4579407" user="KAMI" version="99999">
    <tag k="branch" v="Príma CORSO GOURMET Áruház"/>
    <tag k="brand" v="Príma"/>
    <tag k="source" v="website"/>
    <tag k="name" v="Príma"/>
    <tag k="payment:cash" v="yes"/>
    <tag k="addr:housenumber" v="54"/>
    <tag k="payment:debit_cards" v="yes"/>
    <tag k="email" v="corsogourmet@cba-baldauf.hu"/>
    <tag k="opening_hours" v="Fr,Mo,Sa,Th,Tu,We 08:00-21:00;Su 09:00-19:00"/>
    <tag k="addr:city" v="Budapest"/>
    <tag k="shop" v="convenience"/>
    <tag k="addr:postcode" v="1056"/>
    <tag k="website" v="https://www.prima.hu"/>
    <tag k="addr:street" v="Váci utca"/>
  </node>
  <!-- Original coordinates: POINT (47.450524 19.172698) -->
  <!-- Original tags: None -->
  <node action="modify" changeset="99999" id="-53" lat="47.450524" lon="19.172698" timestamp="" uid="4579407" user="KAMI" version="99999">
    <tag k="branch" v="Lakatos Príma Élelmiszer áruház"/>
    <tag k="brand" v="Príma"/>
    <tag k="source" v="website"/>
    <tag k="name" v="Príma"/>
    <tag k="phone" v="+3612960573"/>
    <tag k="addr:housenumber" v="7"/>
    <tag k="payment:debit_cards" v="yes"/>
    <tag k="email" v="cbalakatos@remizker.hu"/>
    <tag k="opening_hours" v="Fr,Mo,Th,Tu,We 06:30-21:00;Sa 06:30-17:00"/>
    <tag k="addr:city" v="Budapest"/>
    <tag k="payment:cash" v="yes"/>
    <tag k="shop" v="convenience"/>
    <tag k="addr:postcode" v="1184"/>
    <tag k="website" v="https://www.prima.hu"/>
    <tag k="addr:street" v="Lakatos utca"/>
  </node>
  <!-- Original coordinates: POINT (47.466284 19.158021) -->
  <!-- Original tags: None -->
  <node action="modify" changeset="99999" id="-54" lat="47.466284" lon="19.158021" timestamp="" uid="4579407" user="KAMI" version="99999">
    <tag k="branch" v="Príma Wellness"/>
    <tag k="brand" v="Príma"/>
    <tag k="source" v="website"/>
    <tag k="name" v="Príma"/>
    <tag k="phone" v="+3614310132"/>
    <tag k="addr:housenumber" v="99"/>
    <tag k="payment:debit_cards" v="yes"/>
    <tag k="email" v="info@primawellness.hu"/>
    <tag k="opening_hours" v="Fr,Mo,Th,Tu,We 06:00-21:30;Sa 08:00-19:30"/>
    <tag k="addr:city" v="Budapest"/>
    <tag k="payment:cash" v="yes"/>
    <tag k="shop" v="convenience"/>
    <tag k="addr:postcode" v="1103"/>
    <tag k="website" v="https://www.prima.hu"/>
    <tag k="addr:street" v="Gyömrői út"/>
  </node>
  <!-- Original coordinates: POINT (46.285379 20.086413) -->
  <!-- Original tags: None -->
  <node action="modify" changeset="99999" id="-55" lat="46.285379" lon="20.086413" timestamp="" uid="4579407" user="KAMI" version="99999">
    <tag k="branch" v="Príma5"/>
    <tag k="brand" v="Príma"/>
    <tag k="source" v="website"/>
    <tag k="name" v="Príma"/>
    <tag k="phone" v="+3662815688"/>
    <tag k="addr:housenumber" v="7"/>
    <tag k="payment:debit_cards" v="yes"/>
    <tag k="email" v="vevoszolg@hansakontakt.hu"/>
    <tag k="opening_hours" v="Fr,Mo,Sa,Th,Tu,We 07:00-20:00"/>
    <tag k="addr:city" v="Szeged"/>
    <tag k="payment:cash" v="yes"/>
    <tag k="shop" v="convenience"/>
    <tag k="addr:postcode" v="6791"/>
    <tag k="website" v="https://www.prima.hu"/>
    <tag k="addr:street" v="Back Bernát utca"/>
  </node>
  <!-- Original coordinates: POINT (47.377982 18.920743) -->
  <!-- Original tags: None -->
  <node action="modify" changeset="99999" id="-56" lat="47.377982" lon="18.920743" timestamp="" uid="4579407" user="KAMI" version="99999">
    <tag k="branch" v="Príma Élelmiszer Áruház - Érd, Kálvin"/>
    <tag k="brand" v="Príma"/>
    <tag k="source" v="website"/>
    <tag k="name" v="Príma"/>
    <tag k="phone" v="+3623522620"/>
    <tag k="addr:housenumber" v="1"/>
    <tag k="payment:debit_cards" v="yes"/>
    <tag k="email" v="krupptsa@krupptsa.hu"/>
    <tag k="opening_hours" v="Fr,Mo,Sa,Th,Tu,We 06:00-21:00;Su 07:00-18:00"/>
    <tag k="addr:city" v="Érd"/>
    <tag k="payment:cash" v="yes"/>
    <tag k="shop" v="convenience"/>
    <tag k="addr:postcode" v="2030"/>
    <tag k="website" v="https://www.prima.hu"/>
    <tag k="addr:street" v="Kálvin tér"/>
  </node>
  <!-- Original coordinates: POINT (47.513271 19.200667) -->
  <!-- Original tags: None -->
  <node action="modify" changeset="99999" id="-57" lat="47.513271" lon="19.200667" timestamp="" uid="4579407" user="KAMI" version="99999">
    <tag k="branch" v="Príma Mátyásföld"/>
    <tag k="brand" v="Príma"/>
    <tag k="source" v="website"/>
    <tag k="name" v="Príma"/>
    <tag k="phone" v="+364075902"/>
    <tag k="addr:housenumber" v="2"/>
    <tag k="payment:debit_cards" v="yes"/>
    <tag k="email" v="cbamagyar@cbamagyar.t-onlinee.hu"/>
    <tag k="opening_hours" v="Fr,Mo,Th,Tu,We 06:30-21:00;Sa 07:00-20:00"/>
    <tag k="addr:city" v="Budapest"/>
    <tag k="payment:cash" v="yes"/>
    <tag k="shop" v="convenience"/>
    <tag k="addr:postcode" v="1165"/>
    <tag k="website" v="https://www.prima.hu"/>
    <tag k="addr:street" v="Imre utca"/>
  </node>
  <!-- Original coordinates: POINT (47.318334 18.907242) -->
  <!-- Original tags: None -->
  <node action="modify" changeset="99999" id="-58" lat="47.318334" lon="18.907242" timestamp="" uid="4579407" user="KAMI" version="99999">
    <tag k="branch" v="Príma Élelmiszer Áruház - Százhalombatta"/>
    <tag k="brand" v="Príma"/>
    <tag k="source" v="website"/>
    <tag k="name" v="Príma"/>
    <tag k="phone" v="+3623540580"/>
    <tag k="addr:housenumber" v="23"/>
    <tag k="payment:debit_cards" v="yes"/>
    <tag k="email" v="krupptsa@krupptsa.hu"/>
    <tag k="opening_hours" v="Fr,Mo,Sa,Th,Tu,We 06:00-21:00;Su 07:00-18:00"/>
    <tag k="addr:city" v="Százhalombatta"/>
    <tag k="payment:cash" v="yes"/>
    <tag k="shop" v="convenience"/>
    <tag k="addr:postcode" v="2440"/>
    <tag k="website" v="https://www.prima.hu"/>
    <tag k="addr:street" v="Damjanich utca"/>
  </node>
  <!-- Original coordinates: POINT (47.438623 19.166407) -->
  <!-- Original tags: None -->
  <node action="modify" changeset="99999" id="-59" lat="47.438623" lon="19.166407" timestamp="" uid="4579407" user="KAMI" version="99999">
    <tag k="branch" v="Príma Havanna"/>
    <tag k="brand" v="Príma"/>
    <tag k="source" v="website"/>
    <tag k="name" v="Príma"/>
    <tag k="payment:cash" v="yes"/>
    <tag k="addr:housenumber" v="11-15"/>
    <tag k="payment:debit_cards" v="yes"/>
    <tag k="opening_hours" v="Fr,Mo,Th,Tu,We 06:00-21:00;Sa,Su 07:00-17:00"/>
    <tag k="addr:city" v="Budapest"/>
    <tag k="shop" v="convenience"/>
    <tag k="addr:postcode" v="1181"/>
    <tag k="website" v="https://www.prima.hu"/>
    <tag k="addr:street" v="Kondor Béla sétány"/>
  </node>
  <!-- Original coordinates: POINT (47.508602 19.058084) -->
  <!-- Original tags: None -->
  <node action="modify" changeset="99999" id="-60" lat="47.508602" lon="19.058084" timestamp="" uid="4579407" user="KAMI" version="99999">
    <tag k="branch" v="Príma Élelmiszer Teréz körút 54."/>
    <tag k="brand" v="Príma"/>
    <tag k="source" v="website"/>
    <tag k="name" v="Príma"/>
    <tag k="phone" v="+3613010162"/>
    <tag k="addr:housenumber" v="54"/>
    <tag k="payment:debit_cards" v="yes"/>
    <tag k="email" v="terez@jegcsillag.hu"/>
    <tag k="opening_hours" v="Fr,Mo,Th,Tu,We 07:00-21:30;Sa 10:00-21:30;Su 11:00-21:30"/>
    <tag k="addr:city" v="Budapest"/>
    <tag k="payment:cash" v="yes"/>
    <tag k="shop" v="convenience"/>
    <tag k="addr:postcode" v="1066"/>
    <tag k="website" v="https://www.prima.hu"/>
    <tag k="addr:street" v="Teréz körút"/>
  </node>
  <!-- Original coordinates: POINT (46.235613 20.171842) -->
  <!-- Original tags: None -->
  <node action="modify" changeset="99999" id="-61" lat="46.235613" lon="20.171842" timestamp="" uid="4579407" user="KAMI" version="99999">
    <tag k="branch" v="Príma Nova"/>
    <tag k="brand" v="Príma"/>
    <tag k="source" v="website"/>
    <tag k="name" v="Príma"/>
    <tag k="payment:cash" v="yes"/>
    <tag k="addr:housenumber" v="80"/>
    <tag k="payment:debit_cards" v="yes"/>
    <tag k="opening_hours" v="Fr,Mo,Sa,Th,Tu,We 07:00-21:00;Su 08:00-16:00"/>
    <tag k="addr:city" v="Szeged"/>
    <tag k="shop" v="convenience"/>
    <tag k="addr:postcode" v="6726"/>
    <tag k="website" v="https://www.prima.hu"/>
    <tag k="addr:street" v="Szőregi út"/>
  </node>
  <!-- Original coordinates: POINT (47.651053 19.473793) -->
  <!-- Original tags: None -->
  <node action="modify" changeset="99999" id="-62" lat="47.651053" lon="19.473793" timestamp="" uid="4579407" user="KAMI" version="99999">
    <tag k="branch" v="Príma Élelmiszer Áruház"/>
    <tag k="brand" v="Príma"/>
    <tag k="source" v="website"/>
    <tag k="name" v="Príma"/>
    <tag k="payment:cash" v="yes"/>
    <tag k="addr:housenumber" v="11"/>
    <tag k="payment:debit_cards" v="yes"/>
    <tag k="opening_hours" v="Fr,Mo,Sa,Th,Tu,We 06:00-21:00;Su 08:00-16:00"/>
    <tag k="addr:city" v="Aszód"/>
    <tag k="shop" v="convenience"/>
    <tag k="addr:postcode" v="2170"/>
    <tag k="website" v="https://www.prima.hu"/>
    <tag k="addr:street" v="Pesti út"/>
  </node>
  <!-- Original coordinates: POINT (47.620989 16.878877) -->
  <!-- Original tags: None -->
  <node action="modify" changeset="99999" id="-63" lat="47.620989" lon="16.878877" timestamp="" uid="4579407" user="KAMI" version="99999">
    <tag k="branch" v="Príma Áruház Fertőd"/>
    <tag k="brand" v="Príma"/>
    <tag k="source" v="website"/>
    <tag k="name" v="Príma"/>
    <tag k="phone" v="+36305884864"/>
    <tag k="addr:housenumber" v="11"/>
    <tag k="payment:debit_cards" v="yes"/>
    <tag k="email" v="prima.fertod@sicortec.hu"/>
    <tag k="opening_hours" v="Fr,Mo,Th,Tu,We 06:00-19:30;Sa 06:00-17:00;Su 07:00-14:00"/>
    <tag k="addr:city" v="Fertőd"/>
    <tag k="payment:cash" v="yes"/>
    <tag k="shop" v="convenience"/>
    <tag k="addr:postcode" v="9431"/>
    <tag k="website" v="https://www.prima.hu"/>
    <tag k="addr:street" v="Gábor Áron utca"/>
  </node>
  <!-- Original coordinates: POINT (47.524394 19.133131) -->
  <!-- Original tags: None -->
  <node action="modify" changeset="99999" id="-64" lat="47.524394" lon="19.133131" timestamp="" uid="4579407" user="KAMI" version="99999">
    <tag k="branch" v="CBA Príma"/>
    <tag k="brand" v="Príma"/>
    <tag k="source" v="website"/>
    <tag k="name" v="Príma"/>
    <tag k="phone" v="+3612200362"/>
    <tag k="addr:housenumber" v="135"/>
    <tag k="payment:debit_cards" v="yes"/>
    <tag k="email" v="egressy135@gmail.com"/>
    <tag k="opening_hours" v="Fr,Mo,Th,Tu,We 07:00-20:00;Sa 07:00-15:00;Su 08:00-14:00"/>
    <tag k="addr:city" v="Budapest"/>
    <tag k="payment:cash" v="yes"/>
    <tag k="shop" v="convenience"/>
    <tag k="addr:postcode" v="1141"/>
    <tag k="website" v="https://www.prima.hu"/>
    <tag k="addr:street" v="Egressy út"/>
  </node>
  <!-- Original coordinates: POINT (47.528531 19.037719) -->
  <!-- Original tags: None -->
  <node action="modify" changeset="99999" id="-65" lat="47.528531" lon="19.037719" timestamp="" uid="4579407" user="KAMI" version="99999">
    <tag k="branch" v="Buda Gourmet Príma"/>
    <tag k="brand" v="Príma"/>
    <tag k="source" v="website"/>
    <tag k="name" v="Príma"/>
    <tag k="payment:cash" v="yes"/>
    <tag k="addr:housenumber" v="38-44"/>
    <tag k="payment:debit_cards" v="yes"/>
    <tag k="opening_hours" v="Fr,Mo,Th,Tu 07:00-21:00;We 06:30-21:00;Sa 08:00-20:00;Su 08:00-18:00"/>
    <tag k="addr:city" v="Budapest"/>
    <tag k="shop" v="convenience"/>
    <tag k="addr:postcode" v="1034"/>
    <tag k="website" v="https://www.prima.hu"/>
    <tag k="addr:street" v="Bécsi út"/>
  </node>
  <!-- Original coordinates: POINT (47.474947 19.048063) -->
  <!-- Original tags: None -->
  <node action="modify" changeset="99999" id="-66" lat="47.474947" lon="19.048063" timestamp="" uid="4579407" user="KAMI" version="99999">
    <tag k="branch" v="Príma Élelmíszer Fehérvári úti Vásárcsarnok"/>
    <tag k="brand" v="Príma"/>
    <tag k="source" v="website"/>
    <tag k="name" v="Príma"/>
    <tag k="phone" v="+36303307516"/>
    <tag k="addr:housenumber" v="9"/>
    <tag k="payment:debit_cards" v="yes"/>
    <tag k="email" v="cbapiac@sbedi.com"/>
    <tag k="opening_hours" v="Mo 06:30-17:00;Fr,Th,Tu,We 06:30-18:00;Sa 06:30-15:00;Su 06:30-14:00"/>
    <tag k="addr:city" v="Budapest"/>
    <tag k="payment:cash" v="yes"/>
    <tag k="shop" v="convenience"/>
    <tag k="addr:postcode" v="1117"/>
    <tag k="website" v="https://www.prima.hu"/>
    <tag k="addr:street" v="Körösi József utca"/>
  </node>
  <!-- Original coordinates: POINT (47.386644 18.459975) -->
  <!-- Original tags: None -->
  <node action="modify" changeset="99999" id="-67" lat="47.386644" lon="18.459975" timestamp="" uid="4579407" user="KAMI" version="99999">
    <tag k="branch" v="Príma Csákvár"/>
    <tag k="brand" v="Príma"/>
    <tag k="source" v="website"/>
    <tag k="name" v="Príma"/>
    <tag k="phone" v="+36308700952"/>
    <tag k="addr:housenumber" v="68"/>
    <tag k="payment:debit_cards" v="yes"/>
    <tag k="email" v="cbacsakvar@sbedi.com"/>
    <tag k="opening_hours" v="Fr,Mo,Sa,Th,Tu,We 07:00-20:00"/>
    <tag k="addr:city" v="Csákvár"/>
    <tag k="payment:cash" v="yes"/>
    <tag k="shop" v="convenience"/>
    <tag k="addr:postcode" v="8083"/>
    <tag k="website" v="https://www.prima.hu"/>
    <tag k="addr:street" v="Széchenyi utca"/>
  </node>
  <!-- Original coordinates: POINT (47.580341 18.398799) -->
  <!-- Original tags: None -->
  <node action="modify" changeset="99999" id="-68" lat="47.580341" lon="18.398799" timestamp="" uid="4579407" user="KAMI" version="99999">
    <tag k="branch" v="HTZRT - 22.sz. Príma Élelmiszer üzlet"/>
    <tag k="brand" v="Príma"/>
    <tag k="source" v="website"/>
    <tag k="name" v="Príma"/>
    <tag k="payment:cash" v="yes"/>
    <tag k="addr:housenumber" v="1/f"/>
    <tag k="payment:debit_cards" v="yes"/>
    <tag k="opening_hours" v="Fr,Mo,Th,Tu,We 06:00-19:00;Sa 06:00-13:00"/>
    <tag k="addr:city" v="Tatabánya"/>
    <tag k="shop" v="convenience"/>
    <tag k="addr:postcode" v="2800"/>
    <tag k="website" v="https://www.prima.hu"/>
    <tag k="addr:street" v="Köztársaság út"/>
  </node>
  <!-- Original coordinates: POINT (47.550481 18.820318) -->
  <!-- Original tags: None -->
  <node action="modify" changeset="99999" id="-69" lat="47.550481" lon="18.820318" timestamp="" uid="4579407" user="KAMI" version="99999">
    <tag k="branch" v="Príma Élelmiszer Áruhát - Telki"/>
    <tag k="brand" v="Príma"/>
    <tag k="source" v="website"/>
    <tag k="name" v="Príma"/>
    <tag k="payment:cash" v="yes"/>
    <tag k="addr:housenumber" v="2"/>
    <tag k="payment:debit_cards" v="yes"/>
    <tag k="opening_hours" v="Fr,Mo,Sa,Th,Tu,We 06:00-21:00;Su 07:00-18:00"/>
    <tag k="addr:city" v="Telki"/>
    <tag k="shop" v="convenience"/>
    <tag k="addr:postcode" v="2089"/>
    <tag k="website" v="https://www.prima.hu"/>
    <tag k="addr:street" v="Napsugár utca"/>
  </node>
</osm>
