<?xml version='1.0' encoding='UTF-8'?>
<osm generator="JOSM" version="0.6">
  <!-- Original coordinates: POINT (47.189134 20.004633) -->
  <node action="modify" changeset="99999" id="-1" lat="47.189134" lon="20.004633" timestamp="" uid="4579407" user="KAMI" version="99999">
    <tag k="brand" v="Rossmann"/>
    <tag k="youtube" v="https://www.youtube.com/channel/UCmUCPmvMLL3IaXRBtx7-J7Q"/>
    <tag k="facebook" v="https://www.facebook.com/Rossmann.hu"/>
    <tag k="shop" v="chemist"/>
    <tag k="payment:debit_cards" v="yes"/>
    <tag k="payment:cash" v="yes"/>
    <tag k="operator" v="Rossmann Magyarország Kft."/>
    <tag k="addr:postcode" v="2740"/>
    <tag k="instagram" v="https://www.instagram.com/rossmann_hu/"/>
    <tag k="website" v="https://www.rossmann.hu"/>
    <tag k="addr:housenumber" v="4"/>
    <tag k="addr:city" v="Abony"/>
    <tag k="name" v="Rossmann"/>
    <tag k="source" v="website"/>
    <tag k="addr:street" v="Kossuth tér"/>
  </node>
  <!-- Original coordinates: POINT (47.105645 17.564917) -->
  <node action="modify" changeset="99999" id="-2" lat="47.105645" lon="17.564917" timestamp="" uid="4579407" user="KAMI" version="99999">
    <tag k="brand" v="Rossmann"/>
    <tag k="youtube" v="https://www.youtube.com/channel/UCmUCPmvMLL3IaXRBtx7-J7Q"/>
    <tag k="facebook" v="https://www.facebook.com/Rossmann.hu"/>
    <tag k="shop" v="chemist"/>
    <tag k="payment:debit_cards" v="yes"/>
    <tag k="payment:cash" v="yes"/>
    <tag k="operator" v="Rossmann Magyarország Kft."/>
    <tag k="addr:postcode" v="8400"/>
    <tag k="instagram" v="https://www.instagram.com/rossmann_hu/"/>
    <tag k="website" v="https://www.rossmann.hu"/>
    <tag k="addr:housenumber" v="14"/>
    <tag k="addr:city" v="Ajka"/>
    <tag k="name" v="Rossmann"/>
    <tag k="source" v="website"/>
    <tag k="addr:street" v="Szabadság tér"/>
  </node>
  <!-- Original coordinates: POINT (47.651097 19.477105) -->
  <node action="modify" changeset="99999" id="-3" lat="47.651097" lon="19.477105" timestamp="" uid="4579407" user="KAMI" version="99999">
    <tag k="brand" v="Rossmann"/>
    <tag k="youtube" v="https://www.youtube.com/channel/UCmUCPmvMLL3IaXRBtx7-J7Q"/>
    <tag k="facebook" v="https://www.facebook.com/Rossmann.hu"/>
    <tag k="shop" v="chemist"/>
    <tag k="payment:debit_cards" v="yes"/>
    <tag k="payment:cash" v="yes"/>
    <tag k="operator" v="Rossmann Magyarország Kft."/>
    <tag k="addr:postcode" v="2170"/>
    <tag k="instagram" v="https://www.instagram.com/rossmann_hu/"/>
    <tag k="website" v="https://www.rossmann.hu"/>
    <tag k="addr:housenumber" v="15"/>
    <tag k="addr:city" v="Aszód"/>
    <tag k="name" v="Rossmann"/>
    <tag k="source" v="website"/>
    <tag k="addr:street" v="Kossuth Lajos utca"/>
  </node>
  <!-- Original coordinates: POINT (46.18318 18.955864) -->
  <node action="modify" changeset="99999" id="-4" lat="46.18318" lon="18.955864" timestamp="" uid="4579407" user="KAMI" version="99999">
    <tag k="brand" v="Rossmann"/>
    <tag k="youtube" v="https://www.youtube.com/channel/UCmUCPmvMLL3IaXRBtx7-J7Q"/>
    <tag k="facebook" v="https://www.facebook.com/Rossmann.hu"/>
    <tag k="shop" v="chemist"/>
    <tag k="payment:debit_cards" v="yes"/>
    <tag k="payment:cash" v="yes"/>
    <tag k="operator" v="Rossmann Magyarország Kft."/>
    <tag k="addr:postcode" v="6500"/>
    <tag k="instagram" v="https://www.instagram.com/rossmann_hu/"/>
    <tag k="website" v="https://www.rossmann.hu"/>
    <tag k="addr:housenumber" v="4"/>
    <tag k="addr:city" v="Baja"/>
    <tag k="name" v="Rossmann"/>
    <tag k="source" v="website"/>
    <tag k="addr:street" v="Csermák Mihály tér"/>
  </node>
  <!-- Original coordinates: POINT (48.079341 19.294558) -->
  <node action="modify" changeset="99999" id="-5" lat="48.079341" lon="19.294558" timestamp="" uid="4579407" user="KAMI" version="99999">
    <tag k="brand" v="Rossmann"/>
    <tag k="youtube" v="https://www.youtube.com/channel/UCmUCPmvMLL3IaXRBtx7-J7Q"/>
    <tag k="facebook" v="https://www.facebook.com/Rossmann.hu"/>
    <tag k="shop" v="chemist"/>
    <tag k="payment:debit_cards" v="yes"/>
    <tag k="payment:cash" v="yes"/>
    <tag k="operator" v="Rossmann Magyarország Kft."/>
    <tag k="addr:postcode" v="2660"/>
    <tag k="instagram" v="https://www.instagram.com/rossmann_hu/"/>
    <tag k="website" v="https://www.rossmann.hu"/>
    <tag k="addr:housenumber" v="34-36"/>
    <tag k="addr:city" v="Balassagyarmat"/>
    <tag k="name" v="Rossmann"/>
    <tag k="source" v="website"/>
    <tag k="addr:street" v="Rákóczi út"/>
  </node>
  <!-- Original coordinates: POINT (47.040627 18.018888) -->
  <node action="modify" changeset="99999" id="-6" lat="47.040627" lon="18.018888" timestamp="" uid="4579407" user="KAMI" version="99999">
    <tag k="brand" v="Rossmann"/>
    <tag k="youtube" v="https://www.youtube.com/channel/UCmUCPmvMLL3IaXRBtx7-J7Q"/>
    <tag k="facebook" v="https://www.facebook.com/Rossmann.hu"/>
    <tag k="shop" v="chemist"/>
    <tag k="payment:debit_cards" v="yes"/>
    <tag k="payment:cash" v="yes"/>
    <tag k="operator" v="Rossmann Magyarország Kft."/>
    <tag k="addr:postcode" v="8220"/>
    <tag k="instagram" v="https://www.instagram.com/rossmann_hu/"/>
    <tag k="website" v="https://www.rossmann.hu"/>
    <tag k="addr:housenumber" v="2"/>
    <tag k="addr:city" v="Balatonalmádi"/>
    <tag k="name" v="Rossmann"/>
    <tag k="source" v="website"/>
    <tag k="addr:street" v="Szabolcs utca"/>
  </node>
  <!-- Original coordinates: POINT (46.956645 17.888113) -->
  <node action="modify" changeset="99999" id="-7" lat="46.956645" lon="17.888113" timestamp="" uid="4579407" user="KAMI" version="99999">
    <tag k="brand" v="Rossmann"/>
    <tag k="youtube" v="https://www.youtube.com/channel/UCmUCPmvMLL3IaXRBtx7-J7Q"/>
    <tag k="facebook" v="https://www.facebook.com/Rossmann.hu"/>
    <tag k="shop" v="chemist"/>
    <tag k="payment:debit_cards" v="yes"/>
    <tag k="payment:cash" v="yes"/>
    <tag k="operator" v="Rossmann Magyarország Kft."/>
    <tag k="addr:postcode" v="8230"/>
    <tag k="instagram" v="https://www.instagram.com/rossmann_hu/"/>
    <tag k="website" v="https://www.rossmann.hu"/>
    <tag k="addr:housenumber" v="17"/>
    <tag k="addr:city" v="Balatonfüred"/>
    <tag k="name" v="Rossmann"/>
    <tag k="source" v="website"/>
    <tag k="addr:street" v="Jókai Mór út"/>
  </node>
  <!-- Original coordinates: POINT (47.613235 21.343217) -->
  <node action="modify" changeset="99999" id="-8" lat="47.613235" lon="21.343217" timestamp="" uid="4579407" user="KAMI" version="99999">
    <tag k="brand" v="Rossmann"/>
    <tag k="youtube" v="https://www.youtube.com/channel/UCmUCPmvMLL3IaXRBtx7-J7Q"/>
    <tag k="facebook" v="https://www.facebook.com/Rossmann.hu"/>
    <tag k="shop" v="chemist"/>
    <tag k="payment:debit_cards" v="yes"/>
    <tag k="payment:cash" v="yes"/>
    <tag k="operator" v="Rossmann Magyarország Kft."/>
    <tag k="addr:postcode" v="4060"/>
    <tag k="instagram" v="https://www.instagram.com/rossmann_hu/"/>
    <tag k="website" v="https://www.rossmann.hu"/>
    <tag k="addr:housenumber" v="1"/>
    <tag k="addr:city" v="Balmazújváros"/>
    <tag k="name" v="Rossmann"/>
    <tag k="source" v="website"/>
    <tag k="addr:street" v="Veres Péter út"/>
  </node>
  <!-- Original coordinates: POINT (47.993751 19.830879) -->
  <node action="modify" changeset="99999" id="-9" lat="47.993751" lon="19.830879" timestamp="" uid="4579407" user="KAMI" version="99999">
    <tag k="brand" v="Rossmann"/>
    <tag k="youtube" v="https://www.youtube.com/channel/UCmUCPmvMLL3IaXRBtx7-J7Q"/>
    <tag k="facebook" v="https://www.facebook.com/Rossmann.hu"/>
    <tag k="shop" v="chemist"/>
    <tag k="payment:debit_cards" v="yes"/>
    <tag k="payment:cash" v="yes"/>
    <tag k="operator" v="Rossmann Magyarország Kft."/>
    <tag k="addr:postcode" v="3070"/>
    <tag k="instagram" v="https://www.instagram.com/rossmann_hu/"/>
    <tag k="website" v="https://www.rossmann.hu"/>
    <tag k="addr:housenumber" v="3"/>
    <tag k="addr:city" v="Bátonyterenye"/>
    <tag k="name" v="Rossmann"/>
    <tag k="source" v="website"/>
    <tag k="addr:street" v="Városház utca"/>
  </node>
  <!-- Original coordinates: POINT (46.772018 21.130063) -->
  <node action="modify" changeset="99999" id="-10" lat="46.772018" lon="21.130063" timestamp="" uid="4579407" user="KAMI" version="99999">
    <tag k="brand" v="Rossmann"/>
    <tag k="youtube" v="https://www.youtube.com/channel/UCmUCPmvMLL3IaXRBtx7-J7Q"/>
    <tag k="facebook" v="https://www.facebook.com/Rossmann.hu"/>
    <tag k="shop" v="chemist"/>
    <tag k="payment:debit_cards" v="yes"/>
    <tag k="payment:cash" v="yes"/>
    <tag k="operator" v="Rossmann Magyarország Kft."/>
    <tag k="addr:postcode" v="5630"/>
    <tag k="instagram" v="https://www.instagram.com/rossmann_hu/"/>
    <tag k="website" v="https://www.rossmann.hu"/>
    <tag k="addr:housenumber" v="5"/>
    <tag k="addr:city" v="Békés"/>
    <tag k="name" v="Rossmann"/>
    <tag k="source" v="website"/>
    <tag k="addr:street" v="Széchenyi tér"/>
  </node>
  <!-- Original coordinates: POINT (47.2224 21.535857) -->
  <node action="modify" changeset="99999" id="-11" lat="47.2224" lon="21.535857" timestamp="" uid="4579407" user="KAMI" version="99999">
    <tag k="brand" v="Rossmann"/>
    <tag k="youtube" v="https://www.youtube.com/channel/UCmUCPmvMLL3IaXRBtx7-J7Q"/>
    <tag k="facebook" v="https://www.facebook.com/Rossmann.hu"/>
    <tag k="shop" v="chemist"/>
    <tag k="payment:debit_cards" v="yes"/>
    <tag k="payment:cash" v="yes"/>
    <tag k="operator" v="Rossmann Magyarország Kft."/>
    <tag k="addr:postcode" v="4100"/>
    <tag k="instagram" v="https://www.instagram.com/rossmann_hu/"/>
    <tag k="website" v="https://www.rossmann.hu"/>
    <tag k="addr:housenumber" v="2"/>
    <tag k="addr:city" v="Berettyóújfalu"/>
    <tag k="name" v="Rossmann"/>
    <tag k="source" v="website"/>
    <tag k="addr:street" v="Dózsa György utca"/>
  </node>
  <!-- Original coordinates: POINT (47.491473 18.632075) -->
  <node action="modify" changeset="99999" id="-12" lat="47.491473" lon="18.632075" timestamp="" uid="4579407" user="KAMI" version="99999">
    <tag k="brand" v="Rossmann"/>
    <tag k="youtube" v="https://www.youtube.com/channel/UCmUCPmvMLL3IaXRBtx7-J7Q"/>
    <tag k="facebook" v="https://www.facebook.com/Rossmann.hu"/>
    <tag k="shop" v="chemist"/>
    <tag k="payment:debit_cards" v="yes"/>
    <tag k="payment:cash" v="yes"/>
    <tag k="operator" v="Rossmann Magyarország Kft."/>
    <tag k="addr:postcode" v="2060"/>
    <tag k="instagram" v="https://www.instagram.com/rossmann_hu/"/>
    <tag k="website" v="https://www.rossmann.hu"/>
    <tag k="addr:housenumber" v="13"/>
    <tag k="addr:city" v="Bicske"/>
    <tag k="name" v="Rossmann"/>
    <tag k="source" v="website"/>
    <tag k="addr:street" v="Bocskay út"/>
  </node>
  <!-- Original coordinates: POINT (46.299709 18.53007) -->
  <node action="modify" changeset="99999" id="-13" lat="46.299709" lon="18.53007" timestamp="" uid="4579407" user="KAMI" version="99999">
    <tag k="brand" v="Rossmann"/>
    <tag k="youtube" v="https://www.youtube.com/channel/UCmUCPmvMLL3IaXRBtx7-J7Q"/>
    <tag k="facebook" v="https://www.facebook.com/Rossmann.hu"/>
    <tag k="shop" v="chemist"/>
    <tag k="payment:debit_cards" v="yes"/>
    <tag k="payment:cash" v="yes"/>
    <tag k="operator" v="Rossmann Magyarország Kft."/>
    <tag k="addr:postcode" v="7150"/>
    <tag k="instagram" v="https://www.instagram.com/rossmann_hu/"/>
    <tag k="website" v="https://www.rossmann.hu"/>
    <tag k="addr:housenumber" v="4"/>
    <tag k="addr:city" v="Bonyhád"/>
    <tag k="name" v="Rossmann"/>
    <tag k="source" v="website"/>
    <tag k="addr:street" v="Szabadság tér"/>
  </node>
  <!-- Original coordinates: POINT (47.508391 19.026689) -->
  <node action="modify" changeset="99999" id="-14" lat="47.508391" lon="19.026689" timestamp="" uid="4579407" user="KAMI" version="99999">
    <tag k="brand" v="Rossmann"/>
    <tag k="youtube" v="https://www.youtube.com/channel/UCmUCPmvMLL3IaXRBtx7-J7Q"/>
    <tag k="facebook" v="https://www.facebook.com/Rossmann.hu"/>
    <tag k="shop" v="chemist"/>
    <tag k="payment:debit_cards" v="yes"/>
    <tag k="payment:cash" v="yes"/>
    <tag k="operator" v="Rossmann Magyarország Kft."/>
    <tag k="addr:postcode" v="1024"/>
    <tag k="instagram" v="https://www.instagram.com/rossmann_hu/"/>
    <tag k="website" v="https://www.rossmann.hu"/>
    <tag k="addr:housenumber" v="2"/>
    <tag k="addr:city" v="Budapest"/>
    <tag k="name" v="Rossmann"/>
    <tag k="source" v="website"/>
    <tag k="addr:street" v="Lövőház utca"/>
  </node>
  <!-- Original coordinates: POINT (47.17191 19.796486) -->
  <node action="modify" changeset="99999" id="-15" lat="47.17191" lon="19.796486" timestamp="" uid="4579407" user="KAMI" version="99999">
    <tag k="brand" v="Rossmann"/>
    <tag k="youtube" v="https://www.youtube.com/channel/UCmUCPmvMLL3IaXRBtx7-J7Q"/>
    <tag k="facebook" v="https://www.facebook.com/Rossmann.hu"/>
    <tag k="shop" v="chemist"/>
    <tag k="payment:debit_cards" v="yes"/>
    <tag k="payment:cash" v="yes"/>
    <tag k="operator" v="Rossmann Magyarország Kft."/>
    <tag k="addr:postcode" v="2700"/>
    <tag k="instagram" v="https://www.instagram.com/rossmann_hu/"/>
    <tag k="website" v="https://www.rossmann.hu"/>
    <tag k="addr:housenumber" v="4"/>
    <tag k="addr:city" v="Cegléd"/>
    <tag k="name" v="Rossmann"/>
    <tag k="source" v="website"/>
    <tag k="addr:street" v="Kossuth Ferenc utca"/>
  </node>
  <!-- Original coordinates: POINT (47.257558 17.152294) -->
  <node action="modify" changeset="99999" id="-16" lat="47.257558" lon="17.152294" timestamp="" uid="4579407" user="KAMI" version="99999">
    <tag k="brand" v="Rossmann"/>
    <tag k="youtube" v="https://www.youtube.com/channel/UCmUCPmvMLL3IaXRBtx7-J7Q"/>
    <tag k="facebook" v="https://www.facebook.com/Rossmann.hu"/>
    <tag k="shop" v="chemist"/>
    <tag k="payment:debit_cards" v="yes"/>
    <tag k="payment:cash" v="yes"/>
    <tag k="operator" v="Rossmann Magyarország Kft."/>
    <tag k="addr:postcode" v="9500"/>
    <tag k="instagram" v="https://www.instagram.com/rossmann_hu/"/>
    <tag k="website" v="https://www.rossmann.hu"/>
    <tag k="addr:housenumber" v="2"/>
    <tag k="addr:city" v="Celldömölk"/>
    <tag k="name" v="Rossmann"/>
    <tag k="source" v="website"/>
    <tag k="addr:street" v="Széchenyi utca"/>
  </node>
  <!-- Original coordinates: POINT (47.540543 19.248752) -->
  <node action="modify" changeset="99999" id="-17" lat="47.540543" lon="19.248752" timestamp="" uid="4579407" user="KAMI" version="99999">
    <tag k="brand" v="Rossmann"/>
    <tag k="youtube" v="https://www.youtube.com/channel/UCmUCPmvMLL3IaXRBtx7-J7Q"/>
    <tag k="facebook" v="https://www.facebook.com/Rossmann.hu"/>
    <tag k="shop" v="chemist"/>
    <tag k="payment:debit_cards" v="yes"/>
    <tag k="payment:cash" v="yes"/>
    <tag k="operator" v="Rossmann Magyarország Kft."/>
    <tag k="addr:postcode" v="2143"/>
    <tag k="instagram" v="https://www.instagram.com/rossmann_hu/"/>
    <tag k="website" v="https://www.rossmann.hu"/>
    <tag k="addr:housenumber" v="8"/>
    <tag k="addr:city" v="Csömör"/>
    <tag k="name" v="Rossmann"/>
    <tag k="source" v="website"/>
    <tag k="addr:street" v="Határ út"/>
  </node>
  <!-- Original coordinates: POINT (47.611318 17.250154) -->
  <node action="modify" changeset="99999" id="-18" lat="47.611318" lon="17.250154" timestamp="" uid="4579407" user="KAMI" version="99999">
    <tag k="brand" v="Rossmann"/>
    <tag k="youtube" v="https://www.youtube.com/channel/UCmUCPmvMLL3IaXRBtx7-J7Q"/>
    <tag k="facebook" v="https://www.facebook.com/Rossmann.hu"/>
    <tag k="shop" v="chemist"/>
    <tag k="payment:debit_cards" v="yes"/>
    <tag k="payment:cash" v="yes"/>
    <tag k="operator" v="Rossmann Magyarország Kft."/>
    <tag k="addr:postcode" v="9300"/>
    <tag k="instagram" v="https://www.instagram.com/rossmann_hu/"/>
    <tag k="website" v="https://www.rossmann.hu"/>
    <tag k="addr:housenumber" v="1"/>
    <tag k="addr:city" v="Csorna"/>
    <tag k="name" v="Rossmann"/>
    <tag k="source" v="website"/>
    <tag k="addr:street" v="Mártírok tere"/>
  </node>
  <!-- Original coordinates: POINT (47.18726 19.319935) -->
  <node action="modify" changeset="99999" id="-19" lat="47.18726" lon="19.319935" timestamp="" uid="4579407" user="KAMI" version="99999">
    <tag k="brand" v="Rossmann"/>
    <tag k="youtube" v="https://www.youtube.com/channel/UCmUCPmvMLL3IaXRBtx7-J7Q"/>
    <tag k="facebook" v="https://www.facebook.com/Rossmann.hu"/>
    <tag k="shop" v="chemist"/>
    <tag k="payment:debit_cards" v="yes"/>
    <tag k="payment:cash" v="yes"/>
    <tag k="operator" v="Rossmann Magyarország Kft."/>
    <tag k="addr:postcode" v="2370"/>
    <tag k="instagram" v="https://www.instagram.com/rossmann_hu/"/>
    <tag k="website" v="https://www.rossmann.hu"/>
    <tag k="addr:housenumber" v="46/b"/>
    <tag k="addr:city" v="Dabas"/>
    <tag k="name" v="Rossmann"/>
    <tag k="source" v="website"/>
    <tag k="addr:street" v="Bartók Béla út"/>
  </node>
  <!-- Original coordinates: POINT (47.528819 21.625651) -->
  <node action="modify" changeset="99999" id="-20" lat="47.528819" lon="21.625651" timestamp="" uid="4579407" user="KAMI" version="99999">
    <tag k="brand" v="Rossmann"/>
    <tag k="youtube" v="https://www.youtube.com/channel/UCmUCPmvMLL3IaXRBtx7-J7Q"/>
    <tag k="facebook" v="https://www.facebook.com/Rossmann.hu"/>
    <tag k="shop" v="chemist"/>
    <tag k="payment:debit_cards" v="yes"/>
    <tag k="payment:cash" v="yes"/>
    <tag k="operator" v="Rossmann Magyarország Kft."/>
    <tag k="addr:postcode" v="4024"/>
    <tag k="instagram" v="https://www.instagram.com/rossmann_hu/"/>
    <tag k="website" v="https://www.rossmann.hu"/>
    <tag k="addr:housenumber" v="1"/>
    <tag k="addr:city" v="Debrecen"/>
    <tag k="name" v="Rossmann"/>
    <tag k="source" v="website"/>
    <tag k="addr:street" v="Kossuth Lajos utca"/>
  </node>
  <!-- Original coordinates: POINT (46.375626 18.131159) -->
  <node action="modify" changeset="99999" id="-21" lat="46.375626" lon="18.131159" timestamp="" uid="4579407" user="KAMI" version="99999">
    <tag k="brand" v="Rossmann"/>
    <tag k="youtube" v="https://www.youtube.com/channel/UCmUCPmvMLL3IaXRBtx7-J7Q"/>
    <tag k="facebook" v="https://www.facebook.com/Rossmann.hu"/>
    <tag k="shop" v="chemist"/>
    <tag k="payment:debit_cards" v="yes"/>
    <tag k="payment:cash" v="yes"/>
    <tag k="operator" v="Rossmann Magyarország Kft."/>
    <tag k="addr:postcode" v="7200"/>
    <tag k="instagram" v="https://www.instagram.com/rossmann_hu/"/>
    <tag k="website" v="https://www.rossmann.hu"/>
    <tag k="addr:housenumber" v="17"/>
    <tag k="addr:city" v="Dombóvár"/>
    <tag k="name" v="Rossmann"/>
    <tag k="source" v="website"/>
    <tag k="addr:street" v="Hunyadi tér"/>
  </node>
  <!-- Original coordinates: POINT (47.719184 18.73034) -->
  <node action="modify" changeset="99999" id="-22" lat="47.719184" lon="18.73034" timestamp="" uid="4579407" user="KAMI" version="99999">
    <tag k="brand" v="Rossmann"/>
    <tag k="youtube" v="https://www.youtube.com/channel/UCmUCPmvMLL3IaXRBtx7-J7Q"/>
    <tag k="facebook" v="https://www.facebook.com/Rossmann.hu"/>
    <tag k="shop" v="chemist"/>
    <tag k="payment:debit_cards" v="yes"/>
    <tag k="payment:cash" v="yes"/>
    <tag k="operator" v="Rossmann Magyarország Kft."/>
    <tag k="addr:postcode" v="2510"/>
    <tag k="instagram" v="https://www.instagram.com/rossmann_hu/"/>
    <tag k="website" v="https://www.rossmann.hu"/>
    <tag k="addr:housenumber" v="57"/>
    <tag k="addr:city" v="Dorog"/>
    <tag k="name" v="Rossmann"/>
    <tag k="source" v="website"/>
    <tag k="addr:street" v="Bécsi út"/>
  </node>
  <!-- Original coordinates: POINT (47.642308 19.127012) -->
  <node action="modify" changeset="99999" id="-23" lat="47.642308" lon="19.127012" timestamp="" uid="4579407" user="KAMI" version="99999">
    <tag k="brand" v="Rossmann"/>
    <tag k="youtube" v="https://www.youtube.com/channel/UCmUCPmvMLL3IaXRBtx7-J7Q"/>
    <tag k="facebook" v="https://www.facebook.com/Rossmann.hu"/>
    <tag k="shop" v="chemist"/>
    <tag k="payment:debit_cards" v="yes"/>
    <tag k="payment:cash" v="yes"/>
    <tag k="operator" v="Rossmann Magyarország Kft."/>
    <tag k="addr:postcode" v="2120"/>
    <tag k="instagram" v="https://www.instagram.com/rossmann_hu/"/>
    <tag k="website" v="https://www.rossmann.hu"/>
    <tag k="addr:housenumber" v="4"/>
    <tag k="addr:city" v="Dunakeszi"/>
    <tag k="name" v="Rossmann"/>
    <tag k="source" v="website"/>
    <tag k="addr:street" v="Casalgrande tér"/>
  </node>
  <!-- Original coordinates: POINT (46.964845 18.938528) -->
  <node action="modify" changeset="99999" id="-24" lat="46.964845" lon="18.938528" timestamp="" uid="4579407" user="KAMI" version="99999">
    <tag k="brand" v="Rossmann"/>
    <tag k="youtube" v="https://www.youtube.com/channel/UCmUCPmvMLL3IaXRBtx7-J7Q"/>
    <tag k="facebook" v="https://www.facebook.com/Rossmann.hu"/>
    <tag k="shop" v="chemist"/>
    <tag k="payment:debit_cards" v="yes"/>
    <tag k="payment:cash" v="yes"/>
    <tag k="operator" v="Rossmann Magyarország Kft."/>
    <tag k="addr:postcode" v="2400"/>
    <tag k="instagram" v="https://www.instagram.com/rossmann_hu/"/>
    <tag k="website" v="https://www.rossmann.hu"/>
    <tag k="addr:housenumber" v="4/d"/>
    <tag k="addr:city" v="Dunaújváros"/>
    <tag k="name" v="Rossmann"/>
    <tag k="source" v="website"/>
    <tag k="addr:street" v="Dózsa György út"/>
  </node>
  <!-- Original coordinates: POINT (47.903277 20.374493) -->
  <node action="modify" changeset="99999" id="-25" lat="47.903277" lon="20.374493" timestamp="" uid="4579407" user="KAMI" version="99999">
    <tag k="brand" v="Rossmann"/>
    <tag k="youtube" v="https://www.youtube.com/channel/UCmUCPmvMLL3IaXRBtx7-J7Q"/>
    <tag k="facebook" v="https://www.facebook.com/Rossmann.hu"/>
    <tag k="shop" v="chemist"/>
    <tag k="payment:debit_cards" v="yes"/>
    <tag k="payment:cash" v="yes"/>
    <tag k="operator" v="Rossmann Magyarország Kft."/>
    <tag k="addr:postcode" v="3300"/>
    <tag k="instagram" v="https://www.instagram.com/rossmann_hu/"/>
    <tag k="website" v="https://www.rossmann.hu"/>
    <tag k="addr:housenumber" v="1-3"/>
    <tag k="addr:city" v="Eger"/>
    <tag k="name" v="Rossmann"/>
    <tag k="source" v="website"/>
    <tag k="addr:street" v="Katona tér"/>
  </node>
  <!-- Original coordinates: POINT (47.378433 18.925316) -->
  <node action="modify" changeset="99999" id="-26" lat="47.378433" lon="18.925316" timestamp="" uid="4579407" user="KAMI" version="99999">
    <tag k="brand" v="Rossmann"/>
    <tag k="youtube" v="https://www.youtube.com/channel/UCmUCPmvMLL3IaXRBtx7-J7Q"/>
    <tag k="facebook" v="https://www.facebook.com/Rossmann.hu"/>
    <tag k="shop" v="chemist"/>
    <tag k="payment:debit_cards" v="yes"/>
    <tag k="payment:cash" v="yes"/>
    <tag k="operator" v="Rossmann Magyarország Kft."/>
    <tag k="addr:postcode" v="2030"/>
    <tag k="instagram" v="https://www.instagram.com/rossmann_hu/"/>
    <tag k="website" v="https://www.rossmann.hu"/>
    <tag k="addr:housenumber" v="28"/>
    <tag k="addr:city" v="Érd"/>
    <tag k="name" v="Rossmann"/>
    <tag k="source" v="website"/>
    <tag k="addr:street" v="Budai út"/>
  </node>
  <!-- Original coordinates: POINT (47.793681 18.742683) -->
  <node action="modify" changeset="99999" id="-27" lat="47.793681" lon="18.742683" timestamp="" uid="4579407" user="KAMI" version="99999">
    <tag k="brand" v="Rossmann"/>
    <tag k="youtube" v="https://www.youtube.com/channel/UCmUCPmvMLL3IaXRBtx7-J7Q"/>
    <tag k="facebook" v="https://www.facebook.com/Rossmann.hu"/>
    <tag k="shop" v="chemist"/>
    <tag k="payment:debit_cards" v="yes"/>
    <tag k="payment:cash" v="yes"/>
    <tag k="operator" v="Rossmann Magyarország Kft."/>
    <tag k="addr:postcode" v="2500"/>
    <tag k="instagram" v="https://www.instagram.com/rossmann_hu/"/>
    <tag k="website" v="https://www.rossmann.hu"/>
    <tag k="addr:housenumber" v="2"/>
    <tag k="addr:city" v="Esztergom"/>
    <tag k="name" v="Rossmann"/>
    <tag k="source" v="website"/>
    <tag k="addr:street" v="Petőfi Sándor utca"/>
  </node>
  <!-- Original coordinates: POINT (47.989838 22.512797) -->
  <node action="modify" changeset="99999" id="-28" lat="47.989838" lon="22.512797" timestamp="" uid="4579407" user="KAMI" version="99999">
    <tag k="brand" v="Rossmann"/>
    <tag k="youtube" v="https://www.youtube.com/channel/UCmUCPmvMLL3IaXRBtx7-J7Q"/>
    <tag k="facebook" v="https://www.facebook.com/Rossmann.hu"/>
    <tag k="shop" v="chemist"/>
    <tag k="payment:debit_cards" v="yes"/>
    <tag k="payment:cash" v="yes"/>
    <tag k="operator" v="Rossmann Magyarország Kft."/>
    <tag k="addr:postcode" v="4900"/>
    <tag k="instagram" v="https://www.instagram.com/rossmann_hu/"/>
    <tag k="website" v="https://www.rossmann.hu"/>
    <tag k="addr:housenumber" v="14"/>
    <tag k="addr:city" v="Fehérgyarmat"/>
    <tag k="name" v="Rossmann"/>
    <tag k="source" v="website"/>
    <tag k="addr:street" v="Kossuth Lajos utca"/>
  </node>
  <!-- Original coordinates: POINT (46.7493 17.557463) -->
  <node action="modify" changeset="99999" id="-29" lat="46.7493" lon="17.557463" timestamp="" uid="4579407" user="KAMI" version="99999">
    <tag k="brand" v="Rossmann"/>
    <tag k="youtube" v="https://www.youtube.com/channel/UCmUCPmvMLL3IaXRBtx7-J7Q"/>
    <tag k="facebook" v="https://www.facebook.com/Rossmann.hu"/>
    <tag k="shop" v="chemist"/>
    <tag k="payment:debit_cards" v="yes"/>
    <tag k="payment:cash" v="yes"/>
    <tag k="operator" v="Rossmann Magyarország Kft."/>
    <tag k="addr:postcode" v="8640"/>
    <tag k="instagram" v="https://www.instagram.com/rossmann_hu/"/>
    <tag k="website" v="https://www.rossmann.hu"/>
    <tag k="addr:housenumber" v="7"/>
    <tag k="addr:city" v="Fonyód"/>
    <tag k="name" v="Rossmann"/>
    <tag k="source" v="website"/>
    <tag k="addr:street" v="Ady Endre utca"/>
  </node>
  <!-- Original coordinates: POINT (47.5810859 19.1649915) -->
  <node action="modify" changeset="99999" id="-30" lat="47.5810859" lon="19.1649915" timestamp="" uid="4579407" user="KAMI" version="99999">
    <tag k="brand" v="Rossmann"/>
    <tag k="youtube" v="https://www.youtube.com/channel/UCmUCPmvMLL3IaXRBtx7-J7Q"/>
    <tag k="facebook" v="https://www.facebook.com/Rossmann.hu"/>
    <tag k="shop" v="chemist"/>
    <tag k="payment:debit_cards" v="yes"/>
    <tag k="payment:cash" v="yes"/>
    <tag k="operator" v="Rossmann Magyarország Kft."/>
    <tag k="addr:postcode" v="2151"/>
    <tag k="instagram" v="https://www.instagram.com/rossmann_hu/"/>
    <tag k="website" v="https://www.rossmann.hu"/>
    <tag k="addr:housenumber" v="1"/>
    <tag k="addr:city" v="Fót"/>
    <tag k="name" v="Rossmann"/>
    <tag k="source" v="website"/>
    <tag k="addr:street" v="Fehérkő utca"/>
  </node>
  <!-- Original coordinates: POINT (47.749186 20.417367) -->
  <node action="modify" changeset="99999" id="-31" lat="47.749186" lon="20.417367" timestamp="" uid="4579407" user="KAMI" version="99999">
    <tag k="brand" v="Rossmann"/>
    <tag k="youtube" v="https://www.youtube.com/channel/UCmUCPmvMLL3IaXRBtx7-J7Q"/>
    <tag k="facebook" v="https://www.facebook.com/Rossmann.hu"/>
    <tag k="shop" v="chemist"/>
    <tag k="payment:debit_cards" v="yes"/>
    <tag k="payment:cash" v="yes"/>
    <tag k="operator" v="Rossmann Magyarország Kft."/>
    <tag k="addr:postcode" v="3390"/>
    <tag k="instagram" v="https://www.instagram.com/rossmann_hu/"/>
    <tag k="website" v="https://www.rossmann.hu"/>
    <tag k="addr:housenumber" v="52"/>
    <tag k="addr:city" v="Füzesabony"/>
    <tag k="name" v="Rossmann"/>
    <tag k="source" v="website"/>
    <tag k="addr:street" v="Rákóczi út"/>
  </node>
  <!-- Original coordinates: POINT (47.599399 19.348498) -->
  <node action="modify" changeset="99999" id="-32" lat="47.599399" lon="19.348498" timestamp="" uid="4579407" user="KAMI" version="99999">
    <tag k="brand" v="Rossmann"/>
    <tag k="youtube" v="https://www.youtube.com/channel/UCmUCPmvMLL3IaXRBtx7-J7Q"/>
    <tag k="facebook" v="https://www.facebook.com/Rossmann.hu"/>
    <tag k="shop" v="chemist"/>
    <tag k="payment:debit_cards" v="yes"/>
    <tag k="payment:cash" v="yes"/>
    <tag k="operator" v="Rossmann Magyarország Kft."/>
    <tag k="addr:postcode" v="2100"/>
    <tag k="instagram" v="https://www.instagram.com/rossmann_hu/"/>
    <tag k="website" v="https://www.rossmann.hu"/>
    <tag k="addr:housenumber" v="4"/>
    <tag k="addr:city" v="Gödöllő"/>
    <tag k="name" v="Rossmann"/>
    <tag k="source" v="website"/>
    <tag k="addr:street" v="Szabadság tér"/>
  </node>
  <!-- Original coordinates: POINT (46.937907 20.827451) -->
  <node action="modify" changeset="99999" id="-33" lat="46.937907" lon="20.827451" timestamp="" uid="4579407" user="KAMI" version="99999">
    <tag k="brand" v="Rossmann"/>
    <tag k="youtube" v="https://www.youtube.com/channel/UCmUCPmvMLL3IaXRBtx7-J7Q"/>
    <tag k="facebook" v="https://www.facebook.com/Rossmann.hu"/>
    <tag k="shop" v="chemist"/>
    <tag k="payment:debit_cards" v="yes"/>
    <tag k="payment:cash" v="yes"/>
    <tag k="operator" v="Rossmann Magyarország Kft."/>
    <tag k="addr:postcode" v="5500"/>
    <tag k="instagram" v="https://www.instagram.com/rossmann_hu/"/>
    <tag k="website" v="https://www.rossmann.hu"/>
    <tag k="addr:housenumber" v="212"/>
    <tag k="addr:city" v="Gyomaendrőd"/>
    <tag k="name" v="Rossmann"/>
    <tag k="source" v="website"/>
    <tag k="addr:street" v="Fő út"/>
  </node>
  <!-- Original coordinates: POINT (47.425629 19.386308) -->
  <node action="modify" changeset="99999" id="-34" lat="47.425629" lon="19.386308" timestamp="" uid="4579407" user="KAMI" version="99999">
    <tag k="brand" v="Rossmann"/>
    <tag k="youtube" v="https://www.youtube.com/channel/UCmUCPmvMLL3IaXRBtx7-J7Q"/>
    <tag k="facebook" v="https://www.facebook.com/Rossmann.hu"/>
    <tag k="shop" v="chemist"/>
    <tag k="payment:debit_cards" v="yes"/>
    <tag k="payment:cash" v="yes"/>
    <tag k="operator" v="Rossmann Magyarország Kft."/>
    <tag k="addr:postcode" v="2230"/>
    <tag k="instagram" v="https://www.instagram.com/rossmann_hu/"/>
    <tag k="website" v="https://www.rossmann.hu"/>
    <tag k="addr:city" v="Gyömrő"/>
    <tag k="name" v="Rossmann"/>
    <tag k="source" v="website"/>
    <tag k="addr:street" v="Simon Mihály tér"/>
  </node>
  <!-- Original coordinates: POINT (47.784748 19.930381) -->
  <node action="modify" changeset="99999" id="-35" lat="47.784748" lon="19.930381" timestamp="" uid="4579407" user="KAMI" version="99999">
    <tag k="brand" v="Rossmann"/>
    <tag k="youtube" v="https://www.youtube.com/channel/UCmUCPmvMLL3IaXRBtx7-J7Q"/>
    <tag k="facebook" v="https://www.facebook.com/Rossmann.hu"/>
    <tag k="shop" v="chemist"/>
    <tag k="payment:debit_cards" v="yes"/>
    <tag k="payment:cash" v="yes"/>
    <tag k="operator" v="Rossmann Magyarország Kft."/>
    <tag k="addr:postcode" v="3200"/>
    <tag k="instagram" v="https://www.instagram.com/rossmann_hu/"/>
    <tag k="website" v="https://www.rossmann.hu"/>
    <tag k="addr:housenumber" v="27"/>
    <tag k="addr:city" v="Gyöngyös"/>
    <tag k="name" v="Rossmann"/>
    <tag k="source" v="website"/>
    <tag k="addr:street" v="Kossuth Lajos utca"/>
  </node>
  <!-- Original coordinates: POINT (47.685838 17.634363) -->
  <node action="modify" changeset="99999" id="-36" lat="47.685838" lon="17.634363" timestamp="" uid="4579407" user="KAMI" version="99999">
    <tag k="brand" v="Rossmann"/>
    <tag k="youtube" v="https://www.youtube.com/channel/UCmUCPmvMLL3IaXRBtx7-J7Q"/>
    <tag k="facebook" v="https://www.facebook.com/Rossmann.hu"/>
    <tag k="shop" v="chemist"/>
    <tag k="payment:debit_cards" v="yes"/>
    <tag k="payment:cash" v="yes"/>
    <tag k="operator" v="Rossmann Magyarország Kft."/>
    <tag k="addr:postcode" v="9021"/>
    <tag k="instagram" v="https://www.instagram.com/rossmann_hu/"/>
    <tag k="website" v="https://www.rossmann.hu"/>
    <tag k="addr:housenumber" v="25"/>
    <tag k="addr:city" v="Győr"/>
    <tag k="name" v="Rossmann"/>
    <tag k="source" v="website"/>
    <tag k="addr:street" v="Baross Gábor utca"/>
  </node>
  <!-- Original coordinates: POINT (46.643186 21.272461) -->
  <node action="modify" changeset="99999" id="-37" lat="46.643186" lon="21.272461" timestamp="" uid="4579407" user="KAMI" version="99999">
    <tag k="brand" v="Rossmann"/>
    <tag k="youtube" v="https://www.youtube.com/channel/UCmUCPmvMLL3IaXRBtx7-J7Q"/>
    <tag k="facebook" v="https://www.facebook.com/Rossmann.hu"/>
    <tag k="shop" v="chemist"/>
    <tag k="payment:debit_cards" v="yes"/>
    <tag k="payment:cash" v="yes"/>
    <tag k="operator" v="Rossmann Magyarország Kft."/>
    <tag k="addr:postcode" v="5700"/>
    <tag k="instagram" v="https://www.instagram.com/rossmann_hu/"/>
    <tag k="website" v="https://www.rossmann.hu"/>
    <tag k="addr:housenumber" v="27"/>
    <tag k="addr:city" v="Gyula"/>
    <tag k="name" v="Rossmann"/>
    <tag k="source" v="website"/>
    <tag k="addr:street" v="Kossuth Lajos tér"/>
  </node>
  <!-- Original coordinates: POINT (47.672115 21.507765) -->
  <node action="modify" changeset="99999" id="-38" lat="47.672115" lon="21.507765" timestamp="" uid="4579407" user="KAMI" version="99999">
    <tag k="brand" v="Rossmann"/>
    <tag k="youtube" v="https://www.youtube.com/channel/UCmUCPmvMLL3IaXRBtx7-J7Q"/>
    <tag k="facebook" v="https://www.facebook.com/Rossmann.hu"/>
    <tag k="shop" v="chemist"/>
    <tag k="payment:debit_cards" v="yes"/>
    <tag k="payment:cash" v="yes"/>
    <tag k="operator" v="Rossmann Magyarország Kft."/>
    <tag k="addr:postcode" v="4220"/>
    <tag k="instagram" v="https://www.instagram.com/rossmann_hu/"/>
    <tag k="website" v="https://www.rossmann.hu"/>
    <tag k="addr:housenumber" v="3"/>
    <tag k="addr:city" v="Hajdúböszörmény"/>
    <tag k="name" v="Rossmann"/>
    <tag k="source" v="website"/>
    <tag k="addr:street" v="Kossuth Lajos utca"/>
  </node>
  <!-- Original coordinates: POINT (47.845904 21.429397) -->
  <node action="modify" changeset="99999" id="-39" lat="47.845904" lon="21.429397" timestamp="" uid="4579407" user="KAMI" version="99999">
    <tag k="brand" v="Rossmann"/>
    <tag k="youtube" v="https://www.youtube.com/channel/UCmUCPmvMLL3IaXRBtx7-J7Q"/>
    <tag k="facebook" v="https://www.facebook.com/Rossmann.hu"/>
    <tag k="shop" v="chemist"/>
    <tag k="payment:debit_cards" v="yes"/>
    <tag k="payment:cash" v="yes"/>
    <tag k="operator" v="Rossmann Magyarország Kft."/>
    <tag k="addr:postcode" v="4080"/>
    <tag k="instagram" v="https://www.instagram.com/rossmann_hu/"/>
    <tag k="website" v="https://www.rossmann.hu"/>
    <tag k="addr:housenumber" v="12-15"/>
    <tag k="addr:city" v="Hajdúnánás"/>
    <tag k="name" v="Rossmann"/>
    <tag k="source" v="website"/>
    <tag k="addr:street" v="Kossuth utca"/>
  </node>
  <!-- Original coordinates: POINT (47.445003 21.391382) -->
  <node action="modify" changeset="99999" id="-40" lat="47.445003" lon="21.391382" timestamp="" uid="4579407" user="KAMI" version="99999">
    <tag k="brand" v="Rossmann"/>
    <tag k="youtube" v="https://www.youtube.com/channel/UCmUCPmvMLL3IaXRBtx7-J7Q"/>
    <tag k="facebook" v="https://www.facebook.com/Rossmann.hu"/>
    <tag k="shop" v="chemist"/>
    <tag k="payment:debit_cards" v="yes"/>
    <tag k="payment:cash" v="yes"/>
    <tag k="operator" v="Rossmann Magyarország Kft."/>
    <tag k="addr:postcode" v="4200"/>
    <tag k="instagram" v="https://www.instagram.com/rossmann_hu/"/>
    <tag k="website" v="https://www.rossmann.hu"/>
    <tag k="addr:housenumber" v="9-11"/>
    <tag k="addr:city" v="Hajdúszoboszló"/>
    <tag k="name" v="Rossmann"/>
    <tag k="source" v="website"/>
    <tag k="addr:street" v="Hősök tere"/>
  </node>
  <!-- Original coordinates: POINT (47.668187 19.681445) -->
  <node action="modify" changeset="99999" id="-41" lat="47.668187" lon="19.681445" timestamp="" uid="4579407" user="KAMI" version="99999">
    <tag k="brand" v="Rossmann"/>
    <tag k="youtube" v="https://www.youtube.com/channel/UCmUCPmvMLL3IaXRBtx7-J7Q"/>
    <tag k="facebook" v="https://www.facebook.com/Rossmann.hu"/>
    <tag k="shop" v="chemist"/>
    <tag k="payment:debit_cards" v="yes"/>
    <tag k="payment:cash" v="yes"/>
    <tag k="operator" v="Rossmann Magyarország Kft."/>
    <tag k="addr:postcode" v="3000"/>
    <tag k="instagram" v="https://www.instagram.com/rossmann_hu/"/>
    <tag k="website" v="https://www.rossmann.hu"/>
    <tag k="addr:housenumber" v="3-5"/>
    <tag k="addr:city" v="Hatvan"/>
    <tag k="name" v="Rossmann"/>
    <tag k="source" v="website"/>
    <tag k="addr:street" v="Grassalkovich út"/>
  </node>
  <!-- Original coordinates: POINT (47.594698 20.289131) -->
  <node action="modify" changeset="99999" id="-42" lat="47.594698" lon="20.289131" timestamp="" uid="4579407" user="KAMI" version="99999">
    <tag k="brand" v="Rossmann"/>
    <tag k="youtube" v="https://www.youtube.com/channel/UCmUCPmvMLL3IaXRBtx7-J7Q"/>
    <tag k="facebook" v="https://www.facebook.com/Rossmann.hu"/>
    <tag k="shop" v="chemist"/>
    <tag k="payment:debit_cards" v="yes"/>
    <tag k="payment:cash" v="yes"/>
    <tag k="operator" v="Rossmann Magyarország Kft."/>
    <tag k="addr:postcode" v="3360"/>
    <tag k="instagram" v="https://www.instagram.com/rossmann_hu/"/>
    <tag k="website" v="https://www.rossmann.hu"/>
    <tag k="addr:housenumber" v="15"/>
    <tag k="addr:city" v="Heves"/>
    <tag k="name" v="Rossmann"/>
    <tag k="source" v="website"/>
    <tag k="addr:street" v="Hősök tere"/>
  </node>
  <!-- Original coordinates: POINT (46.414593 20.318441) -->
  <node action="modify" changeset="99999" id="-43" lat="46.414593" lon="20.318441" timestamp="" uid="4579407" user="KAMI" version="99999">
    <tag k="brand" v="Rossmann"/>
    <tag k="youtube" v="https://www.youtube.com/channel/UCmUCPmvMLL3IaXRBtx7-J7Q"/>
    <tag k="facebook" v="https://www.facebook.com/Rossmann.hu"/>
    <tag k="shop" v="chemist"/>
    <tag k="payment:debit_cards" v="yes"/>
    <tag k="payment:cash" v="yes"/>
    <tag k="operator" v="Rossmann Magyarország Kft."/>
    <tag k="addr:postcode" v="6800"/>
    <tag k="instagram" v="https://www.instagram.com/rossmann_hu/"/>
    <tag k="website" v="https://www.rossmann.hu"/>
    <tag k="addr:housenumber" v="4"/>
    <tag k="addr:city" v="Hódmezővásárhely"/>
    <tag k="name" v="Rossmann"/>
    <tag k="source" v="website"/>
    <tag k="addr:street" v="Andrássy út"/>
  </node>
  <!-- Original coordinates: POINT (47.501687 19.914114) -->
  <node action="modify" changeset="99999" id="-44" lat="47.501687" lon="19.914114" timestamp="" uid="4579407" user="KAMI" version="99999">
    <tag k="brand" v="Rossmann"/>
    <tag k="youtube" v="https://www.youtube.com/channel/UCmUCPmvMLL3IaXRBtx7-J7Q"/>
    <tag k="facebook" v="https://www.facebook.com/Rossmann.hu"/>
    <tag k="shop" v="chemist"/>
    <tag k="payment:debit_cards" v="yes"/>
    <tag k="payment:cash" v="yes"/>
    <tag k="operator" v="Rossmann Magyarország Kft."/>
    <tag k="addr:postcode" v="5100"/>
    <tag k="instagram" v="https://www.instagram.com/rossmann_hu/"/>
    <tag k="website" v="https://www.rossmann.hu"/>
    <tag k="addr:housenumber" v="19"/>
    <tag k="addr:city" v="Jászberény"/>
    <tag k="name" v="Rossmann"/>
    <tag k="source" v="website"/>
    <tag k="addr:street" v="Lehel Vezér tér"/>
  </node>
  <!-- Original coordinates: POINT (46.524958 18.979737) -->
  <node action="modify" changeset="99999" id="-45" lat="46.524958" lon="18.979737" timestamp="" uid="4579407" user="KAMI" version="99999">
    <tag k="brand" v="Rossmann"/>
    <tag k="youtube" v="https://www.youtube.com/channel/UCmUCPmvMLL3IaXRBtx7-J7Q"/>
    <tag k="facebook" v="https://www.facebook.com/Rossmann.hu"/>
    <tag k="shop" v="chemist"/>
    <tag k="payment:debit_cards" v="yes"/>
    <tag k="payment:cash" v="yes"/>
    <tag k="operator" v="Rossmann Magyarország Kft."/>
    <tag k="addr:postcode" v="6300"/>
    <tag k="instagram" v="https://www.instagram.com/rossmann_hu/"/>
    <tag k="website" v="https://www.rossmann.hu"/>
    <tag k="addr:housenumber" v="59"/>
    <tag k="addr:city" v="Kalocsa"/>
    <tag k="name" v="Rossmann"/>
    <tag k="source" v="website"/>
    <tag k="addr:street" v="Szent István király utca"/>
  </node>
  <!-- Original coordinates: POINT (46.356716 17.792134) -->
  <node action="modify" changeset="99999" id="-46" lat="46.356716" lon="17.792134" timestamp="" uid="4579407" user="KAMI" version="99999">
    <tag k="brand" v="Rossmann"/>
    <tag k="youtube" v="https://www.youtube.com/channel/UCmUCPmvMLL3IaXRBtx7-J7Q"/>
    <tag k="facebook" v="https://www.facebook.com/Rossmann.hu"/>
    <tag k="shop" v="chemist"/>
    <tag k="payment:debit_cards" v="yes"/>
    <tag k="payment:cash" v="yes"/>
    <tag k="operator" v="Rossmann Magyarország Kft."/>
    <tag k="addr:postcode" v="7400"/>
    <tag k="instagram" v="https://www.instagram.com/rossmann_hu/"/>
    <tag k="website" v="https://www.rossmann.hu"/>
    <tag k="addr:housenumber" v="2"/>
    <tag k="addr:city" v="Kaposvár"/>
    <tag k="name" v="Rossmann"/>
    <tag k="source" v="website"/>
    <tag k="addr:street" v="Irányi Dániel utca"/>
  </node>
  <!-- Original coordinates: POINT (47.593351 17.025969) -->
  <node action="modify" changeset="99999" id="-47" lat="47.593351" lon="17.025969" timestamp="" uid="4579407" user="KAMI" version="99999">
    <tag k="brand" v="Rossmann"/>
    <tag k="youtube" v="https://www.youtube.com/channel/UCmUCPmvMLL3IaXRBtx7-J7Q"/>
    <tag k="facebook" v="https://www.facebook.com/Rossmann.hu"/>
    <tag k="shop" v="chemist"/>
    <tag k="payment:debit_cards" v="yes"/>
    <tag k="payment:cash" v="yes"/>
    <tag k="operator" v="Rossmann Magyarország Kft."/>
    <tag k="addr:postcode" v="9330"/>
    <tag k="instagram" v="https://www.instagram.com/rossmann_hu/"/>
    <tag k="website" v="https://www.rossmann.hu"/>
    <tag k="addr:housenumber" v="27"/>
    <tag k="addr:city" v="Kapuvár"/>
    <tag k="name" v="Rossmann"/>
    <tag k="source" v="website"/>
    <tag k="addr:street" v="Fő tér"/>
  </node>
  <!-- Original coordinates: POINT (47.320483 20.928531) -->
  <node action="modify" changeset="99999" id="-48" lat="47.320483" lon="20.928531" timestamp="" uid="4579407" user="KAMI" version="99999">
    <tag k="brand" v="Rossmann"/>
    <tag k="youtube" v="https://www.youtube.com/channel/UCmUCPmvMLL3IaXRBtx7-J7Q"/>
    <tag k="facebook" v="https://www.facebook.com/Rossmann.hu"/>
    <tag k="shop" v="chemist"/>
    <tag k="payment:debit_cards" v="yes"/>
    <tag k="payment:cash" v="yes"/>
    <tag k="operator" v="Rossmann Magyarország Kft."/>
    <tag k="addr:postcode" v="5300"/>
    <tag k="instagram" v="https://www.instagram.com/rossmann_hu/"/>
    <tag k="website" v="https://www.rossmann.hu"/>
    <tag k="addr:housenumber" v="10"/>
    <tag k="addr:city" v="Karcag"/>
    <tag k="name" v="Rossmann"/>
    <tag k="source" v="website"/>
    <tag k="addr:street" v="Kossuth Lajos tér"/>
  </node>
  <!-- Original coordinates: POINT (48.254463 20.624072) -->
  <node action="modify" changeset="99999" id="-49" lat="48.254463" lon="20.624072" timestamp="" uid="4579407" user="KAMI" version="99999">
    <tag k="brand" v="Rossmann"/>
    <tag k="youtube" v="https://www.youtube.com/channel/UCmUCPmvMLL3IaXRBtx7-J7Q"/>
    <tag k="facebook" v="https://www.facebook.com/Rossmann.hu"/>
    <tag k="shop" v="chemist"/>
    <tag k="payment:debit_cards" v="yes"/>
    <tag k="payment:cash" v="yes"/>
    <tag k="operator" v="Rossmann Magyarország Kft."/>
    <tag k="addr:postcode" v="3700"/>
    <tag k="instagram" v="https://www.instagram.com/rossmann_hu/"/>
    <tag k="website" v="https://www.rossmann.hu"/>
    <tag k="addr:housenumber" v="2"/>
    <tag k="addr:city" v="Kazincbarcika"/>
    <tag k="name" v="Rossmann"/>
    <tag k="source" v="website"/>
    <tag k="addr:street" v="Fő tér"/>
  </node>
  <!-- Original coordinates: POINT (46.906208 19.689436) -->
  <node action="modify" changeset="99999" id="-50" lat="46.906208" lon="19.689436" timestamp="" uid="4579407" user="KAMI" version="99999">
    <tag k="brand" v="Rossmann"/>
    <tag k="youtube" v="https://www.youtube.com/channel/UCmUCPmvMLL3IaXRBtx7-J7Q"/>
    <tag k="facebook" v="https://www.facebook.com/Rossmann.hu"/>
    <tag k="shop" v="chemist"/>
    <tag k="payment:debit_cards" v="yes"/>
    <tag k="payment:cash" v="yes"/>
    <tag k="operator" v="Rossmann Magyarország Kft."/>
    <tag k="addr:postcode" v="6000"/>
    <tag k="instagram" v="https://www.instagram.com/rossmann_hu/"/>
    <tag k="website" v="https://www.rossmann.hu"/>
    <tag k="addr:housenumber" v="6"/>
    <tag k="addr:city" v="Kecskemét"/>
    <tag k="name" v="Rossmann"/>
    <tag k="source" v="website"/>
    <tag k="addr:street" v="Deák Ferenc tér"/>
  </node>
  <!-- Original coordinates: POINT (46.765714 17.242837) -->
  <node action="modify" changeset="99999" id="-51" lat="46.765714" lon="17.242837" timestamp="" uid="4579407" user="KAMI" version="99999">
    <tag k="brand" v="Rossmann"/>
    <tag k="youtube" v="https://www.youtube.com/channel/UCmUCPmvMLL3IaXRBtx7-J7Q"/>
    <tag k="facebook" v="https://www.facebook.com/Rossmann.hu"/>
    <tag k="shop" v="chemist"/>
    <tag k="payment:debit_cards" v="yes"/>
    <tag k="payment:cash" v="yes"/>
    <tag k="operator" v="Rossmann Magyarország Kft."/>
    <tag k="addr:postcode" v="8360"/>
    <tag k="instagram" v="https://www.instagram.com/rossmann_hu/"/>
    <tag k="website" v="https://www.rossmann.hu"/>
    <tag k="addr:housenumber" v="35"/>
    <tag k="addr:city" v="Keszthely"/>
    <tag k="name" v="Rossmann"/>
    <tag k="source" v="website"/>
    <tag k="addr:street" v="Kossuth Lajos utca"/>
  </node>
  <!-- Original coordinates: POINT (47.501322 18.025425) -->
  <node action="modify" changeset="99999" id="-52" lat="47.501322" lon="18.025425" timestamp="" uid="4579407" user="KAMI" version="99999">
    <tag k="brand" v="Rossmann"/>
    <tag k="youtube" v="https://www.youtube.com/channel/UCmUCPmvMLL3IaXRBtx7-J7Q"/>
    <tag k="facebook" v="https://www.facebook.com/Rossmann.hu"/>
    <tag k="shop" v="chemist"/>
    <tag k="payment:debit_cards" v="yes"/>
    <tag k="payment:cash" v="yes"/>
    <tag k="operator" v="Rossmann Magyarország Kft."/>
    <tag k="addr:postcode" v="2870"/>
    <tag k="instagram" v="https://www.instagram.com/rossmann_hu/"/>
    <tag k="website" v="https://www.rossmann.hu"/>
    <tag k="addr:housenumber" v="1"/>
    <tag k="addr:city" v="Kisbér"/>
    <tag k="name" v="Rossmann"/>
    <tag k="source" v="website"/>
    <tag k="addr:street" v="Városház tér"/>
  </node>
  <!-- Original coordinates: POINT (46.620691 19.284715) -->
  <node action="modify" changeset="99999" id="-53" lat="46.620691" lon="19.284715" timestamp="" uid="4579407" user="KAMI" version="99999">
    <tag k="brand" v="Rossmann"/>
    <tag k="youtube" v="https://www.youtube.com/channel/UCmUCPmvMLL3IaXRBtx7-J7Q"/>
    <tag k="facebook" v="https://www.facebook.com/Rossmann.hu"/>
    <tag k="shop" v="chemist"/>
    <tag k="payment:debit_cards" v="yes"/>
    <tag k="payment:cash" v="yes"/>
    <tag k="operator" v="Rossmann Magyarország Kft."/>
    <tag k="addr:postcode" v="6200"/>
    <tag k="instagram" v="https://www.instagram.com/rossmann_hu/"/>
    <tag k="website" v="https://www.rossmann.hu"/>
    <tag k="addr:housenumber" v="8"/>
    <tag k="addr:city" v="Kiskőrös"/>
    <tag k="name" v="Rossmann"/>
    <tag k="source" v="website"/>
    <tag k="addr:street" v="Petőfi tér"/>
  </node>
  <!-- Original coordinates: POINT (46.712101 19.849686) -->
  <node action="modify" changeset="99999" id="-54" lat="46.712101" lon="19.849686" timestamp="" uid="4579407" user="KAMI" version="99999">
    <tag k="brand" v="Rossmann"/>
    <tag k="youtube" v="https://www.youtube.com/channel/UCmUCPmvMLL3IaXRBtx7-J7Q"/>
    <tag k="facebook" v="https://www.facebook.com/Rossmann.hu"/>
    <tag k="shop" v="chemist"/>
    <tag k="payment:debit_cards" v="yes"/>
    <tag k="payment:cash" v="yes"/>
    <tag k="operator" v="Rossmann Magyarország Kft."/>
    <tag k="addr:postcode" v="6100"/>
    <tag k="instagram" v="https://www.instagram.com/rossmann_hu/"/>
    <tag k="website" v="https://www.rossmann.hu"/>
    <tag k="addr:housenumber" v="1"/>
    <tag k="addr:city" v="Kiskunfélegyháza"/>
    <tag k="name" v="Rossmann"/>
    <tag k="source" v="website"/>
    <tag k="addr:street" v="Kossuth Lajos utca"/>
  </node>
  <!-- Original coordinates: POINT (46.430816 19.480696) -->
  <node action="modify" changeset="99999" id="-55" lat="46.430816" lon="19.480696" timestamp="" uid="4579407" user="KAMI" version="99999">
    <tag k="brand" v="Rossmann"/>
    <tag k="youtube" v="https://www.youtube.com/channel/UCmUCPmvMLL3IaXRBtx7-J7Q"/>
    <tag k="facebook" v="https://www.facebook.com/Rossmann.hu"/>
    <tag k="shop" v="chemist"/>
    <tag k="payment:debit_cards" v="yes"/>
    <tag k="payment:cash" v="yes"/>
    <tag k="operator" v="Rossmann Magyarország Kft."/>
    <tag k="addr:postcode" v="6400"/>
    <tag k="instagram" v="https://www.instagram.com/rossmann_hu/"/>
    <tag k="website" v="https://www.rossmann.hu"/>
    <tag k="addr:housenumber" v="5"/>
    <tag k="addr:city" v="Kiskunhalas"/>
    <tag k="name" v="Rossmann"/>
    <tag k="source" v="website"/>
    <tag k="addr:street" v="Bethlen Gábor tér"/>
  </node>
  <!-- Original coordinates: POINT (46.492409 19.736465) -->
  <node action="modify" changeset="99999" id="-56" lat="46.492409" lon="19.736465" timestamp="" uid="4579407" user="KAMI" version="99999">
    <tag k="brand" v="Rossmann"/>
    <tag k="youtube" v="https://www.youtube.com/channel/UCmUCPmvMLL3IaXRBtx7-J7Q"/>
    <tag k="facebook" v="https://www.facebook.com/Rossmann.hu"/>
    <tag k="shop" v="chemist"/>
    <tag k="payment:debit_cards" v="yes"/>
    <tag k="payment:cash" v="yes"/>
    <tag k="operator" v="Rossmann Magyarország Kft."/>
    <tag k="addr:postcode" v="6120"/>
    <tag k="instagram" v="https://www.instagram.com/rossmann_hu/"/>
    <tag k="website" v="https://www.rossmann.hu"/>
    <tag k="addr:housenumber" v="67"/>
    <tag k="addr:city" v="Kiskunmajsa"/>
    <tag k="name" v="Rossmann"/>
    <tag k="source" v="website"/>
    <tag k="addr:street" v="Fő utca"/>
  </node>
  <!-- Original coordinates: POINT (47.218058 20.75717) -->
  <node action="modify" changeset="99999" id="-57" lat="47.218058" lon="20.75717" timestamp="" uid="4579407" user="KAMI" version="99999">
    <tag k="brand" v="Rossmann"/>
    <tag k="youtube" v="https://www.youtube.com/channel/UCmUCPmvMLL3IaXRBtx7-J7Q"/>
    <tag k="facebook" v="https://www.facebook.com/Rossmann.hu"/>
    <tag k="shop" v="chemist"/>
    <tag k="payment:debit_cards" v="yes"/>
    <tag k="payment:cash" v="yes"/>
    <tag k="operator" v="Rossmann Magyarország Kft."/>
    <tag k="addr:postcode" v="5310"/>
    <tag k="instagram" v="https://www.instagram.com/rossmann_hu/"/>
    <tag k="website" v="https://www.rossmann.hu"/>
    <tag k="addr:housenumber" v="2"/>
    <tag k="addr:city" v="Kisújszállás"/>
    <tag k="name" v="Rossmann"/>
    <tag k="source" v="website"/>
    <tag k="addr:street" v="Szabadság tér"/>
  </node>
  <!-- Original coordinates: POINT (48.224528 22.078706) -->
  <node action="modify" changeset="99999" id="-58" lat="48.224528" lon="22.078706" timestamp="" uid="4579407" user="KAMI" version="99999">
    <tag k="brand" v="Rossmann"/>
    <tag k="youtube" v="https://www.youtube.com/channel/UCmUCPmvMLL3IaXRBtx7-J7Q"/>
    <tag k="facebook" v="https://www.facebook.com/Rossmann.hu"/>
    <tag k="shop" v="chemist"/>
    <tag k="payment:debit_cards" v="yes"/>
    <tag k="payment:cash" v="yes"/>
    <tag k="operator" v="Rossmann Magyarország Kft."/>
    <tag k="addr:postcode" v="4600"/>
    <tag k="instagram" v="https://www.instagram.com/rossmann_hu/"/>
    <tag k="website" v="https://www.rossmann.hu"/>
    <tag k="addr:housenumber" v="26"/>
    <tag k="addr:city" v="Kisvárda"/>
    <tag k="name" v="Rossmann"/>
    <tag k="source" v="website"/>
    <tag k="addr:street" v="Szent László út"/>
  </node>
  <!-- Original coordinates: POINT (47.744335 18.119454) -->
  <node action="modify" changeset="99999" id="-59" lat="47.744335" lon="18.119454" timestamp="" uid="4579407" user="KAMI" version="99999">
    <tag k="brand" v="Rossmann"/>
    <tag k="youtube" v="https://www.youtube.com/channel/UCmUCPmvMLL3IaXRBtx7-J7Q"/>
    <tag k="facebook" v="https://www.facebook.com/Rossmann.hu"/>
    <tag k="shop" v="chemist"/>
    <tag k="payment:debit_cards" v="yes"/>
    <tag k="payment:cash" v="yes"/>
    <tag k="operator" v="Rossmann Magyarország Kft."/>
    <tag k="addr:postcode" v="2900"/>
    <tag k="instagram" v="https://www.instagram.com/rossmann_hu/"/>
    <tag k="website" v="https://www.rossmann.hu"/>
    <tag k="addr:housenumber" v="14/a"/>
    <tag k="addr:city" v="Komárom"/>
    <tag k="name" v="Rossmann"/>
    <tag k="source" v="website"/>
    <tag k="addr:street" v="Igmándi út"/>
  </node>
  <!-- Original coordinates: POINT (46.18985 18.266099) -->
  <node action="modify" changeset="99999" id="-60" lat="46.18985" lon="18.266099" timestamp="" uid="4579407" user="KAMI" version="99999">
    <tag k="brand" v="Rossmann"/>
    <tag k="youtube" v="https://www.youtube.com/channel/UCmUCPmvMLL3IaXRBtx7-J7Q"/>
    <tag k="facebook" v="https://www.facebook.com/Rossmann.hu"/>
    <tag k="shop" v="chemist"/>
    <tag k="payment:debit_cards" v="yes"/>
    <tag k="payment:cash" v="yes"/>
    <tag k="operator" v="Rossmann Magyarország Kft."/>
    <tag k="addr:postcode" v="7300"/>
    <tag k="instagram" v="https://www.instagram.com/rossmann_hu/"/>
    <tag k="website" v="https://www.rossmann.hu"/>
    <tag k="addr:housenumber" v="87"/>
    <tag k="addr:city" v="Komló"/>
    <tag k="name" v="Rossmann"/>
    <tag k="source" v="website"/>
    <tag k="addr:street" v="Kossuth Lajos utca"/>
  </node>
  <!-- Original coordinates: POINT (47.385977 16.543532) -->
  <node action="modify" changeset="99999" id="-61" lat="47.385977" lon="16.543532" timestamp="" uid="4579407" user="KAMI" version="99999">
    <tag k="brand" v="Rossmann"/>
    <tag k="youtube" v="https://www.youtube.com/channel/UCmUCPmvMLL3IaXRBtx7-J7Q"/>
    <tag k="facebook" v="https://www.facebook.com/Rossmann.hu"/>
    <tag k="shop" v="chemist"/>
    <tag k="payment:debit_cards" v="yes"/>
    <tag k="payment:cash" v="yes"/>
    <tag k="operator" v="Rossmann Magyarország Kft."/>
    <tag k="addr:postcode" v="9730"/>
    <tag k="instagram" v="https://www.instagram.com/rossmann_hu/"/>
    <tag k="website" v="https://www.rossmann.hu"/>
    <tag k="addr:housenumber" v="23"/>
    <tag k="addr:city" v="Kőszeg"/>
    <tag k="name" v="Rossmann"/>
    <tag k="source" v="website"/>
    <tag k="addr:street" v="Rákóczi Ferenc utca"/>
  </node>
  <!-- Original coordinates: POINT (46.248942 20.146204) -->
  <node action="modify" changeset="99999" id="-62" lat="46.248942" lon="20.146204" timestamp="" uid="4579407" user="KAMI" version="99999">
    <tag k="brand" v="Rossmann"/>
    <tag k="youtube" v="https://www.youtube.com/channel/UCmUCPmvMLL3IaXRBtx7-J7Q"/>
    <tag k="facebook" v="https://www.facebook.com/Rossmann.hu"/>
    <tag k="shop" v="chemist"/>
    <tag k="payment:debit_cards" v="yes"/>
    <tag k="payment:cash" v="yes"/>
    <tag k="operator" v="Rossmann Magyarország Kft."/>
    <tag k="addr:postcode" v="6720"/>
    <tag k="instagram" v="https://www.instagram.com/rossmann_hu/"/>
    <tag k="website" v="https://www.rossmann.hu"/>
    <tag k="addr:housenumber" v="7-9"/>
    <tag k="addr:city" v="Szeged"/>
    <tag k="name" v="Rossmann"/>
    <tag k="source" v="website"/>
    <tag k="addr:street" v="Jókai utca"/>
  </node>
  <!-- Original coordinates: POINT (46.839614 20.283384) -->
  <node action="modify" changeset="99999" id="-63" lat="46.839614" lon="20.283384" timestamp="" uid="4579407" user="KAMI" version="99999">
    <tag k="brand" v="Rossmann"/>
    <tag k="youtube" v="https://www.youtube.com/channel/UCmUCPmvMLL3IaXRBtx7-J7Q"/>
    <tag k="facebook" v="https://www.facebook.com/Rossmann.hu"/>
    <tag k="shop" v="chemist"/>
    <tag k="payment:debit_cards" v="yes"/>
    <tag k="payment:cash" v="yes"/>
    <tag k="operator" v="Rossmann Magyarország Kft."/>
    <tag k="addr:postcode" v="5440"/>
    <tag k="instagram" v="https://www.instagram.com/rossmann_hu/"/>
    <tag k="website" v="https://www.rossmann.hu"/>
    <tag k="addr:housenumber" v="11"/>
    <tag k="addr:city" v="Kunszentmárton"/>
    <tag k="name" v="Rossmann"/>
    <tag k="source" v="website"/>
    <tag k="addr:street" v="Köztársaság tér"/>
  </node>
  <!-- Original coordinates: POINT (47.025501 19.559553) -->
  <node action="modify" changeset="99999" id="-64" lat="47.025501" lon="19.559553" timestamp="" uid="4579407" user="KAMI" version="99999">
    <tag k="brand" v="Rossmann"/>
    <tag k="youtube" v="https://www.youtube.com/channel/UCmUCPmvMLL3IaXRBtx7-J7Q"/>
    <tag k="facebook" v="https://www.facebook.com/Rossmann.hu"/>
    <tag k="shop" v="chemist"/>
    <tag k="payment:debit_cards" v="yes"/>
    <tag k="payment:cash" v="yes"/>
    <tag k="operator" v="Rossmann Magyarország Kft."/>
    <tag k="addr:postcode" v="6050"/>
    <tag k="instagram" v="https://www.instagram.com/rossmann_hu/"/>
    <tag k="website" v="https://www.rossmann.hu"/>
    <tag k="addr:housenumber" v="98"/>
    <tag k="addr:city" v="Lajosmizse"/>
    <tag k="name" v="Rossmann"/>
    <tag k="source" v="website"/>
    <tag k="addr:street" v="Dózsa György út"/>
  </node>
  <!-- Original coordinates: POINT (46.623725 16.542147) -->
  <node action="modify" changeset="99999" id="-65" lat="46.623725" lon="16.542147" timestamp="" uid="4579407" user="KAMI" version="99999">
    <tag k="brand" v="Rossmann"/>
    <tag k="youtube" v="https://www.youtube.com/channel/UCmUCPmvMLL3IaXRBtx7-J7Q"/>
    <tag k="facebook" v="https://www.facebook.com/Rossmann.hu"/>
    <tag k="shop" v="chemist"/>
    <tag k="payment:debit_cards" v="yes"/>
    <tag k="payment:cash" v="yes"/>
    <tag k="operator" v="Rossmann Magyarország Kft."/>
    <tag k="addr:postcode" v="8960"/>
    <tag k="instagram" v="https://www.instagram.com/rossmann_hu/"/>
    <tag k="website" v="https://www.rossmann.hu"/>
    <tag k="addr:housenumber" v="2"/>
    <tag k="addr:city" v="Lenti"/>
    <tag k="name" v="Rossmann"/>
    <tag k="source" v="website"/>
    <tag k="addr:street" v="Zrínyi Miklós utca"/>
  </node>
  <!-- Original coordinates: POINT (46.215599 20.476327) -->
  <node action="modify" changeset="99999" id="-66" lat="46.215599" lon="20.476327" timestamp="" uid="4579407" user="KAMI" version="99999">
    <tag k="brand" v="Rossmann"/>
    <tag k="youtube" v="https://www.youtube.com/channel/UCmUCPmvMLL3IaXRBtx7-J7Q"/>
    <tag k="facebook" v="https://www.facebook.com/Rossmann.hu"/>
    <tag k="shop" v="chemist"/>
    <tag k="payment:debit_cards" v="yes"/>
    <tag k="payment:cash" v="yes"/>
    <tag k="operator" v="Rossmann Magyarország Kft."/>
    <tag k="addr:postcode" v="6900"/>
    <tag k="instagram" v="https://www.instagram.com/rossmann_hu/"/>
    <tag k="website" v="https://www.rossmann.hu"/>
    <tag k="addr:housenumber" v="14-16"/>
    <tag k="addr:city" v="Makó"/>
    <tag k="name" v="Rossmann"/>
    <tag k="source" v="website"/>
    <tag k="addr:street" v="Széchenyi tér"/>
  </node>
  <!-- Original coordinates: POINT (47.954649 22.324161) -->
  <node action="modify" changeset="99999" id="-67" lat="47.954649" lon="22.324161" timestamp="" uid="4579407" user="KAMI" version="99999">
    <tag k="brand" v="Rossmann"/>
    <tag k="youtube" v="https://www.youtube.com/channel/UCmUCPmvMLL3IaXRBtx7-J7Q"/>
    <tag k="facebook" v="https://www.facebook.com/Rossmann.hu"/>
    <tag k="shop" v="chemist"/>
    <tag k="payment:debit_cards" v="yes"/>
    <tag k="payment:cash" v="yes"/>
    <tag k="operator" v="Rossmann Magyarország Kft."/>
    <tag k="addr:postcode" v="4700"/>
    <tag k="instagram" v="https://www.instagram.com/rossmann_hu/"/>
    <tag k="website" v="https://www.rossmann.hu"/>
    <tag k="addr:housenumber" v="25"/>
    <tag k="addr:city" v="Mátészalka"/>
    <tag k="name" v="Rossmann"/>
    <tag k="source" v="website"/>
    <tag k="addr:street" v="Bajcsy-Zs. utca"/>
  </node>
  <!-- Original coordinates: POINT (47.809114 20.569259) -->
  <node action="modify" changeset="99999" id="-68" lat="47.809114" lon="20.569259" timestamp="" uid="4579407" user="KAMI" version="99999">
    <tag k="brand" v="Rossmann"/>
    <tag k="youtube" v="https://www.youtube.com/channel/UCmUCPmvMLL3IaXRBtx7-J7Q"/>
    <tag k="facebook" v="https://www.facebook.com/Rossmann.hu"/>
    <tag k="shop" v="chemist"/>
    <tag k="payment:debit_cards" v="yes"/>
    <tag k="payment:cash" v="yes"/>
    <tag k="operator" v="Rossmann Magyarország Kft."/>
    <tag k="addr:postcode" v="3400"/>
    <tag k="instagram" v="https://www.instagram.com/rossmann_hu/"/>
    <tag k="website" v="https://www.rossmann.hu"/>
    <tag k="addr:housenumber" v="100"/>
    <tag k="addr:city" v="Mezőkövesd"/>
    <tag k="name" v="Rossmann"/>
    <tag k="source" v="website"/>
    <tag k="addr:street" v="Mátyás király utca"/>
  </node>
  <!-- Original coordinates: POINT (47 20.630566) -->
  <node action="modify" changeset="99999" id="-69" lat="47.0" lon="20.630566" timestamp="" uid="4579407" user="KAMI" version="99999">
    <tag k="brand" v="Rossmann"/>
    <tag k="youtube" v="https://www.youtube.com/channel/UCmUCPmvMLL3IaXRBtx7-J7Q"/>
    <tag k="facebook" v="https://www.facebook.com/Rossmann.hu"/>
    <tag k="shop" v="chemist"/>
    <tag k="payment:debit_cards" v="yes"/>
    <tag k="payment:cash" v="yes"/>
    <tag k="operator" v="Rossmann Magyarország Kft."/>
    <tag k="addr:postcode" v="5400"/>
    <tag k="instagram" v="https://www.instagram.com/rossmann_hu/"/>
    <tag k="website" v="https://www.rossmann.hu"/>
    <tag k="addr:housenumber" v="7-9"/>
    <tag k="addr:city" v="Mezőtúr"/>
    <tag k="name" v="Rossmann"/>
    <tag k="source" v="website"/>
    <tag k="addr:street" v="Kossuth Lajos tér"/>
  </node>
  <!-- Original coordinates: POINT (48.102947 20.781797) -->
  <node action="modify" changeset="99999" id="-70" lat="48.102947" lon="20.781797" timestamp="" uid="4579407" user="KAMI" version="99999">
    <tag k="brand" v="Rossmann"/>
    <tag k="youtube" v="https://www.youtube.com/channel/UCmUCPmvMLL3IaXRBtx7-J7Q"/>
    <tag k="facebook" v="https://www.facebook.com/Rossmann.hu"/>
    <tag k="shop" v="chemist"/>
    <tag k="payment:debit_cards" v="yes"/>
    <tag k="payment:cash" v="yes"/>
    <tag k="operator" v="Rossmann Magyarország Kft."/>
    <tag k="addr:postcode" v="3525"/>
    <tag k="instagram" v="https://www.instagram.com/rossmann_hu/"/>
    <tag k="website" v="https://www.rossmann.hu"/>
    <tag k="addr:housenumber" v="11-13"/>
    <tag k="addr:city" v="Miskolc"/>
    <tag k="name" v="Rossmann"/>
    <tag k="source" v="website"/>
    <tag k="addr:street" v="Széchenyi út"/>
  </node>
  <!-- Original coordinates: POINT (45.990468 18.685089) -->
  <node action="modify" changeset="99999" id="-71" lat="45.990468" lon="18.685089" timestamp="" uid="4579407" user="KAMI" version="99999">
    <tag k="brand" v="Rossmann"/>
    <tag k="youtube" v="https://www.youtube.com/channel/UCmUCPmvMLL3IaXRBtx7-J7Q"/>
    <tag k="facebook" v="https://www.facebook.com/Rossmann.hu"/>
    <tag k="shop" v="chemist"/>
    <tag k="payment:debit_cards" v="yes"/>
    <tag k="payment:cash" v="yes"/>
    <tag k="operator" v="Rossmann Magyarország Kft."/>
    <tag k="addr:postcode" v="7700"/>
    <tag k="instagram" v="https://www.instagram.com/rossmann_hu/"/>
    <tag k="website" v="https://www.rossmann.hu"/>
    <tag k="addr:housenumber" v="8"/>
    <tag k="addr:city" v="Mohács"/>
    <tag k="name" v="Rossmann"/>
    <tag k="source" v="website"/>
    <tag k="addr:street" v="Dózsa György utca"/>
  </node>
  <!-- Original coordinates: POINT (47.350412 19.446224) -->
  <node action="modify" changeset="99999" id="-72" lat="47.350412" lon="19.446224" timestamp="" uid="4579407" user="KAMI" version="99999">
    <tag k="brand" v="Rossmann"/>
    <tag k="youtube" v="https://www.youtube.com/channel/UCmUCPmvMLL3IaXRBtx7-J7Q"/>
    <tag k="facebook" v="https://www.facebook.com/Rossmann.hu"/>
    <tag k="shop" v="chemist"/>
    <tag k="payment:debit_cards" v="yes"/>
    <tag k="payment:cash" v="yes"/>
    <tag k="operator" v="Rossmann Magyarország Kft."/>
    <tag k="addr:postcode" v="2200"/>
    <tag k="instagram" v="https://www.instagram.com/rossmann_hu/"/>
    <tag k="website" v="https://www.rossmann.hu"/>
    <tag k="addr:housenumber" v="77"/>
    <tag k="addr:city" v="Monor"/>
    <tag k="name" v="Rossmann"/>
    <tag k="source" v="website"/>
    <tag k="addr:street" v="Kossuth Lajos utca"/>
  </node>
  <!-- Original coordinates: POINT (47.867107 17.273279) -->
  <node action="modify" changeset="99999" id="-73" lat="47.867107" lon="17.273279" timestamp="" uid="4579407" user="KAMI" version="99999">
    <tag k="brand" v="Rossmann"/>
    <tag k="youtube" v="https://www.youtube.com/channel/UCmUCPmvMLL3IaXRBtx7-J7Q"/>
    <tag k="facebook" v="https://www.facebook.com/Rossmann.hu"/>
    <tag k="shop" v="chemist"/>
    <tag k="payment:debit_cards" v="yes"/>
    <tag k="payment:cash" v="yes"/>
    <tag k="operator" v="Rossmann Magyarország Kft."/>
    <tag k="addr:postcode" v="9200"/>
    <tag k="instagram" v="https://www.instagram.com/rossmann_hu/"/>
    <tag k="website" v="https://www.rossmann.hu"/>
    <tag k="addr:housenumber" v="5"/>
    <tag k="addr:city" v="Mosonmagyaróvár"/>
    <tag k="name" v="Rossmann"/>
    <tag k="source" v="website"/>
    <tag k="addr:street" v="Erkel Ferenc utca"/>
  </node>
  <!-- Original coordinates: POINT (46.22946 17.360787) -->
  <node action="modify" changeset="99999" id="-74" lat="46.22946" lon="17.360787" timestamp="" uid="4579407" user="KAMI" version="99999">
    <tag k="brand" v="Rossmann"/>
    <tag k="youtube" v="https://www.youtube.com/channel/UCmUCPmvMLL3IaXRBtx7-J7Q"/>
    <tag k="facebook" v="https://www.facebook.com/Rossmann.hu"/>
    <tag k="shop" v="chemist"/>
    <tag k="payment:debit_cards" v="yes"/>
    <tag k="payment:cash" v="yes"/>
    <tag k="operator" v="Rossmann Magyarország Kft."/>
    <tag k="addr:postcode" v="7500"/>
    <tag k="instagram" v="https://www.instagram.com/rossmann_hu/"/>
    <tag k="website" v="https://www.rossmann.hu"/>
    <tag k="addr:housenumber" v="2"/>
    <tag k="addr:city" v="Nagyatád"/>
    <tag k="name" v="Rossmann"/>
    <tag k="source" v="website"/>
    <tag k="addr:street" v="Aradi út"/>
  </node>
  <!-- Original coordinates: POINT (47.874963 21.848238) -->
  <node action="modify" changeset="99999" id="-75" lat="47.874963" lon="21.848238" timestamp="" uid="4579407" user="KAMI" version="99999">
    <tag k="brand" v="Rossmann"/>
    <tag k="youtube" v="https://www.youtube.com/channel/UCmUCPmvMLL3IaXRBtx7-J7Q"/>
    <tag k="facebook" v="https://www.facebook.com/Rossmann.hu"/>
    <tag k="shop" v="chemist"/>
    <tag k="payment:debit_cards" v="yes"/>
    <tag k="payment:cash" v="yes"/>
    <tag k="operator" v="Rossmann Magyarország Kft."/>
    <tag k="addr:postcode" v="4320"/>
    <tag k="instagram" v="https://www.instagram.com/rossmann_hu/"/>
    <tag k="website" v="https://www.rossmann.hu"/>
    <tag k="addr:housenumber" v="10"/>
    <tag k="addr:city" v="Nagykálló"/>
    <tag k="name" v="Rossmann"/>
    <tag k="source" v="website"/>
    <tag k="addr:street" v="Árpád utca"/>
  </node>
  <!-- Original coordinates: POINT (46.45526 16.988531) -->
  <node action="modify" changeset="99999" id="-76" lat="46.45526" lon="16.988531" timestamp="" uid="4579407" user="KAMI" version="99999">
    <tag k="brand" v="Rossmann"/>
    <tag k="youtube" v="https://www.youtube.com/channel/UCmUCPmvMLL3IaXRBtx7-J7Q"/>
    <tag k="facebook" v="https://www.facebook.com/Rossmann.hu"/>
    <tag k="shop" v="chemist"/>
    <tag k="payment:debit_cards" v="yes"/>
    <tag k="payment:cash" v="yes"/>
    <tag k="operator" v="Rossmann Magyarország Kft."/>
    <tag k="addr:postcode" v="8800"/>
    <tag k="instagram" v="https://www.instagram.com/rossmann_hu/"/>
    <tag k="website" v="https://www.rossmann.hu"/>
    <tag k="addr:housenumber" v="2"/>
    <tag k="addr:city" v="Nagykanizsa"/>
    <tag k="name" v="Rossmann"/>
    <tag k="source" v="website"/>
    <tag k="addr:street" v="Erzsébet tér"/>
  </node>
  <!-- Original coordinates: POINT (47.417635 19.740791) -->
  <node action="modify" changeset="99999" id="-77" lat="47.417635" lon="19.740791" timestamp="" uid="4579407" user="KAMI" version="99999">
    <tag k="brand" v="Rossmann"/>
    <tag k="youtube" v="https://www.youtube.com/channel/UCmUCPmvMLL3IaXRBtx7-J7Q"/>
    <tag k="facebook" v="https://www.facebook.com/Rossmann.hu"/>
    <tag k="shop" v="chemist"/>
    <tag k="payment:debit_cards" v="yes"/>
    <tag k="payment:cash" v="yes"/>
    <tag k="operator" v="Rossmann Magyarország Kft."/>
    <tag k="addr:postcode" v="2760"/>
    <tag k="instagram" v="https://www.instagram.com/rossmann_hu/"/>
    <tag k="website" v="https://www.rossmann.hu"/>
    <tag k="addr:housenumber" v="1"/>
    <tag k="addr:city" v="Nagykáta"/>
    <tag k="name" v="Rossmann"/>
    <tag k="source" v="website"/>
    <tag k="addr:street" v="István Király utca"/>
  </node>
  <!-- Original coordinates: POINT (47.836405 22.132393) -->
  <node action="modify" changeset="99999" id="-78" lat="47.836405" lon="22.132393" timestamp="" uid="4579407" user="KAMI" version="99999">
    <tag k="brand" v="Rossmann"/>
    <tag k="youtube" v="https://www.youtube.com/channel/UCmUCPmvMLL3IaXRBtx7-J7Q"/>
    <tag k="facebook" v="https://www.facebook.com/Rossmann.hu"/>
    <tag k="shop" v="chemist"/>
    <tag k="payment:debit_cards" v="yes"/>
    <tag k="payment:cash" v="yes"/>
    <tag k="operator" v="Rossmann Magyarország Kft."/>
    <tag k="addr:postcode" v="4300"/>
    <tag k="instagram" v="https://www.instagram.com/rossmann_hu/"/>
    <tag k="website" v="https://www.rossmann.hu"/>
    <tag k="addr:housenumber" v="11"/>
    <tag k="addr:city" v="Nyírbátor"/>
    <tag k="name" v="Rossmann"/>
    <tag k="source" v="website"/>
    <tag k="addr:street" v="Kossuth Lajos utca"/>
  </node>
  <!-- Original coordinates: POINT (47.955033 21.715784) -->
  <node action="modify" changeset="99999" id="-79" lat="47.955033" lon="21.715784" timestamp="" uid="4579407" user="KAMI" version="99999">
    <tag k="brand" v="Rossmann"/>
    <tag k="youtube" v="https://www.youtube.com/channel/UCmUCPmvMLL3IaXRBtx7-J7Q"/>
    <tag k="facebook" v="https://www.facebook.com/Rossmann.hu"/>
    <tag k="shop" v="chemist"/>
    <tag k="payment:debit_cards" v="yes"/>
    <tag k="payment:cash" v="yes"/>
    <tag k="operator" v="Rossmann Magyarország Kft."/>
    <tag k="addr:postcode" v="4400"/>
    <tag k="instagram" v="https://www.instagram.com/rossmann_hu/"/>
    <tag k="website" v="https://www.rossmann.hu"/>
    <tag k="addr:housenumber" v="3-5"/>
    <tag k="addr:city" v="Nyíregyháza"/>
    <tag k="name" v="Rossmann"/>
    <tag k="source" v="website"/>
    <tag k="addr:street" v="Zrínyi Ilona utca"/>
  </node>
  <!-- Original coordinates: POINT (46.559179 20.670499) -->
  <node action="modify" changeset="99999" id="-80" lat="46.559179" lon="20.670499" timestamp="" uid="4579407" user="KAMI" version="99999">
    <tag k="brand" v="Rossmann"/>
    <tag k="youtube" v="https://www.youtube.com/channel/UCmUCPmvMLL3IaXRBtx7-J7Q"/>
    <tag k="facebook" v="https://www.facebook.com/Rossmann.hu"/>
    <tag k="shop" v="chemist"/>
    <tag k="payment:debit_cards" v="yes"/>
    <tag k="payment:cash" v="yes"/>
    <tag k="operator" v="Rossmann Magyarország Kft."/>
    <tag k="addr:postcode" v="5900"/>
    <tag k="instagram" v="https://www.instagram.com/rossmann_hu/"/>
    <tag k="website" v="https://www.rossmann.hu"/>
    <tag k="addr:housenumber" v="2"/>
    <tag k="addr:city" v="Orosháza"/>
    <tag k="name" v="Rossmann"/>
    <tag k="source" v="website"/>
    <tag k="addr:street" v="Győry Vilmos tér"/>
  </node>
  <!-- Original coordinates: POINT (48.21922 20.279771) -->
  <node action="modify" changeset="99999" id="-81" lat="48.21922" lon="20.279771" timestamp="" uid="4579407" user="KAMI" version="99999">
    <tag k="brand" v="Rossmann"/>
    <tag k="youtube" v="https://www.youtube.com/channel/UCmUCPmvMLL3IaXRBtx7-J7Q"/>
    <tag k="facebook" v="https://www.facebook.com/Rossmann.hu"/>
    <tag k="shop" v="chemist"/>
    <tag k="payment:debit_cards" v="yes"/>
    <tag k="payment:cash" v="yes"/>
    <tag k="operator" v="Rossmann Magyarország Kft."/>
    <tag k="addr:postcode" v="3600"/>
    <tag k="instagram" v="https://www.instagram.com/rossmann_hu/"/>
    <tag k="website" v="https://www.rossmann.hu"/>
    <tag k="addr:housenumber" v="54"/>
    <tag k="addr:city" v="Ózd"/>
    <tag k="name" v="Rossmann"/>
    <tag k="source" v="website"/>
    <tag k="addr:street" v="Vasvár út"/>
  </node>
  <!-- Original coordinates: POINT (47.329285 17.466463) -->
  <node action="modify" changeset="99999" id="-82" lat="47.329285" lon="17.466463" timestamp="" uid="4579407" user="KAMI" version="99999">
    <tag k="brand" v="Rossmann"/>
    <tag k="youtube" v="https://www.youtube.com/channel/UCmUCPmvMLL3IaXRBtx7-J7Q"/>
    <tag k="facebook" v="https://www.facebook.com/Rossmann.hu"/>
    <tag k="shop" v="chemist"/>
    <tag k="payment:debit_cards" v="yes"/>
    <tag k="payment:cash" v="yes"/>
    <tag k="operator" v="Rossmann Magyarország Kft."/>
    <tag k="addr:postcode" v="8500"/>
    <tag k="instagram" v="https://www.instagram.com/rossmann_hu/"/>
    <tag k="website" v="https://www.rossmann.hu"/>
    <tag k="addr:housenumber" v="13"/>
    <tag k="addr:city" v="Pápa"/>
    <tag k="name" v="Rossmann"/>
    <tag k="source" v="website"/>
    <tag k="addr:street" v="Kossuth Lajos utca"/>
  </node>
  <!-- Original coordinates: POINT (47.918954 19.698148) -->
  <node action="modify" changeset="99999" id="-83" lat="47.918954" lon="19.698148" timestamp="" uid="4579407" user="KAMI" version="99999">
    <tag k="brand" v="Rossmann"/>
    <tag k="youtube" v="https://www.youtube.com/channel/UCmUCPmvMLL3IaXRBtx7-J7Q"/>
    <tag k="facebook" v="https://www.facebook.com/Rossmann.hu"/>
    <tag k="shop" v="chemist"/>
    <tag k="payment:debit_cards" v="yes"/>
    <tag k="payment:cash" v="yes"/>
    <tag k="operator" v="Rossmann Magyarország Kft."/>
    <tag k="addr:postcode" v="3060"/>
    <tag k="instagram" v="https://www.instagram.com/rossmann_hu/"/>
    <tag k="website" v="https://www.rossmann.hu"/>
    <tag k="addr:housenumber" v="73"/>
    <tag k="addr:city" v="Pásztó"/>
    <tag k="name" v="Rossmann"/>
    <tag k="source" v="website"/>
    <tag k="addr:street" v="Fő út"/>
  </node>
  <!-- Original coordinates: POINT (46.073031 18.229164) -->
  <node action="modify" changeset="99999" id="-84" lat="46.073031" lon="18.229164" timestamp="" uid="4579407" user="KAMI" version="99999">
    <tag k="brand" v="Rossmann"/>
    <tag k="youtube" v="https://www.youtube.com/channel/UCmUCPmvMLL3IaXRBtx7-J7Q"/>
    <tag k="facebook" v="https://www.facebook.com/Rossmann.hu"/>
    <tag k="shop" v="chemist"/>
    <tag k="payment:debit_cards" v="yes"/>
    <tag k="payment:cash" v="yes"/>
    <tag k="operator" v="Rossmann Magyarország Kft."/>
    <tag k="addr:postcode" v="7622"/>
    <tag k="instagram" v="https://www.instagram.com/rossmann_hu/"/>
    <tag k="website" v="https://www.rossmann.hu"/>
    <tag k="addr:housenumber" v="50"/>
    <tag k="addr:city" v="Pécs"/>
    <tag k="name" v="Rossmann"/>
    <tag k="source" v="website"/>
    <tag k="addr:street" v="Rákóczi út"/>
  </node>
  <!-- Original coordinates: POINT (47.284488 19.54464) -->
  <node action="modify" changeset="99999" id="-85" lat="47.284488" lon="19.54464" timestamp="" uid="4579407" user="KAMI" version="99999">
    <tag k="brand" v="Rossmann"/>
    <tag k="youtube" v="https://www.youtube.com/channel/UCmUCPmvMLL3IaXRBtx7-J7Q"/>
    <tag k="facebook" v="https://www.facebook.com/Rossmann.hu"/>
    <tag k="shop" v="chemist"/>
    <tag k="payment:debit_cards" v="yes"/>
    <tag k="payment:cash" v="yes"/>
    <tag k="operator" v="Rossmann Magyarország Kft."/>
    <tag k="addr:postcode" v="2721"/>
    <tag k="instagram" v="https://www.instagram.com/rossmann_hu/"/>
    <tag k="website" v="https://www.rossmann.hu"/>
    <tag k="addr:housenumber" v="19"/>
    <tag k="addr:city" v="Pilis"/>
    <tag k="name" v="Rossmann"/>
    <tag k="source" v="website"/>
    <tag k="addr:street" v="Rákóczi utca"/>
  </node>
  <!-- Original coordinates: POINT (48.219983 20.705821) -->
  <node action="modify" changeset="99999" id="-86" lat="48.219983" lon="20.705821" timestamp="" uid="4579407" user="KAMI" version="99999">
    <tag k="brand" v="Rossmann"/>
    <tag k="youtube" v="https://www.youtube.com/channel/UCmUCPmvMLL3IaXRBtx7-J7Q"/>
    <tag k="facebook" v="https://www.facebook.com/Rossmann.hu"/>
    <tag k="shop" v="chemist"/>
    <tag k="payment:debit_cards" v="yes"/>
    <tag k="payment:cash" v="yes"/>
    <tag k="operator" v="Rossmann Magyarország Kft."/>
    <tag k="addr:postcode" v="3770"/>
    <tag k="instagram" v="https://www.instagram.com/rossmann_hu/"/>
    <tag k="website" v="https://www.rossmann.hu"/>
    <tag k="addr:housenumber" v="222"/>
    <tag k="addr:city" v="Sajószentpéter"/>
    <tag k="name" v="Rossmann"/>
    <tag k="source" v="website"/>
    <tag k="addr:street" v="Kossuth út"/>
  </node>
  <!-- Original coordinates: POINT (48.105919 19.809085) -->
  <node action="modify" changeset="99999" id="-87" lat="48.105919" lon="19.809085" timestamp="" uid="4579407" user="KAMI" version="99999">
    <tag k="brand" v="Rossmann"/>
    <tag k="youtube" v="https://www.youtube.com/channel/UCmUCPmvMLL3IaXRBtx7-J7Q"/>
    <tag k="facebook" v="https://www.facebook.com/Rossmann.hu"/>
    <tag k="shop" v="chemist"/>
    <tag k="payment:debit_cards" v="yes"/>
    <tag k="payment:cash" v="yes"/>
    <tag k="operator" v="Rossmann Magyarország Kft."/>
    <tag k="addr:postcode" v="3100"/>
    <tag k="instagram" v="https://www.instagram.com/rossmann_hu/"/>
    <tag k="website" v="https://www.rossmann.hu"/>
    <tag k="addr:housenumber" v="18"/>
    <tag k="addr:city" v="Salgótarján"/>
    <tag k="name" v="Rossmann"/>
    <tag k="source" v="website"/>
    <tag k="addr:street" v="Rákóczi út"/>
  </node>
  <!-- Original coordinates: POINT (46.885594 18.620167) -->
  <node action="modify" changeset="99999" id="-88" lat="46.885594" lon="18.620167" timestamp="" uid="4579407" user="KAMI" version="99999">
    <tag k="brand" v="Rossmann"/>
    <tag k="youtube" v="https://www.youtube.com/channel/UCmUCPmvMLL3IaXRBtx7-J7Q"/>
    <tag k="facebook" v="https://www.facebook.com/Rossmann.hu"/>
    <tag k="shop" v="chemist"/>
    <tag k="payment:debit_cards" v="yes"/>
    <tag k="payment:cash" v="yes"/>
    <tag k="operator" v="Rossmann Magyarország Kft."/>
    <tag k="addr:postcode" v="7000"/>
    <tag k="instagram" v="https://www.instagram.com/rossmann_hu/"/>
    <tag k="website" v="https://www.rossmann.hu"/>
    <tag k="addr:housenumber" v="119"/>
    <tag k="addr:city" v="Sárbogárd"/>
    <tag k="name" v="Rossmann"/>
    <tag k="source" v="website"/>
    <tag k="addr:street" v="Ady Endre utca"/>
  </node>
  <!-- Original coordinates: POINT (47.252638 16.931226) -->
  <node action="modify" changeset="99999" id="-89" lat="47.252638" lon="16.931226" timestamp="" uid="4579407" user="KAMI" version="99999">
    <tag k="brand" v="Rossmann"/>
    <tag k="youtube" v="https://www.youtube.com/channel/UCmUCPmvMLL3IaXRBtx7-J7Q"/>
    <tag k="facebook" v="https://www.facebook.com/Rossmann.hu"/>
    <tag k="shop" v="chemist"/>
    <tag k="payment:debit_cards" v="yes"/>
    <tag k="payment:cash" v="yes"/>
    <tag k="operator" v="Rossmann Magyarország Kft."/>
    <tag k="addr:postcode" v="9600"/>
    <tag k="instagram" v="https://www.instagram.com/rossmann_hu/"/>
    <tag k="website" v="https://www.rossmann.hu"/>
    <tag k="addr:housenumber" v="38"/>
    <tag k="addr:city" v="Sárvár"/>
    <tag k="name" v="Rossmann"/>
    <tag k="source" v="website"/>
    <tag k="addr:street" v="Batthyány utca"/>
  </node>
  <!-- Original coordinates: POINT (45.854117 18.297685) -->
  <node action="modify" changeset="99999" id="-90" lat="45.854117" lon="18.297685" timestamp="" uid="4579407" user="KAMI" version="99999">
    <tag k="brand" v="Rossmann"/>
    <tag k="youtube" v="https://www.youtube.com/channel/UCmUCPmvMLL3IaXRBtx7-J7Q"/>
    <tag k="facebook" v="https://www.facebook.com/Rossmann.hu"/>
    <tag k="shop" v="chemist"/>
    <tag k="payment:debit_cards" v="yes"/>
    <tag k="payment:cash" v="yes"/>
    <tag k="operator" v="Rossmann Magyarország Kft."/>
    <tag k="addr:postcode" v="7800"/>
    <tag k="instagram" v="https://www.instagram.com/rossmann_hu/"/>
    <tag k="website" v="https://www.rossmann.hu"/>
    <tag k="addr:housenumber" v="29"/>
    <tag k="addr:city" v="Siklós"/>
    <tag k="name" v="Rossmann"/>
    <tag k="source" v="website"/>
    <tag k="addr:street" v="Felszabadulás utca"/>
  </node>
  <!-- Original coordinates: POINT (46.906045 18.053043) -->
  <node action="modify" changeset="99999" id="-91" lat="46.906045" lon="18.053043" timestamp="" uid="4579407" user="KAMI" version="99999">
    <tag k="brand" v="Rossmann"/>
    <tag k="youtube" v="https://www.youtube.com/channel/UCmUCPmvMLL3IaXRBtx7-J7Q"/>
    <tag k="facebook" v="https://www.facebook.com/Rossmann.hu"/>
    <tag k="shop" v="chemist"/>
    <tag k="payment:debit_cards" v="yes"/>
    <tag k="payment:cash" v="yes"/>
    <tag k="operator" v="Rossmann Magyarország Kft."/>
    <tag k="addr:postcode" v="8600"/>
    <tag k="instagram" v="https://www.instagram.com/rossmann_hu/"/>
    <tag k="website" v="https://www.rossmann.hu"/>
    <tag k="addr:housenumber" v="174-176"/>
    <tag k="addr:city" v="Siófok"/>
    <tag k="name" v="Rossmann"/>
    <tag k="source" v="website"/>
    <tag k="addr:street" v="Fő út"/>
  </node>
  <!-- Original coordinates: POINT (47.690776 16.576482) -->
  <node action="modify" changeset="99999" id="-92" lat="47.690776" lon="16.576482" timestamp="" uid="4579407" user="KAMI" version="99999">
    <tag k="brand" v="Rossmann"/>
    <tag k="youtube" v="https://www.youtube.com/channel/UCmUCPmvMLL3IaXRBtx7-J7Q"/>
    <tag k="facebook" v="https://www.facebook.com/Rossmann.hu"/>
    <tag k="shop" v="chemist"/>
    <tag k="payment:debit_cards" v="yes"/>
    <tag k="payment:cash" v="yes"/>
    <tag k="operator" v="Rossmann Magyarország Kft."/>
    <tag k="addr:postcode" v="9400"/>
    <tag k="instagram" v="https://www.instagram.com/rossmann_hu/"/>
    <tag k="website" v="https://www.rossmann.hu"/>
    <tag k="addr:housenumber" v="16"/>
    <tag k="addr:city" v="Sopron"/>
    <tag k="name" v="Rossmann"/>
    <tag k="source" v="website"/>
    <tag k="addr:street" v="Kodály tér"/>
  </node>
  <!-- Original coordinates: POINT (46.977964 17.281796) -->
  <node action="modify" changeset="99999" id="-93" lat="46.977964" lon="17.281796" timestamp="" uid="4579407" user="KAMI" version="99999">
    <tag k="brand" v="Rossmann"/>
    <tag k="youtube" v="https://www.youtube.com/channel/UCmUCPmvMLL3IaXRBtx7-J7Q"/>
    <tag k="facebook" v="https://www.facebook.com/Rossmann.hu"/>
    <tag k="shop" v="chemist"/>
    <tag k="payment:debit_cards" v="yes"/>
    <tag k="payment:cash" v="yes"/>
    <tag k="operator" v="Rossmann Magyarország Kft."/>
    <tag k="addr:postcode" v="8330"/>
    <tag k="instagram" v="https://www.instagram.com/rossmann_hu/"/>
    <tag k="website" v="https://www.rossmann.hu"/>
    <tag k="addr:housenumber" v="3"/>
    <tag k="addr:city" v="Sümeg"/>
    <tag k="name" v="Rossmann"/>
    <tag k="source" v="website"/>
    <tag k="addr:street" v="Kossuth Lajos utca"/>
  </node>
  <!-- Original coordinates: POINT (46.861648 17.903396) -->
  <node action="modify" changeset="99999" id="-94" lat="46.861648" lon="17.903396" timestamp="" uid="4579407" user="KAMI" version="99999">
    <tag k="brand" v="Rossmann"/>
    <tag k="youtube" v="https://www.youtube.com/channel/UCmUCPmvMLL3IaXRBtx7-J7Q"/>
    <tag k="facebook" v="https://www.facebook.com/Rossmann.hu"/>
    <tag k="shop" v="chemist"/>
    <tag k="payment:debit_cards" v="yes"/>
    <tag k="payment:cash" v="yes"/>
    <tag k="operator" v="Rossmann Magyarország Kft."/>
    <tag k="addr:postcode" v="8622"/>
    <tag k="instagram" v="https://www.instagram.com/rossmann_hu/"/>
    <tag k="website" v="https://www.rossmann.hu"/>
    <tag k="addr:housenumber" v="10"/>
    <tag k="addr:city" v="Szántód"/>
    <tag k="name" v="Rossmann"/>
    <tag k="source" v="website"/>
    <tag k="addr:street" v="Május 1. utca"/>
  </node>
  <!-- Original coordinates: POINT (47.318077 18.909189) -->
  <node action="modify" changeset="99999" id="-95" lat="47.318077" lon="18.909189" timestamp="" uid="4579407" user="KAMI" version="99999">
    <tag k="brand" v="Rossmann"/>
    <tag k="youtube" v="https://www.youtube.com/channel/UCmUCPmvMLL3IaXRBtx7-J7Q"/>
    <tag k="facebook" v="https://www.facebook.com/Rossmann.hu"/>
    <tag k="shop" v="chemist"/>
    <tag k="payment:debit_cards" v="yes"/>
    <tag k="payment:cash" v="yes"/>
    <tag k="operator" v="Rossmann Magyarország Kft."/>
    <tag k="addr:postcode" v="2440"/>
    <tag k="instagram" v="https://www.instagram.com/rossmann_hu/"/>
    <tag k="website" v="https://www.rossmann.hu"/>
    <tag k="addr:housenumber" v="16"/>
    <tag k="addr:city" v="Százhalombatta"/>
    <tag k="name" v="Rossmann"/>
    <tag k="source" v="website"/>
    <tag k="addr:street" v="Damjanich utca"/>
  </node>
  <!-- Original coordinates: POINT (48.081584 19.520912) -->
  <node action="modify" changeset="99999" id="-96" lat="48.081584" lon="19.520912" timestamp="" uid="4579407" user="KAMI" version="99999">
    <tag k="brand" v="Rossmann"/>
    <tag k="youtube" v="https://www.youtube.com/channel/UCmUCPmvMLL3IaXRBtx7-J7Q"/>
    <tag k="facebook" v="https://www.facebook.com/Rossmann.hu"/>
    <tag k="shop" v="chemist"/>
    <tag k="payment:debit_cards" v="yes"/>
    <tag k="payment:cash" v="yes"/>
    <tag k="operator" v="Rossmann Magyarország Kft."/>
    <tag k="addr:postcode" v="3170"/>
    <tag k="instagram" v="https://www.instagram.com/rossmann_hu/"/>
    <tag k="website" v="https://www.rossmann.hu"/>
    <tag k="addr:housenumber" v="91"/>
    <tag k="addr:city" v="Szécsény"/>
    <tag k="name" v="Rossmann"/>
    <tag k="source" v="website"/>
    <tag k="addr:street" v="Rákóczi út"/>
  </node>
  <!-- Original coordinates: POINT (47.19004 18.406682) -->
  <node action="modify" changeset="99999" id="-97" lat="47.19004" lon="18.406682" timestamp="" uid="4579407" user="KAMI" version="99999">
    <tag k="brand" v="Rossmann"/>
    <tag k="youtube" v="https://www.youtube.com/channel/UCmUCPmvMLL3IaXRBtx7-J7Q"/>
    <tag k="facebook" v="https://www.facebook.com/Rossmann.hu"/>
    <tag k="shop" v="chemist"/>
    <tag k="payment:debit_cards" v="yes"/>
    <tag k="payment:cash" v="yes"/>
    <tag k="operator" v="Rossmann Magyarország Kft."/>
    <tag k="addr:postcode" v="8000"/>
    <tag k="instagram" v="https://www.instagram.com/rossmann_hu/"/>
    <tag k="website" v="https://www.rossmann.hu"/>
    <tag k="addr:housenumber" v="1"/>
    <tag k="addr:city" v="Székesfehérvár"/>
    <tag k="name" v="Rossmann"/>
    <tag k="source" v="website"/>
    <tag k="addr:street" v="Palotai út"/>
  </node>
  <!-- Original coordinates: POINT (46.351533 18.701946) -->
  <node action="modify" changeset="99999" id="-98" lat="46.351533" lon="18.701946" timestamp="" uid="4579407" user="KAMI" version="99999">
    <tag k="brand" v="Rossmann"/>
    <tag k="youtube" v="https://www.youtube.com/channel/UCmUCPmvMLL3IaXRBtx7-J7Q"/>
    <tag k="facebook" v="https://www.facebook.com/Rossmann.hu"/>
    <tag k="shop" v="chemist"/>
    <tag k="payment:debit_cards" v="yes"/>
    <tag k="payment:cash" v="yes"/>
    <tag k="operator" v="Rossmann Magyarország Kft."/>
    <tag k="addr:postcode" v="7100"/>
    <tag k="instagram" v="https://www.instagram.com/rossmann_hu/"/>
    <tag k="website" v="https://www.rossmann.hu"/>
    <tag k="addr:housenumber" v="1-7"/>
    <tag k="addr:city" v="Szekszárd"/>
    <tag k="name" v="Rossmann"/>
    <tag k="source" v="website"/>
    <tag k="addr:street" v="Széchenyi út"/>
  </node>
  <!-- Original coordinates: POINT (47.650778 19.071118) -->
  <node action="modify" changeset="99999" id="-99" lat="47.650778" lon="19.071118" timestamp="" uid="4579407" user="KAMI" version="99999">
    <tag k="brand" v="Rossmann"/>
    <tag k="youtube" v="https://www.youtube.com/channel/UCmUCPmvMLL3IaXRBtx7-J7Q"/>
    <tag k="facebook" v="https://www.facebook.com/Rossmann.hu"/>
    <tag k="shop" v="chemist"/>
    <tag k="payment:debit_cards" v="yes"/>
    <tag k="payment:cash" v="yes"/>
    <tag k="operator" v="Rossmann Magyarország Kft."/>
    <tag k="addr:postcode" v="2000"/>
    <tag k="instagram" v="https://www.instagram.com/rossmann_hu/"/>
    <tag k="website" v="https://www.rossmann.hu"/>
    <tag k="addr:housenumber" v="20"/>
    <tag k="addr:city" v="Szentendre"/>
    <tag k="name" v="Rossmann"/>
    <tag k="source" v="website"/>
    <tag k="addr:street" v="Dózsa György út"/>
  </node>
  <!-- Original coordinates: POINT (46.651486 20.260533) -->
  <node action="modify" changeset="99999" id="-100" lat="46.651486" lon="20.260533" timestamp="" uid="4579407" user="KAMI" version="99999">
    <tag k="brand" v="Rossmann"/>
    <tag k="youtube" v="https://www.youtube.com/channel/UCmUCPmvMLL3IaXRBtx7-J7Q"/>
    <tag k="facebook" v="https://www.facebook.com/Rossmann.hu"/>
    <tag k="shop" v="chemist"/>
    <tag k="payment:debit_cards" v="yes"/>
    <tag k="payment:cash" v="yes"/>
    <tag k="operator" v="Rossmann Magyarország Kft."/>
    <tag k="addr:postcode" v="6600"/>
    <tag k="instagram" v="https://www.instagram.com/rossmann_hu/"/>
    <tag k="website" v="https://www.rossmann.hu"/>
    <tag k="addr:housenumber" v="11-13"/>
    <tag k="addr:city" v="Szentes"/>
    <tag k="name" v="Rossmann"/>
    <tag k="source" v="website"/>
    <tag k="addr:street" v="Kossuth út"/>
  </node>
  <!-- Original coordinates: POINT (48.159761 21.208234) -->
  <node action="modify" changeset="99999" id="-101" lat="48.159761" lon="21.208234" timestamp="" uid="4579407" user="KAMI" version="99999">
    <tag k="brand" v="Rossmann"/>
    <tag k="youtube" v="https://www.youtube.com/channel/UCmUCPmvMLL3IaXRBtx7-J7Q"/>
    <tag k="facebook" v="https://www.facebook.com/Rossmann.hu"/>
    <tag k="shop" v="chemist"/>
    <tag k="payment:debit_cards" v="yes"/>
    <tag k="payment:cash" v="yes"/>
    <tag k="operator" v="Rossmann Magyarország Kft."/>
    <tag k="addr:postcode" v="3900"/>
    <tag k="instagram" v="https://www.instagram.com/rossmann_hu/"/>
    <tag k="website" v="https://www.rossmann.hu"/>
    <tag k="addr:housenumber" v="118"/>
    <tag k="addr:city" v="Szerencs"/>
    <tag k="name" v="Rossmann"/>
    <tag k="source" v="website"/>
    <tag k="addr:street" v="Rákóczi utca"/>
  </node>
  <!-- Original coordinates: POINT (47.332137 19.003309) -->
  <node action="modify" changeset="99999" id="-102" lat="47.332137" lon="19.003309" timestamp="" uid="4579407" user="KAMI" version="99999">
    <tag k="brand" v="Rossmann"/>
    <tag k="youtube" v="https://www.youtube.com/channel/UCmUCPmvMLL3IaXRBtx7-J7Q"/>
    <tag k="facebook" v="https://www.facebook.com/Rossmann.hu"/>
    <tag k="shop" v="chemist"/>
    <tag k="payment:debit_cards" v="yes"/>
    <tag k="payment:cash" v="yes"/>
    <tag k="operator" v="Rossmann Magyarország Kft."/>
    <tag k="addr:postcode" v="2310"/>
    <tag k="instagram" v="https://www.instagram.com/rossmann_hu/"/>
    <tag k="website" v="https://www.rossmann.hu"/>
    <tag k="addr:city" v="Szigetszentmiklós"/>
    <tag k="name" v="Rossmann"/>
    <tag k="source" v="website"/>
    <tag k="addr:street" v="Lordok Háza üzletház"/>
  </node>
  <!-- Original coordinates: POINT (46.047495 17.799901) -->
  <node action="modify" changeset="99999" id="-103" lat="46.047495" lon="17.799901" timestamp="" uid="4579407" user="KAMI" version="99999">
    <tag k="brand" v="Rossmann"/>
    <tag k="youtube" v="https://www.youtube.com/channel/UCmUCPmvMLL3IaXRBtx7-J7Q"/>
    <tag k="facebook" v="https://www.facebook.com/Rossmann.hu"/>
    <tag k="shop" v="chemist"/>
    <tag k="payment:debit_cards" v="yes"/>
    <tag k="payment:cash" v="yes"/>
    <tag k="operator" v="Rossmann Magyarország Kft."/>
    <tag k="addr:postcode" v="7900"/>
    <tag k="instagram" v="https://www.instagram.com/rossmann_hu/"/>
    <tag k="website" v="https://www.rossmann.hu"/>
    <tag k="addr:housenumber" v="4"/>
    <tag k="addr:city" v="Szigetvár"/>
    <tag k="name" v="Rossmann"/>
    <tag k="source" v="website"/>
    <tag k="addr:street" v="József A. utca"/>
  </node>
  <!-- Original coordinates: POINT (47.176952 20.194703) -->
  <node action="modify" changeset="99999" id="-104" lat="47.176952" lon="20.194703" timestamp="" uid="4579407" user="KAMI" version="99999">
    <tag k="brand" v="Rossmann"/>
    <tag k="youtube" v="https://www.youtube.com/channel/UCmUCPmvMLL3IaXRBtx7-J7Q"/>
    <tag k="facebook" v="https://www.facebook.com/Rossmann.hu"/>
    <tag k="shop" v="chemist"/>
    <tag k="payment:debit_cards" v="yes"/>
    <tag k="payment:cash" v="yes"/>
    <tag k="operator" v="Rossmann Magyarország Kft."/>
    <tag k="addr:postcode" v="5000"/>
    <tag k="instagram" v="https://www.instagram.com/rossmann_hu/"/>
    <tag k="website" v="https://www.rossmann.hu"/>
    <tag k="addr:housenumber" v="13"/>
    <tag k="addr:city" v="Szolnok"/>
    <tag k="name" v="Rossmann"/>
    <tag k="source" v="website"/>
    <tag k="addr:street" v="Boldog Sándor István körút"/>
  </node>
  <!-- Original coordinates: POINT (47.231297 16.622913) -->
  <node action="modify" changeset="99999" id="-105" lat="47.231297" lon="16.622913" timestamp="" uid="4579407" user="KAMI" version="99999">
    <tag k="brand" v="Rossmann"/>
    <tag k="youtube" v="https://www.youtube.com/channel/UCmUCPmvMLL3IaXRBtx7-J7Q"/>
    <tag k="facebook" v="https://www.facebook.com/Rossmann.hu"/>
    <tag k="shop" v="chemist"/>
    <tag k="payment:debit_cards" v="yes"/>
    <tag k="payment:cash" v="yes"/>
    <tag k="operator" v="Rossmann Magyarország Kft."/>
    <tag k="addr:postcode" v="9700"/>
    <tag k="instagram" v="https://www.instagram.com/rossmann_hu/"/>
    <tag k="website" v="https://www.rossmann.hu"/>
    <tag k="addr:housenumber" v="23"/>
    <tag k="addr:city" v="Szombathely"/>
    <tag k="name" v="Rossmann"/>
    <tag k="source" v="website"/>
    <tag k="addr:street" v="Fő tér"/>
  </node>
  <!-- Original coordinates: POINT (47.751331 19.078293) -->
  <node action="modify" changeset="99999" id="-106" lat="47.751331" lon="19.078293" timestamp="" uid="4579407" user="KAMI" version="99999">
    <tag k="brand" v="Rossmann"/>
    <tag k="youtube" v="https://www.youtube.com/channel/UCmUCPmvMLL3IaXRBtx7-J7Q"/>
    <tag k="facebook" v="https://www.facebook.com/Rossmann.hu"/>
    <tag k="shop" v="chemist"/>
    <tag k="payment:debit_cards" v="yes"/>
    <tag k="payment:cash" v="yes"/>
    <tag k="operator" v="Rossmann Magyarország Kft."/>
    <tag k="addr:postcode" v="2022"/>
    <tag k="instagram" v="https://www.instagram.com/rossmann_hu/"/>
    <tag k="website" v="https://www.rossmann.hu"/>
    <tag k="addr:housenumber" v="5-15"/>
    <tag k="addr:city" v="Tahitótfalu"/>
    <tag k="name" v="Rossmann"/>
    <tag k="source" v="website"/>
    <tag k="addr:street" v="Szentendrei út"/>
  </node>
  <!-- Original coordinates: POINT (46.882556 17.439465) -->
  <node action="modify" changeset="99999" id="-107" lat="46.882556" lon="17.439465" timestamp="" uid="4579407" user="KAMI" version="99999">
    <tag k="brand" v="Rossmann"/>
    <tag k="youtube" v="https://www.youtube.com/channel/UCmUCPmvMLL3IaXRBtx7-J7Q"/>
    <tag k="facebook" v="https://www.facebook.com/Rossmann.hu"/>
    <tag k="shop" v="chemist"/>
    <tag k="payment:debit_cards" v="yes"/>
    <tag k="payment:cash" v="yes"/>
    <tag k="operator" v="Rossmann Magyarország Kft."/>
    <tag k="addr:postcode" v="8300"/>
    <tag k="instagram" v="https://www.instagram.com/rossmann_hu/"/>
    <tag k="website" v="https://www.rossmann.hu"/>
    <tag k="addr:housenumber" v="2-4"/>
    <tag k="addr:city" v="Tapolca"/>
    <tag k="name" v="Rossmann"/>
    <tag k="source" v="website"/>
    <tag k="addr:street" v="Deák Ferenc utca"/>
  </node>
  <!-- Original coordinates: POINT (47.651231 18.324779) -->
  <node action="modify" changeset="99999" id="-108" lat="47.651231" lon="18.324779" timestamp="" uid="4579407" user="KAMI" version="99999">
    <tag k="brand" v="Rossmann"/>
    <tag k="youtube" v="https://www.youtube.com/channel/UCmUCPmvMLL3IaXRBtx7-J7Q"/>
    <tag k="facebook" v="https://www.facebook.com/Rossmann.hu"/>
    <tag k="shop" v="chemist"/>
    <tag k="payment:debit_cards" v="yes"/>
    <tag k="payment:cash" v="yes"/>
    <tag k="operator" v="Rossmann Magyarország Kft."/>
    <tag k="addr:postcode" v="2890"/>
    <tag k="instagram" v="https://www.instagram.com/rossmann_hu/"/>
    <tag k="website" v="https://www.rossmann.hu"/>
    <tag k="addr:housenumber" v="3"/>
    <tag k="addr:city" v="Tata"/>
    <tag k="name" v="Rossmann"/>
    <tag k="source" v="website"/>
    <tag k="addr:street" v="Ady Endre út"/>
  </node>
  <!-- Original coordinates: POINT (47.584767 18.397651) -->
  <node action="modify" changeset="99999" id="-109" lat="47.584767" lon="18.397651" timestamp="" uid="4579407" user="KAMI" version="99999">
    <tag k="brand" v="Rossmann"/>
    <tag k="youtube" v="https://www.youtube.com/channel/UCmUCPmvMLL3IaXRBtx7-J7Q"/>
    <tag k="facebook" v="https://www.facebook.com/Rossmann.hu"/>
    <tag k="shop" v="chemist"/>
    <tag k="payment:debit_cards" v="yes"/>
    <tag k="payment:cash" v="yes"/>
    <tag k="operator" v="Rossmann Magyarország Kft."/>
    <tag k="addr:postcode" v="2800"/>
    <tag k="instagram" v="https://www.instagram.com/rossmann_hu/"/>
    <tag k="website" v="https://www.rossmann.hu"/>
    <tag k="addr:housenumber" v="10"/>
    <tag k="addr:city" v="Tatabánya"/>
    <tag k="name" v="Rossmann"/>
    <tag k="source" v="website"/>
    <tag k="addr:street" v="Fő tér"/>
  </node>
  <!-- Original coordinates: POINT (47.61785 20.75761) -->
  <node action="modify" changeset="99999" id="-110" lat="47.61785" lon="20.75761" timestamp="" uid="4579407" user="KAMI" version="99999">
    <tag k="brand" v="Rossmann"/>
    <tag k="youtube" v="https://www.youtube.com/channel/UCmUCPmvMLL3IaXRBtx7-J7Q"/>
    <tag k="facebook" v="https://www.facebook.com/Rossmann.hu"/>
    <tag k="shop" v="chemist"/>
    <tag k="payment:debit_cards" v="yes"/>
    <tag k="payment:cash" v="yes"/>
    <tag k="operator" v="Rossmann Magyarország Kft."/>
    <tag k="addr:postcode" v="5350"/>
    <tag k="instagram" v="https://www.instagram.com/rossmann_hu/"/>
    <tag k="website" v="https://www.rossmann.hu"/>
    <tag k="addr:housenumber" v="35"/>
    <tag k="addr:city" v="Tiszafüred"/>
    <tag k="name" v="Rossmann"/>
    <tag k="source" v="website"/>
    <tag k="addr:street" v="Fő út"/>
  </node>
  <!-- Original coordinates: POINT (47.931258 21.033814) -->
  <node action="modify" changeset="99999" id="-111" lat="47.931258" lon="21.033814" timestamp="" uid="4579407" user="KAMI" version="99999">
    <tag k="brand" v="Rossmann"/>
    <tag k="youtube" v="https://www.youtube.com/channel/UCmUCPmvMLL3IaXRBtx7-J7Q"/>
    <tag k="facebook" v="https://www.facebook.com/Rossmann.hu"/>
    <tag k="shop" v="chemist"/>
    <tag k="payment:debit_cards" v="yes"/>
    <tag k="payment:cash" v="yes"/>
    <tag k="operator" v="Rossmann Magyarország Kft."/>
    <tag k="addr:postcode" v="3580"/>
    <tag k="instagram" v="https://www.instagram.com/rossmann_hu/"/>
    <tag k="website" v="https://www.rossmann.hu"/>
    <tag k="addr:housenumber" v="11/b"/>
    <tag k="addr:city" v="Tiszaújváros"/>
    <tag k="name" v="Rossmann"/>
    <tag k="source" v="website"/>
    <tag k="addr:street" v="Szent István út"/>
  </node>
  <!-- Original coordinates: POINT (47.956283 21.358313) -->
  <node action="modify" changeset="99999" id="-112" lat="47.956283" lon="21.358313" timestamp="" uid="4579407" user="KAMI" version="99999">
    <tag k="brand" v="Rossmann"/>
    <tag k="youtube" v="https://www.youtube.com/channel/UCmUCPmvMLL3IaXRBtx7-J7Q"/>
    <tag k="facebook" v="https://www.facebook.com/Rossmann.hu"/>
    <tag k="shop" v="chemist"/>
    <tag k="payment:debit_cards" v="yes"/>
    <tag k="payment:cash" v="yes"/>
    <tag k="operator" v="Rossmann Magyarország Kft."/>
    <tag k="addr:postcode" v="4440"/>
    <tag k="instagram" v="https://www.instagram.com/rossmann_hu/"/>
    <tag k="website" v="https://www.rossmann.hu"/>
    <tag k="addr:city" v="Tiszavasvári"/>
    <tag k="name" v="Rossmann"/>
    <tag k="source" v="website"/>
  </node>
  <!-- Original coordinates: POINT (47.179109 20.41112) -->
  <node action="modify" changeset="99999" id="-113" lat="47.179109" lon="20.41112" timestamp="" uid="4579407" user="KAMI" version="99999">
    <tag k="brand" v="Rossmann"/>
    <tag k="youtube" v="https://www.youtube.com/channel/UCmUCPmvMLL3IaXRBtx7-J7Q"/>
    <tag k="facebook" v="https://www.facebook.com/Rossmann.hu"/>
    <tag k="shop" v="chemist"/>
    <tag k="payment:debit_cards" v="yes"/>
    <tag k="payment:cash" v="yes"/>
    <tag k="operator" v="Rossmann Magyarország Kft."/>
    <tag k="addr:postcode" v="5200"/>
    <tag k="instagram" v="https://www.instagram.com/rossmann_hu/"/>
    <tag k="website" v="https://www.rossmann.hu"/>
    <tag k="addr:housenumber" v="118"/>
    <tag k="addr:city" v="Törökszentmiklós"/>
    <tag k="name" v="Rossmann"/>
    <tag k="source" v="website"/>
    <tag k="addr:street" v="Kossuth utca"/>
  </node>
  <!-- Original coordinates: POINT (47.102191 20.743537) -->
  <node action="modify" changeset="99999" id="-114" lat="47.102191" lon="20.743537" timestamp="" uid="4579407" user="KAMI" version="99999">
    <tag k="brand" v="Rossmann"/>
    <tag k="youtube" v="https://www.youtube.com/channel/UCmUCPmvMLL3IaXRBtx7-J7Q"/>
    <tag k="facebook" v="https://www.facebook.com/Rossmann.hu"/>
    <tag k="shop" v="chemist"/>
    <tag k="payment:debit_cards" v="yes"/>
    <tag k="payment:cash" v="yes"/>
    <tag k="operator" v="Rossmann Magyarország Kft."/>
    <tag k="addr:postcode" v="5420"/>
    <tag k="instagram" v="https://www.instagram.com/rossmann_hu/"/>
    <tag k="website" v="https://www.rossmann.hu"/>
    <tag k="addr:housenumber" v="34"/>
    <tag k="addr:city" v="Túrkeve"/>
    <tag k="name" v="Rossmann"/>
    <tag k="source" v="website"/>
    <tag k="addr:street" v="Széchenyi utca"/>
  </node>
  <!-- Original coordinates: POINT (47.385285 19.345769) -->
  <node action="modify" changeset="99999" id="-115" lat="47.385285" lon="19.345769" timestamp="" uid="4579407" user="KAMI" version="99999">
    <tag k="brand" v="Rossmann"/>
    <tag k="youtube" v="https://www.youtube.com/channel/UCmUCPmvMLL3IaXRBtx7-J7Q"/>
    <tag k="facebook" v="https://www.facebook.com/Rossmann.hu"/>
    <tag k="shop" v="chemist"/>
    <tag k="payment:debit_cards" v="yes"/>
    <tag k="payment:cash" v="yes"/>
    <tag k="operator" v="Rossmann Magyarország Kft."/>
    <tag k="addr:postcode" v="2225"/>
    <tag k="instagram" v="https://www.instagram.com/rossmann_hu/"/>
    <tag k="website" v="https://www.rossmann.hu"/>
    <tag k="addr:housenumber" v="100"/>
    <tag k="addr:city" v="Üllő"/>
    <tag k="name" v="Rossmann"/>
    <tag k="source" v="website"/>
    <tag k="addr:street" v="Pesti út"/>
  </node>
  <!-- Original coordinates: POINT (47.778955 19.128908) -->
  <node action="modify" changeset="99999" id="-116" lat="47.778955" lon="19.128908" timestamp="" uid="4579407" user="KAMI" version="99999">
    <tag k="brand" v="Rossmann"/>
    <tag k="youtube" v="https://www.youtube.com/channel/UCmUCPmvMLL3IaXRBtx7-J7Q"/>
    <tag k="facebook" v="https://www.facebook.com/Rossmann.hu"/>
    <tag k="shop" v="chemist"/>
    <tag k="payment:debit_cards" v="yes"/>
    <tag k="payment:cash" v="yes"/>
    <tag k="operator" v="Rossmann Magyarország Kft."/>
    <tag k="addr:postcode" v="2600"/>
    <tag k="instagram" v="https://www.instagram.com/rossmann_hu/"/>
    <tag k="website" v="https://www.rossmann.hu"/>
    <tag k="addr:housenumber" v="7"/>
    <tag k="addr:city" v="Vác"/>
    <tag k="name" v="Rossmann"/>
    <tag k="source" v="website"/>
    <tag k="addr:street" v="Széchenyi út"/>
  </node>
  <!-- Original coordinates: POINT (47.234792 18.658885) -->
  <node action="modify" changeset="99999" id="-117" lat="47.234792" lon="18.658885" timestamp="" uid="4579407" user="KAMI" version="99999">
    <tag k="brand" v="Rossmann"/>
    <tag k="youtube" v="https://www.youtube.com/channel/UCmUCPmvMLL3IaXRBtx7-J7Q"/>
    <tag k="facebook" v="https://www.facebook.com/Rossmann.hu"/>
    <tag k="shop" v="chemist"/>
    <tag k="payment:debit_cards" v="yes"/>
    <tag k="payment:cash" v="yes"/>
    <tag k="operator" v="Rossmann Magyarország Kft."/>
    <tag k="addr:postcode" v="2481"/>
    <tag k="instagram" v="https://www.instagram.com/rossmann_hu/"/>
    <tag k="website" v="https://www.rossmann.hu"/>
    <tag k="addr:housenumber" v="47"/>
    <tag k="addr:city" v="Velence"/>
    <tag k="name" v="Rossmann"/>
    <tag k="source" v="website"/>
    <tag k="addr:street" v="Tópart utca"/>
  </node>
  <!-- Original coordinates: POINT (47.65797 19.269594) -->
  <node action="modify" changeset="99999" id="-118" lat="47.65797" lon="19.269594" timestamp="" uid="4579407" user="KAMI" version="99999">
    <tag k="brand" v="Rossmann"/>
    <tag k="youtube" v="https://www.youtube.com/channel/UCmUCPmvMLL3IaXRBtx7-J7Q"/>
    <tag k="facebook" v="https://www.facebook.com/Rossmann.hu"/>
    <tag k="shop" v="chemist"/>
    <tag k="payment:debit_cards" v="yes"/>
    <tag k="payment:cash" v="yes"/>
    <tag k="operator" v="Rossmann Magyarország Kft."/>
    <tag k="addr:postcode" v="2112"/>
    <tag k="instagram" v="https://www.instagram.com/rossmann_hu/"/>
    <tag k="website" v="https://www.rossmann.hu"/>
    <tag k="addr:housenumber" v="1"/>
    <tag k="addr:city" v="Veresegyház"/>
    <tag k="name" v="Rossmann"/>
    <tag k="source" v="website"/>
    <tag k="addr:street" v="Erkel Ferenc tér"/>
  </node>
  <!-- Original coordinates: POINT (47.603564 18.38702) -->
  <node action="modify" changeset="99999" id="-119" lat="47.603564" lon="18.38702" timestamp="" uid="4579407" user="KAMI" version="99999">
    <tag k="brand" v="Rossmann"/>
    <tag k="youtube" v="https://www.youtube.com/channel/UCmUCPmvMLL3IaXRBtx7-J7Q"/>
    <tag k="facebook" v="https://www.facebook.com/Rossmann.hu"/>
    <tag k="shop" v="chemist"/>
    <tag k="payment:debit_cards" v="yes"/>
    <tag k="payment:cash" v="yes"/>
    <tag k="operator" v="Rossmann Magyarország Kft."/>
    <tag k="addr:postcode" v="2837"/>
    <tag k="instagram" v="https://www.instagram.com/rossmann_hu/"/>
    <tag k="website" v="https://www.rossmann.hu"/>
    <tag k="addr:housenumber" v="1-3"/>
    <tag k="addr:city" v="Vértesszőlős"/>
    <tag k="name" v="Rossmann"/>
    <tag k="source" v="website"/>
    <tag k="addr:street" v="Határ út"/>
  </node>
  <!-- Original coordinates: POINT (47.093038 17.910524) -->
  <node action="modify" changeset="99999" id="-120" lat="47.093038" lon="17.910524" timestamp="" uid="4579407" user="KAMI" version="99999">
    <tag k="brand" v="Rossmann"/>
    <tag k="youtube" v="https://www.youtube.com/channel/UCmUCPmvMLL3IaXRBtx7-J7Q"/>
    <tag k="facebook" v="https://www.facebook.com/Rossmann.hu"/>
    <tag k="shop" v="chemist"/>
    <tag k="payment:debit_cards" v="yes"/>
    <tag k="payment:cash" v="yes"/>
    <tag k="operator" v="Rossmann Magyarország Kft."/>
    <tag k="addr:postcode" v="8200"/>
    <tag k="instagram" v="https://www.instagram.com/rossmann_hu/"/>
    <tag k="website" v="https://www.rossmann.hu"/>
    <tag k="addr:housenumber" v="6"/>
    <tag k="addr:city" v="Veszprém"/>
    <tag k="name" v="Rossmann"/>
    <tag k="source" v="website"/>
    <tag k="addr:street" v="Kossuth Lajos utca"/>
  </node>
  <!-- Original coordinates: POINT (46.843001 16.845709) -->
  <node action="modify" changeset="99999" id="-121" lat="46.843001" lon="16.845709" timestamp="" uid="4579407" user="KAMI" version="99999">
    <tag k="brand" v="Rossmann"/>
    <tag k="youtube" v="https://www.youtube.com/channel/UCmUCPmvMLL3IaXRBtx7-J7Q"/>
    <tag k="facebook" v="https://www.facebook.com/Rossmann.hu"/>
    <tag k="shop" v="chemist"/>
    <tag k="payment:debit_cards" v="yes"/>
    <tag k="payment:cash" v="yes"/>
    <tag k="operator" v="Rossmann Magyarország Kft."/>
    <tag k="addr:postcode" v="8900"/>
    <tag k="instagram" v="https://www.instagram.com/rossmann_hu/"/>
    <tag k="website" v="https://www.rossmann.hu"/>
    <tag k="addr:housenumber" v="3"/>
    <tag k="addr:city" v="Zalaegerszeg"/>
    <tag k="name" v="Rossmann"/>
    <tag k="source" v="website"/>
    <tag k="addr:street" v="Kossuth Lajos út"/>
  </node>
</osm>
