<?xml version='1.0' encoding='UTF-8'?>
<osm generator="JOSM" version="0.6">
  <way action="modify" changeset="1" id="306527965" timestamp="1508076031000000000" uid="4579407" user="KAMI" version="2">
    <nd ref="1038256621"/>
    <nd ref="1038256672"/>
    <nd ref="1038256619"/>
    <nd ref="1038256684"/>
    <nd ref="3114710088"/>
    <nd ref="1038256621"/>
    <tag k="name" v="OMV"/>
    <tag k="addr:city" v="Dunaújváros"/>
    <tag k="addr:postcode" v="2400"/>
    <tag k="addr:street" v="M6 autópálya"/>
    <tag k="addr:housenumber" v="70"/>
    <tag k="phone" v="+3625281445"/>
    <tag k="website" v="https://www.omv.hu"/>
    <tag k="payment:cash" v="yes"/>
    <tag k="fuel:octane_95" v="yes"/>
    <tag k="payment:debit_cards" v="yes"/>
    <tag k="amenity" v="fuel"/>
    <tag k="fuel:diesel" v="yes"/>
    <tag k="brand" v="OMV"/>
    <tag k="operator" v="OMV Hungária Kft."/>
  </way>
  <node action="modify" changeset="1" id="368032106" lat="47.71047" lon="18.74306" timestamp="1520095069000000000" uid="4579407" user="KAMI" version="9">
    <tag k="name" v="OMV"/>
    <tag k="addr:city" v="Dorog"/>
    <tag k="addr:postcode" v="2510"/>
    <tag k="addr:conscriptionnumber" v="0279/8"/>
    <tag k="phone" v="+3633599101"/>
    <tag k="website" v="https://www.omv.hu"/>
    <tag k="payment:cash" v="yes"/>
    <tag k="fuel:octane_95" v="yes"/>
    <tag k="payment:debit_cards" v="yes"/>
    <tag k="amenity" v="fuel"/>
    <tag k="fuel:diesel" v="yes"/>
    <tag k="brand" v="OMV"/>
    <tag k="operator" v="OMV Hungária Kft."/>
  </node>
  <way action="modify" changeset="1" id="288475925" timestamp="1450203595000000000" uid="4579407" user="KAMI" version="6">
    <nd ref="2920321317"/>
    <nd ref="2920321324"/>
    <nd ref="2920321323"/>
    <nd ref="2920321322"/>
    <nd ref="2920321321"/>
    <nd ref="2920321320"/>
    <nd ref="2920321319"/>
    <nd ref="2920321318"/>
    <nd ref="2920321317"/>
    <tag k="name" v="OMV"/>
    <tag k="addr:city" v="Budapest"/>
    <tag k="addr:postcode" v="1239"/>
    <tag k="addr:street" v="Haraszti út"/>
    <tag k="addr:housenumber" v="32/a"/>
    <tag k="phone" v="+3612843314"/>
    <tag k="website" v="https://www.omv.hu"/>
    <tag k="payment:cash" v="yes"/>
    <tag k="fuel:octane_95" v="yes"/>
    <tag k="payment:debit_cards" v="yes"/>
    <tag k="amenity" v="fuel"/>
    <tag k="fuel:diesel" v="yes"/>
    <tag k="brand" v="OMV"/>
    <tag k="operator" v="OMV Hungária Kft."/>
  </way>
  <way action="modify" changeset="1" id="107171145" timestamp="1502639684000000000" uid="4579407" user="KAMI" version="6">
    <nd ref="1232195357"/>
    <nd ref="1232195387"/>
    <nd ref="1232194629"/>
    <nd ref="3101601229"/>
    <nd ref="3101601231"/>
    <nd ref="1232195220"/>
    <nd ref="1232195357"/>
    <tag k="name" v="OMV"/>
    <tag k="addr:city" v="Röszke"/>
    <tag k="addr:postcode" v="6758"/>
    <tag k="addr:street" v="M5 autópálya"/>
    <tag k="addr:housenumber" v="172"/>
    <tag k="addr:conscriptionnumber" v="0112/25"/>
    <tag k="phone" v="+3662273990"/>
    <tag k="website" v="https://www.omv.hu"/>
    <tag k="payment:cash" v="yes"/>
    <tag k="fuel:octane_95" v="yes"/>
    <tag k="payment:debit_cards" v="yes"/>
    <tag k="amenity" v="fuel"/>
    <tag k="fuel:diesel" v="yes"/>
    <tag k="brand" v="OMV"/>
    <tag k="operator" v="OMV Hungária Kft."/>
  </way>
  <way action="modify" changeset="1" id="495678979" timestamp="1495628269000000000" uid="4579407" user="KAMI" version="1">
    <nd ref="4874101582"/>
    <nd ref="4874101581"/>
    <nd ref="4874101580"/>
    <nd ref="4874101579"/>
    <nd ref="4874101582"/>
    <tag k="name" v="OMV"/>
    <tag k="addr:city" v="Győr"/>
    <tag k="addr:postcode" v="9021"/>
    <tag k="addr:street" v="Szent István út"/>
    <tag k="phone" v="+3696320100"/>
    <tag k="website" v="https://www.omv.hu"/>
    <tag k="payment:cash" v="yes"/>
    <tag k="fuel:octane_95" v="yes"/>
    <tag k="payment:debit_cards" v="yes"/>
    <tag k="amenity" v="fuel"/>
    <tag k="fuel:diesel" v="yes"/>
    <tag k="brand" v="OMV"/>
    <tag k="operator" v="OMV Hungária Kft."/>
  </way>
  <way action="modify" changeset="1" id="256262195" timestamp="1476963173000000000" uid="4579407" user="KAMI" version="3">
    <nd ref="2619349071"/>
    <nd ref="2619349062"/>
    <nd ref="764552059"/>
    <nd ref="2619349060"/>
    <nd ref="2619349058"/>
    <nd ref="2619349057"/>
    <nd ref="2619349056"/>
    <nd ref="2619349064"/>
    <nd ref="2619349063"/>
    <nd ref="2619349070"/>
    <nd ref="2619349071"/>
    <tag k="name" v="OMV"/>
    <tag k="addr:city" v="Budapest"/>
    <tag k="addr:postcode" v="1087"/>
    <tag k="addr:street" v="Kerepesi út"/>
    <tag k="addr:housenumber" v="22"/>
    <tag k="phone" v="+36"/>
    <tag k="website" v="https://www.omv.hu"/>
    <tag k="payment:cash" v="yes"/>
    <tag k="fuel:octane_95" v="yes"/>
    <tag k="payment:debit_cards" v="yes"/>
    <tag k="amenity" v="fuel"/>
    <tag k="fuel:diesel" v="yes"/>
    <tag k="brand" v="OMV"/>
    <tag k="operator" v="OMV Hungária Kft."/>
  </way>
  <way action="modify" changeset="1" id="567584111" timestamp="1520458274000000000" uid="4579407" user="KAMI" version="1">
    <nd ref="5463061456"/>
    <nd ref="5463061457"/>
    <nd ref="5463061458"/>
    <nd ref="5463061459"/>
    <nd ref="5463061460"/>
    <nd ref="5463061461"/>
    <nd ref="5463061462"/>
    <nd ref="5463061463"/>
    <nd ref="5463061464"/>
    <nd ref="5463061465"/>
    <nd ref="5463061466"/>
    <nd ref="5463061467"/>
    <nd ref="5463061456"/>
    <tag k="name" v="OMV"/>
    <tag k="addr:city" v="Kajászó"/>
    <tag k="addr:postcode" v="2472"/>
    <tag k="addr:street" v="M7 autópálya"/>
    <tag k="addr:housenumber" v="33"/>
    <tag k="phone" v="+3622454464"/>
    <tag k="website" v="https://www.omv.hu"/>
    <tag k="payment:cash" v="yes"/>
    <tag k="fuel:octane_95" v="yes"/>
    <tag k="payment:debit_cards" v="yes"/>
    <tag k="amenity" v="fuel"/>
    <tag k="fuel:diesel" v="yes"/>
    <tag k="brand" v="OMV"/>
    <tag k="operator" v="OMV Hungária Kft."/>
  </way>
  <way action="modify" changeset="1" id="328475646" timestamp="1487509370000000000" uid="4579407" user="KAMI" version="3">
    <nd ref="3353032893"/>
    <nd ref="3353032892"/>
    <nd ref="3353032894"/>
    <nd ref="3353032895"/>
    <nd ref="3353032893"/>
    <tag k="name" v="OMV"/>
    <tag k="addr:city" v="Szombathely"/>
    <tag k="addr:postcode" v="9700"/>
    <tag k="addr:street" v="Csaba út"/>
    <tag k="addr:housenumber" v="15"/>
    <tag k="phone" v="+3694328809"/>
    <tag k="website" v="https://www.omv.hu"/>
    <tag k="payment:cash" v="yes"/>
    <tag k="fuel:octane_95" v="yes"/>
    <tag k="payment:debit_cards" v="yes"/>
    <tag k="amenity" v="fuel"/>
    <tag k="fuel:diesel" v="yes"/>
    <tag k="brand" v="OMV"/>
    <tag k="operator" v="OMV Hungária Kft."/>
  </way>
  <node action="modify" changeset="1" id="2532784515" lat="47.35991" lon="16.89799" timestamp="1504698164000000000" uid="4579407" user="KAMI" version="8">
    <tag k="name" v="OMV"/>
    <tag k="addr:city" v="Hegyfalu"/>
    <tag k="addr:postcode" v="9631"/>
    <tag k="addr:street" v="84. sz. főút"/>
    <tag k="phone" v="+3695340267"/>
    <tag k="website" v="https://www.omv.hu"/>
    <tag k="payment:cash" v="yes"/>
    <tag k="fuel:octane_95" v="yes"/>
    <tag k="payment:debit_cards" v="yes"/>
    <tag k="amenity" v="fuel"/>
    <tag k="fuel:diesel" v="yes"/>
    <tag k="brand" v="OMV"/>
    <tag k="operator" v="OMV Hungária Kft."/>
  </node>
  <node action="modify" changeset="1" id="3334249399" lat="47.68723" lon="16.58835" timestamp="1423239890000000000" uid="4579407" user="KAMI" version="2">
    <tag k="name" v="OMV"/>
    <tag k="addr:city" v="Sopron"/>
    <tag k="addr:postcode" v="9400"/>
    <tag k="addr:street" v="Lackner Kristóf utca"/>
    <tag k="addr:housenumber" v="29"/>
    <tag k="phone" v="+3699510565"/>
    <tag k="website" v="https://www.omv.hu"/>
    <tag k="payment:cash" v="yes"/>
    <tag k="fuel:octane_95" v="yes"/>
    <tag k="payment:debit_cards" v="yes"/>
    <tag k="amenity" v="fuel"/>
    <tag k="fuel:diesel" v="yes"/>
    <tag k="brand" v="OMV"/>
    <tag k="operator" v="OMV Hungária Kft."/>
  </node>
  <node action="modify" changeset="1" id="1426063009" lat="47.5276" lon="19.0757" timestamp="1429889765000000000" uid="4579407" user="KAMI" version="6">
    <tag k="name" v="OMV"/>
    <tag k="addr:city" v="Budapest"/>
    <tag k="addr:postcode" v="1135"/>
    <tag k="addr:street" v="Róbert Károly körút"/>
    <tag k="addr:housenumber" v="64-66"/>
    <tag k="phone" v="+36"/>
    <tag k="website" v="https://www.omv.hu"/>
    <tag k="payment:cash" v="yes"/>
    <tag k="fuel:octane_95" v="yes"/>
    <tag k="payment:debit_cards" v="yes"/>
    <tag k="amenity" v="fuel"/>
    <tag k="fuel:diesel" v="yes"/>
    <tag k="brand" v="OMV"/>
    <tag k="operator" v="OMV Hungária Kft."/>
  </node>
  <node action="modify" changeset="1" id="556763685" lat="47.5898" lon="17.0094" timestamp="1503782144000000000" uid="4579407" user="KAMI" version="8">
    <tag k="name" v="OMV"/>
    <tag k="addr:city" v="Kapuvár"/>
    <tag k="addr:postcode" v="9330"/>
    <tag k="addr:street" v="Petőfi major"/>
    <tag k="addr:housenumber" v="1"/>
    <tag k="phone" v="+3696245141"/>
    <tag k="website" v="https://www.omv.hu"/>
    <tag k="payment:cash" v="yes"/>
    <tag k="fuel:octane_95" v="yes"/>
    <tag k="payment:debit_cards" v="yes"/>
    <tag k="amenity" v="fuel"/>
    <tag k="fuel:diesel" v="yes"/>
    <tag k="brand" v="OMV"/>
    <tag k="operator" v="OMV Hungária Kft."/>
  </node>
  <node action="modify" changeset="1" id="1338049803" lat="48.08304" lon="20.7864" timestamp="1469645522000000000" uid="4579407" user="KAMI" version="4">
    <tag k="name" v="OMV"/>
    <tag k="addr:city" v="Miskolc"/>
    <tag k="addr:postcode" v="3529"/>
    <tag k="addr:street" v="Soltész Nagy Kálmán utca"/>
    <tag k="addr:housenumber" v="175"/>
    <tag k="phone" v="+3646313959"/>
    <tag k="website" v="https://www.omv.hu"/>
    <tag k="payment:cash" v="yes"/>
    <tag k="fuel:octane_95" v="yes"/>
    <tag k="payment:debit_cards" v="yes"/>
    <tag k="amenity" v="fuel"/>
    <tag k="fuel:diesel" v="yes"/>
    <tag k="brand" v="OMV"/>
    <tag k="operator" v="OMV Hungária Kft."/>
  </node>
  <node action="modify" changeset="1" id="448084148" lat="47.276" lon="19.32361" timestamp="1426409401000000000" uid="4579407" user="KAMI" version="7">
    <tag k="name" v="OMV"/>
    <tag k="addr:city" v="Inárcs"/>
    <tag k="addr:postcode" v="2365"/>
    <tag k="addr:street" v="M5 autópálya"/>
    <tag k="addr:housenumber" v="82"/>
    <tag k="phone" v="+3629371095"/>
    <tag k="website" v="https://www.omv.hu"/>
    <tag k="payment:cash" v="yes"/>
    <tag k="fuel:octane_95" v="yes"/>
    <tag k="payment:debit_cards" v="yes"/>
    <tag k="amenity" v="fuel"/>
    <tag k="fuel:diesel" v="yes"/>
    <tag k="brand" v="OMV"/>
    <tag k="operator" v="OMV Hungária Kft."/>
  </node>
  <way action="modify" changeset="1" id="46620229" timestamp="1517672392000000000" uid="4579407" user="KAMI" version="9">
    <nd ref="595755790"/>
    <nd ref="595755791"/>
    <nd ref="595755792"/>
    <nd ref="595755793"/>
    <nd ref="595755794"/>
    <nd ref="595755795"/>
    <nd ref="595755796"/>
    <nd ref="595755797"/>
    <nd ref="595755790"/>
    <tag k="name" v="OMV"/>
    <tag k="addr:city" v="Budapest"/>
    <tag k="addr:postcode" v="1152"/>
    <tag k="addr:street" v="Szentmihályi út"/>
    <tag k="addr:housenumber" v="131"/>
    <tag k="phone" v="+36"/>
    <tag k="website" v="https://www.omv.hu"/>
    <tag k="payment:cash" v="yes"/>
    <tag k="fuel:octane_95" v="yes"/>
    <tag k="payment:debit_cards" v="yes"/>
    <tag k="amenity" v="fuel"/>
    <tag k="fuel:diesel" v="yes"/>
    <tag k="brand" v="OMV"/>
    <tag k="operator" v="OMV Hungária Kft."/>
  </way>
  <node action="modify" changeset="1" id="3334249607" lat="47.10307" lon="17.55168" timestamp="1447857660000000000" uid="4579407" user="KAMI" version="3">
    <tag k="name" v="OMV"/>
    <tag k="addr:city" v="Ajka"/>
    <tag k="addr:postcode" v="8400"/>
    <tag k="addr:street" v="Pefőfi utca"/>
    <tag k="phone" v="+3688311354"/>
    <tag k="website" v="https://www.omv.hu"/>
    <tag k="payment:cash" v="yes"/>
    <tag k="fuel:octane_95" v="yes"/>
    <tag k="payment:debit_cards" v="yes"/>
    <tag k="amenity" v="fuel"/>
    <tag k="fuel:diesel" v="yes"/>
    <tag k="brand" v="OMV"/>
    <tag k="operator" v="OMV Hungária Kft."/>
  </node>
  <node action="modify" changeset="1" id="1352366958" lat="46.62573" lon="19.27422" timestamp="1503782143000000000" uid="4579407" user="KAMI" version="7">
    <tag k="name" v="OMV"/>
    <tag k="addr:city" v="Kiskőrös"/>
    <tag k="addr:postcode" v="6200"/>
    <tag k="addr:street" v="Dózsa György utca"/>
    <tag k="addr:housenumber" v="99"/>
    <tag k="phone" v="+3678413100"/>
    <tag k="website" v="https://www.omv.hu"/>
    <tag k="payment:cash" v="yes"/>
    <tag k="fuel:octane_95" v="yes"/>
    <tag k="payment:debit_cards" v="yes"/>
    <tag k="amenity" v="fuel"/>
    <tag k="fuel:diesel" v="yes"/>
    <tag k="brand" v="OMV"/>
    <tag k="operator" v="OMV Hungária Kft."/>
  </node>
  <node action="modify" changeset="1" id="955779465" lat="47.44773" lon="19.3627" timestamp="1468497008000000000" uid="4579407" user="KAMI" version="7">
    <tag k="name" v="OMV"/>
    <tag k="addr:city" v="Maglód"/>
    <tag k="addr:postcode" v="2234"/>
    <tag k="addr:street" v="Jászberényi utca"/>
    <tag k="phone" v="+3629325704"/>
    <tag k="website" v="https://www.omv.hu"/>
    <tag k="payment:cash" v="yes"/>
    <tag k="fuel:octane_95" v="yes"/>
    <tag k="payment:debit_cards" v="yes"/>
    <tag k="amenity" v="fuel"/>
    <tag k="fuel:diesel" v="yes"/>
    <tag k="brand" v="OMV"/>
    <tag k="operator" v="OMV Hungária Kft."/>
  </node>
  <node action="modify" changeset="1" id="1978458912" lat="47.86613" lon="17.26723" timestamp="1423240111000000000" uid="4579407" user="KAMI" version="4">
    <tag k="name" v="OMV"/>
    <tag k="addr:city" v="Mosonmagyaróvár"/>
    <tag k="addr:postcode" v="9200"/>
    <tag k="addr:street" v="Kossuth utca"/>
    <tag k="addr:housenumber" v="69"/>
    <tag k="phone" v="+3696216878"/>
    <tag k="website" v="https://www.omv.hu"/>
    <tag k="payment:cash" v="yes"/>
    <tag k="fuel:octane_95" v="yes"/>
    <tag k="payment:debit_cards" v="yes"/>
    <tag k="amenity" v="fuel"/>
    <tag k="fuel:diesel" v="yes"/>
    <tag k="brand" v="OMV"/>
    <tag k="operator" v="OMV Hungária Kft."/>
  </node>
  <node action="modify" changeset="1" id="313054426" lat="47.19533" lon="18.46482" timestamp="1446935319000000000" uid="4579407" user="KAMI" version="9">
    <tag k="name" v="OMV"/>
    <tag k="addr:city" v="Székesfehérvár"/>
    <tag k="addr:postcode" v="8000"/>
    <tag k="addr:street" v="Budai út"/>
    <tag k="phone" v="+3622306562"/>
    <tag k="website" v="https://www.omv.hu"/>
    <tag k="payment:cash" v="yes"/>
    <tag k="fuel:octane_95" v="yes"/>
    <tag k="payment:debit_cards" v="yes"/>
    <tag k="amenity" v="fuel"/>
    <tag k="fuel:diesel" v="yes"/>
    <tag k="brand" v="OMV"/>
    <tag k="operator" v="OMV Hungária Kft."/>
  </node>
  <node action="modify" changeset="1" id="866750429" lat="47.4614" lon="19.05211" timestamp="1426409404000000000" uid="4579407" user="KAMI" version="9">
    <tag k="name" v="OMV"/>
    <tag k="addr:city" v="Budapest"/>
    <tag k="addr:postcode" v="1117"/>
    <tag k="addr:street" v="Budafoki út"/>
    <tag k="addr:housenumber" v="111-113"/>
    <tag k="phone" v="+36"/>
    <tag k="website" v="https://www.omv.hu"/>
    <tag k="payment:cash" v="yes"/>
    <tag k="fuel:octane_95" v="yes"/>
    <tag k="payment:debit_cards" v="yes"/>
    <tag k="amenity" v="fuel"/>
    <tag k="fuel:diesel" v="yes"/>
    <tag k="brand" v="OMV"/>
    <tag k="operator" v="OMV Hungária Kft."/>
  </node>
  <node action="modify" changeset="1" id="3334249499" lat="46.92766" lon="20.81804" timestamp="1447838862000000000" uid="4579407" user="KAMI" version="3">
    <tag k="name" v="OMV"/>
    <tag k="addr:city" v="Gyomaendrőd"/>
    <tag k="addr:postcode" v="5500"/>
    <tag k="addr:street" v="Fő út"/>
    <tag k="addr:housenumber" v="133"/>
    <tag k="phone" v="+3666581740"/>
    <tag k="website" v="https://www.omv.hu"/>
    <tag k="payment:cash" v="yes"/>
    <tag k="fuel:octane_95" v="yes"/>
    <tag k="payment:debit_cards" v="yes"/>
    <tag k="amenity" v="fuel"/>
    <tag k="fuel:diesel" v="yes"/>
    <tag k="brand" v="OMV"/>
    <tag k="operator" v="OMV Hungária Kft."/>
  </node>
  <node action="modify" changeset="99999" id="-23" lat="47.37887" lon="19.35756" timestamp="" uid="4579407" user="KAMI" version="99999">
    <tag k="name" v="OMV"/>
    <tag k="addr:city" v="Üllő"/>
    <tag k="addr:postcode" v="2225"/>
    <tag k="addr:street" v="Pesti út"/>
    <tag k="addr:housenumber" v="1"/>
    <tag k="phone" v="+3629322464"/>
    <tag k="website" v="https://www.omv.hu"/>
    <tag k="payment:cash" v="yes"/>
    <tag k="fuel:octane_95" v="yes"/>
    <tag k="payment:debit_cards" v="yes"/>
    <tag k="amenity" v="fuel"/>
    <tag k="fuel:diesel" v="yes"/>
    <tag k="brand" v="OMV"/>
    <tag k="operator" v="OMV Hungária Kft."/>
  </node>
  <way action="modify" changeset="1" id="554450265" timestamp="1516438820000000000" uid="4579407" user="KAMI" version="3">
    <nd ref="5350684431"/>
    <nd ref="5350685448"/>
    <nd ref="5350684432"/>
    <nd ref="5350688789"/>
    <nd ref="5350688796"/>
    <nd ref="5350684433"/>
    <nd ref="5350684434"/>
    <nd ref="5350684431"/>
    <tag k="name" v="OMV"/>
    <tag k="addr:city" v="Vecsés"/>
    <tag k="addr:postcode" v="2220"/>
    <tag k="addr:street" v="Gyáli út"/>
    <tag k="addr:housenumber" v="20-22"/>
    <tag k="phone" v="+3629350051"/>
    <tag k="website" v="https://www.omv.hu"/>
    <tag k="payment:cash" v="yes"/>
    <tag k="fuel:octane_95" v="yes"/>
    <tag k="payment:debit_cards" v="yes"/>
    <tag k="amenity" v="fuel"/>
    <tag k="fuel:diesel" v="yes"/>
    <tag k="brand" v="OMV"/>
    <tag k="operator" v="OMV Hungária Kft."/>
  </way>
  <way action="modify" changeset="1" id="255920796" timestamp="1426409387000000000" uid="4579407" user="KAMI" version="5">
    <nd ref="2616316238"/>
    <nd ref="2616316241"/>
    <nd ref="2616316240"/>
    <nd ref="2616316239"/>
    <nd ref="2616316238"/>
    <tag k="name" v="OMV"/>
    <tag k="addr:city" v="Makó"/>
    <tag k="addr:postcode" v="6900"/>
    <tag k="phone" v="+3662213382"/>
    <tag k="website" v="https://www.omv.hu"/>
    <tag k="payment:cash" v="yes"/>
    <tag k="fuel:octane_95" v="yes"/>
    <tag k="payment:debit_cards" v="yes"/>
    <tag k="amenity" v="fuel"/>
    <tag k="fuel:diesel" v="yes"/>
    <tag k="brand" v="OMV"/>
    <tag k="operator" v="OMV Hungária Kft."/>
  </way>
  <node action="modify" changeset="99999" id="-26" lat="48.41323" lon="21.64772" timestamp="" uid="4579407" user="KAMI" version="99999">
    <tag k="name" v="OMV"/>
    <tag k="addr:city" v="Sátoraljaújhely"/>
    <tag k="addr:postcode" v="3980"/>
    <tag k="addr:street" v="Kazinczy utca"/>
    <tag k="addr:conscriptionnumber" v="7602"/>
    <tag k="phone" v="+3647321460"/>
    <tag k="website" v="https://www.omv.hu"/>
    <tag k="payment:cash" v="yes"/>
    <tag k="fuel:octane_95" v="yes"/>
    <tag k="payment:debit_cards" v="yes"/>
    <tag k="amenity" v="fuel"/>
    <tag k="fuel:diesel" v="yes"/>
    <tag k="brand" v="OMV"/>
    <tag k="operator" v="OMV Hungária Kft."/>
  </node>
  <node action="modify" changeset="1" id="3334250104" lat="47.55106" lon="19.26814" timestamp="1423239891000000000" uid="4579407" user="KAMI" version="2">
    <tag k="name" v="OMV"/>
    <tag k="addr:city" v="Kistarcsa"/>
    <tag k="addr:postcode" v="2144"/>
    <tag k="addr:street" v="Szabadság utca"/>
    <tag k="addr:housenumber" v="56"/>
    <tag k="phone" v="+3628470098"/>
    <tag k="website" v="https://www.omv.hu"/>
    <tag k="payment:cash" v="yes"/>
    <tag k="fuel:octane_95" v="yes"/>
    <tag k="payment:debit_cards" v="yes"/>
    <tag k="amenity" v="fuel"/>
    <tag k="fuel:diesel" v="yes"/>
    <tag k="brand" v="OMV"/>
    <tag k="operator" v="OMV Hungária Kft."/>
  </node>
  <way action="modify" changeset="1" id="322446985" timestamp="1461921367000000000" uid="4579407" user="KAMI" version="4">
    <nd ref="3292179996"/>
    <nd ref="3292179998"/>
    <nd ref="3377822946"/>
    <nd ref="3292179989"/>
    <nd ref="3292179986"/>
    <nd ref="3377822945"/>
    <nd ref="3292179996"/>
    <tag k="name" v="OMV"/>
    <tag k="addr:city" v="Budapest"/>
    <tag k="addr:postcode" v="1172"/>
    <tag k="addr:street" v="Cinkotai út"/>
    <tag k="addr:housenumber" v="51"/>
    <tag k="phone" v="+3612570325"/>
    <tag k="website" v="https://www.omv.hu"/>
    <tag k="payment:cash" v="yes"/>
    <tag k="fuel:octane_95" v="yes"/>
    <tag k="payment:debit_cards" v="yes"/>
    <tag k="amenity" v="fuel"/>
    <tag k="fuel:diesel" v="yes"/>
    <tag k="brand" v="OMV"/>
    <tag k="operator" v="OMV Hungária Kft."/>
  </way>
  <node action="modify" changeset="1" id="4869511720" lat="47.04238" lon="19.78436" timestamp="1518037914000000000" uid="4579407" user="KAMI" version="2">
    <tag k="name" v="OMV"/>
    <tag k="addr:city" v="Nagykőrös"/>
    <tag k="addr:postcode" v="2750"/>
    <tag k="addr:street" v="Ceglédi út"/>
    <tag k="addr:housenumber" v="256"/>
    <tag k="phone" v="+3653348119"/>
    <tag k="website" v="https://www.omv.hu"/>
    <tag k="payment:cash" v="yes"/>
    <tag k="fuel:octane_95" v="yes"/>
    <tag k="payment:debit_cards" v="yes"/>
    <tag k="amenity" v="fuel"/>
    <tag k="fuel:diesel" v="yes"/>
    <tag k="brand" v="OMV"/>
    <tag k="operator" v="OMV Hungária Kft."/>
  </node>
  <node action="modify" changeset="99999" id="-30" lat="46.3804" lon="17.7815" timestamp="" uid="4579407" user="KAMI" version="99999">
    <tag k="name" v="OMV"/>
    <tag k="addr:city" v="Kaposvár"/>
    <tag k="addr:postcode" v="7400"/>
    <tag k="addr:street" v="Füredi út"/>
    <tag k="phone" v="+3682313776"/>
    <tag k="website" v="https://www.omv.hu"/>
    <tag k="payment:cash" v="yes"/>
    <tag k="fuel:octane_95" v="yes"/>
    <tag k="payment:debit_cards" v="yes"/>
    <tag k="amenity" v="fuel"/>
    <tag k="fuel:diesel" v="yes"/>
    <tag k="brand" v="OMV"/>
    <tag k="operator" v="OMV Hungária Kft."/>
  </node>
  <node action="modify" changeset="1" id="1278126216" lat="47.56446" lon="19.07854" timestamp="1423240078000000000" uid="4579407" user="KAMI" version="4">
    <tag k="name" v="OMV"/>
    <tag k="addr:city" v="Budapest"/>
    <tag k="addr:postcode" v="1044"/>
    <tag k="addr:street" v="Váci út"/>
    <tag k="addr:housenumber" v="16"/>
    <tag k="phone" v="+36"/>
    <tag k="website" v="https://www.omv.hu"/>
    <tag k="payment:cash" v="yes"/>
    <tag k="fuel:octane_95" v="yes"/>
    <tag k="payment:debit_cards" v="yes"/>
    <tag k="amenity" v="fuel"/>
    <tag k="fuel:diesel" v="yes"/>
    <tag k="brand" v="OMV"/>
    <tag k="operator" v="OMV Hungária Kft."/>
  </node>
  <way action="modify" changeset="1" id="295725780" timestamp="1515431008000000000" uid="4579407" user="KAMI" version="7">
    <nd ref="2994735222"/>
    <nd ref="2994735221"/>
    <nd ref="2994735220"/>
    <nd ref="2994735219"/>
    <nd ref="2994735222"/>
    <tag k="name" v="OMV"/>
    <tag k="addr:city" v="Budapest"/>
    <tag k="addr:postcode" v="1238"/>
    <tag k="addr:street" v="Nagykörösi út"/>
    <tag k="addr:housenumber" v="349"/>
    <tag k="phone" v="+36"/>
    <tag k="website" v="https://www.omv.hu"/>
    <tag k="payment:cash" v="yes"/>
    <tag k="fuel:octane_95" v="yes"/>
    <tag k="payment:debit_cards" v="yes"/>
    <tag k="amenity" v="fuel"/>
    <tag k="fuel:diesel" v="yes"/>
    <tag k="brand" v="OMV"/>
    <tag k="operator" v="OMV Hungária Kft."/>
  </way>
  <node action="modify" changeset="1" id="2271890051" lat="46.45592" lon="17.01004" timestamp="1423240120000000000" uid="4579407" user="KAMI" version="5">
    <tag k="name" v="OMV"/>
    <tag k="addr:city" v="Nagykanizsa"/>
    <tag k="addr:postcode" v="8800"/>
    <tag k="addr:street" v="Hevesi S. utca"/>
    <tag k="addr:housenumber" v="5"/>
    <tag k="phone" v="+3693536187"/>
    <tag k="website" v="https://www.omv.hu"/>
    <tag k="payment:cash" v="yes"/>
    <tag k="fuel:octane_95" v="yes"/>
    <tag k="payment:debit_cards" v="yes"/>
    <tag k="amenity" v="fuel"/>
    <tag k="fuel:diesel" v="yes"/>
    <tag k="brand" v="OMV"/>
    <tag k="operator" v="OMV Hungária Kft."/>
  </node>
  <node action="modify" changeset="1" id="2129793657" lat="47.541" lon="18.72369" timestamp="1448213078000000000" uid="4579407" user="KAMI" version="7">
    <tag k="name" v="OMV"/>
    <tag k="addr:city" v="Zsámbék"/>
    <tag k="addr:postcode" v="2072"/>
    <tag k="addr:street" v="Herceghalmi út"/>
    <tag k="addr:housenumber" v="578/a"/>
    <tag k="phone" v="+3623565070"/>
    <tag k="website" v="https://www.omv.hu"/>
    <tag k="payment:cash" v="yes"/>
    <tag k="fuel:octane_95" v="yes"/>
    <tag k="payment:debit_cards" v="yes"/>
    <tag k="amenity" v="fuel"/>
    <tag k="fuel:diesel" v="yes"/>
    <tag k="brand" v="OMV"/>
    <tag k="operator" v="OMV Hungária Kft."/>
  </node>
  <node action="modify" changeset="1" id="1240625047" lat="46.9021" lon="18.0473" timestamp="1448921145000000000" uid="4579407" user="KAMI" version="5">
    <tag k="name" v="OMV"/>
    <tag k="addr:city" v="Siófok"/>
    <tag k="addr:postcode" v="8600"/>
    <tag k="addr:street" v="Vak Bottyán út"/>
    <tag k="addr:housenumber" v="1"/>
    <tag k="phone" v="+3684510715"/>
    <tag k="website" v="https://www.omv.hu"/>
    <tag k="payment:cash" v="yes"/>
    <tag k="fuel:octane_95" v="yes"/>
    <tag k="payment:debit_cards" v="yes"/>
    <tag k="amenity" v="fuel"/>
    <tag k="fuel:diesel" v="yes"/>
    <tag k="brand" v="OMV"/>
    <tag k="operator" v="OMV Hungária Kft."/>
  </node>
  <way action="modify" changeset="1" id="221060153" timestamp="1426409394000000000" uid="4579407" user="KAMI" version="4">
    <nd ref="2301125616"/>
    <nd ref="2301125617"/>
    <nd ref="2301125618"/>
    <nd ref="2301125619"/>
    <nd ref="2301125620"/>
    <nd ref="2301125621"/>
    <nd ref="2301125622"/>
    <nd ref="2301125623"/>
    <nd ref="2301125624"/>
    <nd ref="2301125616"/>
    <tag k="name" v="OMV"/>
    <tag k="addr:city" v="Eger"/>
    <tag k="addr:postcode" v="3300"/>
    <tag k="addr:street" v="Mátyás Király út"/>
    <tag k="addr:housenumber" v="134"/>
    <tag k="phone" v="+3636517181"/>
    <tag k="website" v="https://www.omv.hu"/>
    <tag k="payment:cash" v="yes"/>
    <tag k="fuel:octane_95" v="yes"/>
    <tag k="payment:debit_cards" v="yes"/>
    <tag k="amenity" v="fuel"/>
    <tag k="fuel:diesel" v="yes"/>
    <tag k="brand" v="OMV"/>
    <tag k="operator" v="OMV Hungária Kft."/>
  </way>
  <node action="modify" changeset="1" id="1775509880" lat="47.0945" lon="17.9165" timestamp="1505277710000000000" uid="4579407" user="KAMI" version="12">
    <tag k="name" v="OMV"/>
    <tag k="addr:city" v="Veszprém"/>
    <tag k="addr:postcode" v="8200"/>
    <tag k="addr:street" v="Budapesti út"/>
    <tag k="addr:housenumber" v="12"/>
    <tag k="phone" v="+3688563400"/>
    <tag k="website" v="https://www.omv.hu"/>
    <tag k="payment:cash" v="yes"/>
    <tag k="fuel:octane_95" v="yes"/>
    <tag k="payment:debit_cards" v="yes"/>
    <tag k="amenity" v="fuel"/>
    <tag k="fuel:diesel" v="yes"/>
    <tag k="brand" v="OMV"/>
    <tag k="operator" v="OMV Hungária Kft."/>
  </node>
  <way action="modify" changeset="1" id="261637551" timestamp="1447835881000000000" uid="4579407" user="KAMI" version="6">
    <nd ref="2672435736"/>
    <nd ref="2672435728"/>
    <nd ref="2672435724"/>
    <nd ref="2672435717"/>
    <nd ref="2672435702"/>
    <nd ref="2672435712"/>
    <nd ref="2672435731"/>
    <nd ref="2672435736"/>
    <tag k="name" v="OMV"/>
    <tag k="addr:city" v="Budapest"/>
    <tag k="addr:postcode" v="1098"/>
    <tag k="addr:street" v="Üllői út"/>
    <tag k="addr:housenumber" v="137"/>
    <tag k="phone" v="+36"/>
    <tag k="website" v="https://www.omv.hu"/>
    <tag k="payment:cash" v="yes"/>
    <tag k="fuel:octane_95" v="yes"/>
    <tag k="payment:debit_cards" v="yes"/>
    <tag k="amenity" v="fuel"/>
    <tag k="fuel:diesel" v="yes"/>
    <tag k="brand" v="OMV"/>
    <tag k="operator" v="OMV Hungária Kft."/>
  </way>
  <node action="modify" changeset="99999" id="-39" lat="47.48497" lon="19.10577" timestamp="" uid="4579407" user="KAMI" version="99999">
    <tag k="name" v="OMV"/>
    <tag k="addr:city" v="Budapest"/>
    <tag k="addr:postcode" v="1087"/>
    <tag k="addr:street" v="Könyves Kálmán körút"/>
    <tag k="addr:housenumber" v="76"/>
    <tag k="phone" v="+36"/>
    <tag k="website" v="https://www.omv.hu"/>
    <tag k="payment:cash" v="yes"/>
    <tag k="fuel:octane_95" v="yes"/>
    <tag k="payment:debit_cards" v="yes"/>
    <tag k="amenity" v="fuel"/>
    <tag k="fuel:diesel" v="yes"/>
    <tag k="brand" v="OMV"/>
    <tag k="operator" v="OMV Hungária Kft."/>
  </node>
  <way action="modify" changeset="1" id="242465188" timestamp="1505294567000000000" uid="4579407" user="KAMI" version="6">
    <nd ref="2499271441"/>
    <nd ref="2499271442"/>
    <nd ref="2499271443"/>
    <nd ref="4741649845"/>
    <nd ref="4741649846"/>
    <nd ref="2499271444"/>
    <nd ref="2499271454"/>
    <nd ref="2499271445"/>
    <nd ref="2499271441"/>
    <tag k="name" v="OMV"/>
    <tag k="addr:city" v="Budapest"/>
    <tag k="addr:postcode" v="1116"/>
    <tag k="addr:street" v="Fehérvári út"/>
    <tag k="addr:housenumber" v="166"/>
    <tag k="phone" v="+36"/>
    <tag k="website" v="https://www.omv.hu"/>
    <tag k="payment:cash" v="yes"/>
    <tag k="fuel:octane_95" v="yes"/>
    <tag k="payment:debit_cards" v="yes"/>
    <tag k="amenity" v="fuel"/>
    <tag k="fuel:diesel" v="yes"/>
    <tag k="brand" v="OMV"/>
    <tag k="operator" v="OMV Hungária Kft."/>
  </way>
  <node action="modify" changeset="1" id="112367246" lat="47.5348" lon="19.10271" timestamp="1426409408000000000" uid="4579407" user="KAMI" version="6">
    <tag k="name" v="OMV"/>
    <tag k="addr:city" v="Budapest"/>
    <tag k="addr:postcode" v="1142"/>
    <tag k="addr:street" v="Tengerszem utca"/>
    <tag k="addr:housenumber" v="61-67"/>
    <tag k="phone" v="+36"/>
    <tag k="website" v="https://www.omv.hu"/>
    <tag k="payment:cash" v="yes"/>
    <tag k="fuel:octane_95" v="yes"/>
    <tag k="payment:debit_cards" v="yes"/>
    <tag k="amenity" v="fuel"/>
    <tag k="fuel:diesel" v="yes"/>
    <tag k="brand" v="OMV"/>
    <tag k="operator" v="OMV Hungária Kft."/>
  </node>
  <way action="modify" changeset="1" id="340300282" timestamp="1506004121000000000" uid="4579407" user="KAMI" version="4">
    <nd ref="3475160103"/>
    <nd ref="3475160104"/>
    <nd ref="3475160105"/>
    <nd ref="3475160106"/>
    <nd ref="3475160107"/>
    <nd ref="3475160108"/>
    <nd ref="3475160109"/>
    <nd ref="3475160110"/>
    <nd ref="3475160111"/>
    <nd ref="3475160103"/>
    <tag k="name" v="OMV"/>
    <tag k="addr:city" v="Debrecen"/>
    <tag k="addr:postcode" v="4031"/>
    <tag k="addr:street" v="István út"/>
    <tag k="addr:housenumber" v="137"/>
    <tag k="phone" v="+3652531136"/>
    <tag k="website" v="https://www.omv.hu"/>
    <tag k="payment:cash" v="yes"/>
    <tag k="fuel:octane_95" v="yes"/>
    <tag k="payment:debit_cards" v="yes"/>
    <tag k="amenity" v="fuel"/>
    <tag k="fuel:diesel" v="yes"/>
    <tag k="brand" v="OMV"/>
    <tag k="operator" v="OMV Hungária Kft."/>
  </way>
  <node action="modify" changeset="1" id="3442891911" lat="47.9359" lon="21.7184" timestamp="1528133324000000000" uid="4579407" user="KAMI" version="4">
    <tag k="name" v="OMV"/>
    <tag k="addr:city" v="Nyíregyháza"/>
    <tag k="addr:postcode" v="4405"/>
    <tag k="addr:street" v="Debreceni út"/>
    <tag k="addr:housenumber" v="99"/>
    <tag k="phone" v="+3642460724"/>
    <tag k="website" v="https://www.omv.hu"/>
    <tag k="payment:cash" v="yes"/>
    <tag k="fuel:octane_95" v="yes"/>
    <tag k="payment:debit_cards" v="yes"/>
    <tag k="amenity" v="fuel"/>
    <tag k="fuel:diesel" v="yes"/>
    <tag k="brand" v="OMV"/>
    <tag k="operator" v="OMV Hungária Kft."/>
  </node>
  <way action="modify" changeset="1" id="220993546" timestamp="1515509844000000000" uid="4579407" user="KAMI" version="8">
    <nd ref="2300526724"/>
    <nd ref="2300526738"/>
    <nd ref="2300526745"/>
    <nd ref="2300526740"/>
    <nd ref="2300526749"/>
    <nd ref="2300526742"/>
    <nd ref="2300526747"/>
    <nd ref="2300526733"/>
    <nd ref="2300526730"/>
    <nd ref="2300526734"/>
    <nd ref="2300526729"/>
    <nd ref="2300526727"/>
    <nd ref="2300526724"/>
    <tag k="name" v="OMV"/>
    <tag k="addr:city" v="Budapest"/>
    <tag k="addr:postcode" v="1097"/>
    <tag k="addr:street" v="Mester utca"/>
    <tag k="addr:housenumber" v="89"/>
    <tag k="phone" v="+36"/>
    <tag k="website" v="https://www.omv.hu"/>
    <tag k="payment:cash" v="yes"/>
    <tag k="fuel:octane_95" v="yes"/>
    <tag k="payment:debit_cards" v="yes"/>
    <tag k="amenity" v="fuel"/>
    <tag k="fuel:diesel" v="yes"/>
    <tag k="brand" v="OMV"/>
    <tag k="operator" v="OMV Hungária Kft."/>
  </way>
  <way action="modify" changeset="1" id="187697432" timestamp="1426409389000000000" uid="4579407" user="KAMI" version="6">
    <nd ref="1983293645"/>
    <nd ref="1983293647"/>
    <nd ref="1983293643"/>
    <nd ref="1983293639"/>
    <nd ref="1983293636"/>
    <nd ref="1983293641"/>
    <nd ref="1983293645"/>
    <tag k="name" v="OMV"/>
    <tag k="addr:city" v="Mosonmagyaróvár"/>
    <tag k="addr:postcode" v="9200"/>
    <tag k="addr:street" v="1-es út"/>
    <tag k="phone" v="+3696216610"/>
    <tag k="website" v="https://www.omv.hu"/>
    <tag k="payment:cash" v="yes"/>
    <tag k="fuel:octane_95" v="yes"/>
    <tag k="payment:debit_cards" v="yes"/>
    <tag k="amenity" v="fuel"/>
    <tag k="fuel:diesel" v="yes"/>
    <tag k="brand" v="OMV"/>
    <tag k="operator" v="OMV Hungária Kft."/>
  </way>
  <node action="modify" changeset="1" id="448022928" lat="47.5033" lon="18.5502" timestamp="1523386714000000000" uid="4579407" user="KAMI" version="8">
    <tag k="name" v="OMV"/>
    <tag k="addr:city" v="Óbarok"/>
    <tag k="addr:postcode" v="2063"/>
    <tag k="phone" v="+3622704474"/>
    <tag k="website" v="https://www.omv.hu"/>
    <tag k="payment:cash" v="yes"/>
    <tag k="fuel:octane_95" v="yes"/>
    <tag k="payment:debit_cards" v="yes"/>
    <tag k="amenity" v="fuel"/>
    <tag k="fuel:diesel" v="yes"/>
    <tag k="brand" v="OMV"/>
    <tag k="operator" v="OMV Hungária Kft."/>
  </node>
  <way action="modify" changeset="1" id="554635819" timestamp="1516534054000000000" uid="4579407" user="KAMI" version="1">
    <nd ref="5352450171"/>
    <nd ref="5352450172"/>
    <nd ref="5352450173"/>
    <nd ref="5352450174"/>
    <nd ref="5352450175"/>
    <nd ref="5352450171"/>
    <tag k="name" v="OMV"/>
    <tag k="addr:city" v="Kőszeg"/>
    <tag k="addr:postcode" v="9730"/>
    <tag k="addr:street" v="Szombathelyi út"/>
    <tag k="addr:housenumber" v="2"/>
    <tag k="phone" v="+3694563116"/>
    <tag k="website" v="https://www.omv.hu"/>
    <tag k="payment:cash" v="yes"/>
    <tag k="fuel:octane_95" v="yes"/>
    <tag k="payment:debit_cards" v="yes"/>
    <tag k="amenity" v="fuel"/>
    <tag k="fuel:diesel" v="yes"/>
    <tag k="brand" v="OMV"/>
    <tag k="operator" v="OMV Hungária Kft."/>
  </way>
  <node action="modify" changeset="1" id="1280807088" lat="46.6838" lon="21.0864" timestamp="1481033935000000000" uid="4579407" user="KAMI" version="7">
    <tag k="name" v="OMV"/>
    <tag k="addr:city" v="Békéscsaba"/>
    <tag k="addr:postcode" v="5600"/>
    <tag k="addr:street" v="Szarvasi út"/>
    <tag k="addr:housenumber" v="16-18"/>
    <tag k="phone" v="+3666440455"/>
    <tag k="website" v="https://www.omv.hu"/>
    <tag k="payment:cash" v="yes"/>
    <tag k="fuel:octane_95" v="yes"/>
    <tag k="payment:debit_cards" v="yes"/>
    <tag k="amenity" v="fuel"/>
    <tag k="fuel:diesel" v="yes"/>
    <tag k="brand" v="OMV"/>
    <tag k="operator" v="OMV Hungária Kft."/>
  </node>
  <node action="modify" changeset="1" id="257085123" lat="47.585" lon="18.99843" timestamp="1498295119000000000" uid="4579407" user="KAMI" version="7">
    <tag k="name" v="OMV"/>
    <tag k="addr:city" v="Üröm"/>
    <tag k="addr:postcode" v="2096"/>
    <tag k="addr:street" v="Bécsi utca"/>
    <tag k="addr:housenumber" v="2"/>
    <tag k="phone" v="+3626550080"/>
    <tag k="website" v="https://www.omv.hu"/>
    <tag k="payment:cash" v="yes"/>
    <tag k="fuel:octane_95" v="yes"/>
    <tag k="payment:debit_cards" v="yes"/>
    <tag k="amenity" v="fuel"/>
    <tag k="fuel:diesel" v="yes"/>
    <tag k="brand" v="OMV"/>
    <tag k="operator" v="OMV Hungária Kft."/>
  </node>
  <way action="modify" changeset="1" id="202802511" timestamp="1505470080000000000" uid="4579407" user="KAMI" version="8">
    <nd ref="2127433111"/>
    <nd ref="2127433098"/>
    <nd ref="2127433068"/>
    <nd ref="2127433028"/>
    <nd ref="2127433111"/>
    <tag k="name" v="OMV"/>
    <tag k="addr:city" v="Győr"/>
    <tag k="addr:postcode" v="9024"/>
    <tag k="addr:street" v="Pápai út"/>
    <tag k="addr:housenumber" v="771"/>
    <tag k="phone" v="+3696519575"/>
    <tag k="website" v="https://www.omv.hu"/>
    <tag k="payment:cash" v="yes"/>
    <tag k="fuel:octane_95" v="yes"/>
    <tag k="payment:debit_cards" v="yes"/>
    <tag k="amenity" v="fuel"/>
    <tag k="fuel:diesel" v="yes"/>
    <tag k="brand" v="OMV"/>
    <tag k="operator" v="OMV Hungária Kft."/>
  </way>
  <way action="modify" changeset="1" id="377458191" timestamp="1460753601000000000" uid="4579407" user="KAMI" version="3">
    <nd ref="3808308546"/>
    <nd ref="3808308547"/>
    <nd ref="3808308548"/>
    <nd ref="3808308549"/>
    <nd ref="3808308546"/>
    <tag k="name" v="OMV"/>
    <tag k="addr:city" v="Budapest"/>
    <tag k="addr:postcode" v="1118"/>
    <tag k="addr:street" v="Budaőrsi út"/>
    <tag k="addr:housenumber" v="112"/>
    <tag k="phone" v="+36"/>
    <tag k="website" v="https://www.omv.hu"/>
    <tag k="payment:cash" v="yes"/>
    <tag k="fuel:octane_95" v="yes"/>
    <tag k="payment:debit_cards" v="yes"/>
    <tag k="amenity" v="fuel"/>
    <tag k="fuel:diesel" v="yes"/>
    <tag k="brand" v="OMV"/>
    <tag k="operator" v="OMV Hungária Kft."/>
  </way>
  <way action="modify" changeset="1" id="288017078" timestamp="1520072446000000000" uid="4579407" user="KAMI" version="8">
    <nd ref="1308268211"/>
    <nd ref="2915701165"/>
    <nd ref="2915694602"/>
    <nd ref="2915694603"/>
    <nd ref="2915694604"/>
    <nd ref="1308268211"/>
    <tag k="name" v="OMV"/>
    <tag k="addr:city" v="Szigetszentmiklós"/>
    <tag k="addr:postcode" v="2310"/>
    <tag k="phone" v="+3624539560"/>
    <tag k="website" v="https://www.omv.hu"/>
    <tag k="payment:cash" v="yes"/>
    <tag k="fuel:octane_95" v="yes"/>
    <tag k="payment:debit_cards" v="yes"/>
    <tag k="amenity" v="fuel"/>
    <tag k="fuel:diesel" v="yes"/>
    <tag k="brand" v="OMV"/>
    <tag k="operator" v="OMV Hungária Kft."/>
  </way>
  <node action="modify" changeset="1" id="411545718" lat="46.2653" lon="20.1185" timestamp="1511687610000000000" uid="4579407" user="KAMI" version="7">
    <tag k="name" v="OMV"/>
    <tag k="addr:city" v="Szeged"/>
    <tag k="addr:postcode" v="6728"/>
    <tag k="addr:street" v="Dorozsmai út"/>
    <tag k="addr:housenumber" v="1"/>
    <tag k="phone" v="+3662488426"/>
    <tag k="website" v="https://www.omv.hu"/>
    <tag k="payment:cash" v="yes"/>
    <tag k="fuel:octane_95" v="yes"/>
    <tag k="payment:debit_cards" v="yes"/>
    <tag k="amenity" v="fuel"/>
    <tag k="fuel:diesel" v="yes"/>
    <tag k="brand" v="OMV"/>
    <tag k="operator" v="OMV Hungária Kft."/>
  </node>
  <node action="modify" changeset="1" id="367209628" lat="47.6765" lon="16.5966" timestamp="1448874061000000000" uid="4579407" user="KAMI" version="9">
    <tag k="name" v="OMV"/>
    <tag k="addr:city" v="Sopron"/>
    <tag k="addr:postcode" v="9400"/>
    <tag k="addr:street" v="Csengeri út"/>
    <tag k="addr:housenumber" v="93"/>
    <tag k="phone" v="+3699508937"/>
    <tag k="website" v="https://www.omv.hu"/>
    <tag k="payment:cash" v="yes"/>
    <tag k="fuel:octane_95" v="yes"/>
    <tag k="payment:debit_cards" v="yes"/>
    <tag k="amenity" v="fuel"/>
    <tag k="fuel:diesel" v="yes"/>
    <tag k="brand" v="OMV"/>
    <tag k="operator" v="OMV Hungária Kft."/>
  </node>
  <way action="modify" changeset="1" id="120135962" timestamp="1495275620000000000" uid="4579407" user="KAMI" version="6">
    <nd ref="1347735872"/>
    <nd ref="1347735853"/>
    <nd ref="1347735850"/>
    <nd ref="1347735849"/>
    <nd ref="1347735872"/>
    <tag k="name" v="OMV"/>
    <tag k="addr:city" v="Budapest"/>
    <tag k="addr:postcode" v="1152"/>
    <tag k="addr:street" v="Széchenyi tér"/>
    <tag k="addr:housenumber" v="1"/>
    <tag k="phone" v="+36"/>
    <tag k="website" v="https://www.omv.hu"/>
    <tag k="payment:cash" v="yes"/>
    <tag k="fuel:octane_95" v="yes"/>
    <tag k="payment:debit_cards" v="yes"/>
    <tag k="amenity" v="fuel"/>
    <tag k="fuel:diesel" v="yes"/>
    <tag k="brand" v="OMV"/>
    <tag k="operator" v="OMV Hungária Kft."/>
  </way>
  <node action="modify" changeset="1" id="273122191" lat="47.06859" lon="18.03728" timestamp="1448060578000000000" uid="4579407" user="KAMI" version="6">
    <tag k="name" v="OMV"/>
    <tag k="addr:city" v="Balatonfűzfő"/>
    <tag k="addr:postcode" v="8175"/>
    <tag k="addr:street" v="Árpád út"/>
    <tag k="addr:housenumber" v="1"/>
    <tag k="phone" v="+3688586041"/>
    <tag k="website" v="https://www.omv.hu"/>
    <tag k="payment:cash" v="yes"/>
    <tag k="fuel:octane_95" v="yes"/>
    <tag k="payment:debit_cards" v="yes"/>
    <tag k="amenity" v="fuel"/>
    <tag k="fuel:diesel" v="yes"/>
    <tag k="brand" v="OMV"/>
    <tag k="operator" v="OMV Hungária Kft."/>
  </node>
  <node action="modify" changeset="1" id="2142438343" lat="46.77333" lon="21.12472" timestamp="1426409396000000000" uid="4579407" user="KAMI" version="5">
    <tag k="name" v="OMV"/>
    <tag k="addr:city" v="Békés"/>
    <tag k="addr:postcode" v="5630"/>
    <tag k="addr:street" v="Kossuth Lajos út"/>
    <tag k="addr:housenumber" v="4"/>
    <tag k="phone" v="+3666411849"/>
    <tag k="website" v="https://www.omv.hu"/>
    <tag k="payment:cash" v="yes"/>
    <tag k="fuel:octane_95" v="yes"/>
    <tag k="payment:debit_cards" v="yes"/>
    <tag k="amenity" v="fuel"/>
    <tag k="fuel:diesel" v="yes"/>
    <tag k="brand" v="OMV"/>
    <tag k="operator" v="OMV Hungária Kft."/>
  </node>
  <way action="modify" changeset="1" id="292332215" timestamp="1426409390000000000" uid="4579407" user="KAMI" version="5">
    <nd ref="2958879135"/>
    <nd ref="2958879140"/>
    <nd ref="2958879139"/>
    <nd ref="2958879138"/>
    <nd ref="2958879137"/>
    <nd ref="2958879136"/>
    <nd ref="2958879135"/>
    <tag k="name" v="OMV"/>
    <tag k="addr:city" v="Budapest"/>
    <tag k="addr:postcode" v="1086"/>
    <tag k="addr:street" v="Teleki tér"/>
    <tag k="phone" v="+36"/>
    <tag k="website" v="https://www.omv.hu"/>
    <tag k="payment:cash" v="yes"/>
    <tag k="fuel:octane_95" v="yes"/>
    <tag k="payment:debit_cards" v="yes"/>
    <tag k="amenity" v="fuel"/>
    <tag k="fuel:diesel" v="yes"/>
    <tag k="brand" v="OMV"/>
    <tag k="operator" v="OMV Hungária Kft."/>
  </way>
  <way action="modify" changeset="1" id="340026630" timestamp="1447838090000000000" uid="4579407" user="KAMI" version="3">
    <nd ref="3472331913"/>
    <nd ref="3493970250"/>
    <nd ref="3493970249"/>
    <nd ref="3493970248"/>
    <nd ref="3493970247"/>
    <nd ref="3493970246"/>
    <nd ref="3493970245"/>
    <nd ref="3493970244"/>
    <nd ref="3493970243"/>
    <nd ref="3472331914"/>
    <nd ref="3472331915"/>
    <nd ref="3472331916"/>
    <nd ref="3472331913"/>
    <tag k="name" v="OMV"/>
    <tag k="addr:city" v="Budapest"/>
    <tag k="addr:postcode" v="1107"/>
    <tag k="addr:street" v="Üllői utca"/>
    <tag k="addr:housenumber" v="110"/>
    <tag k="phone" v="+36"/>
    <tag k="website" v="https://www.omv.hu"/>
    <tag k="payment:cash" v="yes"/>
    <tag k="fuel:octane_95" v="yes"/>
    <tag k="payment:debit_cards" v="yes"/>
    <tag k="amenity" v="fuel"/>
    <tag k="fuel:diesel" v="yes"/>
    <tag k="brand" v="OMV"/>
    <tag k="operator" v="OMV Hungária Kft."/>
  </way>
  <node action="modify" changeset="1" id="3334248903" lat="46.96694" lon="18.93633" timestamp="1507147533000000000" uid="4579407" user="KAMI" version="5">
    <tag k="name" v="OMV"/>
    <tag k="addr:city" v="Dunaújváros"/>
    <tag k="addr:postcode" v="2400"/>
    <tag k="addr:street" v="Aranyvölgyi út"/>
    <tag k="phone" v="+3625410534"/>
    <tag k="website" v="https://www.omv.hu"/>
    <tag k="payment:cash" v="yes"/>
    <tag k="fuel:octane_95" v="yes"/>
    <tag k="payment:debit_cards" v="yes"/>
    <tag k="amenity" v="fuel"/>
    <tag k="fuel:diesel" v="yes"/>
    <tag k="brand" v="OMV"/>
    <tag k="operator" v="OMV Hungária Kft."/>
  </node>
  <node action="modify" changeset="1" id="923952240" lat="47.61617" lon="19.19758" timestamp="1503782144000000000" uid="4579407" user="KAMI" version="10">
    <tag k="name" v="OMV"/>
    <tag k="addr:city" v="Fót"/>
    <tag k="addr:postcode" v="2151"/>
    <tag k="addr:street" v="Szabó Dezső utca"/>
    <tag k="addr:housenumber" v="2/b"/>
    <tag k="phone" v="+3627358184"/>
    <tag k="website" v="https://www.omv.hu"/>
    <tag k="payment:cash" v="yes"/>
    <tag k="fuel:octane_95" v="yes"/>
    <tag k="payment:debit_cards" v="yes"/>
    <tag k="amenity" v="fuel"/>
    <tag k="fuel:diesel" v="yes"/>
    <tag k="brand" v="OMV"/>
    <tag k="operator" v="OMV Hungária Kft."/>
  </node>
  <way action="modify" changeset="1" id="333075858" timestamp="1426517785000000000" uid="4579407" user="KAMI" version="1">
    <nd ref="3401913309"/>
    <nd ref="3401913304"/>
    <nd ref="3401913306"/>
    <nd ref="3401913311"/>
    <nd ref="3401913309"/>
    <tag k="name" v="OMV"/>
    <tag k="addr:city" v="Hajdúszoboszló"/>
    <tag k="addr:postcode" v="4200"/>
    <tag k="addr:street" v="Hóvirág utca"/>
    <tag k="addr:housenumber" v="2"/>
    <tag k="phone" v="+3652360954"/>
    <tag k="website" v="https://www.omv.hu"/>
    <tag k="payment:cash" v="yes"/>
    <tag k="fuel:octane_95" v="yes"/>
    <tag k="payment:debit_cards" v="yes"/>
    <tag k="amenity" v="fuel"/>
    <tag k="fuel:diesel" v="yes"/>
    <tag k="brand" v="OMV"/>
    <tag k="operator" v="OMV Hungária Kft."/>
  </way>
  <node action="modify" changeset="1" id="1867219642" lat="46.4251" lon="20.338" timestamp="1426409396000000000" uid="4579407" user="KAMI" version="5">
    <tag k="name" v="OMV"/>
    <tag k="addr:city" v="Hódmezővásárhely"/>
    <tag k="addr:postcode" v="6800"/>
    <tag k="addr:street" v="Kutasi út"/>
    <tag k="addr:housenumber" v="17"/>
    <tag k="phone" v="+3662246710"/>
    <tag k="website" v="https://www.omv.hu"/>
    <tag k="payment:cash" v="yes"/>
    <tag k="fuel:octane_95" v="yes"/>
    <tag k="payment:debit_cards" v="yes"/>
    <tag k="amenity" v="fuel"/>
    <tag k="fuel:diesel" v="yes"/>
    <tag k="brand" v="OMV"/>
    <tag k="operator" v="OMV Hungária Kft."/>
  </node>
  <way action="modify" changeset="1" id="189422646" timestamp="1521017689000000000" uid="4579407" user="KAMI" version="3">
    <nd ref="2000455108"/>
    <nd ref="2000455103"/>
    <nd ref="2000455097"/>
    <nd ref="2000455131"/>
    <nd ref="2000455134"/>
    <nd ref="2000455090"/>
    <nd ref="2000455108"/>
    <tag k="name" v="OMV"/>
    <tag k="addr:city" v="Veszprém"/>
    <tag k="addr:postcode" v="8200"/>
    <tag k="addr:street" v="Külső - Kádártai utca"/>
    <tag k="addr:housenumber" v="2"/>
    <tag k="phone" v="+3688428900"/>
    <tag k="website" v="https://www.omv.hu"/>
    <tag k="payment:cash" v="yes"/>
    <tag k="fuel:octane_95" v="yes"/>
    <tag k="payment:debit_cards" v="yes"/>
    <tag k="amenity" v="fuel"/>
    <tag k="fuel:diesel" v="yes"/>
    <tag k="brand" v="OMV"/>
    <tag k="operator" v="OMV Hungária Kft."/>
  </way>
  <way action="modify" changeset="1" id="207753265" timestamp="1426409387000000000" uid="4579407" user="KAMI" version="6">
    <nd ref="2180022076"/>
    <nd ref="2180022086"/>
    <nd ref="2180022070"/>
    <nd ref="2180022079"/>
    <nd ref="2180022076"/>
    <tag k="name" v="OMV"/>
    <tag k="addr:city" v="Zalaegerszeg"/>
    <tag k="addr:postcode" v="8900"/>
    <tag k="addr:street" v="Göcseji utca"/>
    <tag k="addr:housenumber" v="26"/>
    <tag k="phone" v="+3692510160"/>
    <tag k="website" v="https://www.omv.hu"/>
    <tag k="payment:cash" v="yes"/>
    <tag k="fuel:octane_95" v="yes"/>
    <tag k="payment:debit_cards" v="yes"/>
    <tag k="amenity" v="fuel"/>
    <tag k="fuel:diesel" v="yes"/>
    <tag k="brand" v="OMV"/>
    <tag k="operator" v="OMV Hungária Kft."/>
  </way>
  <node action="modify" changeset="1" id="385477657" lat="47.68203" lon="17.97982" timestamp="1426409413000000000" uid="4579407" user="KAMI" version="6">
    <tag k="name" v="OMV"/>
    <tag k="addr:city" v="Bábolna"/>
    <tag k="addr:postcode" v="2941"/>
    <tag k="addr:street" v="M1 autópálya"/>
    <tag k="addr:housenumber" v="93"/>
    <tag k="phone" v="+3634385992"/>
    <tag k="website" v="https://www.omv.hu"/>
    <tag k="payment:cash" v="yes"/>
    <tag k="fuel:octane_95" v="yes"/>
    <tag k="payment:debit_cards" v="yes"/>
    <tag k="amenity" v="fuel"/>
    <tag k="fuel:diesel" v="yes"/>
    <tag k="brand" v="OMV"/>
    <tag k="operator" v="OMV Hungária Kft."/>
  </node>
  <node action="modify" changeset="1" id="4940561035" lat="47.53493" lon="19.18064" timestamp="2017-08-09 21:00:03+02:00" uid="4579407" user="KAMI" version="2">
    <tag k="name" v="OMV"/>
    <tag k="addr:city" v="Budapest"/>
    <tag k="addr:postcode" v="1162"/>
    <tag k="addr:street" v="Szlovák út - Csömöri út sarok"/>
    <tag k="phone" v="+36"/>
    <tag k="website" v="https://www.omv.hu"/>
    <tag k="payment:cash" v="yes"/>
    <tag k="fuel:octane_95" v="yes"/>
    <tag k="payment:debit_cards" v="yes"/>
    <tag k="amenity" v="fuel"/>
    <tag k="fuel:diesel" v="yes"/>
    <tag k="brand" v="OMV"/>
    <tag k="operator" v="OMV Hungária Kft."/>
  </node>
  <node action="modify" changeset="1" id="1167986244" lat="47.49" lon="19.1506" timestamp="1477605039000000000" uid="4579407" user="KAMI" version="5">
    <tag k="name" v="OMV"/>
    <tag k="addr:city" v="Budapest"/>
    <tag k="addr:postcode" v="1106"/>
    <tag k="addr:street" v="Maglódi út - Jászberényi út sarok"/>
    <tag k="phone" v="+36"/>
    <tag k="website" v="https://www.omv.hu"/>
    <tag k="payment:cash" v="yes"/>
    <tag k="fuel:octane_95" v="yes"/>
    <tag k="payment:debit_cards" v="yes"/>
    <tag k="amenity" v="fuel"/>
    <tag k="fuel:diesel" v="yes"/>
    <tag k="brand" v="OMV"/>
    <tag k="operator" v="OMV Hungária Kft."/>
  </node>
  <node action="modify" changeset="1" id="268800768" lat="47.4741" lon="19.05421" timestamp="1522162882000000000" uid="4579407" user="KAMI" version="9">
    <tag k="name" v="OMV"/>
    <tag k="addr:city" v="Budapest"/>
    <tag k="addr:postcode" v="1117"/>
    <tag k="addr:street" v="Irinyi utca"/>
    <tag k="addr:housenumber" v="34-36"/>
    <tag k="phone" v="+3613610354"/>
    <tag k="website" v="https://www.omv.hu"/>
    <tag k="payment:cash" v="yes"/>
    <tag k="fuel:octane_95" v="yes"/>
    <tag k="payment:debit_cards" v="yes"/>
    <tag k="amenity" v="fuel"/>
    <tag k="fuel:diesel" v="yes"/>
    <tag k="brand" v="OMV"/>
    <tag k="operator" v="OMV Hungária Kft."/>
  </node>
  <way action="modify" changeset="1" id="551275066" timestamp="1518965870000000000" uid="4579407" user="KAMI" version="3">
    <nd ref="5323896921"/>
    <nd ref="5323896922"/>
    <nd ref="5323896923"/>
    <nd ref="5323896924"/>
    <nd ref="5323896921"/>
    <tag k="name" v="OMV"/>
    <tag k="addr:city" v="Budapest"/>
    <tag k="addr:postcode" v="1097"/>
    <tag k="addr:street" v="Határ utca"/>
    <tag k="phone" v="+36"/>
    <tag k="website" v="https://www.omv.hu"/>
    <tag k="payment:cash" v="yes"/>
    <tag k="fuel:octane_95" v="yes"/>
    <tag k="payment:debit_cards" v="yes"/>
    <tag k="amenity" v="fuel"/>
    <tag k="fuel:diesel" v="yes"/>
    <tag k="brand" v="OMV"/>
    <tag k="operator" v="OMV Hungária Kft."/>
  </way>
  <node action="modify" changeset="1" id="5300552677" lat="47.51012" lon="19.01121" timestamp="1514025545000000000" uid="4579407" user="KAMI" version="1">
    <tag k="name" v="OMV"/>
    <tag k="addr:city" v="Budapest"/>
    <tag k="addr:postcode" v="1026"/>
    <tag k="addr:street" v="Szilágyi Erzsébet fasor"/>
    <tag k="addr:housenumber" v="51"/>
    <tag k="phone" v="+36"/>
    <tag k="website" v="https://www.omv.hu"/>
    <tag k="payment:cash" v="yes"/>
    <tag k="fuel:octane_95" v="yes"/>
    <tag k="payment:debit_cards" v="yes"/>
    <tag k="amenity" v="fuel"/>
    <tag k="fuel:diesel" v="yes"/>
    <tag k="brand" v="OMV"/>
    <tag k="operator" v="OMV Hungária Kft."/>
  </node>
  <node action="modify" changeset="1" id="96928026" lat="47.5743" lon="19.0816" timestamp="1449168849000000000" uid="4579407" user="KAMI" version="13">
    <tag k="name" v="OMV"/>
    <tag k="addr:city" v="Budapest"/>
    <tag k="addr:postcode" v="1044"/>
    <tag k="addr:street" v="Váci út"/>
    <tag k="addr:housenumber" v="77"/>
    <tag k="phone" v="+36"/>
    <tag k="website" v="https://www.omv.hu"/>
    <tag k="payment:cash" v="yes"/>
    <tag k="fuel:octane_95" v="yes"/>
    <tag k="payment:debit_cards" v="yes"/>
    <tag k="amenity" v="fuel"/>
    <tag k="fuel:diesel" v="yes"/>
    <tag k="brand" v="OMV"/>
    <tag k="operator" v="OMV Hungária Kft."/>
  </node>
  <node action="modify" changeset="1" id="967969597" lat="47.4891" lon="19.0638" timestamp="1429732281000000000" uid="4579407" user="KAMI" version="9">
    <tag k="name" v="OMV"/>
    <tag k="addr:city" v="Budapest"/>
    <tag k="addr:postcode" v="1085"/>
    <tag k="addr:street" v="Baross utca"/>
    <tag k="phone" v="+36"/>
    <tag k="website" v="https://www.omv.hu"/>
    <tag k="payment:cash" v="yes"/>
    <tag k="fuel:octane_95" v="yes"/>
    <tag k="payment:debit_cards" v="yes"/>
    <tag k="amenity" v="fuel"/>
    <tag k="fuel:diesel" v="yes"/>
    <tag k="brand" v="OMV"/>
    <tag k="operator" v="OMV Hungária Kft."/>
  </node>
  <node action="modify" changeset="1" id="323173684" lat="47.3465" lon="19.118" timestamp="1503782144000000000" uid="4579407" user="KAMI" version="11">
    <tag k="name" v="OMV"/>
    <tag k="addr:city" v="Dunaharaszti"/>
    <tag k="addr:postcode" v="2330"/>
    <tag k="addr:street" v="51. sz. főút"/>
    <tag k="phone" v="+3624491774"/>
    <tag k="website" v="https://www.omv.hu"/>
    <tag k="payment:cash" v="yes"/>
    <tag k="fuel:octane_95" v="yes"/>
    <tag k="payment:debit_cards" v="yes"/>
    <tag k="amenity" v="fuel"/>
    <tag k="fuel:diesel" v="yes"/>
    <tag k="brand" v="OMV"/>
    <tag k="operator" v="OMV Hungária Kft."/>
  </node>
  <way action="modify" changeset="1" id="115707743" timestamp="1524232187000000000" uid="4579407" user="KAMI" version="9">
    <nd ref="1306491842"/>
    <nd ref="1306491882"/>
    <nd ref="1306491824"/>
    <nd ref="1306491889"/>
    <nd ref="1306491879"/>
    <nd ref="1306491854"/>
    <nd ref="1306491894"/>
    <nd ref="1306491868"/>
    <nd ref="1306491865"/>
    <nd ref="1306491829"/>
    <nd ref="1306491885"/>
    <nd ref="1306491859"/>
    <nd ref="1306491842"/>
    <tag k="name" v="OMV"/>
    <tag k="addr:city" v="Győr"/>
    <tag k="addr:postcode" v="9081"/>
    <tag k="addr:street" v="M1 autópálya"/>
    <tag k="addr:housenumber" v="119"/>
    <tag k="phone" v="+3696432700"/>
    <tag k="website" v="https://www.omv.hu"/>
    <tag k="payment:cash" v="yes"/>
    <tag k="fuel:octane_95" v="yes"/>
    <tag k="payment:debit_cards" v="yes"/>
    <tag k="amenity" v="fuel"/>
    <tag k="fuel:diesel" v="yes"/>
    <tag k="brand" v="OMV"/>
    <tag k="operator" v="OMV Hungária Kft."/>
  </way>
  <way action="modify" changeset="1" id="216248732" timestamp="1517083430000000000" uid="4579407" user="KAMI" version="3">
    <nd ref="2255977686"/>
    <nd ref="2255977706"/>
    <nd ref="2255977715"/>
    <nd ref="2255977691"/>
    <nd ref="2255977686"/>
    <tag k="name" v="OMV"/>
    <tag k="addr:city" v="Székesfehérvár"/>
    <tag k="addr:postcode" v="8000"/>
    <tag k="addr:street" v="Balatoni út"/>
    <tag k="addr:conscriptionnumber" v="6111"/>
    <tag k="phone" v="+3622328858"/>
    <tag k="website" v="https://www.omv.hu"/>
    <tag k="payment:cash" v="yes"/>
    <tag k="fuel:octane_95" v="yes"/>
    <tag k="payment:debit_cards" v="yes"/>
    <tag k="amenity" v="fuel"/>
    <tag k="fuel:diesel" v="yes"/>
    <tag k="brand" v="OMV"/>
    <tag k="operator" v="OMV Hungária Kft."/>
  </way>
  <way action="modify" changeset="1" id="192619193" timestamp="1469280389000000000" uid="4579407" user="KAMI" version="5">
    <nd ref="2031668670"/>
    <nd ref="2031668714"/>
    <nd ref="2031668725"/>
    <nd ref="2031668684"/>
    <nd ref="2031668688"/>
    <nd ref="2031668675"/>
    <nd ref="2031668696"/>
    <nd ref="2031668720"/>
    <nd ref="2031668676"/>
    <nd ref="2031668723"/>
    <nd ref="2031668670"/>
    <tag k="name" v="OMV"/>
    <tag k="addr:city" v="Veszprém"/>
    <tag k="addr:postcode" v="8200"/>
    <tag k="addr:street" v="Aradi Vértanúk út"/>
    <tag k="addr:housenumber" v="11"/>
    <tag k="phone" v="+3688404544"/>
    <tag k="website" v="https://www.omv.hu"/>
    <tag k="payment:cash" v="yes"/>
    <tag k="fuel:octane_95" v="yes"/>
    <tag k="payment:debit_cards" v="yes"/>
    <tag k="amenity" v="fuel"/>
    <tag k="fuel:diesel" v="yes"/>
    <tag k="brand" v="OMV"/>
    <tag k="operator" v="OMV Hungária Kft."/>
  </way>
  <node action="modify" changeset="99999" id="-78" lat="47.51265" lon="19.03766" timestamp="" uid="4579407" user="KAMI" version="99999">
    <tag k="name" v="OMV"/>
    <tag k="addr:city" v="Budapest"/>
    <tag k="addr:postcode" v="1027"/>
    <tag k="addr:street" v="Tölgyfa utca"/>
    <tag k="addr:housenumber" v="1-3"/>
    <tag k="website" v="https://www.omv.hu"/>
    <tag k="payment:cash" v="yes"/>
    <tag k="fuel:octane_95" v="yes"/>
    <tag k="payment:debit_cards" v="yes"/>
    <tag k="amenity" v="fuel"/>
    <tag k="fuel:diesel" v="yes"/>
    <tag k="brand" v="OMV"/>
    <tag k="operator" v="OMV Hungária Kft."/>
  </node>
  <way action="modify" changeset="1" id="294870922" timestamp="1528055269000000000" uid="4579407" user="KAMI" version="7">
    <nd ref="2984925477"/>
    <nd ref="2984925472"/>
    <nd ref="2984925471"/>
    <nd ref="2984925470"/>
    <nd ref="2984925469"/>
    <nd ref="2984925467"/>
    <nd ref="2984925466"/>
    <nd ref="2984925465"/>
    <nd ref="2984925464"/>
    <nd ref="2984925478"/>
    <nd ref="2984925479"/>
    <nd ref="2984925475"/>
    <nd ref="2984925476"/>
    <nd ref="2984925474"/>
    <nd ref="2984925477"/>
    <tag k="name" v="OMV"/>
    <tag k="addr:city" v="Körmend"/>
    <tag k="addr:postcode" v="9900"/>
    <tag k="addr:street" v="Rákóczi utca"/>
    <tag k="addr:conscriptionnumber" v="307/1"/>
    <tag k="phone" v="+3694410629"/>
    <tag k="website" v="https://www.omv.hu"/>
    <tag k="payment:cash" v="yes"/>
    <tag k="fuel:octane_95" v="yes"/>
    <tag k="payment:debit_cards" v="yes"/>
    <tag k="amenity" v="fuel"/>
    <tag k="fuel:diesel" v="yes"/>
    <tag k="brand" v="OMV"/>
    <tag k="operator" v="OMV Hungária Kft."/>
  </way>
  <node action="modify" changeset="1" id="3334249204" lat="47.50213" lon="18.04522" timestamp="1503782144000000000" uid="4579407" user="KAMI" version="4">
    <tag k="name" v="OMV"/>
    <tag k="addr:city" v="Kisbér"/>
    <tag k="addr:postcode" v="2870"/>
    <tag k="phone" v="+3634352513"/>
    <tag k="website" v="https://www.omv.hu"/>
    <tag k="payment:cash" v="yes"/>
    <tag k="fuel:octane_95" v="yes"/>
    <tag k="payment:debit_cards" v="yes"/>
    <tag k="amenity" v="fuel"/>
    <tag k="fuel:diesel" v="yes"/>
    <tag k="brand" v="OMV"/>
    <tag k="operator" v="OMV Hungária Kft."/>
  </node>
  <node action="modify" changeset="1" id="750858384" lat="47.19274" lon="20.17372" timestamp="1426409399000000000" uid="4579407" user="KAMI" version="3">
    <tag k="name" v="OMV"/>
    <tag k="addr:city" v="Szolnok"/>
    <tag k="addr:postcode" v="5000"/>
    <tag k="addr:street" v="Thököly út"/>
    <tag k="addr:housenumber" v="91"/>
    <tag k="phone" v="+3656422040"/>
    <tag k="website" v="https://www.omv.hu"/>
    <tag k="payment:cash" v="yes"/>
    <tag k="fuel:octane_95" v="yes"/>
    <tag k="payment:debit_cards" v="yes"/>
    <tag k="amenity" v="fuel"/>
    <tag k="fuel:diesel" v="yes"/>
    <tag k="brand" v="OMV"/>
    <tag k="operator" v="OMV Hungária Kft."/>
  </node>
  <way action="modify" changeset="1" id="295640766" timestamp="1447837325000000000" uid="4579407" user="KAMI" version="7">
    <nd ref="2887590687"/>
    <nd ref="2887590686"/>
    <nd ref="2887590681"/>
    <nd ref="2887590682"/>
    <nd ref="2887590676"/>
    <nd ref="2887590678"/>
    <nd ref="2887590684"/>
    <nd ref="2887590685"/>
    <nd ref="2887590687"/>
    <tag k="name" v="OMV"/>
    <tag k="addr:city" v="Érd"/>
    <tag k="addr:postcode" v="2030"/>
    <tag k="addr:street" v="6. sz. főút"/>
    <tag k="phone" v="+3623368811"/>
    <tag k="website" v="https://www.omv.hu"/>
    <tag k="payment:cash" v="yes"/>
    <tag k="fuel:octane_95" v="yes"/>
    <tag k="payment:debit_cards" v="yes"/>
    <tag k="amenity" v="fuel"/>
    <tag k="fuel:diesel" v="yes"/>
    <tag k="brand" v="OMV"/>
    <tag k="operator" v="OMV Hungária Kft."/>
  </way>
  <way action="modify" changeset="1" id="103434053" timestamp="1456417048000000000" uid="4579407" user="KAMI" version="5">
    <nd ref="1194331584"/>
    <nd ref="1194331480"/>
    <nd ref="1194331571"/>
    <nd ref="1194331443"/>
    <nd ref="1194331584"/>
    <tag k="name" v="OMV"/>
    <tag k="addr:city" v="Tatabánya"/>
    <tag k="addr:postcode" v="2800"/>
    <tag k="addr:street" v="Károlyi út - Ságvári út"/>
    <tag k="addr:housenumber" v="4"/>
    <tag k="phone" v="+3634317959"/>
    <tag k="website" v="https://www.omv.hu"/>
    <tag k="payment:cash" v="yes"/>
    <tag k="fuel:octane_95" v="yes"/>
    <tag k="payment:debit_cards" v="yes"/>
    <tag k="amenity" v="fuel"/>
    <tag k="fuel:diesel" v="yes"/>
    <tag k="brand" v="OMV"/>
    <tag k="operator" v="OMV Hungária Kft."/>
  </way>
  <way action="modify" changeset="1" id="112739264" timestamp="1426409386000000000" uid="4579407" user="KAMI" version="5">
    <nd ref="1280790320"/>
    <nd ref="1280790343"/>
    <nd ref="1280790337"/>
    <nd ref="1280790342"/>
    <nd ref="1280790320"/>
    <tag k="name" v="OMV"/>
    <tag k="addr:city" v="Békéscsaba"/>
    <tag k="addr:postcode" v="5600"/>
    <tag k="addr:street" v="Szarvasi út"/>
    <tag k="addr:housenumber" v="103"/>
    <tag k="phone" v="+3666451045"/>
    <tag k="website" v="https://www.omv.hu"/>
    <tag k="payment:cash" v="yes"/>
    <tag k="fuel:octane_95" v="yes"/>
    <tag k="payment:debit_cards" v="yes"/>
    <tag k="amenity" v="fuel"/>
    <tag k="fuel:diesel" v="yes"/>
    <tag k="brand" v="OMV"/>
    <tag k="operator" v="OMV Hungária Kft."/>
  </way>
  <way action="modify" changeset="1" id="551397616" timestamp="1515315788000000000" uid="4579407" user="KAMI" version="1">
    <nd ref="5325152547"/>
    <nd ref="5325152549"/>
    <nd ref="5325152548"/>
    <nd ref="5325152544"/>
    <nd ref="5325152545"/>
    <nd ref="5325152546"/>
    <nd ref="5325152547"/>
    <tag k="name" v="OMV"/>
    <tag k="addr:city" v="Budapest"/>
    <tag k="addr:postcode" v="1202"/>
    <tag k="addr:street" v="Nagykőrösi út"/>
    <tag k="addr:housenumber" v="185"/>
    <tag k="phone" v="+36"/>
    <tag k="website" v="https://www.omv.hu"/>
    <tag k="payment:cash" v="yes"/>
    <tag k="fuel:octane_95" v="yes"/>
    <tag k="payment:debit_cards" v="yes"/>
    <tag k="amenity" v="fuel"/>
    <tag k="fuel:diesel" v="yes"/>
    <tag k="brand" v="OMV"/>
    <tag k="operator" v="OMV Hungária Kft."/>
  </way>
  <node action="modify" changeset="99999" id="-86" lat="47.89033" lon="20.37957" timestamp="" uid="4579407" user="KAMI" version="99999">
    <tag k="name" v="OMV"/>
    <tag k="addr:city" v="Eger"/>
    <tag k="addr:postcode" v="3300"/>
    <tag k="addr:street" v="Mátyás király utca"/>
    <tag k="addr:housenumber" v="2"/>
    <tag k="phone" v="+3636411544"/>
    <tag k="website" v="https://www.omv.hu"/>
    <tag k="payment:cash" v="yes"/>
    <tag k="fuel:octane_95" v="yes"/>
    <tag k="payment:debit_cards" v="yes"/>
    <tag k="amenity" v="fuel"/>
    <tag k="fuel:diesel" v="yes"/>
    <tag k="brand" v="OMV"/>
    <tag k="operator" v="OMV Hungária Kft."/>
  </node>
  <node action="modify" changeset="1" id="132822014" lat="47.5384" lon="19.0698" timestamp="1451668035000000000" uid="4579407" user="KAMI" version="9">
    <tag k="name" v="OMV"/>
    <tag k="addr:city" v="Budapest"/>
    <tag k="addr:postcode" v="1139"/>
    <tag k="addr:street" v="Váci út"/>
    <tag k="addr:housenumber" v="95"/>
    <tag k="phone" v="+36"/>
    <tag k="website" v="https://www.omv.hu"/>
    <tag k="payment:cash" v="yes"/>
    <tag k="fuel:octane_95" v="yes"/>
    <tag k="payment:debit_cards" v="yes"/>
    <tag k="amenity" v="fuel"/>
    <tag k="fuel:diesel" v="yes"/>
    <tag k="brand" v="OMV"/>
    <tag k="operator" v="OMV Hungária Kft."/>
  </node>
  <node action="modify" changeset="1" id="385477577" lat="47.6805" lon="17.97597" timestamp="1426409412000000000" uid="4579407" user="KAMI" version="5">
    <tag k="name" v="OMV"/>
    <tag k="addr:city" v="Bábolna"/>
    <tag k="addr:postcode" v="2941"/>
    <tag k="addr:street" v="M1 autópálya"/>
    <tag k="addr:housenumber" v="39"/>
    <tag k="phone" v="+3634385589"/>
    <tag k="website" v="https://www.omv.hu"/>
    <tag k="payment:cash" v="yes"/>
    <tag k="fuel:octane_95" v="yes"/>
    <tag k="payment:debit_cards" v="yes"/>
    <tag k="amenity" v="fuel"/>
    <tag k="fuel:diesel" v="yes"/>
    <tag k="brand" v="OMV"/>
    <tag k="operator" v="OMV Hungária Kft."/>
  </node>
  <node action="modify" changeset="1" id="448315183" lat="47.713" lon="20.00271" timestamp="1489926211000000000" uid="4579407" user="KAMI" version="6">
    <tag k="name" v="OMV"/>
    <tag k="addr:city" v="Karácsond"/>
    <tag k="addr:postcode" v="3281"/>
    <tag k="addr:street" v="M3 autópálya"/>
    <tag k="addr:housenumber" v="82"/>
    <tag k="phone" v="+3637701210"/>
    <tag k="website" v="https://www.omv.hu"/>
    <tag k="payment:cash" v="yes"/>
    <tag k="fuel:octane_95" v="yes"/>
    <tag k="payment:debit_cards" v="yes"/>
    <tag k="amenity" v="fuel"/>
    <tag k="fuel:diesel" v="yes"/>
    <tag k="brand" v="OMV"/>
    <tag k="operator" v="OMV Hungária Kft."/>
  </node>
  <node action="modify" changeset="1" id="311315280" lat="47.1904" lon="18.4207" timestamp="1448132130000000000" uid="4579407" user="KAMI" version="10">
    <tag k="name" v="OMV"/>
    <tag k="addr:city" v="Székesfehérvár"/>
    <tag k="addr:postcode" v="8000"/>
    <tag k="addr:street" v="Lövölde utca"/>
    <tag k="phone" v="+3622310750"/>
    <tag k="website" v="https://www.omv.hu"/>
    <tag k="payment:cash" v="yes"/>
    <tag k="fuel:octane_95" v="yes"/>
    <tag k="payment:debit_cards" v="yes"/>
    <tag k="amenity" v="fuel"/>
    <tag k="fuel:diesel" v="yes"/>
    <tag k="brand" v="OMV"/>
    <tag k="operator" v="OMV Hungária Kft."/>
  </node>
  <way action="modify" changeset="1" id="448957342" timestamp="1506167988000000000" uid="4579407" user="KAMI" version="3">
    <nd ref="4459254988"/>
    <nd ref="4942113413"/>
    <nd ref="4942113412"/>
    <nd ref="4459257090"/>
    <nd ref="4459257089"/>
    <nd ref="4459254988"/>
    <tag k="name" v="OMV"/>
    <tag k="addr:city" v="Kecskemét"/>
    <tag k="addr:postcode" v="6000"/>
    <tag k="addr:street" v="Dunaföldvári út"/>
    <tag k="addr:housenumber" v="4"/>
    <tag k="phone" v="+3676494688"/>
    <tag k="website" v="https://www.omv.hu"/>
    <tag k="payment:cash" v="yes"/>
    <tag k="fuel:octane_95" v="yes"/>
    <tag k="payment:debit_cards" v="yes"/>
    <tag k="amenity" v="fuel"/>
    <tag k="fuel:diesel" v="yes"/>
    <tag k="brand" v="OMV"/>
    <tag k="operator" v="OMV Hungária Kft."/>
  </way>
  <node action="modify" changeset="1" id="448084147" lat="47.2738" lon="19.3298" timestamp="1426409401000000000" uid="4579407" user="KAMI" version="6">
    <tag k="name" v="OMV"/>
    <tag k="addr:city" v="Iinárcs"/>
    <tag k="addr:postcode" v="2365"/>
    <tag k="addr:street" v="M5 autópálya"/>
    <tag k="addr:housenumber" v="82"/>
    <tag k="phone" v="+3629370697"/>
    <tag k="website" v="https://www.omv.hu"/>
    <tag k="payment:cash" v="yes"/>
    <tag k="fuel:octane_95" v="yes"/>
    <tag k="payment:debit_cards" v="yes"/>
    <tag k="amenity" v="fuel"/>
    <tag k="fuel:diesel" v="yes"/>
    <tag k="brand" v="OMV"/>
    <tag k="operator" v="OMV Hungária Kft."/>
  </node>
  <way action="modify" changeset="1" id="278121445" timestamp="1489415439000000000" uid="4579407" user="KAMI" version="8">
    <nd ref="2825517402"/>
    <nd ref="2825517399"/>
    <nd ref="2825517404"/>
    <nd ref="2825517403"/>
    <nd ref="2825517394"/>
    <nd ref="2825517395"/>
    <nd ref="2825517396"/>
    <nd ref="2825517397"/>
    <nd ref="2825517402"/>
    <tag k="name" v="OMV"/>
    <tag k="addr:city" v="M0 Körgyűrű 6 Km"/>
    <tag k="addr:postcode" v="2045"/>
    <tag k="phone" v="+3623339920"/>
    <tag k="website" v="https://www.omv.hu"/>
    <tag k="payment:cash" v="yes"/>
    <tag k="fuel:octane_95" v="yes"/>
    <tag k="payment:debit_cards" v="yes"/>
    <tag k="amenity" v="fuel"/>
    <tag k="fuel:diesel" v="yes"/>
    <tag k="brand" v="OMV"/>
    <tag k="operator" v="OMV Hungária Kft."/>
  </way>
  <node action="modify" changeset="99999" id="-94" lat="47.50882" lon="19.10087" timestamp="" uid="4579407" user="KAMI" version="99999">
    <tag k="name" v="OMV"/>
    <tag k="addr:city" v="Budapest"/>
    <tag k="addr:postcode" v="1143"/>
    <tag k="addr:street" v="Hungária körút"/>
    <tag k="addr:housenumber" v="116-118"/>
    <tag k="phone" v="+36"/>
    <tag k="website" v="https://www.omv.hu"/>
    <tag k="payment:cash" v="yes"/>
    <tag k="fuel:octane_95" v="yes"/>
    <tag k="payment:debit_cards" v="yes"/>
    <tag k="amenity" v="fuel"/>
    <tag k="fuel:diesel" v="yes"/>
    <tag k="brand" v="OMV"/>
    <tag k="operator" v="OMV Hungária Kft."/>
  </node>
  <node action="modify" changeset="99999" id="-95" lat="47.46455" lon="19.01388" timestamp="" uid="4579407" user="KAMI" version="99999">
    <tag k="name" v="OMV"/>
    <tag k="addr:city" v="Budapest"/>
    <tag k="addr:postcode" v="1112"/>
    <tag k="addr:conscriptionnumber" v="756/17"/>
    <tag k="phone" v="+36"/>
    <tag k="website" v="https://www.omv.hu"/>
    <tag k="payment:cash" v="yes"/>
    <tag k="fuel:octane_95" v="yes"/>
    <tag k="payment:debit_cards" v="yes"/>
    <tag k="amenity" v="fuel"/>
    <tag k="fuel:diesel" v="yes"/>
    <tag k="brand" v="OMV"/>
    <tag k="operator" v="OMV Hungária Kft."/>
  </node>
  <node action="modify" changeset="1" id="658063134" lat="46.71348" lon="20.13382" timestamp="1508762542000000000" uid="4579407" user="KAMI" version="3">
    <tag k="name" v="OMV"/>
    <tag k="addr:city" v="Csongrád"/>
    <tag k="addr:postcode" v="6640"/>
    <tag k="addr:street" v="Fő utca"/>
    <tag k="addr:housenumber" v="65"/>
    <tag k="phone" v="+302256539"/>
    <tag k="website" v="https://www.omv.hu"/>
    <tag k="payment:cash" v="yes"/>
    <tag k="fuel:octane_95" v="yes"/>
    <tag k="payment:debit_cards" v="yes"/>
    <tag k="amenity" v="fuel"/>
    <tag k="fuel:diesel" v="yes"/>
    <tag k="brand" v="OMV"/>
    <tag k="operator" v="OMV Hungária Kft."/>
  </node>
  <node action="modify" changeset="1" id="3233047857" lat="48.1391" lon="20.77871" timestamp="1489412442000000000" uid="4579407" user="KAMI" version="2">
    <tag k="name" v="OMV"/>
    <tag k="addr:city" v="Szirmabesenyő"/>
    <tag k="addr:postcode" v="3711"/>
    <tag k="website" v="https://www.omv.hu"/>
    <tag k="payment:cash" v="yes"/>
    <tag k="fuel:octane_95" v="yes"/>
    <tag k="payment:debit_cards" v="yes"/>
    <tag k="amenity" v="fuel"/>
    <tag k="fuel:diesel" v="yes"/>
    <tag k="brand" v="OMV"/>
    <tag k="operator" v="OMV Hungária Kft."/>
  </node>
  <node action="modify" changeset="99999" id="-98" lat="46.52598" lon="20.19284" timestamp="" uid="4579407" user="KAMI" version="99999">
    <tag k="name" v="OMV"/>
    <tag k="addr:city" v="Mindszent"/>
    <tag k="addr:postcode" v="6630"/>
    <tag k="addr:street" v="Napkelet utca"/>
    <tag k="addr:housenumber" v="3/b"/>
    <tag k="phone" v="+302256551"/>
    <tag k="website" v="https://www.omv.hu"/>
    <tag k="payment:cash" v="yes"/>
    <tag k="fuel:octane_95" v="yes"/>
    <tag k="payment:debit_cards" v="yes"/>
    <tag k="amenity" v="fuel"/>
    <tag k="fuel:diesel" v="yes"/>
    <tag k="brand" v="OMV"/>
    <tag k="operator" v="OMV Hungária Kft."/>
  </node>
  <node action="modify" changeset="1" id="2672986325" lat="47.74106" lon="19.87001" timestamp="1511520638000000000" uid="4579407" user="KAMI" version="5">
    <tag k="name" v="OMV"/>
    <tag k="addr:city" v="Nagyréde"/>
    <tag k="addr:postcode" v="3214"/>
    <tag k="addr:conscriptionnumber" v="237/3"/>
    <tag k="website" v="https://www.omv.hu"/>
    <tag k="payment:cash" v="yes"/>
    <tag k="fuel:octane_95" v="yes"/>
    <tag k="payment:debit_cards" v="yes"/>
    <tag k="amenity" v="fuel"/>
    <tag k="fuel:diesel" v="yes"/>
    <tag k="brand" v="OMV"/>
    <tag k="operator" v="OMV Hungária Kft."/>
  </node>
  <node action="modify" changeset="1" id="1066143932" lat="46.67554" lon="19.82037" timestamp="1456220630000000000" uid="4579407" user="KAMI" version="3">
    <tag k="name" v="OMV"/>
    <tag k="addr:city" v="Kiskunfélegyháza"/>
    <tag k="addr:postcode" v="6100"/>
    <tag k="addr:conscriptionnumber" v="0465/28"/>
    <tag k="website" v="https://www.omv.hu"/>
    <tag k="payment:cash" v="yes"/>
    <tag k="fuel:octane_95" v="yes"/>
    <tag k="payment:debit_cards" v="yes"/>
    <tag k="amenity" v="fuel"/>
    <tag k="fuel:diesel" v="yes"/>
    <tag k="brand" v="OMV"/>
    <tag k="operator" v="OMV Hungária Kft."/>
  </node>
  <node action="modify" changeset="99999" id="-101" lat="47.19392" lon="19.81123" timestamp="" uid="4579407" user="KAMI" version="99999">
    <tag k="name" v="OMV"/>
    <tag k="addr:city" v="Cegléd"/>
    <tag k="addr:postcode" v="2700"/>
    <tag k="addr:street" v="Külső Jászberényi út"/>
    <tag k="addr:conscriptionnumber" v="0825/263"/>
    <tag k="website" v="https://www.omv.hu"/>
    <tag k="payment:cash" v="yes"/>
    <tag k="fuel:octane_95" v="yes"/>
    <tag k="payment:debit_cards" v="yes"/>
    <tag k="amenity" v="fuel"/>
    <tag k="fuel:diesel" v="yes"/>
    <tag k="brand" v="OMV"/>
    <tag k="operator" v="OMV Hungária Kft."/>
  </node>
  <node action="modify" changeset="99999" id="-102" lat="47.47372" lon="18.83273" timestamp="" uid="4579407" user="KAMI" version="99999">
    <tag k="name" v="OMV"/>
    <tag k="addr:city" v="Biatorbágy"/>
    <tag k="addr:postcode" v="2051"/>
    <tag k="addr:street" v="Kossuth Lajos utca"/>
    <tag k="addr:housenumber" v="1/a"/>
    <tag k="website" v="https://www.omv.hu"/>
    <tag k="payment:cash" v="yes"/>
    <tag k="fuel:octane_95" v="yes"/>
    <tag k="payment:debit_cards" v="yes"/>
    <tag k="amenity" v="fuel"/>
    <tag k="fuel:diesel" v="yes"/>
    <tag k="brand" v="OMV"/>
    <tag k="operator" v="OMV Hungária Kft."/>
  </node>
  <node action="modify" changeset="1" id="1328532087" lat="48.09976" lon="20.70295" timestamp="1510674839000000000" uid="4579407" user="KAMI" version="6">
    <tag k="name" v="OMV"/>
    <tag k="addr:city" v="Miskolc"/>
    <tag k="addr:postcode" v="3534"/>
    <tag k="addr:street" v="Kiss tábornok utca"/>
    <tag k="phone" v="+3646401680"/>
    <tag k="website" v="https://www.omv.hu"/>
    <tag k="payment:cash" v="yes"/>
    <tag k="fuel:octane_95" v="yes"/>
    <tag k="payment:debit_cards" v="yes"/>
    <tag k="amenity" v="fuel"/>
    <tag k="fuel:diesel" v="yes"/>
    <tag k="brand" v="OMV"/>
    <tag k="operator" v="OMV Hungária Kft."/>
  </node>
  <node action="modify" changeset="1" id="3508173133" lat="48.1056" lon="20.79011" timestamp="1448055624000000000" uid="4579407" user="KAMI" version="2">
    <tag k="name" v="OMV"/>
    <tag k="addr:city" v="Miskolc"/>
    <tag k="addr:postcode" v="3525"/>
    <tag k="addr:street" v="Búza tér"/>
    <tag k="addr:housenumber" v="16"/>
    <tag k="phone" v="+3646359816"/>
    <tag k="website" v="https://www.omv.hu"/>
    <tag k="payment:cash" v="yes"/>
    <tag k="fuel:octane_95" v="yes"/>
    <tag k="payment:debit_cards" v="yes"/>
    <tag k="amenity" v="fuel"/>
    <tag k="fuel:diesel" v="yes"/>
    <tag k="brand" v="OMV"/>
    <tag k="operator" v="OMV Hungária Kft."/>
  </node>
  <node action="modify" changeset="1" id="3334249618" lat="46.89754" lon="18.61419" timestamp="1447590271000000000" uid="4579407" user="KAMI" version="3">
    <tag k="name" v="OMV"/>
    <tag k="addr:city" v="Sárbogárd"/>
    <tag k="addr:postcode" v="7000"/>
    <tag k="addr:street" v="Ady Endre utca"/>
    <tag k="addr:housenumber" v="3"/>
    <tag k="phone" v="+3625460016"/>
    <tag k="website" v="https://www.omv.hu"/>
    <tag k="payment:cash" v="yes"/>
    <tag k="fuel:octane_95" v="yes"/>
    <tag k="payment:debit_cards" v="yes"/>
    <tag k="amenity" v="fuel"/>
    <tag k="fuel:diesel" v="yes"/>
    <tag k="brand" v="OMV"/>
    <tag k="operator" v="OMV Hungária Kft."/>
  </node>
  <node action="modify" changeset="1" id="1373723643" lat="47.7382" lon="18.1181" timestamp="1426409413000000000" uid="4579407" user="KAMI" version="4">
    <tag k="name" v="OMV"/>
    <tag k="addr:city" v="Komárom"/>
    <tag k="addr:postcode" v="2900"/>
    <tag k="addr:street" v="Igmándi út"/>
    <tag k="addr:housenumber" v="49"/>
    <tag k="phone" v="+3634340159"/>
    <tag k="website" v="https://www.omv.hu"/>
    <tag k="payment:cash" v="yes"/>
    <tag k="fuel:octane_95" v="yes"/>
    <tag k="payment:debit_cards" v="yes"/>
    <tag k="amenity" v="fuel"/>
    <tag k="fuel:diesel" v="yes"/>
    <tag k="brand" v="OMV"/>
    <tag k="operator" v="OMV Hungária Kft."/>
  </node>
  <node action="modify" changeset="1" id="472425121" lat="47.54172" lon="21.62032" timestamp="1500110405000000000" uid="4579407" user="KAMI" version="6">
    <tag k="name" v="OMV"/>
    <tag k="addr:city" v="Debrecen"/>
    <tag k="addr:postcode" v="4027"/>
    <tag k="addr:street" v="Füredi út"/>
    <tag k="addr:housenumber" v="27"/>
    <tag k="phone" v="+3652531134"/>
    <tag k="website" v="https://www.omv.hu"/>
    <tag k="payment:cash" v="yes"/>
    <tag k="fuel:octane_95" v="yes"/>
    <tag k="payment:debit_cards" v="yes"/>
    <tag k="amenity" v="fuel"/>
    <tag k="fuel:diesel" v="yes"/>
    <tag k="brand" v="OMV"/>
    <tag k="operator" v="OMV Hungária Kft."/>
  </node>
  <node action="modify" changeset="1" id="1119864311" lat="46.07996" lon="18.25613" timestamp="1426409395000000000" uid="4579407" user="KAMI" version="5">
    <tag k="name" v="OMV"/>
    <tag k="addr:city" v="Pécs"/>
    <tag k="addr:postcode" v="7630"/>
    <tag k="addr:street" v="Zsolnay út"/>
    <tag k="addr:housenumber" v="50"/>
    <tag k="phone" v="+3672212880"/>
    <tag k="website" v="https://www.omv.hu"/>
    <tag k="payment:cash" v="yes"/>
    <tag k="fuel:octane_95" v="yes"/>
    <tag k="payment:debit_cards" v="yes"/>
    <tag k="amenity" v="fuel"/>
    <tag k="fuel:diesel" v="yes"/>
    <tag k="brand" v="OMV"/>
    <tag k="operator" v="OMV Hungária Kft."/>
  </node>
  <node action="modify" changeset="1" id="315204012" lat="46.61892" lon="18.85815" timestamp="1447882734000000000" uid="4579407" user="KAMI" version="8">
    <tag k="name" v="OMV"/>
    <tag k="addr:city" v="Paks"/>
    <tag k="addr:postcode" v="7030"/>
    <tag k="addr:street" v="6. sz. főút"/>
    <tag k="phone" v="+3675310578"/>
    <tag k="website" v="https://www.omv.hu"/>
    <tag k="payment:cash" v="yes"/>
    <tag k="fuel:octane_95" v="yes"/>
    <tag k="payment:debit_cards" v="yes"/>
    <tag k="amenity" v="fuel"/>
    <tag k="fuel:diesel" v="yes"/>
    <tag k="brand" v="OMV"/>
    <tag k="operator" v="OMV Hungária Kft."/>
  </node>
  <node action="modify" changeset="1" id="309678506" lat="47.1968" lon="18.44401" timestamp="1446934185000000000" uid="4579407" user="KAMI" version="8">
    <tag k="name" v="OMV"/>
    <tag k="addr:city" v="Székesfehérvár"/>
    <tag k="addr:postcode" v="8000"/>
    <tag k="addr:street" v="Kadocsa út"/>
    <tag k="addr:housenumber" v="86"/>
    <tag k="phone" v="+3622500775"/>
    <tag k="website" v="https://www.omv.hu"/>
    <tag k="payment:cash" v="yes"/>
    <tag k="fuel:octane_95" v="yes"/>
    <tag k="payment:debit_cards" v="yes"/>
    <tag k="amenity" v="fuel"/>
    <tag k="fuel:diesel" v="yes"/>
    <tag k="brand" v="OMV"/>
    <tag k="operator" v="OMV Hungária Kft."/>
  </node>
  <way action="modify" changeset="1" id="327511573" timestamp="1518900712000000000" uid="4579407" user="KAMI" version="3">
    <nd ref="3342998153"/>
    <nd ref="3342998154"/>
    <nd ref="3342998155"/>
    <nd ref="3342998156"/>
    <nd ref="3342998153"/>
    <tag k="name" v="OMV"/>
    <tag k="addr:city" v="Kecskemét"/>
    <tag k="addr:postcode" v="6000"/>
    <tag k="addr:street" v="Budai út"/>
    <tag k="phone" v="+3676482243"/>
    <tag k="website" v="https://www.omv.hu"/>
    <tag k="payment:cash" v="yes"/>
    <tag k="fuel:octane_95" v="yes"/>
    <tag k="payment:debit_cards" v="yes"/>
    <tag k="amenity" v="fuel"/>
    <tag k="fuel:diesel" v="yes"/>
    <tag k="brand" v="OMV"/>
    <tag k="operator" v="OMV Hungária Kft."/>
  </way>
  <node action="modify" changeset="1" id="871603299" lat="46.5122" lon="18.9723" timestamp="1423240064000000000" uid="4579407" user="KAMI" version="5">
    <tag k="name" v="OMV"/>
    <tag k="addr:city" v="Kalocsa"/>
    <tag k="addr:postcode" v="6300"/>
    <tag k="addr:street" v="Bátyai út"/>
    <tag k="addr:housenumber" v="83"/>
    <tag k="phone" v="+3678561100"/>
    <tag k="website" v="https://www.omv.hu"/>
    <tag k="payment:cash" v="yes"/>
    <tag k="fuel:octane_95" v="yes"/>
    <tag k="payment:debit_cards" v="yes"/>
    <tag k="amenity" v="fuel"/>
    <tag k="fuel:diesel" v="yes"/>
    <tag k="brand" v="OMV"/>
    <tag k="operator" v="OMV Hungária Kft."/>
  </node>
  <node action="modify" changeset="1" id="1051631334" lat="47.5045" lon="19.1509" timestamp="1504329516000000000" uid="4579407" user="KAMI" version="7">
    <tag k="name" v="OMV"/>
    <tag k="addr:city" v="Budapest"/>
    <tag k="addr:postcode" v="1106"/>
    <tag k="addr:street" v="Kerepesi út"/>
    <tag k="addr:housenumber" v="73"/>
    <tag k="phone" v="+36"/>
    <tag k="website" v="https://www.omv.hu"/>
    <tag k="payment:cash" v="yes"/>
    <tag k="fuel:octane_95" v="yes"/>
    <tag k="payment:debit_cards" v="yes"/>
    <tag k="amenity" v="fuel"/>
    <tag k="fuel:diesel" v="yes"/>
    <tag k="brand" v="OMV"/>
    <tag k="operator" v="OMV Hungária Kft."/>
  </node>
  <node action="modify" changeset="99999" id="-114" lat="47.64669" lon="18.33074" timestamp="" uid="4579407" user="KAMI" version="99999">
    <tag k="name" v="OMV"/>
    <tag k="addr:city" v="Tata"/>
    <tag k="addr:postcode" v="2890"/>
    <tag k="addr:conscriptionnumber" v="0419/8"/>
    <tag k="phone" v="+3634568082"/>
    <tag k="website" v="https://www.omv.hu"/>
    <tag k="payment:cash" v="yes"/>
    <tag k="fuel:octane_95" v="yes"/>
    <tag k="payment:debit_cards" v="yes"/>
    <tag k="amenity" v="fuel"/>
    <tag k="fuel:diesel" v="yes"/>
    <tag k="brand" v="OMV"/>
    <tag k="operator" v="OMV Hungária Kft."/>
  </node>
  <node action="modify" changeset="1" id="280794763" lat="46.7835" lon="17.6745" timestamp="1436948707000000000" uid="4579407" user="KAMI" version="7">
    <tag k="name" v="OMV"/>
    <tag k="addr:city" v="Balatonlelle"/>
    <tag k="addr:postcode" v="8638"/>
    <tag k="phone" v="+3685554262"/>
    <tag k="website" v="https://www.omv.hu"/>
    <tag k="payment:cash" v="yes"/>
    <tag k="fuel:octane_95" v="yes"/>
    <tag k="payment:debit_cards" v="yes"/>
    <tag k="amenity" v="fuel"/>
    <tag k="fuel:diesel" v="yes"/>
    <tag k="brand" v="OMV"/>
    <tag k="operator" v="OMV Hungária Kft."/>
  </node>
  <node action="modify" changeset="1" id="464764000" lat="47.764" lon="19.1408" timestamp="1503782145000000000" uid="4579407" user="KAMI" version="9">
    <tag k="name" v="OMV"/>
    <tag k="addr:city" v="Vác"/>
    <tag k="addr:postcode" v="2600"/>
    <tag k="addr:street" v="Gödöllői út"/>
    <tag k="addr:housenumber" v="1"/>
    <tag k="phone" v="+3627510665"/>
    <tag k="website" v="https://www.omv.hu"/>
    <tag k="payment:cash" v="yes"/>
    <tag k="fuel:octane_95" v="yes"/>
    <tag k="payment:debit_cards" v="yes"/>
    <tag k="amenity" v="fuel"/>
    <tag k="fuel:diesel" v="yes"/>
    <tag k="brand" v="OMV"/>
    <tag k="operator" v="OMV Hungária Kft."/>
  </node>
  <way action="modify" changeset="1" id="35869112" timestamp="1426409391000000000" uid="4579407" user="KAMI" version="7">
    <nd ref="419243199"/>
    <nd ref="419243198"/>
    <nd ref="419243196"/>
    <nd ref="2625524095"/>
    <nd ref="2625524098"/>
    <nd ref="2625524102"/>
    <nd ref="419243197"/>
    <nd ref="419243199"/>
    <tag k="name" v="OMV"/>
    <tag k="addr:city" v="Budapest"/>
    <tag k="addr:postcode" v="1146"/>
    <tag k="addr:street" v="Hungária körút"/>
    <tag k="addr:housenumber" v="175-177"/>
    <tag k="phone" v="+36"/>
    <tag k="website" v="https://www.omv.hu"/>
    <tag k="payment:cash" v="yes"/>
    <tag k="fuel:octane_95" v="yes"/>
    <tag k="payment:debit_cards" v="yes"/>
    <tag k="amenity" v="fuel"/>
    <tag k="fuel:diesel" v="yes"/>
    <tag k="brand" v="OMV"/>
    <tag k="operator" v="OMV Hungária Kft."/>
  </way>
  <way action="modify" changeset="1" id="314424569" timestamp="1426409388000000000" uid="4579407" user="KAMI" version="2">
    <nd ref="3204672871"/>
    <nd ref="3204672877"/>
    <nd ref="3204672878"/>
    <nd ref="3204672879"/>
    <nd ref="3204672872"/>
    <nd ref="3204672871"/>
    <tag k="name" v="OMV"/>
    <tag k="addr:city" v="Budapest"/>
    <tag k="addr:postcode" v="1097"/>
    <tag k="addr:street" v="Gyáli út"/>
    <tag k="addr:housenumber" v="30"/>
    <tag k="phone" v="+3613480144"/>
    <tag k="website" v="https://www.omv.hu"/>
    <tag k="payment:cash" v="yes"/>
    <tag k="fuel:octane_95" v="yes"/>
    <tag k="payment:debit_cards" v="yes"/>
    <tag k="amenity" v="fuel"/>
    <tag k="fuel:diesel" v="yes"/>
    <tag k="brand" v="OMV"/>
    <tag k="operator" v="OMV Hungária Kft."/>
  </way>
  <node action="modify" changeset="1" id="1450968624" lat="46.95807" lon="18.91977" timestamp="1503584477000000000" uid="4579407" user="KAMI" version="8">
    <tag k="name" v="OMV"/>
    <tag k="addr:city" v="Dunaújváros"/>
    <tag k="addr:postcode" v="2400"/>
    <tag k="addr:street" v="Dózsa György út"/>
    <tag k="phone" v="+3625522410"/>
    <tag k="website" v="https://www.omv.hu"/>
    <tag k="payment:cash" v="yes"/>
    <tag k="fuel:octane_95" v="yes"/>
    <tag k="payment:debit_cards" v="yes"/>
    <tag k="amenity" v="fuel"/>
    <tag k="fuel:diesel" v="yes"/>
    <tag k="brand" v="OMV"/>
    <tag k="operator" v="OMV Hungária Kft."/>
  </node>
  <node action="modify" changeset="1" id="2962521975" lat="47.59015" lon="19.06528" timestamp="1426409411000000000" uid="4579407" user="KAMI" version="4">
    <tag k="name" v="OMV"/>
    <tag k="addr:city" v="Budapest"/>
    <tag k="addr:postcode" v="1039"/>
    <tag k="addr:street" v="Királyok út"/>
    <tag k="addr:housenumber" v="178"/>
    <tag k="phone" v="+3612405031"/>
    <tag k="website" v="https://www.omv.hu"/>
    <tag k="payment:cash" v="yes"/>
    <tag k="fuel:octane_95" v="yes"/>
    <tag k="payment:debit_cards" v="yes"/>
    <tag k="amenity" v="fuel"/>
    <tag k="fuel:diesel" v="yes"/>
    <tag k="brand" v="OMV"/>
    <tag k="operator" v="OMV Hungária Kft."/>
  </node>
  <node action="modify" changeset="1" id="313054433" lat="47.19578" lon="18.45872" timestamp="1448131964000000000" uid="4579407" user="KAMI" version="10">
    <tag k="name" v="OMV"/>
    <tag k="addr:city" v="Székesfehérvár"/>
    <tag k="addr:postcode" v="8000"/>
    <tag k="addr:street" v="Donáth utca"/>
    <tag k="phone" v="+3622308633"/>
    <tag k="website" v="https://www.omv.hu"/>
    <tag k="payment:cash" v="yes"/>
    <tag k="fuel:octane_95" v="yes"/>
    <tag k="payment:debit_cards" v="yes"/>
    <tag k="amenity" v="fuel"/>
    <tag k="fuel:diesel" v="yes"/>
    <tag k="brand" v="OMV"/>
    <tag k="operator" v="OMV Hungária Kft."/>
  </node>
  <node action="modify" changeset="1" id="2911125197" lat="47.84101" lon="21.44221" timestamp="1426409414000000000" uid="4579407" user="KAMI" version="5">
    <tag k="name" v="OMV"/>
    <tag k="addr:city" v="Hajdúnánás"/>
    <tag k="addr:postcode" v="4080"/>
    <tag k="addr:street" v="Dorogi út"/>
    <tag k="phone" v="+3652381018"/>
    <tag k="website" v="https://www.omv.hu"/>
    <tag k="payment:cash" v="yes"/>
    <tag k="fuel:octane_95" v="yes"/>
    <tag k="payment:debit_cards" v="yes"/>
    <tag k="amenity" v="fuel"/>
    <tag k="fuel:diesel" v="yes"/>
    <tag k="brand" v="OMV"/>
    <tag k="operator" v="OMV Hungária Kft."/>
  </node>
  <node action="modify" changeset="1" id="3210603183" lat="47.98665" lon="20.83172" timestamp="1477927231000000000" uid="4579407" user="KAMI" version="3">
    <tag k="name" v="OMV"/>
    <tag k="addr:city" v="Nyékládháza"/>
    <tag k="addr:postcode" v="3433"/>
    <tag k="addr:street" v="Viola utca"/>
    <tag k="addr:housenumber" v="182"/>
    <tag k="phone" v="+3646391800"/>
    <tag k="website" v="https://www.omv.hu"/>
    <tag k="payment:cash" v="yes"/>
    <tag k="fuel:octane_95" v="yes"/>
    <tag k="payment:debit_cards" v="yes"/>
    <tag k="amenity" v="fuel"/>
    <tag k="fuel:diesel" v="yes"/>
    <tag k="brand" v="OMV"/>
    <tag k="operator" v="OMV Hungária Kft."/>
  </node>
  <way action="modify" changeset="1" id="251784713" timestamp="1426409386000000000" uid="4579407" user="KAMI" version="4">
    <nd ref="2579603651"/>
    <nd ref="2579603653"/>
    <nd ref="2579603641"/>
    <nd ref="2579603639"/>
    <nd ref="2579603651"/>
    <tag k="name" v="OMV"/>
    <tag k="addr:city" v="Nagykanizsa"/>
    <tag k="addr:postcode" v="8800"/>
    <tag k="addr:street" v="Virág Benedek utca"/>
    <tag k="addr:housenumber" v="4"/>
    <tag k="phone" v="+3693314247"/>
    <tag k="website" v="https://www.omv.hu"/>
    <tag k="payment:cash" v="yes"/>
    <tag k="fuel:octane_95" v="yes"/>
    <tag k="payment:debit_cards" v="yes"/>
    <tag k="amenity" v="fuel"/>
    <tag k="fuel:diesel" v="yes"/>
    <tag k="brand" v="OMV"/>
    <tag k="operator" v="OMV Hungária Kft."/>
  </way>
  <way action="modify" changeset="1" id="335264149" timestamp="1442824843000000000" uid="4579407" user="KAMI" version="2">
    <nd ref="3423782514"/>
    <nd ref="3423782515"/>
    <nd ref="3423782516"/>
    <nd ref="3423782517"/>
    <nd ref="3423782514"/>
    <tag k="name" v="OMV"/>
    <tag k="addr:city" v="Pécs"/>
    <tag k="addr:postcode" v="7631"/>
    <tag k="addr:street" v="Siklósi út"/>
    <tag k="addr:housenumber" v="45"/>
    <tag k="phone" v="+3672440459"/>
    <tag k="website" v="https://www.omv.hu"/>
    <tag k="payment:cash" v="yes"/>
    <tag k="fuel:octane_95" v="yes"/>
    <tag k="payment:debit_cards" v="yes"/>
    <tag k="amenity" v="fuel"/>
    <tag k="fuel:diesel" v="yes"/>
    <tag k="brand" v="OMV"/>
    <tag k="operator" v="OMV Hungária Kft."/>
  </way>
  <node action="modify" changeset="99999" id="-126" lat="48.08054" lon="19.79379" timestamp="" uid="4579407" user="KAMI" version="99999">
    <tag k="name" v="OMV"/>
    <tag k="addr:city" v="Salgótarján"/>
    <tag k="addr:postcode" v="3104"/>
    <tag k="addr:street" v="Rákóczi utca"/>
    <tag k="addr:housenumber" v="182"/>
    <tag k="phone" v="+3632440754"/>
    <tag k="website" v="https://www.omv.hu"/>
    <tag k="payment:cash" v="yes"/>
    <tag k="fuel:octane_95" v="yes"/>
    <tag k="payment:debit_cards" v="yes"/>
    <tag k="amenity" v="fuel"/>
    <tag k="fuel:diesel" v="yes"/>
    <tag k="brand" v="OMV"/>
    <tag k="operator" v="OMV Hungária Kft."/>
  </node>
  <node action="modify" changeset="1" id="112365614" lat="47.5445" lon="19.1161" timestamp="1456220213000000000" uid="4579407" user="KAMI" version="10">
    <tag k="name" v="OMV"/>
    <tag k="addr:city" v="Budapest"/>
    <tag k="addr:postcode" v="1155"/>
    <tag k="addr:street" v="Alkotmány utca"/>
    <tag k="addr:housenumber" v="14-20"/>
    <tag k="phone" v="+36"/>
    <tag k="website" v="https://www.omv.hu"/>
    <tag k="payment:cash" v="yes"/>
    <tag k="fuel:octane_95" v="yes"/>
    <tag k="payment:debit_cards" v="yes"/>
    <tag k="amenity" v="fuel"/>
    <tag k="fuel:diesel" v="yes"/>
    <tag k="brand" v="OMV"/>
    <tag k="operator" v="OMV Hungária Kft."/>
  </node>
  <way action="modify" changeset="1" id="295576444" timestamp="1453390934000000000" uid="4579407" user="KAMI" version="8">
    <nd ref="2993080530"/>
    <nd ref="2993082233"/>
    <nd ref="2993080532"/>
    <nd ref="2993080531"/>
    <nd ref="2993080530"/>
    <tag k="name" v="OMV"/>
    <tag k="addr:city" v="Nyíregyháza"/>
    <tag k="addr:postcode" v="4400"/>
    <tag k="addr:street" v="Kert utca"/>
    <tag k="addr:housenumber" v="47"/>
    <tag k="phone" v="+3642461301"/>
    <tag k="website" v="https://www.omv.hu"/>
    <tag k="payment:cash" v="yes"/>
    <tag k="fuel:octane_95" v="yes"/>
    <tag k="payment:debit_cards" v="yes"/>
    <tag k="amenity" v="fuel"/>
    <tag k="fuel:diesel" v="yes"/>
    <tag k="brand" v="OMV"/>
    <tag k="operator" v="OMV Hungária Kft."/>
  </way>
  <way action="modify" changeset="1" id="371014885" timestamp="1477605036000000000" uid="4579407" user="KAMI" version="3">
    <nd ref="3746564721"/>
    <nd ref="3746564722"/>
    <nd ref="3746564725"/>
    <nd ref="3746564726"/>
    <nd ref="3746564728"/>
    <nd ref="3746564729"/>
    <nd ref="3746564730"/>
    <nd ref="3746564731"/>
    <nd ref="3746564732"/>
    <nd ref="3746564733"/>
    <nd ref="3746564727"/>
    <nd ref="3746564734"/>
    <nd ref="3746564723"/>
    <nd ref="3746564724"/>
    <nd ref="3746564721"/>
    <tag k="name" v="OMV"/>
    <tag k="addr:city" v="Budapest"/>
    <tag k="addr:postcode" v="1102"/>
    <tag k="addr:street" v="Kőrösi Csoma S. út"/>
    <tag k="phone" v="+36"/>
    <tag k="website" v="https://www.omv.hu"/>
    <tag k="payment:cash" v="yes"/>
    <tag k="fuel:octane_95" v="yes"/>
    <tag k="payment:debit_cards" v="yes"/>
    <tag k="amenity" v="fuel"/>
    <tag k="fuel:diesel" v="yes"/>
    <tag k="brand" v="OMV"/>
    <tag k="operator" v="OMV Hungária Kft."/>
  </way>
  <node action="modify" changeset="1" id="3458377930" lat="46.6594" lon="20.2434" timestamp="1502642207000000000" uid="4579407" user="KAMI" version="4">
    <tag k="name" v="OMV"/>
    <tag k="addr:city" v="Szentes"/>
    <tag k="addr:postcode" v="6600"/>
    <tag k="addr:street" v="Csongrádi út"/>
    <tag k="phone" v="+3663311649"/>
    <tag k="website" v="https://www.omv.hu"/>
    <tag k="payment:cash" v="yes"/>
    <tag k="fuel:octane_95" v="yes"/>
    <tag k="payment:debit_cards" v="yes"/>
    <tag k="amenity" v="fuel"/>
    <tag k="fuel:diesel" v="yes"/>
    <tag k="brand" v="OMV"/>
    <tag k="operator" v="OMV Hungária Kft."/>
  </node>
  <way action="modify" changeset="1" id="107171153" timestamp="1502639684000000000" uid="4579407" user="KAMI" version="6">
    <nd ref="1232195241"/>
    <nd ref="1232195268"/>
    <nd ref="1232195408"/>
    <nd ref="1232194807"/>
    <nd ref="1232195241"/>
    <tag k="name" v="OMV"/>
    <tag k="addr:city" v="Röszke"/>
    <tag k="addr:postcode" v="6758"/>
    <tag k="addr:street" v="M5 autópálya"/>
    <tag k="addr:housenumber" v="172"/>
    <tag k="addr:conscriptionnumber" v="0112/60"/>
    <tag k="phone" v="+3662273980"/>
    <tag k="website" v="https://www.omv.hu"/>
    <tag k="payment:cash" v="yes"/>
    <tag k="fuel:octane_95" v="yes"/>
    <tag k="payment:debit_cards" v="yes"/>
    <tag k="amenity" v="fuel"/>
    <tag k="fuel:diesel" v="yes"/>
    <tag k="brand" v="OMV"/>
    <tag k="operator" v="OMV Hungária Kft."/>
  </way>
  <node action="modify" changeset="1" id="2767238176" lat="47.95731" lon="21.68556" timestamp="1426409415000000000" uid="4579407" user="KAMI" version="4">
    <tag k="name" v="OMV"/>
    <tag k="addr:city" v="Nyíregyháza"/>
    <tag k="addr:postcode" v="4400"/>
    <tag k="addr:street" v="Tiszavasvári út - Alkotás utca"/>
    <tag k="phone" v="+3642417854"/>
    <tag k="website" v="https://www.omv.hu"/>
    <tag k="payment:cash" v="yes"/>
    <tag k="fuel:octane_95" v="yes"/>
    <tag k="payment:debit_cards" v="yes"/>
    <tag k="amenity" v="fuel"/>
    <tag k="fuel:diesel" v="yes"/>
    <tag k="brand" v="OMV"/>
    <tag k="operator" v="OMV Hungária Kft."/>
  </node>
  <way action="modify" changeset="1" id="372911704" timestamp="1456218993000000000" uid="4579407" user="KAMI" version="2">
    <nd ref="355760100"/>
    <nd ref="3764653847"/>
    <nd ref="3764653842"/>
    <nd ref="3764653841"/>
    <nd ref="3764653835"/>
    <nd ref="3764653837"/>
    <nd ref="355760100"/>
    <tag k="name" v="OMV"/>
    <tag k="addr:city" v="Kaposvár"/>
    <tag k="addr:postcode" v="7400"/>
    <tag k="addr:street" v="Áchim A. utca"/>
    <tag k="addr:conscriptionnumber" v="113/14"/>
    <tag k="phone" v="+3682510715"/>
    <tag k="website" v="https://www.omv.hu"/>
    <tag k="payment:cash" v="yes"/>
    <tag k="fuel:octane_95" v="yes"/>
    <tag k="payment:debit_cards" v="yes"/>
    <tag k="amenity" v="fuel"/>
    <tag k="fuel:diesel" v="yes"/>
    <tag k="brand" v="OMV"/>
    <tag k="operator" v="OMV Hungária Kft."/>
  </way>
  <node action="modify" changeset="99999" id="-134" lat="48.22266" lon="20.27437" timestamp="" uid="4579407" user="KAMI" version="99999">
    <tag k="name" v="OMV"/>
    <tag k="addr:city" v="Ózd"/>
    <tag k="addr:postcode" v="3600"/>
    <tag k="addr:street" v="Brassói út"/>
    <tag k="addr:housenumber" v="5"/>
    <tag k="phone" v="+3648572018"/>
    <tag k="website" v="https://www.omv.hu"/>
    <tag k="payment:cash" v="yes"/>
    <tag k="fuel:octane_95" v="yes"/>
    <tag k="payment:debit_cards" v="yes"/>
    <tag k="amenity" v="fuel"/>
    <tag k="fuel:diesel" v="yes"/>
    <tag k="brand" v="OMV"/>
    <tag k="operator" v="OMV Hungária Kft."/>
  </node>
  <node action="modify" changeset="1" id="3334249005" lat="47.63756" lon="19.47392" timestamp="1423239895000000000" uid="4579407" user="KAMI" version="2">
    <tag k="name" v="OMV"/>
    <tag k="addr:city" v="Bag"/>
    <tag k="addr:postcode" v="2191"/>
    <tag k="addr:street" v="Dózsa György utca"/>
    <tag k="addr:housenumber" v="2"/>
    <tag k="phone" v="+3628408048"/>
    <tag k="website" v="https://www.omv.hu"/>
    <tag k="payment:cash" v="yes"/>
    <tag k="fuel:octane_95" v="yes"/>
    <tag k="payment:debit_cards" v="yes"/>
    <tag k="amenity" v="fuel"/>
    <tag k="fuel:diesel" v="yes"/>
    <tag k="brand" v="OMV"/>
    <tag k="operator" v="OMV Hungária Kft."/>
  </node>
  <node action="modify" changeset="1" id="3334249209" lat="46.53333" lon="18.1833" timestamp="1423239895000000000" uid="4579407" user="KAMI" version="2">
    <tag k="name" v="OMV"/>
    <tag k="addr:city" v="Kocsola"/>
    <tag k="addr:postcode" v="7212"/>
    <tag k="phone" v="+3674484716"/>
    <tag k="website" v="https://www.omv.hu"/>
    <tag k="payment:cash" v="yes"/>
    <tag k="fuel:octane_95" v="yes"/>
    <tag k="payment:debit_cards" v="yes"/>
    <tag k="amenity" v="fuel"/>
    <tag k="fuel:diesel" v="yes"/>
    <tag k="brand" v="OMV"/>
    <tag k="operator" v="OMV Hungária Kft."/>
  </node>
  <way action="modify" changeset="1" id="393209044" timestamp="1505211337000000000" uid="4579407" user="KAMI" version="5">
    <nd ref="3964239026"/>
    <nd ref="4074278089"/>
    <nd ref="3964239027"/>
    <nd ref="3964239028"/>
    <nd ref="3964239026"/>
    <tag k="name" v="OMV"/>
    <tag k="addr:city" v="Szeged"/>
    <tag k="addr:postcode" v="6723"/>
    <tag k="addr:street" v="Makkosházi körút"/>
    <tag k="addr:housenumber" v="1"/>
    <tag k="phone" v="+3662484734"/>
    <tag k="website" v="https://www.omv.hu"/>
    <tag k="payment:cash" v="yes"/>
    <tag k="fuel:octane_95" v="yes"/>
    <tag k="payment:debit_cards" v="yes"/>
    <tag k="amenity" v="fuel"/>
    <tag k="fuel:diesel" v="yes"/>
    <tag k="brand" v="OMV"/>
    <tag k="operator" v="OMV Hungária Kft."/>
  </way>
  <node action="modify" changeset="1" id="3334249296" lat="46.5171" lon="19.96793" timestamp="1481896984000000000" uid="4579407" user="KAMI" version="6">
    <tag k="name" v="OMV"/>
    <tag k="addr:city" v="Kistelek"/>
    <tag k="addr:postcode" v="6760"/>
    <tag k="addr:street" v="Kossuth utca"/>
    <tag k="addr:housenumber" v="175"/>
    <tag k="website" v="https://www.omv.hu"/>
    <tag k="payment:cash" v="yes"/>
    <tag k="fuel:octane_95" v="yes"/>
    <tag k="payment:debit_cards" v="yes"/>
    <tag k="amenity" v="fuel"/>
    <tag k="fuel:diesel" v="yes"/>
    <tag k="brand" v="OMV"/>
    <tag k="operator" v="OMV Hungária Kft."/>
  </node>
  <way action="modify" changeset="1" id="306527963" timestamp="1508075902000000000" uid="4579407" user="KAMI" version="2">
    <nd ref="1038272173"/>
    <nd ref="3114710614"/>
    <nd ref="1038272359"/>
    <nd ref="1038272634"/>
    <nd ref="1038272498"/>
    <nd ref="1038272173"/>
    <tag k="name" v="OMV"/>
    <tag k="addr:city" v="Dunaújváros"/>
    <tag k="addr:postcode" v="2400"/>
    <tag k="addr:street" v="TS M6 autópálya"/>
    <tag k="addr:housenumber" v="70"/>
    <tag k="phone" v="+3625281442"/>
    <tag k="website" v="https://www.omv.hu"/>
    <tag k="payment:cash" v="yes"/>
    <tag k="fuel:octane_95" v="yes"/>
    <tag k="payment:debit_cards" v="yes"/>
    <tag k="amenity" v="fuel"/>
    <tag k="fuel:diesel" v="yes"/>
    <tag k="brand" v="OMV"/>
    <tag k="operator" v="OMV Hungária Kft."/>
  </way>
  <way action="modify" changeset="1" id="223091922" timestamp="1498539105000000000" uid="4579407" user="KAMI" version="7">
    <nd ref="2320296488"/>
    <nd ref="2320296476"/>
    <nd ref="2320296474"/>
    <nd ref="2320296471"/>
    <nd ref="2320296473"/>
    <nd ref="2320296477"/>
    <nd ref="2320296478"/>
    <nd ref="2320296483"/>
    <nd ref="2320296482"/>
    <nd ref="2320296490"/>
    <nd ref="2320296488"/>
    <tag k="name" v="OMV"/>
    <tag k="addr:city" v="Szentendre"/>
    <tag k="addr:postcode" v="2000"/>
    <tag k="addr:street" v="11-es út"/>
    <tag k="addr:housenumber" v="17"/>
    <tag k="phone" v="+3626315459"/>
    <tag k="website" v="https://www.omv.hu"/>
    <tag k="payment:cash" v="yes"/>
    <tag k="fuel:octane_95" v="yes"/>
    <tag k="payment:debit_cards" v="yes"/>
    <tag k="amenity" v="fuel"/>
    <tag k="fuel:diesel" v="yes"/>
    <tag k="brand" v="OMV"/>
    <tag k="operator" v="OMV Hungária Kft."/>
  </way>
  <way action="modify" changeset="1" id="560558891" timestamp="1518377709000000000" uid="4579407" user="KAMI" version="1">
    <nd ref="5405915229"/>
    <nd ref="5405915230"/>
    <nd ref="5405915231"/>
    <nd ref="5405915232"/>
    <nd ref="5405915233"/>
    <nd ref="2384504917"/>
    <nd ref="5405915234"/>
    <nd ref="5405915235"/>
    <nd ref="5405915229"/>
    <tag k="name" v="OMV"/>
    <tag k="addr:city" v="Szombathely"/>
    <tag k="addr:postcode" v="9700"/>
    <tag k="addr:street" v="Körmendi út"/>
    <tag k="addr:housenumber" v="92"/>
    <tag k="phone" v="+3694510080"/>
    <tag k="website" v="https://www.omv.hu"/>
    <tag k="payment:cash" v="yes"/>
    <tag k="fuel:octane_95" v="yes"/>
    <tag k="payment:debit_cards" v="yes"/>
    <tag k="amenity" v="fuel"/>
    <tag k="fuel:diesel" v="yes"/>
    <tag k="brand" v="OMV"/>
    <tag k="operator" v="OMV Hungária Kft."/>
  </way>
  <node action="modify" changeset="1" id="2043138155" lat="47.5509" lon="19.0445" timestamp="1448887867000000000" uid="4579407" user="KAMI" version="6">
    <tag k="name" v="OMV"/>
    <tag k="addr:city" v="Budapest"/>
    <tag k="addr:postcode" v="1033"/>
    <tag k="addr:street" v="Ladik utca"/>
    <tag k="addr:housenumber" v="1"/>
    <tag k="phone" v="+36"/>
    <tag k="website" v="https://www.omv.hu"/>
    <tag k="payment:cash" v="yes"/>
    <tag k="fuel:octane_95" v="yes"/>
    <tag k="payment:debit_cards" v="yes"/>
    <tag k="amenity" v="fuel"/>
    <tag k="fuel:diesel" v="yes"/>
    <tag k="brand" v="OMV"/>
    <tag k="operator" v="OMV Hungária Kft."/>
  </node>
  <way action="modify" changeset="1" id="525917658" timestamp="1505830226000000000" uid="4579407" user="KAMI" version="1">
    <nd ref="5115393001"/>
    <nd ref="5115392998"/>
    <nd ref="5115392993"/>
    <nd ref="5115392999"/>
    <nd ref="5115392997"/>
    <nd ref="5115393000"/>
    <nd ref="5115393001"/>
    <tag k="name" v="OMV"/>
    <tag k="addr:city" v="Budapest"/>
    <tag k="addr:postcode" v="1214"/>
    <tag k="addr:street" v="Rákóczi F. utca"/>
    <tag k="addr:housenumber" v="189"/>
    <tag k="phone" v="+36"/>
    <tag k="website" v="https://www.omv.hu"/>
    <tag k="payment:cash" v="yes"/>
    <tag k="fuel:octane_95" v="yes"/>
    <tag k="payment:debit_cards" v="yes"/>
    <tag k="amenity" v="fuel"/>
    <tag k="fuel:diesel" v="yes"/>
    <tag k="brand" v="OMV"/>
    <tag k="operator" v="OMV Hungária Kft."/>
  </way>
  <node action="modify" changeset="99999" id="-144" lat="47.53494" lon="18.97457" timestamp="" uid="4579407" user="KAMI" version="99999">
    <tag k="name" v="OMV"/>
    <tag k="addr:city" v="Budapest"/>
    <tag k="addr:postcode" v="1021"/>
    <tag k="addr:street" v="Hűvösvölgyi út"/>
    <tag k="addr:housenumber" v="118"/>
    <tag k="phone" v="+36"/>
    <tag k="website" v="https://www.omv.hu"/>
    <tag k="payment:cash" v="yes"/>
    <tag k="fuel:octane_95" v="yes"/>
    <tag k="payment:debit_cards" v="yes"/>
    <tag k="amenity" v="fuel"/>
    <tag k="fuel:diesel" v="yes"/>
    <tag k="brand" v="OMV"/>
    <tag k="operator" v="OMV Hungária Kft."/>
  </node>
  <node action="modify" changeset="1" id="542000050" lat="46.93951" lon="17.06767" timestamp="1489414556000000000" uid="4579407" user="KAMI" version="4">
    <tag k="name" v="OMV"/>
    <tag k="addr:city" v="Zalaszentgrót"/>
    <tag k="addr:postcode" v="8790"/>
    <tag k="addr:street" v="Erzsébet liget utca"/>
    <tag k="addr:housenumber" v="5"/>
    <tag k="phone" v="+3683360052"/>
    <tag k="website" v="https://www.omv.hu"/>
    <tag k="payment:cash" v="yes"/>
    <tag k="fuel:octane_95" v="yes"/>
    <tag k="payment:debit_cards" v="yes"/>
    <tag k="amenity" v="fuel"/>
    <tag k="fuel:diesel" v="yes"/>
    <tag k="brand" v="OMV"/>
    <tag k="operator" v="OMV Hungária Kft."/>
  </node>
  <way action="modify" changeset="1" id="550571751" timestamp="1518965869000000000" uid="4579407" user="KAMI" version="2">
    <nd ref="5317813306"/>
    <nd ref="5317813307"/>
    <nd ref="5317813308"/>
    <nd ref="5317813309"/>
    <nd ref="5317813306"/>
    <tag k="name" v="OMV"/>
    <tag k="addr:city" v="Budapest"/>
    <tag k="addr:postcode" v="1183"/>
    <tag k="addr:street" v="Haladás utca"/>
    <tag k="addr:housenumber" v="39"/>
    <tag k="phone" v="+36"/>
    <tag k="website" v="https://www.omv.hu"/>
    <tag k="payment:cash" v="yes"/>
    <tag k="fuel:octane_95" v="yes"/>
    <tag k="payment:debit_cards" v="yes"/>
    <tag k="amenity" v="fuel"/>
    <tag k="fuel:diesel" v="yes"/>
    <tag k="brand" v="OMV"/>
    <tag k="operator" v="OMV Hungária Kft."/>
  </way>
  <way action="modify" changeset="1" id="504613464" timestamp="1519743104000000000" uid="4579407" user="KAMI" version="2">
    <nd ref="4947607466"/>
    <nd ref="4947607467"/>
    <nd ref="4947607468"/>
    <nd ref="4947607469"/>
    <nd ref="4947607466"/>
    <tag k="name" v="OMV"/>
    <tag k="addr:city" v="Budapest"/>
    <tag k="addr:postcode" v="1039"/>
    <tag k="addr:street" v="Szentendrei utca"/>
    <tag k="phone" v="+36"/>
    <tag k="website" v="https://www.omv.hu"/>
    <tag k="payment:cash" v="yes"/>
    <tag k="fuel:octane_95" v="yes"/>
    <tag k="payment:debit_cards" v="yes"/>
    <tag k="amenity" v="fuel"/>
    <tag k="fuel:diesel" v="yes"/>
    <tag k="brand" v="OMV"/>
    <tag k="operator" v="OMV Hungária Kft."/>
  </way>
  <node action="modify" changeset="1" id="31929578" lat="47.51758" lon="19.21431" timestamp="1502393790000000000" uid="4579407" user="KAMI" version="14">
    <tag k="name" v="OMV"/>
    <tag k="addr:city" v="Budapest"/>
    <tag k="addr:postcode" v="1164"/>
    <tag k="addr:street" v="Szabadföldi utca"/>
    <tag k="addr:housenumber" v="1"/>
    <tag k="phone" v="+36"/>
    <tag k="website" v="https://www.omv.hu"/>
    <tag k="payment:cash" v="yes"/>
    <tag k="fuel:octane_95" v="yes"/>
    <tag k="payment:debit_cards" v="yes"/>
    <tag k="amenity" v="fuel"/>
    <tag k="fuel:diesel" v="yes"/>
    <tag k="brand" v="OMV"/>
    <tag k="operator" v="OMV Hungária Kft."/>
  </node>
  <node action="modify" changeset="1" id="2385552075" lat="47.2155" lon="16.63591" timestamp="1426409401000000000" uid="4579407" user="KAMI" version="4">
    <tag k="name" v="OMV"/>
    <tag k="addr:city" v="Szombathely"/>
    <tag k="addr:postcode" v="9700"/>
    <tag k="addr:street" v="Rumi utca"/>
    <tag k="phone" v="+3694312160"/>
    <tag k="website" v="https://www.omv.hu"/>
    <tag k="payment:cash" v="yes"/>
    <tag k="fuel:octane_95" v="yes"/>
    <tag k="payment:debit_cards" v="yes"/>
    <tag k="amenity" v="fuel"/>
    <tag k="fuel:diesel" v="yes"/>
    <tag k="brand" v="OMV"/>
    <tag k="operator" v="OMV Hungária Kft."/>
  </node>
  <node action="modify" changeset="1" id="1356019237" lat="48.08344" lon="20.78474" timestamp="1447510616000000000" uid="4579407" user="KAMI" version="5">
    <tag k="name" v="OMV"/>
    <tag k="addr:city" v="Miskolc"/>
    <tag k="addr:postcode" v="3529"/>
    <tag k="addr:street" v="Testvérvárosok út"/>
    <tag k="addr:housenumber" v="2/a"/>
    <tag k="phone" v="+3646365365"/>
    <tag k="website" v="https://www.omv.hu"/>
    <tag k="payment:cash" v="yes"/>
    <tag k="fuel:octane_95" v="yes"/>
    <tag k="payment:debit_cards" v="yes"/>
    <tag k="amenity" v="fuel"/>
    <tag k="fuel:diesel" v="yes"/>
    <tag k="brand" v="OMV"/>
    <tag k="operator" v="OMV Hungária Kft."/>
  </node>
  <node action="modify" changeset="1" id="283660240" lat="47.4359" lon="19.0843" timestamp="1484046542000000000" uid="4579407" user="KAMI" version="6">
    <tag k="name" v="OMV"/>
    <tag k="addr:city" v="Budapest"/>
    <tag k="addr:postcode" v="1215"/>
    <tag k="addr:street" v="Védgát utca"/>
    <tag k="addr:housenumber" v="47"/>
    <tag k="phone" v="+36"/>
    <tag k="website" v="https://www.omv.hu"/>
    <tag k="payment:cash" v="yes"/>
    <tag k="fuel:octane_95" v="yes"/>
    <tag k="payment:debit_cards" v="yes"/>
    <tag k="amenity" v="fuel"/>
    <tag k="fuel:diesel" v="yes"/>
    <tag k="brand" v="OMV"/>
    <tag k="operator" v="OMV Hungária Kft."/>
  </node>
  <way action="modify" changeset="1" id="185303509" timestamp="1483098627000000000" uid="4579407" user="KAMI" version="11">
    <nd ref="1958683628"/>
    <nd ref="1958683577"/>
    <nd ref="1958683560"/>
    <nd ref="1958683582"/>
    <nd ref="1958683613"/>
    <nd ref="1958683601"/>
    <nd ref="1958683562"/>
    <nd ref="1958683566"/>
    <nd ref="1958683594"/>
    <nd ref="1958683568"/>
    <nd ref="1958683628"/>
    <tag k="name" v="OMV"/>
    <tag k="addr:city" v="Győr"/>
    <tag k="addr:postcode" v="9023"/>
    <tag k="addr:street" v="Ipar út"/>
    <tag k="addr:housenumber" v="99"/>
    <tag k="phone" v="+3696422095"/>
    <tag k="website" v="https://www.omv.hu"/>
    <tag k="payment:cash" v="yes"/>
    <tag k="fuel:octane_95" v="yes"/>
    <tag k="payment:debit_cards" v="yes"/>
    <tag k="amenity" v="fuel"/>
    <tag k="fuel:diesel" v="yes"/>
    <tag k="brand" v="OMV"/>
    <tag k="operator" v="OMV Hungária Kft."/>
  </way>
  <way action="modify" changeset="1" id="108393071" timestamp="1426409388000000000" uid="4579407" user="KAMI" version="7">
    <nd ref="1243872284"/>
    <nd ref="1243872546"/>
    <nd ref="1243872335"/>
    <nd ref="1243872457"/>
    <nd ref="1243872467"/>
    <nd ref="1243872284"/>
    <tag k="name" v="OMV"/>
    <tag k="addr:city" v="Szekszárd"/>
    <tag k="addr:postcode" v="7100"/>
    <tag k="addr:street" v="Tartsay út"/>
    <tag k="addr:housenumber" v="8"/>
    <tag k="phone" v="+3674510537"/>
    <tag k="website" v="https://www.omv.hu"/>
    <tag k="payment:cash" v="yes"/>
    <tag k="fuel:octane_95" v="yes"/>
    <tag k="payment:debit_cards" v="yes"/>
    <tag k="amenity" v="fuel"/>
    <tag k="fuel:diesel" v="yes"/>
    <tag k="brand" v="OMV"/>
    <tag k="operator" v="OMV Hungária Kft."/>
  </way>
  <node action="modify" changeset="1" id="750466114" lat="47.45339" lon="19.01819" timestamp="1440155547000000000" uid="4579407" user="KAMI" version="6">
    <tag k="name" v="OMV"/>
    <tag k="addr:city" v="Budapest"/>
    <tag k="addr:postcode" v="1112"/>
    <tag k="addr:street" v="Péterhegyi út"/>
    <tag k="addr:housenumber" v="66-68"/>
    <tag k="phone" v="+36"/>
    <tag k="website" v="https://www.omv.hu"/>
    <tag k="payment:cash" v="yes"/>
    <tag k="fuel:octane_95" v="yes"/>
    <tag k="payment:debit_cards" v="yes"/>
    <tag k="amenity" v="fuel"/>
    <tag k="fuel:diesel" v="yes"/>
    <tag k="brand" v="OMV"/>
    <tag k="operator" v="OMV Hungária Kft."/>
  </node>
  <way action="modify" changeset="1" id="280245596" timestamp="1426409385000000000" uid="4579407" user="KAMI" version="5">
    <nd ref="2843903650"/>
    <nd ref="2843903669"/>
    <nd ref="2843903668"/>
    <nd ref="2843903667"/>
    <nd ref="2843903666"/>
    <nd ref="2843903665"/>
    <nd ref="2843903664"/>
    <nd ref="2843903663"/>
    <nd ref="2843903662"/>
    <nd ref="2843903661"/>
    <nd ref="2843903660"/>
    <nd ref="2843903659"/>
    <nd ref="2843903658"/>
    <nd ref="2843903657"/>
    <nd ref="2843903656"/>
    <nd ref="2843903655"/>
    <nd ref="2843903654"/>
    <nd ref="2843903653"/>
    <nd ref="2843903652"/>
    <nd ref="2843903651"/>
    <nd ref="2843903650"/>
    <tag k="name" v="OMV"/>
    <tag k="addr:city" v="Budapest"/>
    <tag k="addr:postcode" v="1221"/>
    <tag k="addr:street" v="Hajó út"/>
    <tag k="addr:housenumber" v="2"/>
    <tag k="phone" v="+36"/>
    <tag k="website" v="https://www.omv.hu"/>
    <tag k="payment:cash" v="yes"/>
    <tag k="fuel:octane_95" v="yes"/>
    <tag k="payment:debit_cards" v="yes"/>
    <tag k="amenity" v="fuel"/>
    <tag k="fuel:diesel" v="yes"/>
    <tag k="brand" v="OMV"/>
    <tag k="operator" v="OMV Hungária Kft."/>
  </way>
  <node action="modify" changeset="1" id="2784596762" lat="47.55119" lon="21.64779" timestamp="1426409409000000000" uid="4579407" user="KAMI" version="4">
    <tag k="name" v="OMV"/>
    <tag k="addr:city" v="Debrecen"/>
    <tag k="addr:postcode" v="4028"/>
    <tag k="addr:street" v="Kassai utca"/>
    <tag k="addr:housenumber" v="92"/>
    <tag k="phone" v="+3652448635"/>
    <tag k="website" v="https://www.omv.hu"/>
    <tag k="payment:cash" v="yes"/>
    <tag k="fuel:octane_95" v="yes"/>
    <tag k="payment:debit_cards" v="yes"/>
    <tag k="amenity" v="fuel"/>
    <tag k="fuel:diesel" v="yes"/>
    <tag k="brand" v="OMV"/>
    <tag k="operator" v="OMV Hungária Kft."/>
  </node>
  <way action="modify" changeset="1" id="239351907" timestamp="1426409387000000000" uid="4579407" user="KAMI" version="4">
    <nd ref="2471451467"/>
    <nd ref="2471451475"/>
    <nd ref="2471451473"/>
    <nd ref="2471451470"/>
    <nd ref="2471451467"/>
    <tag k="name" v="OMV"/>
    <tag k="addr:city" v="Budapest"/>
    <tag k="addr:postcode" v="1142"/>
    <tag k="addr:street" v="Kacsóh Pongrácz út"/>
    <tag k="addr:housenumber" v="131"/>
    <tag k="phone" v="+36"/>
    <tag k="website" v="https://www.omv.hu"/>
    <tag k="payment:cash" v="yes"/>
    <tag k="fuel:octane_95" v="yes"/>
    <tag k="payment:debit_cards" v="yes"/>
    <tag k="amenity" v="fuel"/>
    <tag k="fuel:diesel" v="yes"/>
    <tag k="brand" v="OMV"/>
    <tag k="operator" v="OMV Hungária Kft."/>
  </way>
  <node action="modify" changeset="1" id="1912659157" lat="46.194" lon="18.6941" timestamp="1426409395000000000" uid="4579407" user="KAMI" version="5">
    <tag k="name" v="OMV"/>
    <tag k="addr:city" v="Bátaszék"/>
    <tag k="addr:postcode" v="7140"/>
    <tag k="addr:street" v="M6 autópálya"/>
    <tag k="addr:housenumber" v="166"/>
    <tag k="addr:conscriptionnumber" v="120/180"/>
    <tag k="phone" v="+3674712066"/>
    <tag k="website" v="https://www.omv.hu"/>
    <tag k="payment:cash" v="yes"/>
    <tag k="fuel:octane_95" v="yes"/>
    <tag k="payment:debit_cards" v="yes"/>
    <tag k="amenity" v="fuel"/>
    <tag k="fuel:diesel" v="yes"/>
    <tag k="brand" v="OMV"/>
    <tag k="operator" v="OMV Hungária Kft."/>
  </node>
  <node action="modify" changeset="99999" id="-159" lat="46.1893" lon="18.6914" timestamp="" uid="4579407" user="KAMI" version="99999">
    <tag k="name" v="OMV"/>
    <tag k="addr:city" v="Bátaszék"/>
    <tag k="addr:postcode" v="7140"/>
    <tag k="addr:street" v="M6 autópálya"/>
    <tag k="addr:housenumber" v="166"/>
    <tag k="addr:conscriptionnumber" v="120/118"/>
    <tag k="phone" v="+3674712063"/>
    <tag k="website" v="https://www.omv.hu"/>
    <tag k="payment:cash" v="yes"/>
    <tag k="fuel:octane_95" v="yes"/>
    <tag k="payment:debit_cards" v="yes"/>
    <tag k="amenity" v="fuel"/>
    <tag k="fuel:diesel" v="yes"/>
    <tag k="brand" v="OMV"/>
    <tag k="operator" v="OMV Hungária Kft."/>
  </node>
  <node action="modify" changeset="1" id="4864323886" lat="47.78333" lon="17.15" timestamp="1517136161000000000" uid="4579407" user="KAMI" version="3">
    <tag k="name" v="OMV"/>
    <tag k="addr:city" v="Jánossomorja"/>
    <tag k="addr:postcode" v="9241"/>
    <tag k="addr:street" v="86. sz. főút"/>
    <tag k="addr:conscriptionnumber" v="0168/36"/>
    <tag k="phone" v="+3696702028"/>
    <tag k="website" v="https://www.omv.hu"/>
    <tag k="payment:cash" v="yes"/>
    <tag k="fuel:octane_95" v="yes"/>
    <tag k="payment:debit_cards" v="yes"/>
    <tag k="amenity" v="fuel"/>
    <tag k="fuel:diesel" v="yes"/>
    <tag k="brand" v="OMV"/>
    <tag k="operator" v="OMV Hungária Kft."/>
  </node>
  <way action="modify" changeset="1" id="483398656" timestamp="1490775186000000000" uid="4579407" user="KAMI" version="1">
    <nd ref="4761387498"/>
    <nd ref="4761387499"/>
    <nd ref="4761387500"/>
    <nd ref="4761387501"/>
    <nd ref="4761387502"/>
    <nd ref="4761387503"/>
    <nd ref="4761387504"/>
    <nd ref="4761387505"/>
    <nd ref="4761387506"/>
    <nd ref="4761387507"/>
    <nd ref="4761387498"/>
    <tag k="name" v="OMV"/>
    <tag k="addr:city" v="Esztergom"/>
    <tag k="addr:postcode" v="2509"/>
    <tag k="addr:street" v="Dobogókői út- Kesztölci út sarok"/>
    <tag k="phone" v="+3633435430"/>
    <tag k="website" v="https://www.omv.hu"/>
    <tag k="payment:cash" v="yes"/>
    <tag k="fuel:octane_95" v="yes"/>
    <tag k="payment:debit_cards" v="yes"/>
    <tag k="amenity" v="fuel"/>
    <tag k="fuel:diesel" v="yes"/>
    <tag k="brand" v="OMV"/>
    <tag k="operator" v="OMV Hungária Kft."/>
  </way>
  <node action="modify" changeset="1" id="483032414" lat="47.64767" lon="19.29452" timestamp="1503782144000000000" uid="4579407" user="KAMI" version="12">
    <tag k="name" v="OMV"/>
    <tag k="addr:city" v="Veresegyház"/>
    <tag k="addr:postcode" v="2112"/>
    <tag k="addr:street" v="Fő utca"/>
    <tag k="addr:housenumber" v="2"/>
    <tag k="phone" v="+3628586971"/>
    <tag k="website" v="https://www.omv.hu"/>
    <tag k="payment:cash" v="yes"/>
    <tag k="fuel:octane_95" v="yes"/>
    <tag k="payment:debit_cards" v="yes"/>
    <tag k="amenity" v="fuel"/>
    <tag k="fuel:diesel" v="yes"/>
    <tag k="brand" v="OMV"/>
    <tag k="operator" v="OMV Hungária Kft."/>
  </node>
  <way action="modify" changeset="1" id="586897013" timestamp="1525863388000000000" uid="4579407" user="KAMI" version="1">
    <nd ref="5606889059"/>
    <nd ref="5606889057"/>
    <nd ref="2006361221"/>
    <nd ref="2006361224"/>
    <nd ref="5606889059"/>
    <tag k="name" v="OMV"/>
    <tag k="addr:city" v="Budapest"/>
    <tag k="addr:postcode" v="1173"/>
    <tag k="addr:street" v="Pesti út"/>
    <tag k="addr:housenumber" v="18"/>
    <tag k="phone" v="+36"/>
    <tag k="website" v="https://www.omv.hu"/>
    <tag k="payment:cash" v="yes"/>
    <tag k="fuel:octane_95" v="yes"/>
    <tag k="payment:debit_cards" v="yes"/>
    <tag k="amenity" v="fuel"/>
    <tag k="fuel:diesel" v="yes"/>
    <tag k="brand" v="OMV"/>
    <tag k="operator" v="OMV Hungária Kft."/>
  </way>
  <way action="modify" changeset="1" id="40813409" timestamp="1505392617000000000" uid="4579407" user="KAMI" version="7">
    <nd ref="496234145"/>
    <nd ref="496234146"/>
    <nd ref="496234147"/>
    <nd ref="3070897438"/>
    <nd ref="496234148"/>
    <nd ref="3070897443"/>
    <nd ref="3070897442"/>
    <nd ref="496234145"/>
    <tag k="name" v="OMV"/>
    <tag k="addr:city" v="Budapest"/>
    <tag k="addr:postcode" v="1188"/>
    <tag k="addr:street" v="Alacskai utca"/>
    <tag k="addr:housenumber" v="1"/>
    <tag k="phone" v="+36"/>
    <tag k="website" v="https://www.omv.hu"/>
    <tag k="payment:cash" v="yes"/>
    <tag k="fuel:octane_95" v="yes"/>
    <tag k="payment:debit_cards" v="yes"/>
    <tag k="amenity" v="fuel"/>
    <tag k="fuel:diesel" v="yes"/>
    <tag k="brand" v="OMV"/>
    <tag k="operator" v="OMV Hungária Kft."/>
  </way>
  <node action="modify" changeset="1" id="1698466970" lat="47.50501" lon="19.12059" timestamp="2015-03-15 09:50:07+01:00" uid="4579407" user="KAMI" version="6">
    <tag k="name" v="OMV"/>
    <tag k="addr:city" v="Budapest"/>
    <tag k="addr:postcode" v="1149"/>
    <tag k="addr:street" v="Fogarasi út"/>
    <tag k="addr:housenumber" v="56/a"/>
    <tag k="phone" v="+36"/>
    <tag k="website" v="https://www.omv.hu"/>
    <tag k="payment:cash" v="yes"/>
    <tag k="fuel:octane_95" v="yes"/>
    <tag k="payment:debit_cards" v="yes"/>
    <tag k="amenity" v="fuel"/>
    <tag k="fuel:diesel" v="yes"/>
    <tag k="brand" v="OMV"/>
    <tag k="operator" v="OMV Hungária Kft."/>
  </node>
  <node action="modify" changeset="1" id="2961557852" lat="46.44381" lon="16.98909" timestamp="1502393791000000000" uid="4579407" user="KAMI" version="5">
    <tag k="name" v="OMV"/>
    <tag k="addr:city" v="Nagykanizsa"/>
    <tag k="addr:postcode" v="8800"/>
    <tag k="addr:street" v="Csengery utca"/>
    <tag k="addr:housenumber" v="82/a"/>
    <tag k="website" v="https://www.omv.hu"/>
    <tag k="payment:cash" v="yes"/>
    <tag k="fuel:octane_95" v="yes"/>
    <tag k="payment:debit_cards" v="yes"/>
    <tag k="amenity" v="fuel"/>
    <tag k="fuel:diesel" v="yes"/>
    <tag k="brand" v="OMV"/>
    <tag k="operator" v="OMV Hungária Kft."/>
  </node>
  <way action="modify" changeset="1" id="563587034" timestamp="1519378009000000000" uid="4579407" user="KAMI" version="1">
    <nd ref="5430974325"/>
    <nd ref="5430974326"/>
    <nd ref="5430974327"/>
    <nd ref="5430974328"/>
    <nd ref="5430974329"/>
    <nd ref="5430974330"/>
    <nd ref="5430974331"/>
    <nd ref="5430974332"/>
    <nd ref="5430974333"/>
    <nd ref="5430974334"/>
    <nd ref="5430974335"/>
    <nd ref="5430974336"/>
    <nd ref="5430974325"/>
    <tag k="name" v="OMV"/>
    <tag k="addr:city" v="Marcali"/>
    <tag k="addr:postcode" v="8700"/>
    <tag k="addr:street" v="Noszlopy utca"/>
    <tag k="addr:housenumber" v="120"/>
    <tag k="website" v="https://www.omv.hu"/>
    <tag k="payment:cash" v="yes"/>
    <tag k="fuel:octane_95" v="yes"/>
    <tag k="payment:debit_cards" v="yes"/>
    <tag k="amenity" v="fuel"/>
    <tag k="fuel:diesel" v="yes"/>
    <tag k="brand" v="OMV"/>
    <tag k="operator" v="OMV Hungária Kft."/>
  </way>
  <node action="modify" changeset="1" id="3465129290" lat="46.77124" lon="18.62553" timestamp="1505714042000000000" uid="4579407" user="KAMI" version="4">
    <tag k="name" v="OMV"/>
    <tag k="addr:city" v="Cece"/>
    <tag k="addr:postcode" v="7013"/>
    <tag k="addr:street" v="Vasút utca"/>
    <tag k="addr:housenumber" v="2"/>
    <tag k="website" v="https://www.omv.hu"/>
    <tag k="payment:cash" v="yes"/>
    <tag k="fuel:octane_95" v="yes"/>
    <tag k="payment:debit_cards" v="yes"/>
    <tag k="amenity" v="fuel"/>
    <tag k="fuel:diesel" v="yes"/>
    <tag k="brand" v="OMV"/>
    <tag k="operator" v="OMV Hungária Kft."/>
  </node>
  <node action="modify" changeset="99999" id="-169" lat="46.666" lon="17.2333" timestamp="" uid="4579407" user="KAMI" version="99999">
    <tag k="name" v="OMV"/>
    <tag k="addr:city" v="Keszthely"/>
    <tag k="addr:postcode" v="8711"/>
    <tag k="addr:street" v="Csapás utca"/>
    <tag k="addr:conscriptionnumber" v="2505/3"/>
    <tag k="phone" v="+3683705015"/>
    <tag k="website" v="https://www.omv.hu"/>
    <tag k="payment:cash" v="yes"/>
    <tag k="fuel:octane_95" v="yes"/>
    <tag k="payment:debit_cards" v="yes"/>
    <tag k="amenity" v="fuel"/>
    <tag k="fuel:diesel" v="yes"/>
    <tag k="brand" v="OMV"/>
    <tag k="operator" v="OMV Hungária Kft."/>
  </node>
  <way action="modify" changeset="1" id="275440304" timestamp="1407919502000000000" uid="4579407" user="KAMI" version="3">
    <nd ref="2800706827"/>
    <nd ref="2800706894"/>
    <nd ref="2800706897"/>
    <nd ref="2800706828"/>
    <nd ref="2800706829"/>
    <nd ref="2800706830"/>
    <nd ref="2800706831"/>
    <nd ref="2800706832"/>
    <nd ref="2800706833"/>
    <nd ref="2800706834"/>
    <nd ref="2800706835"/>
    <nd ref="2800706836"/>
    <nd ref="2800706837"/>
    <nd ref="2800706838"/>
    <nd ref="2800706827"/>
    <tag k="name" v="OMV"/>
    <tag k="addr:city" v="Szigetszentmiklós"/>
    <tag k="addr:postcode" v="2310"/>
    <tag k="addr:street" v="Gyári út"/>
    <tag k="addr:conscriptionnumber" v="3237"/>
    <tag k="phone" v="+3624468577"/>
    <tag k="website" v="https://www.omv.hu"/>
    <tag k="payment:cash" v="yes"/>
    <tag k="fuel:octane_95" v="yes"/>
    <tag k="payment:debit_cards" v="yes"/>
    <tag k="amenity" v="fuel"/>
    <tag k="fuel:diesel" v="yes"/>
    <tag k="brand" v="OMV"/>
    <tag k="operator" v="OMV Hungária Kft."/>
  </way>
  <node action="modify" changeset="1" id="245289813" lat="47.4867" lon="19.0239" timestamp="1521901156000000000" uid="4579407" user="KAMI" version="9">
    <tag k="name" v="OMV"/>
    <tag k="addr:city" v="Budapest"/>
    <tag k="addr:postcode" v="1118"/>
    <tag k="addr:street" v="Budaörsi út"/>
    <tag k="addr:housenumber" v="1"/>
    <tag k="phone" v="+36"/>
    <tag k="website" v="https://www.omv.hu"/>
    <tag k="payment:cash" v="yes"/>
    <tag k="fuel:octane_95" v="yes"/>
    <tag k="payment:debit_cards" v="yes"/>
    <tag k="amenity" v="fuel"/>
    <tag k="fuel:diesel" v="yes"/>
    <tag k="brand" v="OMV"/>
    <tag k="operator" v="OMV Hungária Kft."/>
  </node>
  <node action="modify" changeset="1" id="199266760" lat="46.79482" lon="18.91842" timestamp="1495202808000000000" uid="4579407" user="KAMI" version="4">
    <tag k="name" v="OMV"/>
    <tag k="addr:city" v="Dunaföldvár"/>
    <tag k="addr:postcode" v="7020"/>
    <tag k="addr:street" v="Paksi út"/>
    <tag k="addr:housenumber" v="125/a"/>
    <tag k="website" v="https://www.omv.hu"/>
    <tag k="payment:cash" v="yes"/>
    <tag k="fuel:octane_95" v="yes"/>
    <tag k="payment:debit_cards" v="yes"/>
    <tag k="amenity" v="fuel"/>
    <tag k="fuel:diesel" v="yes"/>
    <tag k="brand" v="OMV"/>
    <tag k="operator" v="OMV Hungária Kft."/>
  </node>
  <node action="modify" changeset="1" id="255522258" lat="45.96454" lon="17.46605" timestamp="1512754827000000000" uid="4579407" user="KAMI" version="9">
    <tag k="name" v="OMV"/>
    <tag k="addr:city" v="Barcs"/>
    <tag k="addr:postcode" v="7570"/>
    <tag k="addr:conscriptionnumber" v="2671/26"/>
    <tag k="website" v="https://www.omv.hu"/>
    <tag k="payment:cash" v="yes"/>
    <tag k="fuel:octane_95" v="yes"/>
    <tag k="payment:debit_cards" v="yes"/>
    <tag k="amenity" v="fuel"/>
    <tag k="fuel:diesel" v="yes"/>
    <tag k="brand" v="OMV"/>
    <tag k="operator" v="OMV Hungária Kft."/>
  </node>
  <node action="modify" changeset="99999" id="-174" lat="46.25987" lon="17.09593" timestamp="" uid="4579407" user="KAMI" version="99999">
    <tag k="name" v="OMV"/>
    <tag k="addr:city" v="Csurgó"/>
    <tag k="addr:postcode" v="8840"/>
    <tag k="addr:street" v="Rákóczi út"/>
    <tag k="addr:conscriptionnumber" v="571/2"/>
    <tag k="website" v="https://www.omv.hu"/>
    <tag k="payment:cash" v="yes"/>
    <tag k="fuel:octane_95" v="yes"/>
    <tag k="payment:debit_cards" v="yes"/>
    <tag k="amenity" v="fuel"/>
    <tag k="fuel:diesel" v="yes"/>
    <tag k="brand" v="OMV"/>
    <tag k="operator" v="OMV Hungária Kft."/>
  </node>
  <node action="modify" changeset="1" id="4732247493" lat="46.24083" lon="17.35629" timestamp="1502393794000000000" uid="4579407" user="KAMI" version="4">
    <tag k="name" v="OMV"/>
    <tag k="addr:city" v="Nagyatád"/>
    <tag k="addr:postcode" v="7500"/>
    <tag k="website" v="https://www.omv.hu"/>
    <tag k="payment:cash" v="yes"/>
    <tag k="fuel:octane_95" v="yes"/>
    <tag k="payment:debit_cards" v="yes"/>
    <tag k="amenity" v="fuel"/>
    <tag k="fuel:diesel" v="yes"/>
    <tag k="brand" v="OMV"/>
    <tag k="operator" v="OMV Hungária Kft."/>
  </node>
  <node action="modify" changeset="1" id="3438327983" lat="46.38774" lon="17.52099" timestamp="1506283098000000000" uid="4579407" user="KAMI" version="3">
    <tag k="name" v="OMV"/>
    <tag k="addr:city" v="Nagybajom"/>
    <tag k="addr:postcode" v="7561"/>
    <tag k="addr:street" v="Jákói utca"/>
    <tag k="addr:housenumber" v="1"/>
    <tag k="website" v="https://www.omv.hu"/>
    <tag k="payment:cash" v="yes"/>
    <tag k="fuel:octane_95" v="yes"/>
    <tag k="payment:debit_cards" v="yes"/>
    <tag k="amenity" v="fuel"/>
    <tag k="fuel:diesel" v="yes"/>
    <tag k="brand" v="OMV"/>
    <tag k="operator" v="OMV Hungária Kft."/>
  </node>
  <way action="modify" changeset="1" id="242993457" timestamp="1502393795000000000" uid="4579407" user="KAMI" version="11">
    <nd ref="2504310402"/>
    <nd ref="2504310422"/>
    <nd ref="2504310427"/>
    <nd ref="2504310419"/>
    <nd ref="2504310402"/>
    <tag k="name" v="OMV"/>
    <tag k="addr:city" v="Nagykanizsa"/>
    <tag k="addr:postcode" v="8800"/>
    <tag k="addr:street" v="Teleki utca"/>
    <tag k="addr:housenumber" v="27"/>
    <tag k="website" v="https://www.omv.hu"/>
    <tag k="payment:cash" v="yes"/>
    <tag k="fuel:octane_95" v="yes"/>
    <tag k="payment:debit_cards" v="yes"/>
    <tag k="amenity" v="fuel"/>
    <tag k="fuel:diesel" v="yes"/>
    <tag k="brand" v="OMV"/>
    <tag k="operator" v="OMV Hungária Kft."/>
  </way>
  <way action="modify" changeset="1" id="208959242" timestamp="1489412530000000000" uid="4579407" user="KAMI" version="4">
    <nd ref="2192120912"/>
    <nd ref="2192120966"/>
    <nd ref="2192120981"/>
    <nd ref="2192120995"/>
    <nd ref="2192120894"/>
    <nd ref="2192120990"/>
    <nd ref="2192120970"/>
    <nd ref="2192120957"/>
    <nd ref="2192120912"/>
    <tag k="name" v="OMV"/>
    <tag k="addr:city" v="Zalaegerszeg"/>
    <tag k="addr:postcode" v="8900"/>
    <tag k="addr:street" v="Hock János utca"/>
    <tag k="addr:housenumber" v="746"/>
    <tag k="website" v="https://www.omv.hu"/>
    <tag k="payment:cash" v="yes"/>
    <tag k="fuel:octane_95" v="yes"/>
    <tag k="payment:debit_cards" v="yes"/>
    <tag k="amenity" v="fuel"/>
    <tag k="fuel:diesel" v="yes"/>
    <tag k="brand" v="OMV"/>
    <tag k="operator" v="OMV Hungária Kft."/>
  </way>
  <node action="modify" changeset="99999" id="-179" lat="47.2617" lon="19.5971" timestamp="" uid="4579407" user="KAMI" version="99999">
    <tag k="name" v="OMV"/>
    <tag k="addr:city" v="Albertirsa"/>
    <tag k="addr:postcode" v="2730"/>
    <tag k="addr:street" v="4. sz. főút"/>
    <tag k="addr:housenumber" v="51-52"/>
    <tag k="website" v="https://www.omv.hu"/>
    <tag k="payment:cash" v="yes"/>
    <tag k="fuel:octane_95" v="yes"/>
    <tag k="payment:debit_cards" v="yes"/>
    <tag k="amenity" v="fuel"/>
    <tag k="fuel:diesel" v="yes"/>
    <tag k="brand" v="OMV"/>
    <tag k="operator" v="OMV Hungária Kft."/>
  </node>
  <node action="modify" changeset="1" id="1129279204" lat="47.18216" lon="20.18402" timestamp="1446472398000000000" uid="4579407" user="KAMI" version="7">
    <tag k="name" v="OMV"/>
    <tag k="addr:city" v="Szolnok"/>
    <tag k="addr:postcode" v="5000"/>
    <tag k="addr:street" v="Dráva utca"/>
    <tag k="addr:housenumber" v="42"/>
    <tag k="phone" v="+3656342766"/>
    <tag k="website" v="https://www.omv.hu"/>
    <tag k="payment:cash" v="yes"/>
    <tag k="fuel:octane_95" v="yes"/>
    <tag k="payment:debit_cards" v="yes"/>
    <tag k="amenity" v="fuel"/>
    <tag k="fuel:diesel" v="yes"/>
    <tag k="brand" v="OMV"/>
    <tag k="operator" v="OMV Hungária Kft."/>
  </node>
  <way action="modify" changeset="1" id="348324999" timestamp="1447838821000000000" uid="4579407" user="KAMI" version="2">
    <nd ref="3544550951"/>
    <nd ref="3544550952"/>
    <nd ref="3544550953"/>
    <nd ref="3544550954"/>
    <nd ref="3544550955"/>
    <nd ref="3544550956"/>
    <nd ref="3544550957"/>
    <nd ref="3544550958"/>
    <nd ref="3544550951"/>
    <tag k="name" v="OMV"/>
    <tag k="addr:city" v="Alsónémedi"/>
    <tag k="addr:postcode" v="2351"/>
    <tag k="addr:conscriptionnumber" v="2553"/>
    <tag k="phone" v="+3629337164"/>
    <tag k="website" v="https://www.omv.hu"/>
    <tag k="payment:cash" v="yes"/>
    <tag k="fuel:octane_95" v="yes"/>
    <tag k="payment:debit_cards" v="yes"/>
    <tag k="amenity" v="fuel"/>
    <tag k="fuel:diesel" v="yes"/>
    <tag k="brand" v="OMV"/>
    <tag k="operator" v="OMV Hungária Kft."/>
  </way>
  <way action="modify" changeset="1" id="546693627" timestamp="1513205752000000000" uid="4579407" user="KAMI" version="1">
    <nd ref="5282893862"/>
    <nd ref="5282893863"/>
    <nd ref="5282893864"/>
    <nd ref="5282893865"/>
    <nd ref="5282893866"/>
    <nd ref="5282893867"/>
    <nd ref="5282893862"/>
    <tag k="name" v="OMV"/>
    <tag k="addr:city" v="Rétság"/>
    <tag k="addr:postcode" v="2651"/>
    <tag k="addr:street" v="Pusztaszántói út"/>
    <tag k="addr:housenumber" v="1"/>
    <tag k="phone" v="+3635351982"/>
    <tag k="website" v="https://www.omv.hu"/>
    <tag k="payment:cash" v="yes"/>
    <tag k="fuel:octane_95" v="yes"/>
    <tag k="payment:debit_cards" v="yes"/>
    <tag k="amenity" v="fuel"/>
    <tag k="fuel:diesel" v="yes"/>
    <tag k="brand" v="OMV"/>
    <tag k="operator" v="OMV Hungária Kft."/>
  </way>
</osm>
