<?xml version='1.0' encoding='UTF-8'?>
<osm generator="JOSM" version="0.6">
  <!-- Original coordinates: POINT (47.546497 19.028357) -->
  <!-- Original tags: None -->
  <node action="modify" changeset="99999" id="-1" lat="47.546497" lon="19.028357" timestamp="" uid="4579407" user="KAMI" version="99999">
    <tag k="addr:postcode" v="1037"/>
    <tag k="payment:debit_cards" v="yes"/>
    <tag k="shop" v="supermarket"/>
    <tag k="payment" v="cash"/>
    <tag k="source" v="website"/>
    <tag k="branch" v="Interspar hipermarket Budapest"/>
    <tag k="name" v="Interspar"/>
    <tag k="addr:housenumber" v="154"/>
    <tag k="operator" v="SPAR Magyarország Kereskedelmi Kft."/>
    <tag k="brand" v="Spar"/>
    <tag k="addr:city" v="Budapest"/>
    <tag k="addr:street" v="Bécsi út"/>
    <tag k="website" v="https://www.spar.hu/content/aspiag_spar_hu/hu_HU/uzletek/10/interspar-hipermarket-3-keruelet.html"/>
  </node>
  <!-- Original coordinates: POINT (47.470433 19.156749) -->
  <!-- Original tags: None -->
  <node action="modify" changeset="99999" id="-2" lat="47.470433" lon="19.156749" timestamp="" uid="4579407" user="KAMI" version="99999">
    <tag k="addr:postcode" v="1103"/>
    <tag k="payment:debit_cards" v="yes"/>
    <tag k="shop" v="supermarket"/>
    <tag k="payment" v="cash"/>
    <tag k="source" v="website"/>
    <tag k="branch" v="Interspar hipermarket Budapest"/>
    <tag k="name" v="Interspar"/>
    <tag k="addr:housenumber" v="30"/>
    <tag k="operator" v="SPAR Magyarország Kereskedelmi Kft."/>
    <tag k="brand" v="Spar"/>
    <tag k="addr:city" v="Budapest"/>
    <tag k="addr:street" v="Sibrik Miklós út"/>
    <tag k="website" v="https://www.spar.hu/content/aspiag_spar_hu/hu_HU/uzletek/11/interspar-hipermarket-10-keruelet0.html"/>
  </node>
  <!-- Original coordinates: POINT (47.5029 19.13633) -->
  <!-- Original tags: None -->
  <node action="modify" changeset="99999" id="-3" lat="47.5029" lon="19.13633" timestamp="" uid="4579407" user="KAMI" version="99999">
    <tag k="addr:postcode" v="1106"/>
    <tag k="payment:debit_cards" v="yes"/>
    <tag k="shop" v="supermarket"/>
    <tag k="payment" v="cash"/>
    <tag k="source" v="website"/>
    <tag k="branch" v="Interspar hipermarket Budapest"/>
    <tag k="name" v="Interspar"/>
    <tag k="addr:housenumber" v="61"/>
    <tag k="operator" v="SPAR Magyarország Kereskedelmi Kft."/>
    <tag k="brand" v="Spar"/>
    <tag k="addr:city" v="Budapest"/>
    <tag k="addr:street" v="Kerepesi út"/>
    <tag k="website" v="https://www.spar.hu/content/aspiag_spar_hu/hu_HU/uzletek/11/interspar-hipermarket-10-keruelet.html"/>
  </node>
  <!-- Original coordinates: POINT (47.46405 19.12746) -->
  <!-- Original tags: None -->
  <node action="modify" changeset="99999" id="-4" lat="47.46405" lon="19.12746" timestamp="" uid="4579407" user="KAMI" version="99999">
    <tag k="addr:postcode" v="1191"/>
    <tag k="payment:debit_cards" v="yes"/>
    <tag k="shop" v="supermarket"/>
    <tag k="payment" v="cash"/>
    <tag k="source" v="website"/>
    <tag k="branch" v="Interspar hipermarket Budapest"/>
    <tag k="name" v="Interspar"/>
    <tag k="addr:housenumber" v="201"/>
    <tag k="operator" v="SPAR Magyarország Kereskedelmi Kft."/>
    <tag k="brand" v="Spar"/>
    <tag k="addr:city" v="Budapest"/>
    <tag k="addr:street" v="Üllői utca"/>
    <tag k="website" v="https://www.spar.hu/content/aspiag_spar_hu/hu_HU/uzletek/11/interspar-hipermarket-budapest-19-keruelet.html"/>
  </node>
  <!-- Original coordinates: POINT (47.43935 19.10088) -->
  <!-- Original tags: None -->
  <node action="modify" changeset="99999" id="-5" lat="47.43935" lon="19.10088" timestamp="" uid="4579407" user="KAMI" version="99999">
    <tag k="addr:postcode" v="1203"/>
    <tag k="payment:debit_cards" v="yes"/>
    <tag k="shop" v="supermarket"/>
    <tag k="payment" v="cash"/>
    <tag k="source" v="website"/>
    <tag k="branch" v="Interspar hipermarket Budapest"/>
    <tag k="name" v="Interspar"/>
    <tag k="addr:housenumber" v="1"/>
    <tag k="operator" v="SPAR Magyarország Kereskedelmi Kft."/>
    <tag k="brand" v="Spar"/>
    <tag k="addr:city" v="Budapest"/>
    <tag k="addr:street" v="Széchenyi utca"/>
    <tag k="website" v="https://www.spar.hu/content/aspiag_spar_hu/hu_HU/uzletek/12/interspar-hipermarket-budapest-20-keruelet.html"/>
  </node>
  <!-- Original coordinates: POINT (47.646068 19.063413) -->
  <!-- Original tags: None -->
  <node action="modify" changeset="99999" id="-6" lat="47.646068" lon="19.063413" timestamp="" uid="4579407" user="KAMI" version="99999">
    <tag k="addr:postcode" v="2000"/>
    <tag k="payment:debit_cards" v="yes"/>
    <tag k="shop" v="supermarket"/>
    <tag k="payment" v="cash"/>
    <tag k="source" v="website"/>
    <tag k="branch" v="Interspar hipermarket Szentendre"/>
    <tag k="name" v="Interspar"/>
    <tag k="addr:housenumber" v="4"/>
    <tag k="operator" v="SPAR Magyarország Kereskedelmi Kft."/>
    <tag k="brand" v="Spar"/>
    <tag k="addr:city" v="Szentendre"/>
    <tag k="addr:street" v="Dobogókői utca"/>
    <tag k="website" v="https://www.spar.hu/content/aspiag_spar_hu/hu_HU/uzletek/20/interspar-hipermarket-szentendre-.html"/>
  </node>
  <!-- Original coordinates: POINT (47.41378 18.88284) -->
  <!-- Original tags: None -->
  <node action="modify" changeset="99999" id="-7" lat="47.41378" lon="18.88284" timestamp="" uid="4579407" user="KAMI" version="99999">
    <tag k="addr:postcode" v="2030"/>
    <tag k="payment:debit_cards" v="yes"/>
    <tag k="shop" v="supermarket"/>
    <tag k="payment" v="cash"/>
    <tag k="source" v="website"/>
    <tag k="branch" v="Interspar hipermarket Érd"/>
    <tag k="name" v="Interspar"/>
    <tag k="addr:housenumber" v="5"/>
    <tag k="operator" v="SPAR Magyarország Kereskedelmi Kft."/>
    <tag k="brand" v="Spar"/>
    <tag k="addr:city" v="Érd"/>
    <tag k="addr:street" v="Iparos utca"/>
    <tag k="website" v="https://www.spar.hu/content/aspiag_spar_hu/hu_HU/uzletek/20/interspar-hipermarket-erd.html"/>
  </node>
  <!-- Original coordinates: POINT (47.404122 18.946629) -->
  <!-- Original tags: None -->
  <node action="modify" changeset="99999" id="-8" lat="47.404122" lon="18.946629" timestamp="" uid="4579407" user="KAMI" version="99999">
    <tag k="addr:postcode" v="2049"/>
    <tag k="payment:debit_cards" v="yes"/>
    <tag k="shop" v="supermarket"/>
    <tag k="payment" v="cash"/>
    <tag k="source" v="website"/>
    <tag k="branch" v="Interspar hipermarket Diósd"/>
    <tag k="name" v="Interspar"/>
    <tag k="addr:housenumber" v="2/a"/>
    <tag k="operator" v="SPAR Magyarország Kereskedelmi Kft."/>
    <tag k="brand" v="Spar"/>
    <tag k="addr:city" v="Diósd"/>
    <tag k="addr:street" v="Balatoni út"/>
    <tag k="website" v="https://www.spar.hu/content/aspiag_spar_hu/hu_HU/uzletek/20/interspar-hipermarket-diosd.html"/>
  </node>
  <!-- Original coordinates: POINT (46.9608 18.91948) -->
  <!-- Original tags: None -->
  <node action="modify" changeset="99999" id="-9" lat="46.9608" lon="18.91948" timestamp="" uid="4579407" user="KAMI" version="99999">
    <tag k="addr:postcode" v="2400"/>
    <tag k="payment:debit_cards" v="yes"/>
    <tag k="shop" v="supermarket"/>
    <tag k="payment" v="cash"/>
    <tag k="source" v="website"/>
    <tag k="branch" v="Interspar hipermarket Dunaújváros"/>
    <tag k="name" v="Interspar"/>
    <tag k="addr:housenumber" v="2"/>
    <tag k="operator" v="SPAR Magyarország Kereskedelmi Kft."/>
    <tag k="brand" v="Spar"/>
    <tag k="addr:city" v="Dunaújváros"/>
    <tag k="addr:street" v="Béke körút"/>
    <tag k="website" v="https://www.spar.hu/content/aspiag_spar_hu/hu_HU/uzletek/24/interspar-hipermarket-dunaujvaros.html"/>
  </node>
  <!-- Original coordinates: POINT (47.591261 18.390463) -->
  <!-- Original tags: None -->
  <node action="modify" changeset="99999" id="-10" lat="47.591261" lon="18.390463" timestamp="" uid="4579407" user="KAMI" version="99999">
    <tag k="addr:postcode" v="2800"/>
    <tag k="payment:debit_cards" v="yes"/>
    <tag k="shop" v="supermarket"/>
    <tag k="payment" v="cash"/>
    <tag k="source" v="website"/>
    <tag k="branch" v="Interspar hipermarket Tatabánya"/>
    <tag k="name" v="Interspar"/>
    <tag k="addr:housenumber" v="25"/>
    <tag k="operator" v="SPAR Magyarország Kereskedelmi Kft."/>
    <tag k="brand" v="Spar"/>
    <tag k="addr:city" v="Tatabánya"/>
    <tag k="addr:street" v="Győri út"/>
    <tag k="website" v="https://www.spar.hu/content/aspiag_spar_hu/hu_HU/uzletek/28/interspar-hipermarket-tatabanya.html"/>
  </node>
  <!-- Original coordinates: POINT (48.10268 20.79223) -->
  <!-- Original tags: None -->
  <node action="modify" changeset="99999" id="-11" lat="48.10268" lon="20.79223" timestamp="" uid="4579407" user="KAMI" version="99999">
    <tag k="addr:postcode" v="3530"/>
    <tag k="payment:debit_cards" v="yes"/>
    <tag k="shop" v="supermarket"/>
    <tag k="payment" v="cash"/>
    <tag k="source" v="website"/>
    <tag k="branch" v="Interspar hipermarket Miskolc"/>
    <tag k="name" v="Interspar"/>
    <tag k="addr:housenumber" v="2-4"/>
    <tag k="operator" v="SPAR Magyarország Kereskedelmi Kft."/>
    <tag k="brand" v="Spar"/>
    <tag k="addr:city" v="Miskolc"/>
    <tag k="addr:street" v="Bajcsy-Zsilinszky út"/>
    <tag k="website" v="https://www.spar.hu/content/aspiag_spar_hu/hu_HU/uzletek/35/interspar-hipermarket-miskolc.html"/>
  </node>
  <!-- Original coordinates: POINT (48.22172 20.28103) -->
  <!-- Original tags: None -->
  <node action="modify" changeset="99999" id="-12" lat="48.22172" lon="20.28103" timestamp="" uid="4579407" user="KAMI" version="99999">
    <tag k="addr:postcode" v="3600"/>
    <tag k="payment:debit_cards" v="yes"/>
    <tag k="shop" v="supermarket"/>
    <tag k="payment" v="cash"/>
    <tag k="source" v="website"/>
    <tag k="branch" v="Interspar hipermarket Ózd"/>
    <tag k="name" v="Interspar"/>
    <tag k="addr:housenumber" v="4"/>
    <tag k="operator" v="SPAR Magyarország Kereskedelmi Kft."/>
    <tag k="brand" v="Spar"/>
    <tag k="addr:city" v="Ózd"/>
    <tag k="addr:street" v="Sárli út"/>
    <tag k="website" v="https://www.spar.hu/content/aspiag_spar_hu/hu_HU/uzletek/36/interspar-hipermarket-ozd.html"/>
  </node>
  <!-- Original coordinates: POINT (47.54167 21.61981) -->
  <!-- Original tags: None -->
  <node action="modify" changeset="99999" id="-13" lat="47.54167" lon="21.61981" timestamp="" uid="4579407" user="KAMI" version="99999">
    <tag k="addr:postcode" v="4027"/>
    <tag k="payment:debit_cards" v="yes"/>
    <tag k="shop" v="supermarket"/>
    <tag k="payment" v="cash"/>
    <tag k="source" v="website"/>
    <tag k="branch" v="Interspar hipermarket Debrecen"/>
    <tag k="name" v="Interspar"/>
    <tag k="addr:housenumber" v="27"/>
    <tag k="operator" v="SPAR Magyarország Kereskedelmi Kft."/>
    <tag k="brand" v="Spar"/>
    <tag k="addr:city" v="Debrecen"/>
    <tag k="addr:street" v="Füredi út"/>
    <tag k="website" v="https://www.spar.hu/content/aspiag_spar_hu/hu_HU/uzletek/40/interspar-hipermarket-debrecen.html"/>
  </node>
  <!-- Original coordinates: POINT (47.955953 21.727577) -->
  <!-- Original tags: None -->
  <node action="modify" changeset="99999" id="-14" lat="47.955953" lon="21.727577" timestamp="" uid="4579407" user="KAMI" version="99999">
    <tag k="addr:postcode" v="4400"/>
    <tag k="payment:debit_cards" v="yes"/>
    <tag k="shop" v="supermarket"/>
    <tag k="payment" v="cash"/>
    <tag k="source" v="website"/>
    <tag k="branch" v="Interspar hipermarket Nyíregyháza"/>
    <tag k="name" v="Interspar"/>
    <tag k="addr:housenumber" v="8"/>
    <tag k="operator" v="SPAR Magyarország Kereskedelmi Kft."/>
    <tag k="brand" v="Spar"/>
    <tag k="addr:city" v="Nyíregyháza"/>
    <tag k="addr:street" v="László utca"/>
    <tag k="website" v="https://www.spar.hu/content/aspiag_spar_hu/hu_HU/uzletek/44/interspar-hipermarket-nyiregyhaza.html"/>
  </node>
  <!-- Original coordinates: POINT (47.97224 21.72651) -->
  <!-- Original tags: None -->
  <node action="modify" changeset="99999" id="-15" lat="47.97224" lon="21.72651" timestamp="" uid="4579407" user="KAMI" version="99999">
    <tag k="addr:postcode" v="4400"/>
    <tag k="payment:debit_cards" v="yes"/>
    <tag k="shop" v="supermarket"/>
    <tag k="payment" v="cash"/>
    <tag k="source" v="website"/>
    <tag k="branch" v="Interspar hipermarket Nyíregyháza"/>
    <tag k="name" v="Interspar"/>
    <tag k="operator" v="SPAR Magyarország Kereskedelmi Kft."/>
    <tag k="brand" v="Spar"/>
    <tag k="addr:city" v="Nyíregyháza"/>
    <tag k="addr:street" v="Korányi Frigyes utca"/>
    <tag k="website" v="https://www.spar.hu/content/aspiag_spar_hu/hu_HU/uzletek/44/interspar-hipermarket-nyiregyhaza-ii-.html"/>
  </node>
  <!-- Original coordinates: POINT (47.179982 20.182813) -->
  <!-- Original tags: None -->
  <node action="modify" changeset="99999" id="-16" lat="47.179982" lon="20.182813" timestamp="" uid="4579407" user="KAMI" version="99999">
    <tag k="addr:postcode" v="5000"/>
    <tag k="payment:debit_cards" v="yes"/>
    <tag k="shop" v="supermarket"/>
    <tag k="payment" v="cash"/>
    <tag k="source" v="website"/>
    <tag k="branch" v="Interspar hipermarket Szolnok"/>
    <tag k="name" v="Interspar"/>
    <tag k="addr:housenumber" v="29"/>
    <tag k="operator" v="SPAR Magyarország Kereskedelmi Kft."/>
    <tag k="brand" v="Spar"/>
    <tag k="addr:city" v="Szolnok"/>
    <tag k="addr:street" v="Mátyás király út"/>
    <tag k="website" v="https://www.spar.hu/content/aspiag_spar_hu/hu_HU/uzletek/50/interspar-hipermarket-szolnok.html"/>
  </node>
  <!-- Original coordinates: POINT (46.639507 21.26215) -->
  <!-- Original tags: None -->
  <node action="modify" changeset="99999" id="-17" lat="46.639507" lon="21.26215" timestamp="" uid="4579407" user="KAMI" version="99999">
    <tag k="addr:postcode" v="5700"/>
    <tag k="payment:debit_cards" v="yes"/>
    <tag k="shop" v="supermarket"/>
    <tag k="payment" v="cash"/>
    <tag k="source" v="website"/>
    <tag k="branch" v="Interspar hipermarket Gyula"/>
    <tag k="name" v="Interspar"/>
    <tag k="addr:housenumber" v="1"/>
    <tag k="operator" v="SPAR Magyarország Kereskedelmi Kft."/>
    <tag k="brand" v="Spar"/>
    <tag k="addr:city" v="Gyula"/>
    <tag k="addr:street" v="Kétegyházi út"/>
    <tag k="website" v="https://www.spar.hu/content/aspiag_spar_hu/hu_HU/uzletek/57/interspar-hipermarket-gyula.html"/>
  </node>
  <!-- Original coordinates: POINT (46.409886 20.322447) -->
  <!-- Original tags: None -->
  <node action="modify" changeset="99999" id="-18" lat="46.409886" lon="20.322447" timestamp="" uid="4579407" user="KAMI" version="99999">
    <tag k="addr:postcode" v="6800"/>
    <tag k="payment:debit_cards" v="yes"/>
    <tag k="shop" v="supermarket"/>
    <tag k="payment" v="cash"/>
    <tag k="source" v="website"/>
    <tag k="branch" v="Interspar hipermarket Hódmezővásárhely"/>
    <tag k="name" v="Interspar"/>
    <tag k="addr:housenumber" v="20"/>
    <tag k="operator" v="SPAR Magyarország Kereskedelmi Kft."/>
    <tag k="brand" v="Spar"/>
    <tag k="addr:city" v="Hódmezővásárhely"/>
    <tag k="addr:street" v="Kaszap utca"/>
    <tag k="website" v="https://www.spar.hu/content/aspiag_spar_hu/hu_HU/uzletek/68/interspar-hipermarket-hodmezvasarhely.html"/>
  </node>
  <!-- Original coordinates: POINT (46.3434416 18.71086) -->
  <!-- Original tags: None -->
  <node action="modify" changeset="99999" id="-19" lat="46.3434416" lon="18.71086" timestamp="" uid="4579407" user="KAMI" version="99999">
    <tag k="addr:postcode" v="7100"/>
    <tag k="payment:debit_cards" v="yes"/>
    <tag k="shop" v="supermarket"/>
    <tag k="payment" v="cash"/>
    <tag k="source" v="website"/>
    <tag k="branch" v="Interspar hipermarket Szekszárd"/>
    <tag k="name" v="Interspar"/>
    <tag k="addr:housenumber" v="9"/>
    <tag k="operator" v="SPAR Magyarország Kereskedelmi Kft."/>
    <tag k="brand" v="Spar"/>
    <tag k="addr:city" v="Szekszárd"/>
    <tag k="addr:street" v="Tartsay utca"/>
    <tag k="website" v="https://www.spar.hu/content/aspiag_spar_hu/hu_HU/uzletek/71/interspar-hipermarket-szekszard.html"/>
  </node>
  <!-- Original coordinates: POINT (46.0460506 18.2318198) -->
  <!-- Original tags: None -->
  <node action="modify" changeset="99999" id="-20" lat="46.0460506" lon="18.2318198" timestamp="" uid="4579407" user="KAMI" version="99999">
    <tag k="addr:postcode" v="7632"/>
    <tag k="payment:debit_cards" v="yes"/>
    <tag k="shop" v="supermarket"/>
    <tag k="payment" v="cash"/>
    <tag k="source" v="website"/>
    <tag k="branch" v="Interspar hipermarket Pécs"/>
    <tag k="name" v="Interspar"/>
    <tag k="addr:housenumber" v="37"/>
    <tag k="operator" v="SPAR Magyarország Kereskedelmi Kft."/>
    <tag k="brand" v="Spar"/>
    <tag k="addr:city" v="Pécs"/>
    <tag k="addr:street" v="Siklósi út"/>
    <tag k="website" v="https://www.spar.hu/content/aspiag_spar_hu/hu_HU/uzletek/76/interspar-hipermarket-pecs.html"/>
  </node>
  <!-- Original coordinates: POINT (46.0714004 18.2298371) -->
  <!-- Original tags: None -->
  <node action="modify" changeset="99999" id="-21" lat="46.0714004" lon="18.2298371" timestamp="" uid="4579407" user="KAMI" version="99999">
    <tag k="addr:postcode" v="7622"/>
    <tag k="payment:debit_cards" v="yes"/>
    <tag k="shop" v="supermarket"/>
    <tag k="payment" v="cash"/>
    <tag k="source" v="website"/>
    <tag k="branch" v="Interspar hipermarket Pécs"/>
    <tag k="name" v="Interspar"/>
    <tag k="addr:housenumber" v="11"/>
    <tag k="operator" v="SPAR Magyarország Kereskedelmi Kft."/>
    <tag k="brand" v="Spar"/>
    <tag k="addr:city" v="Pécs"/>
    <tag k="addr:street" v="Bajcsy-Zsilinszky utca"/>
    <tag k="website" v="https://www.spar.hu/content/aspiag_spar_hu/hu_HU/uzletek/76/interspar-hipermarket-pecs0.html"/>
  </node>
  <!-- Original coordinates: POINT (47.19118 18.42367) -->
  <!-- Original tags: None -->
  <node action="modify" changeset="99999" id="-22" lat="47.19118" lon="18.42367" timestamp="" uid="4579407" user="KAMI" version="99999">
    <tag k="addr:postcode" v="8000"/>
    <tag k="payment:debit_cards" v="yes"/>
    <tag k="shop" v="supermarket"/>
    <tag k="payment" v="cash"/>
    <tag k="source" v="website"/>
    <tag k="branch" v="Interspar hipermarket Székesfehérvár"/>
    <tag k="name" v="Interspar"/>
    <tag k="addr:housenumber" v="41"/>
    <tag k="operator" v="SPAR Magyarország Kereskedelmi Kft."/>
    <tag k="brand" v="Spar"/>
    <tag k="addr:city" v="Székesfehérvár"/>
    <tag k="addr:street" v="Budai út"/>
    <tag k="website" v="https://www.spar.hu/content/aspiag_spar_hu/hu_HU/uzletek/80/interspar-hipermarket-szekesfehervar.html"/>
  </node>
  <!-- Original coordinates: POINT (47.16488 18.40374) -->
  <!-- Original tags: None -->
  <node action="modify" changeset="99999" id="-23" lat="47.16488" lon="18.40374" timestamp="" uid="4579407" user="KAMI" version="99999">
    <tag k="addr:postcode" v="8000"/>
    <tag k="payment:debit_cards" v="yes"/>
    <tag k="shop" v="supermarket"/>
    <tag k="payment" v="cash"/>
    <tag k="source" v="website"/>
    <tag k="branch" v="Interspar hipermarket Székesfehérvár"/>
    <tag k="name" v="Interspar"/>
    <tag k="addr:housenumber" v="44-46"/>
    <tag k="operator" v="SPAR Magyarország Kereskedelmi Kft."/>
    <tag k="brand" v="Spar"/>
    <tag k="addr:city" v="Székesfehérvár"/>
    <tag k="addr:street" v="Balatoni út"/>
    <tag k="website" v="https://www.spar.hu/content/aspiag_spar_hu/hu_HU/uzletek/80/interspar-hipermarket-szekesfehervar0.html"/>
  </node>
  <!-- Original coordinates: POINT (47.08457 17.9259) -->
  <!-- Original tags: None -->
  <node action="modify" changeset="99999" id="-24" lat="47.08457" lon="17.9259" timestamp="" uid="4579407" user="KAMI" version="99999">
    <tag k="addr:postcode" v="8200"/>
    <tag k="payment:debit_cards" v="yes"/>
    <tag k="shop" v="supermarket"/>
    <tag k="payment" v="cash"/>
    <tag k="source" v="website"/>
    <tag k="branch" v="Interspar hipermarket Veszprém"/>
    <tag k="name" v="Interspar"/>
    <tag k="addr:housenumber" v="4"/>
    <tag k="operator" v="SPAR Magyarország Kereskedelmi Kft."/>
    <tag k="brand" v="Spar"/>
    <tag k="addr:city" v="Veszprém"/>
    <tag k="addr:street" v="Dornyai Béla utca"/>
    <tag k="website" v="https://www.spar.hu/content/aspiag_spar_hu/hu_HU/uzletek/82/interspar-hipermarket-veszprem.html"/>
  </node>
  <!-- Original coordinates: POINT (46.77389 17.2674) -->
  <!-- Original tags: None -->
  <node action="modify" changeset="99999" id="-25" lat="46.77389" lon="17.2674" timestamp="" uid="4579407" user="KAMI" version="99999">
    <tag k="addr:postcode" v="8360"/>
    <tag k="payment:debit_cards" v="yes"/>
    <tag k="shop" v="supermarket"/>
    <tag k="payment" v="cash"/>
    <tag k="source" v="website"/>
    <tag k="branch" v="Interspar hipermarket Keszthely"/>
    <tag k="name" v="Interspar"/>
    <tag k="addr:housenumber" v="37"/>
    <tag k="operator" v="SPAR Magyarország Kereskedelmi Kft."/>
    <tag k="brand" v="Spar"/>
    <tag k="addr:city" v="Keszthely"/>
    <tag k="addr:street" v="Tapolcai út"/>
    <tag k="website" v="https://www.spar.hu/content/aspiag_spar_hu/hu_HU/uzletek/83/interspar-hipermarket-keszthely.html"/>
  </node>
  <!-- Original coordinates: POINT (47.329301 17.456956) -->
  <!-- Original tags: None -->
  <node action="modify" changeset="99999" id="-26" lat="47.329301" lon="17.456956" timestamp="" uid="4579407" user="KAMI" version="99999">
    <tag k="addr:postcode" v="8500"/>
    <tag k="payment:debit_cards" v="yes"/>
    <tag k="shop" v="supermarket"/>
    <tag k="payment" v="cash"/>
    <tag k="source" v="website"/>
    <tag k="branch" v="Interspar hipermarket Pápa"/>
    <tag k="name" v="Interspar"/>
    <tag k="addr:housenumber" v="21"/>
    <tag k="operator" v="SPAR Magyarország Kereskedelmi Kft."/>
    <tag k="brand" v="Spar"/>
    <tag k="addr:city" v="Pápa"/>
    <tag k="addr:street" v="Celli út"/>
    <tag k="website" v="https://www.spar.hu/content/aspiag_spar_hu/hu_HU/uzletek/85/interspar-hipermarket-papa.html"/>
  </node>
  <!-- Original coordinates: POINT (46.45345 17.0112) -->
  <!-- Original tags: None -->
  <node action="modify" changeset="99999" id="-27" lat="46.45345" lon="17.0112" timestamp="" uid="4579407" user="KAMI" version="99999">
    <tag k="addr:postcode" v="8800"/>
    <tag k="payment:debit_cards" v="yes"/>
    <tag k="shop" v="supermarket"/>
    <tag k="payment" v="cash"/>
    <tag k="source" v="website"/>
    <tag k="branch" v="Interspar hipermarket Nagykanizsa"/>
    <tag k="name" v="Interspar"/>
    <tag k="addr:housenumber" v="4"/>
    <tag k="operator" v="SPAR Magyarország Kereskedelmi Kft."/>
    <tag k="brand" v="Spar"/>
    <tag k="addr:city" v="Nagykanizsa"/>
    <tag k="addr:street" v="Táborhely utca"/>
    <tag k="website" v="https://www.spar.hu/content/aspiag_spar_hu/hu_HU/uzletek/88/interspar-hipermarket-nagykanizsa.html"/>
  </node>
  <!-- Original coordinates: POINT (46.84764 16.8339) -->
  <!-- Original tags: None -->
  <node action="modify" changeset="99999" id="-28" lat="46.84764" lon="16.8339" timestamp="" uid="4579407" user="KAMI" version="99999">
    <tag k="addr:postcode" v="8900"/>
    <tag k="payment:debit_cards" v="yes"/>
    <tag k="shop" v="supermarket"/>
    <tag k="payment" v="cash"/>
    <tag k="source" v="website"/>
    <tag k="branch" v="Interspar hipermarket Zalaegerszeg"/>
    <tag k="name" v="Interspar"/>
    <tag k="addr:housenumber" v="1"/>
    <tag k="operator" v="SPAR Magyarország Kereskedelmi Kft."/>
    <tag k="brand" v="Spar"/>
    <tag k="addr:city" v="Zalaegerszeg"/>
    <tag k="addr:street" v="Ola utca"/>
    <tag k="website" v="https://www.spar.hu/content/aspiag_spar_hu/hu_HU/uzletek/89/interspar-hipermarket-zalaegerszeg.html"/>
  </node>
  <!-- Original coordinates: POINT (47.68765 17.64882) -->
  <!-- Original tags: None -->
  <node action="modify" changeset="99999" id="-29" lat="47.68765" lon="17.64882" timestamp="" uid="4579407" user="KAMI" version="99999">
    <tag k="addr:postcode" v="9023"/>
    <tag k="payment:debit_cards" v="yes"/>
    <tag k="shop" v="supermarket"/>
    <tag k="payment" v="cash"/>
    <tag k="source" v="website"/>
    <tag k="branch" v="Interspar hipermarket Győr"/>
    <tag k="name" v="Interspar"/>
    <tag k="addr:housenumber" v="3"/>
    <tag k="operator" v="SPAR Magyarország Kereskedelmi Kft."/>
    <tag k="brand" v="Spar"/>
    <tag k="addr:city" v="Győr"/>
    <tag k="addr:street" v="Fehérvári út"/>
    <tag k="website" v="https://www.spar.hu/content/aspiag_spar_hu/hu_HU/uzletek/90/interspar-hipermarket-gyr.html"/>
  </node>
  <!-- Original coordinates: POINT (47.69119 17.64552) -->
  <!-- Original tags: None -->
  <node action="modify" changeset="99999" id="-30" lat="47.69119" lon="17.64552" timestamp="" uid="4579407" user="KAMI" version="99999">
    <tag k="addr:postcode" v="9022"/>
    <tag k="payment:debit_cards" v="yes"/>
    <tag k="shop" v="supermarket"/>
    <tag k="payment" v="cash"/>
    <tag k="source" v="website"/>
    <tag k="branch" v="Interspar hipermarket Győr"/>
    <tag k="name" v="Interspar"/>
    <tag k="addr:housenumber" v="1"/>
    <tag k="operator" v="SPAR Magyarország Kereskedelmi Kft."/>
    <tag k="brand" v="Spar"/>
    <tag k="addr:city" v="Győr"/>
    <tag k="addr:street" v="Budai út"/>
    <tag k="website" v="https://www.spar.hu/content/aspiag_spar_hu/hu_HU/uzletek/90/interspar-hipermarket-gyr-ece.html"/>
  </node>
  <!-- Original coordinates: POINT (47.689585 16.583954) -->
  <!-- Original tags: None -->
  <node action="modify" changeset="99999" id="-31" lat="47.689585" lon="16.583954" timestamp="" uid="4579407" user="KAMI" version="99999">
    <tag k="addr:postcode" v="9400"/>
    <tag k="payment:debit_cards" v="yes"/>
    <tag k="shop" v="supermarket"/>
    <tag k="payment" v="cash"/>
    <tag k="source" v="website"/>
    <tag k="branch" v="Interspar hipermarket Sopron"/>
    <tag k="name" v="Interspar"/>
    <tag k="addr:housenumber" v="15-17"/>
    <tag k="operator" v="SPAR Magyarország Kereskedelmi Kft."/>
    <tag k="brand" v="Spar"/>
    <tag k="addr:city" v="Sopron"/>
    <tag k="addr:street" v="Selmeci utca"/>
    <tag k="website" v="https://www.spar.hu/content/aspiag_spar_hu/hu_HU/uzletek/94/interspar-hipermarket-sopron.html"/>
  </node>
  <!-- Original coordinates: POINT (47.214359 16.621832) -->
  <!-- Original tags: None -->
  <node action="modify" changeset="99999" id="-32" lat="47.214359" lon="16.621832" timestamp="" uid="4579407" user="KAMI" version="99999">
    <tag k="addr:postcode" v="9700"/>
    <tag k="payment:debit_cards" v="yes"/>
    <tag k="shop" v="supermarket"/>
    <tag k="payment" v="cash"/>
    <tag k="source" v="website"/>
    <tag k="branch" v="Interspar hipermarket Szombathely"/>
    <tag k="name" v="Interspar"/>
    <tag k="operator" v="SPAR Magyarország Kereskedelmi Kft."/>
    <tag k="brand" v="Spar"/>
    <tag k="addr:city" v="Szombathely"/>
    <tag k="addr:street" v="Újvilág utca"/>
    <tag k="website" v="https://www.spar.hu/content/aspiag_spar_hu/hu_HU/uzletek/97/interspar-hipermarket-szombathely.html"/>
  </node>
</osm>
