<?xml version='1.0' encoding='UTF-8'?>
<osm generator="JOSM" version="0.6">
  <!-- Original coordinates: POINT (47.709941 18.015708) -->
  <!-- Original tags: None -->
  <node action="modify" changeset="99999" id="-1" lat="47.709941" lon="18.015708" timestamp="" uid="4579407" user="KAMI" version="99999">
    <tag k="brand" v="Avia"/>
    <tag k="source" v="website"/>
    <tag k="phone" v="+3634595009"/>
    <tag k="addr:housenumber" v="2"/>
    <tag k="email" v="avia@avia.hu"/>
    <tag k="youtube" v="https://www.youtube.com/channel/UCjvjkjf2RgmKBuTnKSXk-Rg"/>
    <tag k="addr:city" v="Ács"/>
    <tag k="fuel:octane_95" v="yes"/>
    <tag k="payment:mastercard" v="yes"/>
    <tag k="addr:street" v="Fő utca"/>
    <tag k="fuel:diesel" v="yes"/>
    <tag k="amenity" v="fuel"/>
    <tag k="name" v="Avia"/>
    <tag k="facebook" v="https://www.facebook.com/AVIAHungary"/>
    <tag k="payment:visa" v="yes"/>
    <tag k="addr:postcode" v="2941"/>
    <tag k="website" v="https://www.avia.hu/toltoallomas/?id=114"/>
    <tag k="operator" v="AVIA Hungária Kft."/>
  </node>
  <!-- Original coordinates: POINT (46.652441 17.924793) -->
  <!-- Original tags: None -->
  <node action="modify" changeset="99999" id="-2" lat="46.652441" lon="17.924793" timestamp="" uid="4579407" user="KAMI" version="99999">
    <tag k="brand" v="Avia"/>
    <tag k="addr:conscriptionnumber" v="206/5"/>
    <tag k="phone" v="+3684330734"/>
    <tag k="email" v="avia@avia.hu"/>
    <tag k="youtube" v="https://www.youtube.com/channel/UCjvjkjf2RgmKBuTnKSXk-Rg"/>
    <tag k="addr:city" v="Andocs"/>
    <tag k="fuel:octane_95" v="yes"/>
    <tag k="payment:mastercard" v="yes"/>
    <tag k="addr:street" v="Ady Endre utca"/>
    <tag k="source" v="website"/>
    <tag k="fuel:diesel" v="yes"/>
    <tag k="amenity" v="fuel"/>
    <tag k="name" v="Avia"/>
    <tag k="facebook" v="https://www.facebook.com/AVIAHungary"/>
    <tag k="payment:visa" v="yes"/>
    <tag k="addr:postcode" v="8675"/>
    <tag k="website" v="https://www.avia.hu/toltoallomas/?id=47"/>
    <tag k="operator" v="AVIA Hungária Kft."/>
  </node>
  <!-- Original coordinates: POINT (47.6587106 19.4994406) -->
  <!-- Original tags: None -->
  <node action="modify" changeset="99999" id="-3" lat="47.6587106" lon="19.4994406" timestamp="" uid="4579407" user="KAMI" version="99999">
    <tag k="brand" v="Avia"/>
    <tag k="source" v="website"/>
    <tag k="phone" v="+36202004000"/>
    <tag k="addr:housenumber" v="44"/>
    <tag k="email" v="avia@avia.hu"/>
    <tag k="youtube" v="https://www.youtube.com/channel/UCjvjkjf2RgmKBuTnKSXk-Rg"/>
    <tag k="addr:city" v="Aszód"/>
    <tag k="fuel:octane_95" v="yes"/>
    <tag k="payment:mastercard" v="yes"/>
    <tag k="addr:street" v="Falujárók út"/>
    <tag k="fuel:diesel" v="yes"/>
    <tag k="amenity" v="fuel"/>
    <tag k="name" v="Avia"/>
    <tag k="facebook" v="https://www.facebook.com/AVIAHungary"/>
    <tag k="payment:visa" v="yes"/>
    <tag k="addr:postcode" v="2170"/>
    <tag k="website" v="https://www.avia.hu/toltoallomas/?id=88"/>
    <tag k="operator" v="AVIA Hungária Kft."/>
  </node>
  <!-- Original coordinates: POINT (46.87672420429322 16.74576044082642) -->
  <!-- Original tags: None -->
  <node action="modify" changeset="99999" id="-4" lat="46.87672420429322" lon="16.745760440826416" timestamp="" uid="4579407" user="KAMI" version="99999">
    <tag k="brand" v="Avia"/>
    <tag k="source" v="website"/>
    <tag k="phone" v="+3692460696"/>
    <tag k="addr:housenumber" v="21-23"/>
    <tag k="email" v="avia@avia.hu"/>
    <tag k="youtube" v="https://www.youtube.com/channel/UCjvjkjf2RgmKBuTnKSXk-Rg"/>
    <tag k="addr:city" v="Bagod"/>
    <tag k="fuel:octane_95" v="yes"/>
    <tag k="payment:mastercard" v="yes"/>
    <tag k="addr:street" v="Kossuth utca"/>
    <tag k="fuel:diesel" v="yes"/>
    <tag k="amenity" v="fuel"/>
    <tag k="name" v="Avia"/>
    <tag k="facebook" v="https://www.facebook.com/AVIAHungary"/>
    <tag k="payment:visa" v="yes"/>
    <tag k="addr:postcode" v="8992"/>
    <tag k="website" v="https://www.avia.hu/toltoallomas/?id=9"/>
    <tag k="operator" v="AVIA Hungária Kft."/>
  </node>
  <!-- Original coordinates: POINT (46.18934 18.933) -->
  <!-- Original tags: None -->
  <node action="modify" changeset="99999" id="-5" lat="46.18934" lon="18.933" timestamp="" uid="4579407" user="KAMI" version="99999">
    <tag k="brand" v="Avia"/>
    <tag k="source" v="website"/>
    <tag k="phone" v="+3679522730"/>
    <tag k="addr:housenumber" v="56"/>
    <tag k="email" v="avia@avia.hu"/>
    <tag k="youtube" v="https://www.youtube.com/channel/UCjvjkjf2RgmKBuTnKSXk-Rg"/>
    <tag k="addr:city" v="Baja"/>
    <tag k="fuel:octane_95" v="yes"/>
    <tag k="payment:mastercard" v="yes"/>
    <tag k="addr:street" v="Bajcsy-Zs. utca"/>
    <tag k="fuel:diesel" v="yes"/>
    <tag k="amenity" v="fuel"/>
    <tag k="name" v="Avia"/>
    <tag k="facebook" v="https://www.facebook.com/AVIAHungary"/>
    <tag k="payment:visa" v="yes"/>
    <tag k="addr:postcode" v="6500"/>
    <tag k="website" v="https://www.avia.hu/toltoallomas/?id=61"/>
    <tag k="operator" v="AVIA Hungária Kft."/>
  </node>
  <!-- Original coordinates: POINT (46.2086169 17.1451804) -->
  <!-- Original tags: None -->
  <node action="modify" changeset="99999" id="-6" lat="46.2086169" lon="17.1451804" timestamp="" uid="4579407" user="KAMI" version="99999">
    <tag k="brand" v="Avia"/>
    <tag k="source" v="website"/>
    <tag k="phone" v="+3682778711"/>
    <tag k="addr:housenumber" v="1"/>
    <tag k="email" v="avia@avia.hu"/>
    <tag k="youtube" v="https://www.youtube.com/channel/UCjvjkjf2RgmKBuTnKSXk-Rg"/>
    <tag k="addr:city" v="Berzence"/>
    <tag k="fuel:octane_95" v="yes"/>
    <tag k="payment:mastercard" v="yes"/>
    <tag k="addr:street" v="Árpád tér"/>
    <tag k="fuel:diesel" v="yes"/>
    <tag k="amenity" v="fuel"/>
    <tag k="name" v="Avia"/>
    <tag k="facebook" v="https://www.facebook.com/AVIAHungary"/>
    <tag k="payment:visa" v="yes"/>
    <tag k="addr:postcode" v="7516"/>
    <tag k="website" v="https://www.avia.hu/toltoallomas/?id=44"/>
    <tag k="operator" v="AVIA Hungária Kft."/>
  </node>
  <!-- Original coordinates: POINT (47.813262 21.850911) -->
  <!-- Original tags: None -->
  <node action="modify" changeset="99999" id="-7" lat="47.813262" lon="21.850911" timestamp="" uid="4579407" user="KAMI" version="99999">
    <tag k="brand" v="Avia"/>
    <tag k="source" v="website"/>
    <tag k="addr:housenumber" v="32"/>
    <tag k="email" v="avia@avia.hu"/>
    <tag k="youtube" v="https://www.youtube.com/channel/UCjvjkjf2RgmKBuTnKSXk-Rg"/>
    <tag k="addr:city" v="Biri"/>
    <tag k="fuel:octane_95" v="yes"/>
    <tag k="payment:mastercard" v="yes"/>
    <tag k="addr:street" v="Fő utca"/>
    <tag k="fuel:diesel" v="yes"/>
    <tag k="amenity" v="fuel"/>
    <tag k="name" v="Avia"/>
    <tag k="facebook" v="https://www.facebook.com/AVIAHungary"/>
    <tag k="payment:visa" v="yes"/>
    <tag k="addr:postcode" v="4235"/>
    <tag k="website" v="https://www.avia.hu/toltoallomas/?id=85"/>
    <tag k="operator" v="AVIA Hungária Kft."/>
  </node>
  <!-- Original coordinates: POINT (47.5146 19.1466) -->
  <!-- Original tags: None -->
  <node action="modify" changeset="99999" id="-8" lat="47.5146" lon="19.1466" timestamp="" uid="4579407" user="KAMI" version="99999">
    <tag k="brand" v="Avia"/>
    <tag k="source" v="website"/>
    <tag k="phone" v="+3614609623"/>
    <tag k="addr:housenumber" v="67"/>
    <tag k="email" v="avia@avia.hu"/>
    <tag k="youtube" v="https://www.youtube.com/channel/UCjvjkjf2RgmKBuTnKSXk-Rg"/>
    <tag k="addr:city" v="Budapest"/>
    <tag k="fuel:octane_95" v="yes"/>
    <tag k="payment:mastercard" v="yes"/>
    <tag k="addr:street" v="Gvadányi út"/>
    <tag k="fuel:diesel" v="yes"/>
    <tag k="amenity" v="fuel"/>
    <tag k="name" v="Avia"/>
    <tag k="facebook" v="https://www.facebook.com/AVIAHungary"/>
    <tag k="payment:visa" v="yes"/>
    <tag k="addr:postcode" v="1144"/>
    <tag k="website" v="https://www.avia.hu/toltoallomas/?id=12"/>
    <tag k="operator" v="AVIA Hungária Kft."/>
  </node>
  <!-- Original coordinates: POINT (47.4114179 19.0566853) -->
  <!-- Original tags: None -->
  <node action="modify" changeset="99999" id="-9" lat="47.4114179" lon="19.0566853" timestamp="" uid="4579407" user="KAMI" version="99999">
    <tag k="brand" v="Avia"/>
    <tag k="source" v="website"/>
    <tag k="phone" v="+3614206675"/>
    <tag k="addr:housenumber" v="195-197"/>
    <tag k="email" v="avia@avia.hu"/>
    <tag k="youtube" v="https://www.youtube.com/channel/UCjvjkjf2RgmKBuTnKSXk-Rg"/>
    <tag k="addr:city" v="Budapest"/>
    <tag k="fuel:octane_95" v="yes"/>
    <tag k="payment:mastercard" v="yes"/>
    <tag k="addr:street" v="II. Rákóczi Ferenc utca"/>
    <tag k="fuel:diesel" v="yes"/>
    <tag k="amenity" v="fuel"/>
    <tag k="name" v="Avia"/>
    <tag k="facebook" v="https://www.facebook.com/AVIAHungary"/>
    <tag k="payment:visa" v="yes"/>
    <tag k="addr:postcode" v="1214"/>
    <tag k="website" v="https://www.avia.hu/toltoallomas/?id=1"/>
    <tag k="operator" v="AVIA Hungária Kft."/>
  </node>
  <!-- Original coordinates: POINT (47.5056 19.1604) -->
  <!-- Original tags: None -->
  <node action="modify" changeset="99999" id="-10" lat="47.5056" lon="19.1604" timestamp="" uid="4579407" user="KAMI" version="99999">
    <tag k="brand" v="Avia"/>
    <tag k="source" v="website"/>
    <tag k="phone" v="+36209791555"/>
    <tag k="addr:housenumber" v="89"/>
    <tag k="email" v="avia@avia.hu"/>
    <tag k="youtube" v="https://www.youtube.com/channel/UCjvjkjf2RgmKBuTnKSXk-Rg"/>
    <tag k="addr:city" v="Budapest"/>
    <tag k="fuel:octane_95" v="yes"/>
    <tag k="payment:mastercard" v="yes"/>
    <tag k="addr:street" v="Kerepesi út"/>
    <tag k="fuel:diesel" v="yes"/>
    <tag k="amenity" v="fuel"/>
    <tag k="name" v="Avia"/>
    <tag k="facebook" v="https://www.facebook.com/AVIAHungary"/>
    <tag k="payment:visa" v="yes"/>
    <tag k="addr:postcode" v="1106"/>
    <tag k="website" v="https://www.avia.hu/toltoallomas/?id=15"/>
    <tag k="operator" v="AVIA Hungária Kft."/>
  </node>
  <!-- Original coordinates: POINT (47.4906585 19.1707465) -->
  <!-- Original tags: None -->
  <node action="modify" changeset="99999" id="-11" lat="47.4906585" lon="19.1707465" timestamp="" uid="4579407" user="KAMI" version="99999">
    <tag k="brand" v="Avia"/>
    <tag k="source" v="website"/>
    <tag k="phone" v="+36705055589"/>
    <tag k="addr:housenumber" v="108/a"/>
    <tag k="email" v="avia@avia.hu"/>
    <tag k="youtube" v="https://www.youtube.com/channel/UCjvjkjf2RgmKBuTnKSXk-Rg"/>
    <tag k="addr:city" v="Budapest"/>
    <tag k="fuel:octane_95" v="yes"/>
    <tag k="payment:mastercard" v="yes"/>
    <tag k="addr:street" v="Keresztúri utca"/>
    <tag k="fuel:diesel" v="yes"/>
    <tag k="amenity" v="fuel"/>
    <tag k="name" v="Avia"/>
    <tag k="facebook" v="https://www.facebook.com/AVIAHungary"/>
    <tag k="payment:visa" v="yes"/>
    <tag k="addr:postcode" v="1106"/>
    <tag k="website" v="https://www.avia.hu/toltoallomas/?id=132"/>
    <tag k="operator" v="AVIA Hungária Kft."/>
  </node>
  <!-- Original coordinates: POINT (47.3737605161 16.7782258987) -->
  <!-- Original tags: None -->
  <node action="modify" changeset="99999" id="-12" lat="47.3737605161" lon="16.7782258987" timestamp="" uid="4579407" user="KAMI" version="99999">
    <tag k="brand" v="Avia"/>
    <tag k="addr:conscriptionnumber" v="0131/3"/>
    <tag k="phone" v="+3694358050"/>
    <tag k="email" v="avia@avia.hu"/>
    <tag k="youtube" v="https://www.youtube.com/channel/UCjvjkjf2RgmKBuTnKSXk-Rg"/>
    <tag k="addr:city" v="Bük"/>
    <tag k="fuel:octane_95" v="yes"/>
    <tag k="payment:mastercard" v="yes"/>
    <tag k="source" v="website"/>
    <tag k="fuel:diesel" v="yes"/>
    <tag k="amenity" v="fuel"/>
    <tag k="name" v="Avia"/>
    <tag k="facebook" v="https://www.facebook.com/AVIAHungary"/>
    <tag k="payment:visa" v="yes"/>
    <tag k="addr:postcode" v="9737"/>
    <tag k="website" v="https://www.avia.hu/toltoallomas/?id=24"/>
    <tag k="operator" v="AVIA Hungária Kft."/>
  </node>
  <!-- Original coordinates: POINT (48.2635133 21.8943333) -->
  <!-- Original tags: None -->
  <node action="modify" changeset="99999" id="-13" lat="48.2635133" lon="21.8943333" timestamp="" uid="4579407" user="KAMI" version="99999">
    <tag k="brand" v="Avia"/>
    <tag k="source" v="website"/>
    <tag k="phone" v="+3647334222"/>
    <tag k="addr:housenumber" v="52/a"/>
    <tag k="email" v="avia@avia.hu"/>
    <tag k="youtube" v="https://www.youtube.com/channel/UCjvjkjf2RgmKBuTnKSXk-Rg"/>
    <tag k="addr:city" v="Cigánd"/>
    <tag k="fuel:octane_95" v="yes"/>
    <tag k="payment:mastercard" v="yes"/>
    <tag k="addr:street" v="Vasút út"/>
    <tag k="fuel:diesel" v="yes"/>
    <tag k="amenity" v="fuel"/>
    <tag k="name" v="Avia"/>
    <tag k="facebook" v="https://www.facebook.com/AVIAHungary"/>
    <tag k="payment:visa" v="yes"/>
    <tag k="addr:postcode" v="3973"/>
    <tag k="website" v="https://www.avia.hu/toltoallomas/?id=30"/>
    <tag k="operator" v="AVIA Hungária Kft."/>
  </node>
  <!-- Original coordinates: POINT (46.978751 16.504104) -->
  <!-- Original tags: None -->
  <node action="modify" changeset="99999" id="-14" lat="46.978751" lon="16.504104" timestamp="" uid="4579407" user="KAMI" version="99999">
    <tag k="brand" v="Avia"/>
    <tag k="source" v="website"/>
    <tag k="phone" v="+36203672096"/>
    <tag k="addr:housenumber" v="70"/>
    <tag k="email" v="avia@avia.hu"/>
    <tag k="youtube" v="https://www.youtube.com/channel/UCjvjkjf2RgmKBuTnKSXk-Rg"/>
    <tag k="addr:city" v="Csákánydoroszló"/>
    <tag k="fuel:octane_95" v="yes"/>
    <tag k="payment:mastercard" v="yes"/>
    <tag k="addr:street" v="Vasút utca"/>
    <tag k="fuel:diesel" v="yes"/>
    <tag k="amenity" v="fuel"/>
    <tag k="name" v="Avia"/>
    <tag k="facebook" v="https://www.facebook.com/AVIAHungary"/>
    <tag k="payment:visa" v="yes"/>
    <tag k="addr:postcode" v="9919"/>
    <tag k="website" v="https://www.avia.hu/toltoallomas/?id=121"/>
    <tag k="operator" v="AVIA Hungária Kft."/>
  </node>
  <!-- Original coordinates: POINT (46.53155 20.883113) -->
  <!-- Original tags: None -->
  <node action="modify" changeset="99999" id="-15" lat="46.53155" lon="20.883113" timestamp="" uid="4579407" user="KAMI" version="99999">
    <tag k="brand" v="Avia"/>
    <tag k="source" v="website"/>
    <tag k="phone" v="+3668520030"/>
    <tag k="email" v="avia@avia.hu"/>
    <tag k="youtube" v="https://www.youtube.com/channel/UCjvjkjf2RgmKBuTnKSXk-Rg"/>
    <tag k="addr:city" v="Csanádapáca"/>
    <tag k="fuel:octane_95" v="yes"/>
    <tag k="payment:mastercard" v="yes"/>
    <tag k="fuel:diesel" v="yes"/>
    <tag k="amenity" v="fuel"/>
    <tag k="name" v="Avia"/>
    <tag k="facebook" v="https://www.facebook.com/AVIAHungary"/>
    <tag k="payment:visa" v="yes"/>
    <tag k="addr:postcode" v="5662"/>
    <tag k="website" v="https://www.avia.hu/toltoallomas/?id=117"/>
    <tag k="operator" v="AVIA Hungária Kft."/>
  </node>
  <!-- Original coordinates: POINT (47.650888 19.817247) -->
  <!-- Original tags: None -->
  <node action="modify" changeset="99999" id="-16" lat="47.650888" lon="19.817247" timestamp="" uid="4579407" user="KAMI" version="99999">
    <tag k="brand" v="Avia"/>
    <tag k="source" v="website"/>
    <tag k="phone" v="+36309038486"/>
    <tag k="addr:housenumber" v="2/a"/>
    <tag k="email" v="avia@avia.hu"/>
    <tag k="youtube" v="https://www.youtube.com/channel/UCjvjkjf2RgmKBuTnKSXk-Rg"/>
    <tag k="addr:city" v="Csány"/>
    <tag k="fuel:octane_95" v="yes"/>
    <tag k="payment:mastercard" v="yes"/>
    <tag k="addr:street" v="Hatvani út"/>
    <tag k="fuel:diesel" v="yes"/>
    <tag k="amenity" v="fuel"/>
    <tag k="name" v="Avia"/>
    <tag k="facebook" v="https://www.facebook.com/AVIAHungary"/>
    <tag k="payment:visa" v="yes"/>
    <tag k="addr:postcode" v="3015"/>
    <tag k="website" v="https://www.avia.hu/toltoallomas/?id=115"/>
    <tag k="operator" v="AVIA Hungária Kft."/>
  </node>
  <!-- Original coordinates: POINT (47.41536 16.72103) -->
  <!-- Original tags: None -->
  <node action="modify" changeset="99999" id="-17" lat="47.41536" lon="16.72103" timestamp="" uid="4579407" user="KAMI" version="99999">
    <tag k="brand" v="Avia"/>
    <tag k="addr:conscriptionnumber" v="020/38"/>
    <tag k="phone" v="+3694565104"/>
    <tag k="email" v="avia@avia.hu"/>
    <tag k="youtube" v="https://www.youtube.com/channel/UCjvjkjf2RgmKBuTnKSXk-Rg"/>
    <tag k="addr:city" v="Csepreg"/>
    <tag k="fuel:octane_95" v="yes"/>
    <tag k="payment:mastercard" v="yes"/>
    <tag k="source" v="website"/>
    <tag k="fuel:diesel" v="yes"/>
    <tag k="amenity" v="fuel"/>
    <tag k="name" v="Avia"/>
    <tag k="facebook" v="https://www.facebook.com/AVIAHungary"/>
    <tag k="payment:visa" v="yes"/>
    <tag k="addr:postcode" v="9735"/>
    <tag k="website" v="https://www.avia.hu/toltoallomas/?id=7"/>
    <tag k="operator" v="AVIA Hungária Kft."/>
  </node>
  <!-- Original coordinates: POINT (46.372436 18.1480223) -->
  <!-- Original tags: None -->
  <node action="modify" changeset="99999" id="-18" lat="46.372436" lon="18.1480223" timestamp="" uid="4579407" user="KAMI" version="99999">
    <tag k="brand" v="Avia"/>
    <tag k="source" v="website"/>
    <tag k="phone" v="+3674679031"/>
    <tag k="addr:housenumber" v="1"/>
    <tag k="email" v="avia@avia.hu"/>
    <tag k="youtube" v="https://www.youtube.com/channel/UCjvjkjf2RgmKBuTnKSXk-Rg"/>
    <tag k="addr:city" v="Dombóvár"/>
    <tag k="fuel:octane_95" v="yes"/>
    <tag k="payment:mastercard" v="yes"/>
    <tag k="addr:street" v="Kórház utca"/>
    <tag k="fuel:diesel" v="yes"/>
    <tag k="amenity" v="fuel"/>
    <tag k="name" v="Avia"/>
    <tag k="facebook" v="https://www.facebook.com/AVIAHungary"/>
    <tag k="payment:visa" v="yes"/>
    <tag k="addr:postcode" v="7200"/>
    <tag k="website" v="https://www.avia.hu/toltoallomas/?id=3"/>
    <tag k="operator" v="AVIA Hungária Kft."/>
  </node>
  <!-- Original coordinates: POINT (46.9469324 18.2296874) -->
  <!-- Original tags: None -->
  <node action="modify" changeset="99999" id="-19" lat="46.9469324" lon="18.2296874" timestamp="" uid="4579407" user="KAMI" version="99999">
    <tag k="brand" v="Avia"/>
    <tag k="source" v="website"/>
    <tag k="phone" v="+3622572092"/>
    <tag k="addr:housenumber" v="119"/>
    <tag k="email" v="avia@avia.hu"/>
    <tag k="youtube" v="https://www.youtube.com/channel/UCjvjkjf2RgmKBuTnKSXk-Rg"/>
    <tag k="addr:city" v="Enying"/>
    <tag k="fuel:octane_95" v="yes"/>
    <tag k="payment:mastercard" v="yes"/>
    <tag k="addr:street" v="Dózsa György út"/>
    <tag k="fuel:diesel" v="yes"/>
    <tag k="amenity" v="fuel"/>
    <tag k="name" v="Avia"/>
    <tag k="facebook" v="https://www.facebook.com/AVIAHungary"/>
    <tag k="payment:visa" v="yes"/>
    <tag k="addr:postcode" v="8131"/>
    <tag k="website" v="https://www.avia.hu/toltoallomas/?id=123"/>
    <tag k="operator" v="AVIA Hungária Kft."/>
  </node>
  <!-- Original coordinates: POINT (47.38187568671469 18.90533030033112) -->
  <!-- Original tags: None -->
  <node action="modify" changeset="99999" id="-20" lat="47.38187568671469" lon="18.905330300331116" timestamp="" uid="4579407" user="KAMI" version="99999">
    <tag k="brand" v="Avia"/>
    <tag k="source" v="website"/>
    <tag k="phone" v="+36203967870"/>
    <tag k="addr:housenumber" v="6"/>
    <tag k="email" v="avia@avia.hu"/>
    <tag k="youtube" v="https://www.youtube.com/channel/UCjvjkjf2RgmKBuTnKSXk-Rg"/>
    <tag k="addr:city" v="Érd"/>
    <tag k="fuel:octane_95" v="yes"/>
    <tag k="payment:mastercard" v="yes"/>
    <tag k="addr:street" v="Szent László tér"/>
    <tag k="fuel:diesel" v="yes"/>
    <tag k="amenity" v="fuel"/>
    <tag k="name" v="Avia"/>
    <tag k="facebook" v="https://www.facebook.com/AVIAHungary"/>
    <tag k="payment:visa" v="yes"/>
    <tag k="addr:postcode" v="2030"/>
    <tag k="website" v="https://www.avia.hu/toltoallomas/?id=67"/>
    <tag k="operator" v="AVIA Hungária Kft."/>
  </node>
  <!-- Original coordinates: POINT (48.32901 21.0965) -->
  <!-- Original tags: None -->
  <node action="modify" changeset="99999" id="-21" lat="48.32901" lon="21.0965" timestamp="" uid="4579407" user="KAMI" version="99999">
    <tag k="brand" v="Avia"/>
    <tag k="source" v="website"/>
    <tag k="phone" v="+3646587299"/>
    <tag k="addr:housenumber" v="1"/>
    <tag k="email" v="avia@avia.hu"/>
    <tag k="youtube" v="https://www.youtube.com/channel/UCjvjkjf2RgmKBuTnKSXk-Rg"/>
    <tag k="addr:city" v="Forró"/>
    <tag k="fuel:octane_95" v="yes"/>
    <tag k="payment:mastercard" v="yes"/>
    <tag k="addr:street" v="Széchenyi utca"/>
    <tag k="fuel:diesel" v="yes"/>
    <tag k="amenity" v="fuel"/>
    <tag k="name" v="Avia"/>
    <tag k="facebook" v="https://www.facebook.com/AVIAHungary"/>
    <tag k="payment:visa" v="yes"/>
    <tag k="addr:postcode" v="3849"/>
    <tag k="website" v="https://www.avia.hu/toltoallomas/?id=28"/>
    <tag k="operator" v="AVIA Hungária Kft."/>
  </node>
  <!-- Original coordinates: POINT (47.436245 19.383544) -->
  <!-- Original tags: None -->
  <node action="modify" changeset="99999" id="-22" lat="47.436245" lon="19.383544" timestamp="" uid="4579407" user="KAMI" version="99999">
    <tag k="brand" v="Avia"/>
    <tag k="addr:conscriptionnumber" v="5823"/>
    <tag k="phone" v="+36309964591"/>
    <tag k="email" v="avia@avia.hu"/>
    <tag k="youtube" v="https://www.youtube.com/channel/UCjvjkjf2RgmKBuTnKSXk-Rg"/>
    <tag k="addr:city" v="Gyömrő"/>
    <tag k="fuel:octane_95" v="yes"/>
    <tag k="payment:mastercard" v="yes"/>
    <tag k="addr:street" v="Kóczán út"/>
    <tag k="source" v="website"/>
    <tag k="fuel:diesel" v="yes"/>
    <tag k="amenity" v="fuel"/>
    <tag k="name" v="Avia"/>
    <tag k="facebook" v="https://www.facebook.com/AVIAHungary"/>
    <tag k="payment:visa" v="yes"/>
    <tag k="addr:postcode" v="2230"/>
    <tag k="website" v="https://www.avia.hu/toltoallomas/?id=93"/>
    <tag k="operator" v="AVIA Hungária Kft."/>
  </node>
  <!-- Original coordinates: POINT (47.775872 19.947977) -->
  <!-- Original tags: None -->
  <node action="modify" changeset="99999" id="-23" lat="47.775872" lon="19.947977" timestamp="" uid="4579407" user="KAMI" version="99999">
    <tag k="brand" v="Avia"/>
    <tag k="source" v="website"/>
    <tag k="phone" v="+3637300528"/>
    <tag k="addr:housenumber" v="78"/>
    <tag k="email" v="avia@avia.hu"/>
    <tag k="youtube" v="https://www.youtube.com/channel/UCjvjkjf2RgmKBuTnKSXk-Rg"/>
    <tag k="addr:city" v="Gyöngyös"/>
    <tag k="fuel:octane_95" v="yes"/>
    <tag k="payment:mastercard" v="yes"/>
    <tag k="addr:street" v="Szurdokpart út"/>
    <tag k="fuel:diesel" v="yes"/>
    <tag k="amenity" v="fuel"/>
    <tag k="name" v="Avia"/>
    <tag k="facebook" v="https://www.facebook.com/AVIAHungary"/>
    <tag k="payment:visa" v="yes"/>
    <tag k="addr:postcode" v="3200"/>
    <tag k="website" v="https://www.avia.hu/toltoallomas/?id=35"/>
    <tag k="operator" v="AVIA Hungária Kft."/>
  </node>
  <!-- Original coordinates: POINT (47.67494572942535 17.67264604568481) -->
  <!-- Original tags: None -->
  <node action="modify" changeset="99999" id="-24" lat="47.67494572942535" lon="17.672646045684814" timestamp="" uid="4579407" user="KAMI" version="99999">
    <tag k="brand" v="Avia"/>
    <tag k="source" v="website"/>
    <tag k="phone" v="+3696410327"/>
    <tag k="addr:housenumber" v="75"/>
    <tag k="email" v="avia@avia.hu"/>
    <tag k="youtube" v="https://www.youtube.com/channel/UCjvjkjf2RgmKBuTnKSXk-Rg"/>
    <tag k="addr:city" v="Győr"/>
    <tag k="fuel:octane_95" v="yes"/>
    <tag k="payment:mastercard" v="yes"/>
    <tag k="addr:street" v="Fehérvári út"/>
    <tag k="fuel:diesel" v="yes"/>
    <tag k="amenity" v="fuel"/>
    <tag k="name" v="Avia"/>
    <tag k="facebook" v="https://www.facebook.com/AVIAHungary"/>
    <tag k="payment:visa" v="yes"/>
    <tag k="addr:postcode" v="9028"/>
    <tag k="website" v="https://www.avia.hu/toltoallomas/?id=76"/>
    <tag k="operator" v="AVIA Hungária Kft."/>
  </node>
  <!-- Original coordinates: POINT (47.69199 21.67209) -->
  <!-- Original tags: None -->
  <node action="modify" changeset="99999" id="-25" lat="47.69199" lon="21.67209" timestamp="" uid="4579407" user="KAMI" version="99999">
    <tag k="brand" v="Avia"/>
    <tag k="source" v="website"/>
    <tag k="phone" v="+3652583048"/>
    <tag k="addr:housenumber" v="56"/>
    <tag k="email" v="avia@avia.hu"/>
    <tag k="youtube" v="https://www.youtube.com/channel/UCjvjkjf2RgmKBuTnKSXk-Rg"/>
    <tag k="addr:city" v="Hajdúhadház"/>
    <tag k="fuel:octane_95" v="yes"/>
    <tag k="payment:mastercard" v="yes"/>
    <tag k="addr:street" v="Földi János utca"/>
    <tag k="fuel:diesel" v="yes"/>
    <tag k="amenity" v="fuel"/>
    <tag k="name" v="Avia"/>
    <tag k="facebook" v="https://www.facebook.com/AVIAHungary"/>
    <tag k="payment:visa" v="yes"/>
    <tag k="addr:postcode" v="4242"/>
    <tag k="website" v="https://www.avia.hu/toltoallomas/?id=29"/>
    <tag k="operator" v="AVIA Hungária Kft."/>
  </node>
  <!-- Original coordinates: POINT (45.94474164603746 18.94551515579224) -->
  <!-- Original tags: None -->
  <node action="modify" changeset="99999" id="-26" lat="45.94474164603746" lon="18.945515155792236" timestamp="" uid="4579407" user="KAMI" version="99999">
    <tag k="brand" v="Avia"/>
    <tag k="addr:conscriptionnumber" v="1216/2"/>
    <tag k="phone" v="+3679522730"/>
    <tag k="email" v="avia@avia.hu"/>
    <tag k="youtube" v="https://www.youtube.com/channel/UCjvjkjf2RgmKBuTnKSXk-Rg"/>
    <tag k="addr:city" v="Hercegszántó"/>
    <tag k="fuel:octane_95" v="yes"/>
    <tag k="payment:mastercard" v="yes"/>
    <tag k="source" v="website"/>
    <tag k="fuel:diesel" v="yes"/>
    <tag k="amenity" v="fuel"/>
    <tag k="name" v="Avia"/>
    <tag k="facebook" v="https://www.facebook.com/AVIAHungary"/>
    <tag k="payment:visa" v="yes"/>
    <tag k="addr:postcode" v="6525"/>
    <tag k="website" v="https://www.avia.hu/toltoallomas/?id=64"/>
    <tag k="operator" v="AVIA Hungária Kft."/>
  </node>
  <!-- Original coordinates: POINT (48.094175 20.96659) -->
  <!-- Original tags: None -->
  <node action="modify" changeset="99999" id="-27" lat="48.094175" lon="20.96659" timestamp="" uid="4579407" user="KAMI" version="99999">
    <tag k="brand" v="Avia"/>
    <tag k="source" v="website"/>
    <tag k="phone" v="+36209823188"/>
    <tag k="addr:housenumber" v="1/a"/>
    <tag k="email" v="avia@avia.hu"/>
    <tag k="youtube" v="https://www.youtube.com/channel/UCjvjkjf2RgmKBuTnKSXk-Rg"/>
    <tag k="addr:city" v="Hernádkak"/>
    <tag k="fuel:octane_95" v="yes"/>
    <tag k="payment:mastercard" v="yes"/>
    <tag k="addr:street" v="Széchenyi utca"/>
    <tag k="fuel:diesel" v="yes"/>
    <tag k="amenity" v="fuel"/>
    <tag k="name" v="Avia"/>
    <tag k="facebook" v="https://www.facebook.com/AVIAHungary"/>
    <tag k="payment:visa" v="yes"/>
    <tag k="addr:postcode" v="3563"/>
    <tag k="website" v="https://www.avia.hu/toltoallomas/?id=41"/>
    <tag k="operator" v="AVIA Hungária Kft."/>
  </node>
  <!-- Original coordinates: POINT (46.1470901828 18.3530044556) -->
  <!-- Original tags: None -->
  <node action="modify" changeset="99999" id="-28" lat="46.1470901828" lon="18.3530044556" timestamp="" uid="4579407" user="KAMI" version="99999">
    <tag k="brand" v="Avia"/>
    <tag k="source" v="website"/>
    <tag k="phone" v="+36303750795"/>
    <tag k="addr:housenumber" v="40"/>
    <tag k="email" v="avia@avia.hu"/>
    <tag k="youtube" v="https://www.youtube.com/channel/UCjvjkjf2RgmKBuTnKSXk-Rg"/>
    <tag k="addr:city" v="Hosszúhetény"/>
    <tag k="fuel:octane_95" v="yes"/>
    <tag k="payment:mastercard" v="yes"/>
    <tag k="addr:street" v="Széchenyi utca"/>
    <tag k="fuel:diesel" v="yes"/>
    <tag k="amenity" v="fuel"/>
    <tag k="name" v="Avia"/>
    <tag k="facebook" v="https://www.facebook.com/AVIAHungary"/>
    <tag k="payment:visa" v="yes"/>
    <tag k="addr:postcode" v="7694"/>
    <tag k="website" v="https://www.avia.hu/toltoallomas/?id=107"/>
    <tag k="operator" v="AVIA Hungária Kft."/>
  </node>
  <!-- Original coordinates: POINT (47.6695339 19.4266194) -->
  <!-- Original tags: None -->
  <node action="modify" changeset="99999" id="-29" lat="47.6695339" lon="19.4266194" timestamp="" uid="4579407" user="KAMI" version="99999">
    <tag k="brand" v="Avia"/>
    <tag k="source" v="website"/>
    <tag k="phone" v="+36202769846"/>
    <tag k="email" v="avia@avia.hu"/>
    <tag k="youtube" v="https://www.youtube.com/channel/UCjvjkjf2RgmKBuTnKSXk-Rg"/>
    <tag k="addr:city" v="Iklad"/>
    <tag k="fuel:octane_95" v="yes"/>
    <tag k="payment:mastercard" v="yes"/>
    <tag k="fuel:diesel" v="yes"/>
    <tag k="amenity" v="fuel"/>
    <tag k="name" v="Avia"/>
    <tag k="facebook" v="https://www.facebook.com/AVIAHungary"/>
    <tag k="payment:visa" v="yes"/>
    <tag k="addr:postcode" v="2181"/>
    <tag k="website" v="https://www.avia.hu/toltoallomas/?id=130"/>
    <tag k="operator" v="AVIA Hungária Kft."/>
  </node>
  <!-- Original coordinates: POINT (47.358585 20.094) -->
  <!-- Original tags: None -->
  <node action="modify" changeset="99999" id="-30" lat="47.358585" lon="20.094" timestamp="" uid="4579407" user="KAMI" version="99999">
    <tag k="brand" v="Avia"/>
    <tag k="source" v="website"/>
    <tag k="phone" v="+36303731046"/>
    <tag k="addr:housenumber" v="1/c"/>
    <tag k="email" v="avia@avia.hu"/>
    <tag k="youtube" v="https://www.youtube.com/channel/UCjvjkjf2RgmKBuTnKSXk-Rg"/>
    <tag k="addr:city" v="Jászalsószentgyörgy"/>
    <tag k="fuel:octane_95" v="yes"/>
    <tag k="payment:mastercard" v="yes"/>
    <tag k="addr:street" v="Béke út"/>
    <tag k="fuel:diesel" v="yes"/>
    <tag k="amenity" v="fuel"/>
    <tag k="name" v="Avia"/>
    <tag k="facebook" v="https://www.facebook.com/AVIAHungary"/>
    <tag k="payment:visa" v="yes"/>
    <tag k="addr:postcode" v="5054"/>
    <tag k="website" v="https://www.avia.hu/toltoallomas/?id=129"/>
    <tag k="operator" v="AVIA Hungária Kft."/>
  </node>
  <!-- Original coordinates: POINT (47.49033 19.89146) -->
  <!-- Original tags: None -->
  <node action="modify" changeset="99999" id="-31" lat="47.49033" lon="19.89146" timestamp="" uid="4579407" user="KAMI" version="99999">
    <tag k="brand" v="Avia"/>
    <tag k="source" v="website"/>
    <tag k="phone" v="+3657515022"/>
    <tag k="addr:housenumber" v="3"/>
    <tag k="email" v="avia@avia.hu"/>
    <tag k="youtube" v="https://www.youtube.com/channel/UCjvjkjf2RgmKBuTnKSXk-Rg"/>
    <tag k="addr:city" v="Jászberény"/>
    <tag k="fuel:octane_95" v="yes"/>
    <tag k="payment:mastercard" v="yes"/>
    <tag k="addr:street" v="Nagykátai út"/>
    <tag k="fuel:diesel" v="yes"/>
    <tag k="amenity" v="fuel"/>
    <tag k="name" v="Avia"/>
    <tag k="facebook" v="https://www.facebook.com/AVIAHungary"/>
    <tag k="payment:visa" v="yes"/>
    <tag k="addr:postcode" v="5100"/>
    <tag k="website" v="https://www.avia.hu/toltoallomas/?id=87"/>
    <tag k="operator" v="AVIA Hungária Kft."/>
  </node>
  <!-- Original coordinates: POINT (47.578773 19.736515) -->
  <!-- Original tags: None -->
  <node action="modify" changeset="99999" id="-32" lat="47.578773" lon="19.736515" timestamp="" uid="4579407" user="KAMI" version="99999">
    <tag k="brand" v="Avia"/>
    <tag k="addr:conscriptionnumber" v="05/150"/>
    <tag k="email" v="avia@avia.hu"/>
    <tag k="youtube" v="https://www.youtube.com/channel/UCjvjkjf2RgmKBuTnKSXk-Rg"/>
    <tag k="addr:city" v="Jászfényszaru"/>
    <tag k="fuel:octane_95" v="yes"/>
    <tag k="payment:mastercard" v="yes"/>
    <tag k="source" v="website"/>
    <tag k="fuel:diesel" v="yes"/>
    <tag k="amenity" v="fuel"/>
    <tag k="name" v="Avia"/>
    <tag k="facebook" v="https://www.facebook.com/AVIAHungary"/>
    <tag k="payment:visa" v="yes"/>
    <tag k="addr:postcode" v="5126"/>
    <tag k="website" v="https://www.avia.hu/toltoallomas/?id=43"/>
    <tag k="operator" v="AVIA Hungária Kft."/>
  </node>
  <!-- Original coordinates: POINT (47.245595 18.69539) -->
  <!-- Original tags: None -->
  <node action="modify" changeset="99999" id="-33" lat="47.245595" lon="18.69539" timestamp="" uid="4579407" user="KAMI" version="99999">
    <tag k="brand" v="Avia"/>
    <tag k="source" v="website"/>
    <tag k="phone" v="+3622574011"/>
    <tag k="email" v="avia@avia.hu"/>
    <tag k="youtube" v="https://www.youtube.com/channel/UCjvjkjf2RgmKBuTnKSXk-Rg"/>
    <tag k="addr:city" v="Kápolnásnyék"/>
    <tag k="fuel:octane_95" v="yes"/>
    <tag k="payment:mastercard" v="yes"/>
    <tag k="addr:street" v="7 főút"/>
    <tag k="fuel:diesel" v="yes"/>
    <tag k="amenity" v="fuel"/>
    <tag k="name" v="Avia"/>
    <tag k="facebook" v="https://www.facebook.com/AVIAHungary"/>
    <tag k="payment:visa" v="yes"/>
    <tag k="addr:postcode" v="2475"/>
    <tag k="website" v="https://www.avia.hu/toltoallomas/?id=119"/>
    <tag k="operator" v="AVIA Hungária Kft."/>
  </node>
  <!-- Original coordinates: POINT (46.35311127799832 17.68734455108643) -->
  <!-- Original tags: None -->
  <node action="modify" changeset="99999" id="-34" lat="46.353111277998316" lon="17.687344551086426" timestamp="" uid="4579407" user="KAMI" version="99999">
    <tag k="brand" v="Avia"/>
    <tag k="addr:conscriptionnumber" v="643/5"/>
    <tag k="phone" v="+36307566687"/>
    <tag k="email" v="avia@avia.hu"/>
    <tag k="youtube" v="https://www.youtube.com/channel/UCjvjkjf2RgmKBuTnKSXk-Rg"/>
    <tag k="addr:city" v="Kaposfő"/>
    <tag k="fuel:octane_95" v="yes"/>
    <tag k="payment:mastercard" v="yes"/>
    <tag k="source" v="website"/>
    <tag k="fuel:diesel" v="yes"/>
    <tag k="amenity" v="fuel"/>
    <tag k="name" v="Avia"/>
    <tag k="facebook" v="https://www.facebook.com/AVIAHungary"/>
    <tag k="payment:visa" v="yes"/>
    <tag k="addr:postcode" v="7523"/>
    <tag k="website" v="https://www.avia.hu/toltoallomas/?id=20"/>
    <tag k="operator" v="AVIA Hungária Kft."/>
  </node>
  <!-- Original coordinates: POINT (46.7053452 19.8499916) -->
  <!-- Original tags: None -->
  <node action="modify" changeset="99999" id="-35" lat="46.7053452" lon="19.8499916" timestamp="" uid="4579407" user="KAMI" version="99999">
    <tag k="brand" v="Avia"/>
    <tag k="source" v="website"/>
    <tag k="phone" v="+36302168639"/>
    <tag k="addr:housenumber" v="89"/>
    <tag k="email" v="avia@avia.hu"/>
    <tag k="youtube" v="https://www.youtube.com/channel/UCjvjkjf2RgmKBuTnKSXk-Rg"/>
    <tag k="addr:city" v="Kiskunfélegyháza"/>
    <tag k="fuel:octane_95" v="yes"/>
    <tag k="payment:mastercard" v="yes"/>
    <tag k="addr:street" v="Szegedi út"/>
    <tag k="fuel:diesel" v="yes"/>
    <tag k="amenity" v="fuel"/>
    <tag k="name" v="Avia"/>
    <tag k="facebook" v="https://www.facebook.com/AVIAHungary"/>
    <tag k="payment:visa" v="yes"/>
    <tag k="addr:postcode" v="6100"/>
    <tag k="website" v="https://www.avia.hu/toltoallomas/?id=60"/>
    <tag k="operator" v="AVIA Hungária Kft."/>
  </node>
  <!-- Original coordinates: POINT (46.41984 19.47833) -->
  <!-- Original tags: None -->
  <node action="modify" changeset="99999" id="-36" lat="46.41984" lon="19.47833" timestamp="" uid="4579407" user="KAMI" version="99999">
    <tag k="brand" v="Avia"/>
    <tag k="source" v="website"/>
    <tag k="phone" v="+36305752027"/>
    <tag k="addr:housenumber" v="21"/>
    <tag k="email" v="avia@avia.hu"/>
    <tag k="youtube" v="https://www.youtube.com/channel/UCjvjkjf2RgmKBuTnKSXk-Rg"/>
    <tag k="addr:city" v="Kiskunhalas"/>
    <tag k="fuel:octane_95" v="yes"/>
    <tag k="payment:mastercard" v="yes"/>
    <tag k="addr:street" v="Tinódi utca"/>
    <tag k="fuel:diesel" v="yes"/>
    <tag k="amenity" v="fuel"/>
    <tag k="name" v="Avia"/>
    <tag k="facebook" v="https://www.facebook.com/AVIAHungary"/>
    <tag k="payment:visa" v="yes"/>
    <tag k="addr:postcode" v="6400"/>
    <tag k="website" v="https://www.avia.hu/toltoallomas/?id=62"/>
    <tag k="operator" v="AVIA Hungária Kft."/>
  </node>
  <!-- Original coordinates: POINT (47.1728 18.9927) -->
  <!-- Original tags: None -->
  <node action="modify" changeset="99999" id="-37" lat="47.1728" lon="18.9927" timestamp="" uid="4579407" user="KAMI" version="99999">
    <tag k="brand" v="Avia"/>
    <tag k="addr:conscriptionnumber" v="090/1"/>
    <tag k="phone" v="+3624511690"/>
    <tag k="email" v="avia@avia.hu"/>
    <tag k="youtube" v="https://www.youtube.com/channel/UCjvjkjf2RgmKBuTnKSXk-Rg"/>
    <tag k="addr:city" v="Kiskunlacháza"/>
    <tag k="fuel:octane_95" v="yes"/>
    <tag k="payment:mastercard" v="yes"/>
    <tag k="addr:street" v="Ráckevei út"/>
    <tag k="source" v="website"/>
    <tag k="fuel:diesel" v="yes"/>
    <tag k="amenity" v="fuel"/>
    <tag k="name" v="Avia"/>
    <tag k="facebook" v="https://www.facebook.com/AVIAHungary"/>
    <tag k="payment:visa" v="yes"/>
    <tag k="addr:postcode" v="2340"/>
    <tag k="website" v="https://www.avia.hu/toltoallomas/?id=16"/>
    <tag k="operator" v="AVIA Hungária Kft."/>
  </node>
  <!-- Original coordinates: POINT (47.540445 18.337543) -->
  <!-- Original tags: None -->
  <node action="modify" changeset="99999" id="-38" lat="47.540445" lon="18.337543" timestamp="" uid="4579407" user="KAMI" version="99999">
    <tag k="brand" v="Avia"/>
    <tag k="addr:conscriptionnumber" v="0633/21"/>
    <tag k="phone" v="+36209176840"/>
    <tag k="email" v="avia@avia.hu"/>
    <tag k="youtube" v="https://www.youtube.com/channel/UCjvjkjf2RgmKBuTnKSXk-Rg"/>
    <tag k="addr:city" v="Környe"/>
    <tag k="fuel:octane_95" v="yes"/>
    <tag k="payment:mastercard" v="yes"/>
    <tag k="source" v="website"/>
    <tag k="fuel:diesel" v="yes"/>
    <tag k="amenity" v="fuel"/>
    <tag k="name" v="Avia"/>
    <tag k="facebook" v="https://www.facebook.com/AVIAHungary"/>
    <tag k="payment:visa" v="yes"/>
    <tag k="addr:postcode" v="2851"/>
    <tag k="website" v="https://www.avia.hu/toltoallomas/?id=126"/>
    <tag k="operator" v="AVIA Hungária Kft."/>
  </node>
  <!-- Original coordinates: POINT (47.390675 16.551771) -->
  <!-- Original tags: None -->
  <node action="modify" changeset="99999" id="-39" lat="47.390675" lon="16.551771" timestamp="" uid="4579407" user="KAMI" version="99999">
    <tag k="brand" v="Avia"/>
    <tag k="source" v="website"/>
    <tag k="phone" v="+3694505391"/>
    <tag k="addr:housenumber" v="42"/>
    <tag k="email" v="avia@avia.hu"/>
    <tag k="youtube" v="https://www.youtube.com/channel/UCjvjkjf2RgmKBuTnKSXk-Rg"/>
    <tag k="addr:city" v="Kőszeg"/>
    <tag k="fuel:octane_95" v="yes"/>
    <tag k="payment:mastercard" v="yes"/>
    <tag k="addr:street" v="Alsó körút"/>
    <tag k="fuel:diesel" v="yes"/>
    <tag k="amenity" v="fuel"/>
    <tag k="name" v="Avia"/>
    <tag k="facebook" v="https://www.facebook.com/AVIAHungary"/>
    <tag k="payment:visa" v="yes"/>
    <tag k="addr:postcode" v="9730"/>
    <tag k="website" v="https://www.avia.hu/toltoallomas/?id=10"/>
    <tag k="operator" v="AVIA Hungária Kft."/>
  </node>
  <!-- Original coordinates: POINT (47.032826 19.542944) -->
  <!-- Original tags: None -->
  <node action="modify" changeset="99999" id="-40" lat="47.032826" lon="19.542944" timestamp="" uid="4579407" user="KAMI" version="99999">
    <tag k="brand" v="Avia"/>
    <tag k="source" v="website"/>
    <tag k="phone" v="+3676356200"/>
    <tag k="email" v="avia@avia.hu"/>
    <tag k="youtube" v="https://www.youtube.com/channel/UCjvjkjf2RgmKBuTnKSXk-Rg"/>
    <tag k="addr:city" v="Lajosmizse"/>
    <tag k="fuel:octane_95" v="yes"/>
    <tag k="payment:mastercard" v="yes"/>
    <tag k="fuel:diesel" v="yes"/>
    <tag k="amenity" v="fuel"/>
    <tag k="name" v="Avia"/>
    <tag k="facebook" v="https://www.facebook.com/AVIAHungary"/>
    <tag k="payment:visa" v="yes"/>
    <tag k="addr:postcode" v="6050"/>
    <tag k="website" v="https://www.avia.hu/toltoallomas/?id=48"/>
    <tag k="operator" v="AVIA Hungária Kft."/>
  </node>
  <!-- Original coordinates: POINT (47.899722 17.201486) -->
  <!-- Original tags: None -->
  <node action="modify" changeset="99999" id="-41" lat="47.899722" lon="17.201486" timestamp="" uid="4579407" user="KAMI" version="99999">
    <tag k="brand" v="Avia"/>
    <tag k="source" v="website"/>
    <tag k="phone" v="+3696229393"/>
    <tag k="addr:housenumber" v="8"/>
    <tag k="email" v="avia@avia.hu"/>
    <tag k="youtube" v="https://www.youtube.com/channel/UCjvjkjf2RgmKBuTnKSXk-Rg"/>
    <tag k="addr:city" v="Levél"/>
    <tag k="fuel:octane_95" v="yes"/>
    <tag k="payment:mastercard" v="yes"/>
    <tag k="addr:street" v="Szerviz utca"/>
    <tag k="fuel:diesel" v="yes"/>
    <tag k="amenity" v="fuel"/>
    <tag k="name" v="Avia"/>
    <tag k="facebook" v="https://www.facebook.com/AVIAHungary"/>
    <tag k="payment:visa" v="yes"/>
    <tag k="addr:postcode" v="9221"/>
    <tag k="website" v="https://www.avia.hu/toltoallomas/?id=17"/>
    <tag k="operator" v="AVIA Hungária Kft."/>
  </node>
  <!-- Original coordinates: POINT (46.59135470715854 17.40480065345764) -->
  <!-- Original tags: None -->
  <node action="modify" changeset="99999" id="-42" lat="46.59135470715854" lon="17.40480065345764" timestamp="" uid="4579407" user="KAMI" version="99999">
    <tag k="brand" v="Avia"/>
    <tag k="source" v="website"/>
    <tag k="phone" v="+3685510005"/>
    <tag k="addr:housenumber" v="97"/>
    <tag k="email" v="avia@avia.hu"/>
    <tag k="youtube" v="https://www.youtube.com/channel/UCjvjkjf2RgmKBuTnKSXk-Rg"/>
    <tag k="addr:city" v="Marcali"/>
    <tag k="fuel:octane_95" v="yes"/>
    <tag k="payment:mastercard" v="yes"/>
    <tag k="addr:street" v="Berzsenyi út"/>
    <tag k="fuel:diesel" v="yes"/>
    <tag k="amenity" v="fuel"/>
    <tag k="name" v="Avia"/>
    <tag k="facebook" v="https://www.facebook.com/AVIAHungary"/>
    <tag k="payment:visa" v="yes"/>
    <tag k="addr:postcode" v="8700"/>
    <tag k="website" v="https://www.avia.hu/toltoallomas/?id=33"/>
    <tag k="operator" v="AVIA Hungária Kft."/>
  </node>
  <!-- Original coordinates: POINT (47.321874 18.784955) -->
  <!-- Original tags: None -->
  <node action="modify" changeset="99999" id="-43" lat="47.321874" lon="18.784955" timestamp="" uid="4579407" user="KAMI" version="99999">
    <tag k="brand" v="Avia"/>
    <tag k="source" v="website"/>
    <tag k="phone" v="+36306803815"/>
    <tag k="addr:housenumber" v="31"/>
    <tag k="email" v="avia@avia.hu"/>
    <tag k="youtube" v="https://www.youtube.com/channel/UCjvjkjf2RgmKBuTnKSXk-Rg"/>
    <tag k="addr:city" v="Martonvásár"/>
    <tag k="fuel:octane_95" v="yes"/>
    <tag k="payment:mastercard" v="yes"/>
    <tag k="addr:street" v="Bajcsy-Zsilinszky Endre utca"/>
    <tag k="fuel:diesel" v="yes"/>
    <tag k="amenity" v="fuel"/>
    <tag k="name" v="Avia"/>
    <tag k="facebook" v="https://www.facebook.com/AVIAHungary"/>
    <tag k="payment:visa" v="yes"/>
    <tag k="addr:postcode" v="2462"/>
    <tag k="website" v="https://www.avia.hu/toltoallomas/?id=120"/>
    <tag k="operator" v="AVIA Hungária Kft."/>
  </node>
  <!-- Original coordinates: POINT (47.9540454 20.0696581) -->
  <!-- Original tags: None -->
  <node action="modify" changeset="99999" id="-44" lat="47.9540454" lon="20.0696581" timestamp="" uid="4579407" user="KAMI" version="99999">
    <tag k="brand" v="Avia"/>
    <tag k="addr:conscriptionnumber" v="0183/3"/>
    <tag k="phone" v="+36304192544"/>
    <tag k="email" v="avia@avia.hu"/>
    <tag k="youtube" v="https://www.youtube.com/channel/UCjvjkjf2RgmKBuTnKSXk-Rg"/>
    <tag k="addr:city" v="Mátraderecske"/>
    <tag k="fuel:octane_95" v="yes"/>
    <tag k="payment:mastercard" v="yes"/>
    <tag k="addr:street" v="Kossuth út"/>
    <tag k="source" v="website"/>
    <tag k="fuel:diesel" v="yes"/>
    <tag k="amenity" v="fuel"/>
    <tag k="name" v="Avia"/>
    <tag k="facebook" v="https://www.facebook.com/AVIAHungary"/>
    <tag k="payment:visa" v="yes"/>
    <tag k="addr:postcode" v="3246"/>
    <tag k="website" v="https://www.avia.hu/toltoallomas/?id=122"/>
    <tag k="operator" v="AVIA Hungária Kft."/>
  </node>
  <!-- Original coordinates: POINT (46.753976 21.430879) -->
  <!-- Original tags: None -->
  <node action="modify" changeset="99999" id="-45" lat="46.753976" lon="21.430879" timestamp="" uid="4579407" user="KAMI" version="99999">
    <tag k="brand" v="Avia"/>
    <tag k="source" v="website"/>
    <tag k="phone" v="+36302992873"/>
    <tag k="email" v="avia@avia.hu"/>
    <tag k="youtube" v="https://www.youtube.com/channel/UCjvjkjf2RgmKBuTnKSXk-Rg"/>
    <tag k="addr:city" v="Méhkerék"/>
    <tag k="fuel:octane_95" v="yes"/>
    <tag k="payment:mastercard" v="yes"/>
    <tag k="fuel:diesel" v="yes"/>
    <tag k="amenity" v="fuel"/>
    <tag k="name" v="Avia"/>
    <tag k="facebook" v="https://www.facebook.com/AVIAHungary"/>
    <tag k="payment:visa" v="yes"/>
    <tag k="addr:postcode" v="5726"/>
    <tag k="website" v="https://www.avia.hu/toltoallomas/?id=125"/>
    <tag k="operator" v="AVIA Hungária Kft."/>
  </node>
  <!-- Original coordinates: POINT (47.432239 19.460342) -->
  <!-- Original tags: None -->
  <node action="modify" changeset="99999" id="-46" lat="47.432239" lon="19.460342" timestamp="" uid="4579407" user="KAMI" version="99999">
    <tag k="brand" v="Avia"/>
    <tag k="source" v="website"/>
    <tag k="phone" v="+36205504776"/>
    <tag k="addr:housenumber" v="24"/>
    <tag k="email" v="avia@avia.hu"/>
    <tag k="youtube" v="https://www.youtube.com/channel/UCjvjkjf2RgmKBuTnKSXk-Rg"/>
    <tag k="addr:city" v="Mende"/>
    <tag k="fuel:octane_95" v="yes"/>
    <tag k="payment:mastercard" v="yes"/>
    <tag k="addr:street" v="Ország út"/>
    <tag k="fuel:diesel" v="yes"/>
    <tag k="amenity" v="fuel"/>
    <tag k="name" v="Avia"/>
    <tag k="facebook" v="https://www.facebook.com/AVIAHungary"/>
    <tag k="payment:visa" v="yes"/>
    <tag k="addr:postcode" v="2235"/>
    <tag k="website" v="https://www.avia.hu/toltoallomas/?id=108"/>
    <tag k="operator" v="AVIA Hungária Kft."/>
  </node>
  <!-- Original coordinates: POINT (46.5134420418 20.1938541234) -->
  <!-- Original tags: None -->
  <node action="modify" changeset="99999" id="-47" lat="46.5134420418" lon="20.1938541234" timestamp="" uid="4579407" user="KAMI" version="99999">
    <tag k="brand" v="Avia"/>
    <tag k="source" v="website"/>
    <tag k="phone" v="+3662225465"/>
    <tag k="addr:housenumber" v="016"/>
    <tag k="email" v="avia@avia.hu"/>
    <tag k="youtube" v="https://www.youtube.com/channel/UCjvjkjf2RgmKBuTnKSXk-Rg"/>
    <tag k="addr:city" v="Mindszent"/>
    <tag k="fuel:octane_95" v="yes"/>
    <tag k="payment:mastercard" v="yes"/>
    <tag k="addr:street" v="Vásárhelyi út"/>
    <tag k="fuel:diesel" v="yes"/>
    <tag k="amenity" v="fuel"/>
    <tag k="name" v="Avia"/>
    <tag k="facebook" v="https://www.facebook.com/AVIAHungary"/>
    <tag k="payment:visa" v="yes"/>
    <tag k="addr:postcode" v="6630"/>
    <tag k="website" v="https://www.avia.hu/toltoallomas/?id=22"/>
    <tag k="operator" v="AVIA Hungária Kft."/>
  </node>
  <!-- Original coordinates: POINT (48.0875546 20.8140621) -->
  <!-- Original tags: None -->
  <node action="modify" changeset="99999" id="-48" lat="48.0875546" lon="20.8140621" timestamp="" uid="4579407" user="KAMI" version="99999">
    <tag k="brand" v="Avia"/>
    <tag k="addr:conscriptionnumber" v="0235/72"/>
    <tag k="phone" v="+3646505572"/>
    <tag k="email" v="avia@avia.hu"/>
    <tag k="youtube" v="https://www.youtube.com/channel/UCjvjkjf2RgmKBuTnKSXk-Rg"/>
    <tag k="addr:city" v="Miskolc"/>
    <tag k="fuel:octane_95" v="yes"/>
    <tag k="payment:mastercard" v="yes"/>
    <tag k="source" v="website"/>
    <tag k="fuel:diesel" v="yes"/>
    <tag k="amenity" v="fuel"/>
    <tag k="name" v="Avia"/>
    <tag k="facebook" v="https://www.facebook.com/AVIAHungary"/>
    <tag k="payment:visa" v="yes"/>
    <tag k="addr:postcode" v="3528"/>
    <tag k="website" v="https://www.avia.hu/toltoallomas/?id=37"/>
    <tag k="operator" v="AVIA Hungária Kft."/>
  </node>
  <!-- Original coordinates: POINT (47.995547 19.343189) -->
  <!-- Original tags: None -->
  <node action="modify" changeset="99999" id="-49" lat="47.995547" lon="19.343189" timestamp="" uid="4579407" user="KAMI" version="99999">
    <tag k="brand" v="Avia"/>
    <tag k="source" v="website"/>
    <tag k="phone" v="+3635372387"/>
    <tag k="addr:housenumber" v="47/c"/>
    <tag k="email" v="avia@avia.hu"/>
    <tag k="youtube" v="https://www.youtube.com/channel/UCjvjkjf2RgmKBuTnKSXk-Rg"/>
    <tag k="addr:city" v="Mohora"/>
    <tag k="fuel:octane_95" v="yes"/>
    <tag k="payment:mastercard" v="yes"/>
    <tag k="addr:street" v="Rákóczi út"/>
    <tag k="fuel:diesel" v="yes"/>
    <tag k="amenity" v="fuel"/>
    <tag k="name" v="Avia"/>
    <tag k="facebook" v="https://www.facebook.com/AVIAHungary"/>
    <tag k="payment:visa" v="yes"/>
    <tag k="addr:postcode" v="2698"/>
    <tag k="website" v="https://www.avia.hu/toltoallomas/?id=89"/>
    <tag k="operator" v="AVIA Hungária Kft."/>
  </node>
  <!-- Original coordinates: POINT (47.035365 16.641687) -->
  <!-- Original tags: None -->
  <node action="modify" changeset="99999" id="-50" lat="47.035365" lon="16.641687" timestamp="" uid="4579407" user="KAMI" version="99999">
    <tag k="brand" v="Avia"/>
    <tag k="source" v="website"/>
    <tag k="phone" v="+36302500841"/>
    <tag k="addr:housenumber" v="96"/>
    <tag k="email" v="avia@avia.hu"/>
    <tag k="youtube" v="https://www.youtube.com/channel/UCjvjkjf2RgmKBuTnKSXk-Rg"/>
    <tag k="addr:city" v="Molnaszecsőd"/>
    <tag k="fuel:octane_95" v="yes"/>
    <tag k="payment:mastercard" v="yes"/>
    <tag k="addr:street" v="Petőfi Sándor utca"/>
    <tag k="fuel:diesel" v="yes"/>
    <tag k="amenity" v="fuel"/>
    <tag k="name" v="Avia"/>
    <tag k="facebook" v="https://www.facebook.com/AVIAHungary"/>
    <tag k="payment:visa" v="yes"/>
    <tag k="addr:postcode" v="9912"/>
    <tag k="website" v="https://www.avia.hu/toltoallomas/?id=21"/>
    <tag k="operator" v="AVIA Hungária Kft."/>
  </node>
  <!-- Original coordinates: POINT (47.75607 17.42327) -->
  <!-- Original tags: None -->
  <node action="modify" changeset="99999" id="-51" lat="47.75607" lon="17.42327" timestamp="" uid="4579407" user="KAMI" version="99999">
    <tag k="brand" v="Avia"/>
    <tag k="source" v="website"/>
    <tag k="phone" v="+3696360021"/>
    <tag k="addr:housenumber" v="15"/>
    <tag k="email" v="avia@avia.hu"/>
    <tag k="youtube" v="https://www.youtube.com/channel/UCjvjkjf2RgmKBuTnKSXk-Rg"/>
    <tag k="addr:city" v="Mosonszentmiklós"/>
    <tag k="fuel:octane_95" v="yes"/>
    <tag k="payment:mastercard" v="yes"/>
    <tag k="addr:street" v="Béke út"/>
    <tag k="fuel:diesel" v="yes"/>
    <tag k="amenity" v="fuel"/>
    <tag k="name" v="Avia"/>
    <tag k="facebook" v="https://www.facebook.com/AVIAHungary"/>
    <tag k="payment:visa" v="yes"/>
    <tag k="addr:postcode" v="9183"/>
    <tag k="website" v="https://www.avia.hu/toltoallomas/?id=32"/>
    <tag k="operator" v="AVIA Hungária Kft."/>
  </node>
  <!-- Original coordinates: POINT (47.407917 19.743029) -->
  <!-- Original tags: None -->
  <node action="modify" changeset="99999" id="-52" lat="47.407917" lon="19.743029" timestamp="" uid="4579407" user="KAMI" version="99999">
    <tag k="brand" v="Avia"/>
    <tag k="source" v="website"/>
    <tag k="phone" v="+36205504776"/>
    <tag k="addr:housenumber" v="61/a"/>
    <tag k="email" v="avia@avia.hu"/>
    <tag k="youtube" v="https://www.youtube.com/channel/UCjvjkjf2RgmKBuTnKSXk-Rg"/>
    <tag k="addr:city" v="Nagykáta"/>
    <tag k="fuel:octane_95" v="yes"/>
    <tag k="payment:mastercard" v="yes"/>
    <tag k="addr:street" v="Jászberényi út"/>
    <tag k="fuel:diesel" v="yes"/>
    <tag k="amenity" v="fuel"/>
    <tag k="name" v="Avia"/>
    <tag k="facebook" v="https://www.facebook.com/AVIAHungary"/>
    <tag k="payment:visa" v="yes"/>
    <tag k="addr:postcode" v="2760"/>
    <tag k="website" v="https://www.avia.hu/toltoallomas/?id=110"/>
    <tag k="operator" v="AVIA Hungária Kft."/>
  </node>
  <!-- Original coordinates: POINT (47.52120029409542 19.26353931427002) -->
  <!-- Original tags: None -->
  <node action="modify" changeset="99999" id="-53" lat="47.521200294095415" lon="19.26353931427002" timestamp="" uid="4579407" user="KAMI" version="99999">
    <tag k="brand" v="Avia"/>
    <tag k="source" v="website"/>
    <tag k="phone" v="+36205089009"/>
    <tag k="email" v="avia@avia.hu"/>
    <tag k="youtube" v="https://www.youtube.com/channel/UCjvjkjf2RgmKBuTnKSXk-Rg"/>
    <tag k="addr:city" v="Nagytarcsa"/>
    <tag k="fuel:octane_95" v="yes"/>
    <tag k="payment:mastercard" v="yes"/>
    <tag k="fuel:diesel" v="yes"/>
    <tag k="amenity" v="fuel"/>
    <tag k="name" v="Avia"/>
    <tag k="facebook" v="https://www.facebook.com/AVIAHungary"/>
    <tag k="payment:visa" v="yes"/>
    <tag k="addr:postcode" v="2142"/>
    <tag k="website" v="https://www.avia.hu/toltoallomas/?id=68"/>
    <tag k="operator" v="AVIA Hungária Kft."/>
  </node>
  <!-- Original coordinates: POINT (47.6846628 21.8911262) -->
  <!-- Original tags: None -->
  <node action="modify" changeset="99999" id="-54" lat="47.6846628" lon="21.8911262" timestamp="" uid="4579407" user="KAMI" version="99999">
    <tag k="brand" v="Avia"/>
    <tag k="source" v="website"/>
    <tag k="phone" v="+3652203470"/>
    <tag k="email" v="avia@avia.hu"/>
    <tag k="youtube" v="https://www.youtube.com/channel/UCjvjkjf2RgmKBuTnKSXk-Rg"/>
    <tag k="addr:city" v="Nyíradony"/>
    <tag k="fuel:octane_95" v="yes"/>
    <tag k="payment:mastercard" v="yes"/>
    <tag k="fuel:diesel" v="yes"/>
    <tag k="amenity" v="fuel"/>
    <tag k="name" v="Avia"/>
    <tag k="facebook" v="https://www.facebook.com/AVIAHungary"/>
    <tag k="payment:visa" v="yes"/>
    <tag k="addr:postcode" v="4254"/>
    <tag k="website" v="https://www.avia.hu/toltoallomas/?id=131"/>
    <tag k="operator" v="AVIA Hungária Kft."/>
  </node>
  <!-- Original coordinates: POINT (46.9003214 20.398521) -->
  <!-- Original tags: None -->
  <node action="modify" changeset="99999" id="-55" lat="46.9003214" lon="20.398521" timestamp="" uid="4579407" user="KAMI" version="99999">
    <tag k="brand" v="Avia"/>
    <tag k="source" v="website"/>
    <tag k="phone" v="+36703105584"/>
    <tag k="addr:housenumber" v="1"/>
    <tag k="email" v="avia@avia.hu"/>
    <tag k="youtube" v="https://www.youtube.com/channel/UCjvjkjf2RgmKBuTnKSXk-Rg"/>
    <tag k="addr:city" v="Öcsöd"/>
    <tag k="fuel:octane_95" v="yes"/>
    <tag k="payment:mastercard" v="yes"/>
    <tag k="addr:street" v="Bem út"/>
    <tag k="fuel:diesel" v="yes"/>
    <tag k="amenity" v="fuel"/>
    <tag k="name" v="Avia"/>
    <tag k="facebook" v="https://www.facebook.com/AVIAHungary"/>
    <tag k="payment:visa" v="yes"/>
    <tag k="addr:postcode" v="5451"/>
    <tag k="website" v="https://www.avia.hu/toltoallomas/?id=127"/>
    <tag k="operator" v="AVIA Hungária Kft."/>
  </node>
  <!-- Original coordinates: POINT (47.6907 19.2559) -->
  <!-- Original tags: None -->
  <node action="modify" changeset="99999" id="-56" lat="47.6907" lon="19.2559" timestamp="" uid="4579407" user="KAMI" version="99999">
    <tag k="brand" v="Avia"/>
    <tag k="addr:conscriptionnumber" v="9733/2"/>
    <tag k="phone" v="+36209792560"/>
    <tag k="email" v="avia@avia.hu"/>
    <tag k="youtube" v="https://www.youtube.com/channel/UCjvjkjf2RgmKBuTnKSXk-Rg"/>
    <tag k="addr:city" v="Őrbottyán"/>
    <tag k="fuel:octane_95" v="yes"/>
    <tag k="payment:mastercard" v="yes"/>
    <tag k="addr:street" v="Fő út"/>
    <tag k="source" v="website"/>
    <tag k="fuel:diesel" v="yes"/>
    <tag k="amenity" v="fuel"/>
    <tag k="name" v="Avia"/>
    <tag k="facebook" v="https://www.facebook.com/AVIAHungary"/>
    <tag k="payment:visa" v="yes"/>
    <tag k="addr:postcode" v="2162"/>
    <tag k="website" v="https://www.avia.hu/toltoallomas/?id=113"/>
    <tag k="operator" v="AVIA Hungária Kft."/>
  </node>
  <!-- Original coordinates: POINT (46.83793139 16.41830027) -->
  <!-- Original tags: None -->
  <node action="modify" changeset="99999" id="-57" lat="46.83793139" lon="16.41830027" timestamp="" uid="4579407" user="KAMI" version="99999">
    <tag k="brand" v="Avia"/>
    <tag k="source" v="website"/>
    <tag k="phone" v="+3694428390"/>
    <tag k="email" v="avia@avia.hu"/>
    <tag k="youtube" v="https://www.youtube.com/channel/UCjvjkjf2RgmKBuTnKSXk-Rg"/>
    <tag k="addr:city" v="Őriszentpéter"/>
    <tag k="fuel:octane_95" v="yes"/>
    <tag k="payment:mastercard" v="yes"/>
    <tag k="fuel:diesel" v="yes"/>
    <tag k="amenity" v="fuel"/>
    <tag k="name" v="Avia"/>
    <tag k="facebook" v="https://www.facebook.com/AVIAHungary"/>
    <tag k="payment:visa" v="yes"/>
    <tag k="addr:postcode" v="9941"/>
    <tag k="website" v="https://www.avia.hu/toltoallomas/?id=55"/>
    <tag k="operator" v="AVIA Hungária Kft."/>
  </node>
  <!-- Original coordinates: POINT (47.32863 17.03829) -->
  <!-- Original tags: None -->
  <node action="modify" changeset="99999" id="-58" lat="47.32863" lon="17.03829" timestamp="" uid="4579407" user="KAMI" version="99999">
    <tag k="brand" v="Avia"/>
    <tag k="source" v="website"/>
    <tag k="phone" v="+3695394305"/>
    <tag k="addr:housenumber" v="24"/>
    <tag k="email" v="avia@avia.hu"/>
    <tag k="youtube" v="https://www.youtube.com/channel/UCjvjkjf2RgmKBuTnKSXk-Rg"/>
    <tag k="addr:city" v="Ostffyasszonyfa"/>
    <tag k="fuel:octane_95" v="yes"/>
    <tag k="payment:mastercard" v="yes"/>
    <tag k="addr:street" v="Bajcsy-Zsilinszky Endre utca"/>
    <tag k="fuel:diesel" v="yes"/>
    <tag k="amenity" v="fuel"/>
    <tag k="name" v="Avia"/>
    <tag k="facebook" v="https://www.facebook.com/AVIAHungary"/>
    <tag k="payment:visa" v="yes"/>
    <tag k="addr:postcode" v="9512"/>
    <tag k="website" v="https://www.avia.hu/toltoallomas/?id=8"/>
    <tag k="operator" v="AVIA Hungária Kft."/>
  </node>
  <!-- Original coordinates: POINT (47.32798 17.49718) -->
  <!-- Original tags: None -->
  <node action="modify" changeset="99999" id="-59" lat="47.32798" lon="17.49718" timestamp="" uid="4579407" user="KAMI" version="99999">
    <tag k="brand" v="Avia"/>
    <tag k="addr:conscriptionnumber" v="661"/>
    <tag k="phone" v="+36209530066"/>
    <tag k="email" v="avia@avia.hu"/>
    <tag k="youtube" v="https://www.youtube.com/channel/UCjvjkjf2RgmKBuTnKSXk-Rg"/>
    <tag k="addr:city" v="Pápa"/>
    <tag k="fuel:octane_95" v="yes"/>
    <tag k="payment:mastercard" v="yes"/>
    <tag k="addr:street" v="Hódoska major"/>
    <tag k="source" v="website"/>
    <tag k="fuel:diesel" v="yes"/>
    <tag k="amenity" v="fuel"/>
    <tag k="name" v="Avia"/>
    <tag k="facebook" v="https://www.facebook.com/AVIAHungary"/>
    <tag k="payment:visa" v="yes"/>
    <tag k="addr:postcode" v="8500"/>
    <tag k="website" v="https://www.avia.hu/toltoallomas/?id=19"/>
    <tag k="operator" v="AVIA Hungária Kft."/>
  </node>
  <!-- Original coordinates: POINT (47.886078 21.101965) -->
  <!-- Original tags: None -->
  <node action="modify" changeset="99999" id="-60" lat="47.886078" lon="21.101965" timestamp="" uid="4579407" user="KAMI" version="99999">
    <tag k="brand" v="Avia"/>
    <tag k="source" v="website"/>
    <tag k="phone" v="+36702577359"/>
    <tag k="addr:housenumber" v="7/a"/>
    <tag k="email" v="avia@avia.hu"/>
    <tag k="youtube" v="https://www.youtube.com/channel/UCjvjkjf2RgmKBuTnKSXk-Rg"/>
    <tag k="addr:city" v="Polgár"/>
    <tag k="fuel:octane_95" v="yes"/>
    <tag k="payment:mastercard" v="yes"/>
    <tag k="addr:street" v="Tiszaiúti tanya"/>
    <tag k="fuel:diesel" v="yes"/>
    <tag k="amenity" v="fuel"/>
    <tag k="name" v="Avia"/>
    <tag k="facebook" v="https://www.facebook.com/AVIAHungary"/>
    <tag k="payment:visa" v="yes"/>
    <tag k="addr:postcode" v="4090"/>
    <tag k="website" v="https://www.avia.hu/toltoallomas/?id=128"/>
    <tag k="operator" v="AVIA Hungária Kft."/>
  </node>
  <!-- Original coordinates: POINT (47.067773 18.309969) -->
  <!-- Original tags: None -->
  <node action="modify" changeset="99999" id="-61" lat="47.067773" lon="18.309969" timestamp="" uid="4579407" user="KAMI" version="99999">
    <tag k="brand" v="Avia"/>
    <tag k="source" v="website"/>
    <tag k="phone" v="+3622576196"/>
    <tag k="email" v="avia@avia.hu"/>
    <tag k="youtube" v="https://www.youtube.com/channel/UCjvjkjf2RgmKBuTnKSXk-Rg"/>
    <tag k="addr:city" v="Polgárdi"/>
    <tag k="fuel:octane_95" v="yes"/>
    <tag k="payment:mastercard" v="yes"/>
    <tag k="fuel:diesel" v="yes"/>
    <tag k="amenity" v="fuel"/>
    <tag k="name" v="Avia"/>
    <tag k="facebook" v="https://www.facebook.com/AVIAHungary"/>
    <tag k="payment:visa" v="yes"/>
    <tag k="addr:postcode" v="8154"/>
    <tag k="website" v="https://www.avia.hu/toltoallomas/?id=46"/>
    <tag k="operator" v="AVIA Hungária Kft."/>
  </node>
  <!-- Original coordinates: POINT (46.201125 18.8198371) -->
  <!-- Original tags: None -->
  <node action="modify" changeset="99999" id="-62" lat="46.201125" lon="18.8198371" timestamp="" uid="4579407" user="KAMI" version="99999">
    <tag k="brand" v="Avia"/>
    <tag k="source" v="website"/>
    <tag k="phone" v="+36307776343"/>
    <tag k="addr:housenumber" v="1"/>
    <tag k="email" v="avia@avia.hu"/>
    <tag k="youtube" v="https://www.youtube.com/channel/UCjvjkjf2RgmKBuTnKSXk-Rg"/>
    <tag k="addr:city" v="Pörböly"/>
    <tag k="fuel:octane_95" v="yes"/>
    <tag k="payment:mastercard" v="yes"/>
    <tag k="addr:street" v="Vadász utca"/>
    <tag k="fuel:diesel" v="yes"/>
    <tag k="amenity" v="fuel"/>
    <tag k="name" v="Avia"/>
    <tag k="facebook" v="https://www.facebook.com/AVIAHungary"/>
    <tag k="payment:visa" v="yes"/>
    <tag k="addr:postcode" v="7142"/>
    <tag k="website" v="https://www.avia.hu/toltoallomas/?id=63"/>
    <tag k="operator" v="AVIA Hungária Kft."/>
  </node>
  <!-- Original coordinates: POINT (47.41338 17.00303) -->
  <!-- Original tags: None -->
  <node action="modify" changeset="99999" id="-63" lat="47.41338" lon="17.00303" timestamp="" uid="4579407" user="KAMI" version="99999">
    <tag k="brand" v="Avia"/>
    <tag k="addr:conscriptionnumber" v="86"/>
    <tag k="phone" v="+3695370580"/>
    <tag k="email" v="avia@avia.hu"/>
    <tag k="youtube" v="https://www.youtube.com/channel/UCjvjkjf2RgmKBuTnKSXk-Rg"/>
    <tag k="addr:city" v="Répcelak"/>
    <tag k="fuel:octane_95" v="yes"/>
    <tag k="payment:mastercard" v="yes"/>
    <tag k="addr:street" v="076/15. hrsz 86. számú főút"/>
    <tag k="source" v="website"/>
    <tag k="fuel:diesel" v="yes"/>
    <tag k="amenity" v="fuel"/>
    <tag k="name" v="Avia"/>
    <tag k="facebook" v="https://www.facebook.com/AVIAHungary"/>
    <tag k="payment:visa" v="yes"/>
    <tag k="addr:postcode" v="9653"/>
    <tag k="website" v="https://www.avia.hu/toltoallomas/?id=6"/>
    <tag k="operator" v="AVIA Hungária Kft."/>
  </node>
  <!-- Original coordinates: POINT (47.25158 16.91036) -->
  <!-- Original tags: None -->
  <node action="modify" changeset="99999" id="-64" lat="47.25158" lon="16.91036" timestamp="" uid="4579407" user="KAMI" version="99999">
    <tag k="brand" v="Avia"/>
    <tag k="source" v="website"/>
    <tag k="phone" v="+3695326373"/>
    <tag k="addr:housenumber" v="18"/>
    <tag k="email" v="avia@avia.hu"/>
    <tag k="youtube" v="https://www.youtube.com/channel/UCjvjkjf2RgmKBuTnKSXk-Rg"/>
    <tag k="addr:city" v="Sárvár"/>
    <tag k="fuel:octane_95" v="yes"/>
    <tag k="payment:mastercard" v="yes"/>
    <tag k="addr:street" v="Ikervári út"/>
    <tag k="fuel:diesel" v="yes"/>
    <tag k="amenity" v="fuel"/>
    <tag k="name" v="Avia"/>
    <tag k="facebook" v="https://www.facebook.com/AVIAHungary"/>
    <tag k="payment:visa" v="yes"/>
    <tag k="addr:postcode" v="9600"/>
    <tag k="website" v="https://www.avia.hu/toltoallomas/?id=4"/>
    <tag k="operator" v="AVIA Hungária Kft."/>
  </node>
  <!-- Original coordinates: POINT (45.8579775257 18.2783961296) -->
  <!-- Original tags: None -->
  <node action="modify" changeset="99999" id="-65" lat="45.8579775257" lon="18.2783961296" timestamp="" uid="4579407" user="KAMI" version="99999">
    <tag k="brand" v="Avia"/>
    <tag k="source" v="website"/>
    <tag k="phone" v="+3672579008"/>
    <tag k="addr:housenumber" v="55"/>
    <tag k="email" v="avia@avia.hu"/>
    <tag k="youtube" v="https://www.youtube.com/channel/UCjvjkjf2RgmKBuTnKSXk-Rg"/>
    <tag k="addr:city" v="Siklós"/>
    <tag k="fuel:octane_95" v="yes"/>
    <tag k="payment:mastercard" v="yes"/>
    <tag k="addr:street" v="Harkányi utca"/>
    <tag k="fuel:diesel" v="yes"/>
    <tag k="amenity" v="fuel"/>
    <tag k="name" v="Avia"/>
    <tag k="facebook" v="https://www.facebook.com/AVIAHungary"/>
    <tag k="payment:visa" v="yes"/>
    <tag k="addr:postcode" v="7800"/>
    <tag k="website" v="https://www.avia.hu/toltoallomas/?id=106"/>
    <tag k="operator" v="AVIA Hungária Kft."/>
  </node>
  <!-- Original coordinates: POINT (46.891059 18.061753) -->
  <!-- Original tags: None -->
  <node action="modify" changeset="99999" id="-66" lat="46.891059" lon="18.061753" timestamp="" uid="4579407" user="KAMI" version="99999">
    <tag k="brand" v="Avia"/>
    <tag k="source" v="website"/>
    <tag k="phone" v="+36205037943"/>
    <tag k="addr:housenumber" v="45"/>
    <tag k="email" v="avia@avia.hu"/>
    <tag k="youtube" v="https://www.youtube.com/channel/UCjvjkjf2RgmKBuTnKSXk-Rg"/>
    <tag k="addr:city" v="Siófok"/>
    <tag k="fuel:octane_95" v="yes"/>
    <tag k="payment:mastercard" v="yes"/>
    <tag k="addr:street" v="Vak Bottyán utca"/>
    <tag k="fuel:diesel" v="yes"/>
    <tag k="amenity" v="fuel"/>
    <tag k="name" v="Avia"/>
    <tag k="facebook" v="https://www.facebook.com/AVIAHungary"/>
    <tag k="payment:visa" v="yes"/>
    <tag k="addr:postcode" v="8611"/>
    <tag k="website" v="https://www.avia.hu/toltoallomas/?id=99"/>
    <tag k="operator" v="AVIA Hungária Kft."/>
  </node>
  <!-- Original coordinates: POINT (46.6834 17.772239) -->
  <!-- Original tags: None -->
  <node action="modify" changeset="99999" id="-67" lat="46.6834" lon="17.772239" timestamp="" uid="4579407" user="KAMI" version="99999">
    <tag k="brand" v="Avia"/>
    <tag k="addr:conscriptionnumber" v="09/4"/>
    <tag k="phone" v="+36205730768"/>
    <tag k="email" v="avia@avia.hu"/>
    <tag k="youtube" v="https://www.youtube.com/channel/UCjvjkjf2RgmKBuTnKSXk-Rg"/>
    <tag k="addr:city" v="Somogytúr"/>
    <tag k="fuel:octane_95" v="yes"/>
    <tag k="payment:mastercard" v="yes"/>
    <tag k="source" v="website"/>
    <tag k="fuel:diesel" v="yes"/>
    <tag k="amenity" v="fuel"/>
    <tag k="name" v="Avia"/>
    <tag k="facebook" v="https://www.facebook.com/AVIAHungary"/>
    <tag k="payment:visa" v="yes"/>
    <tag k="addr:postcode" v="8683"/>
    <tag k="website" v="https://www.avia.hu/toltoallomas/?id=112"/>
    <tag k="operator" v="AVIA Hungária Kft."/>
  </node>
  <!-- Original coordinates: POINT (47.08034 18.22582) -->
  <!-- Original tags: None -->
  <node action="modify" changeset="99999" id="-68" lat="47.08034" lon="18.22582" timestamp="" uid="4579407" user="KAMI" version="99999">
    <tag k="brand" v="Avia"/>
    <tag k="addr:conscriptionnumber" v="09/5"/>
    <tag k="phone" v="+3622363415"/>
    <tag k="email" v="avia@avia.hu"/>
    <tag k="youtube" v="https://www.youtube.com/channel/UCjvjkjf2RgmKBuTnKSXk-Rg"/>
    <tag k="addr:city" v="Szabadbattyán"/>
    <tag k="fuel:octane_95" v="yes"/>
    <tag k="payment:mastercard" v="yes"/>
    <tag k="source" v="website"/>
    <tag k="fuel:diesel" v="yes"/>
    <tag k="amenity" v="fuel"/>
    <tag k="name" v="Avia"/>
    <tag k="facebook" v="https://www.facebook.com/AVIAHungary"/>
    <tag k="payment:visa" v="yes"/>
    <tag k="addr:postcode" v="8157"/>
    <tag k="website" v="https://www.avia.hu/toltoallomas/?id=103"/>
    <tag k="operator" v="AVIA Hungária Kft."/>
  </node>
  <!-- Original coordinates: POINT (46.27441 18.36981) -->
  <!-- Original tags: None -->
  <node action="modify" changeset="99999" id="-69" lat="46.27441" lon="18.36981" timestamp="" uid="4579407" user="KAMI" version="99999">
    <tag k="brand" v="Avia"/>
    <tag k="addr:conscriptionnumber" v="1171/2"/>
    <tag k="phone" v="+36306309667"/>
    <tag k="email" v="avia@avia.hu"/>
    <tag k="youtube" v="https://www.youtube.com/channel/UCjvjkjf2RgmKBuTnKSXk-Rg"/>
    <tag k="addr:city" v="Szászvár"/>
    <tag k="fuel:octane_95" v="yes"/>
    <tag k="payment:mastercard" v="yes"/>
    <tag k="addr:street" v="Vásártér utca"/>
    <tag k="source" v="website"/>
    <tag k="fuel:diesel" v="yes"/>
    <tag k="amenity" v="fuel"/>
    <tag k="name" v="Avia"/>
    <tag k="facebook" v="https://www.facebook.com/AVIAHungary"/>
    <tag k="payment:visa" v="yes"/>
    <tag k="addr:postcode" v="7349"/>
    <tag k="website" v="https://www.avia.hu/toltoallomas/?id=26"/>
    <tag k="operator" v="AVIA Hungária Kft."/>
  </node>
  <!-- Original coordinates: POINT (46.3498314 20.0424348) -->
  <!-- Original tags: None -->
  <node action="modify" changeset="99999" id="-70" lat="46.3498314" lon="20.0424348" timestamp="" uid="4579407" user="KAMI" version="99999">
    <tag k="brand" v="Avia"/>
    <tag k="addr:conscriptionnumber" v="0261/4"/>
    <tag k="phone" v="+306558730"/>
    <tag k="addr:housenumber" v="130"/>
    <tag k="email" v="avia@avia.hu"/>
    <tag k="youtube" v="https://www.youtube.com/channel/UCjvjkjf2RgmKBuTnKSXk-Rg"/>
    <tag k="addr:city" v="Szatymaz"/>
    <tag k="fuel:octane_95" v="yes"/>
    <tag k="payment:mastercard" v="yes"/>
    <tag k="addr:street" v="IV. kerület"/>
    <tag k="source" v="website"/>
    <tag k="fuel:diesel" v="yes"/>
    <tag k="amenity" v="fuel"/>
    <tag k="name" v="Avia"/>
    <tag k="facebook" v="https://www.facebook.com/AVIAHungary"/>
    <tag k="payment:visa" v="yes"/>
    <tag k="addr:postcode" v="6763"/>
    <tag k="website" v="https://www.avia.hu/toltoallomas/?id=91"/>
    <tag k="operator" v="AVIA Hungária Kft."/>
  </node>
  <!-- Original coordinates: POINT (46.260339 20.1075037) -->
  <!-- Original tags: None -->
  <node action="modify" changeset="99999" id="-71" lat="46.260339" lon="20.1075037" timestamp="" uid="4579407" user="KAMI" version="99999">
    <tag k="brand" v="Avia"/>
    <tag k="source" v="website"/>
    <tag k="phone" v="+36302164349"/>
    <tag k="addr:housenumber" v="14"/>
    <tag k="email" v="avia@avia.hu"/>
    <tag k="youtube" v="https://www.youtube.com/channel/UCjvjkjf2RgmKBuTnKSXk-Rg"/>
    <tag k="addr:city" v="Szeged"/>
    <tag k="fuel:octane_95" v="yes"/>
    <tag k="payment:mastercard" v="yes"/>
    <tag k="addr:street" v="Fonógyári út"/>
    <tag k="fuel:diesel" v="yes"/>
    <tag k="amenity" v="fuel"/>
    <tag k="name" v="Avia"/>
    <tag k="facebook" v="https://www.facebook.com/AVIAHungary"/>
    <tag k="payment:visa" v="yes"/>
    <tag k="addr:postcode" v="6728"/>
    <tag k="website" v="https://www.avia.hu/toltoallomas/?id=59"/>
    <tag k="operator" v="AVIA Hungária Kft."/>
  </node>
  <!-- Original coordinates: POINT (47.67836984531385 19.06017422676086) -->
  <!-- Original tags: None -->
  <node action="modify" changeset="99999" id="-72" lat="47.67836984531385" lon="19.060174226760864" timestamp="" uid="4579407" user="KAMI" version="99999">
    <tag k="brand" v="Avia"/>
    <tag k="source" v="website"/>
    <tag k="phone" v="+3626302097"/>
    <tag k="email" v="avia@avia.hu"/>
    <tag k="youtube" v="https://www.youtube.com/channel/UCjvjkjf2RgmKBuTnKSXk-Rg"/>
    <tag k="addr:city" v="Szentendre"/>
    <tag k="fuel:octane_95" v="yes"/>
    <tag k="payment:mastercard" v="yes"/>
    <tag k="fuel:diesel" v="yes"/>
    <tag k="amenity" v="fuel"/>
    <tag k="name" v="Avia"/>
    <tag k="facebook" v="https://www.facebook.com/AVIAHungary"/>
    <tag k="payment:visa" v="yes"/>
    <tag k="addr:postcode" v="2000"/>
    <tag k="website" v="https://www.avia.hu/toltoallomas/?id=90"/>
    <tag k="operator" v="AVIA Hungária Kft."/>
  </node>
  <!-- Original coordinates: POINT (47.2137944444 16.6197305556) -->
  <!-- Original tags: None -->
  <node action="modify" changeset="99999" id="-73" lat="47.2137944444" lon="16.6197305556" timestamp="" uid="4579407" user="KAMI" version="99999">
    <tag k="brand" v="Avia"/>
    <tag k="source" v="website"/>
    <tag k="phone" v="+36209961603"/>
    <tag k="addr:housenumber" v="92"/>
    <tag k="email" v="avia@avia.hu"/>
    <tag k="youtube" v="https://www.youtube.com/channel/UCjvjkjf2RgmKBuTnKSXk-Rg"/>
    <tag k="addr:city" v="Szombathely"/>
    <tag k="fuel:octane_95" v="yes"/>
    <tag k="payment:mastercard" v="yes"/>
    <tag k="addr:street" v="Körmendi út"/>
    <tag k="fuel:diesel" v="yes"/>
    <tag k="amenity" v="fuel"/>
    <tag k="name" v="Avia"/>
    <tag k="facebook" v="https://www.facebook.com/AVIAHungary"/>
    <tag k="payment:visa" v="yes"/>
    <tag k="addr:postcode" v="9700"/>
    <tag k="website" v="https://www.avia.hu/toltoallomas/?id=23"/>
    <tag k="operator" v="AVIA Hungária Kft."/>
  </node>
  <!-- Original coordinates: POINT (48.0838203 21.1304792) -->
  <!-- Original tags: None -->
  <node action="modify" changeset="99999" id="-74" lat="48.0838203" lon="21.1304792" timestamp="" uid="4579407" user="KAMI" version="99999">
    <tag k="brand" v="Avia"/>
    <tag k="source" v="website"/>
    <tag k="phone" v="+3647378054"/>
    <tag k="addr:housenumber" v="10"/>
    <tag k="email" v="avia@avia.hu"/>
    <tag k="youtube" v="https://www.youtube.com/channel/UCjvjkjf2RgmKBuTnKSXk-Rg"/>
    <tag k="addr:city" v="Taktaharkány"/>
    <tag k="fuel:octane_95" v="yes"/>
    <tag k="payment:mastercard" v="yes"/>
    <tag k="addr:street" v="Vörösmarty utca"/>
    <tag k="fuel:diesel" v="yes"/>
    <tag k="amenity" v="fuel"/>
    <tag k="name" v="Avia"/>
    <tag k="facebook" v="https://www.facebook.com/AVIAHungary"/>
    <tag k="payment:visa" v="yes"/>
    <tag k="addr:postcode" v="3922"/>
    <tag k="website" v="https://www.avia.hu/toltoallomas/?id=134"/>
    <tag k="operator" v="AVIA Hungária Kft."/>
  </node>
  <!-- Original coordinates: POINT (48.1395876 21.3350751) -->
  <!-- Original tags: None -->
  <node action="modify" changeset="99999" id="-75" lat="48.1395876" lon="21.3350751" timestamp="" uid="4579407" user="KAMI" version="99999">
    <tag k="brand" v="Avia"/>
    <tag k="addr:conscriptionnumber" v="12/24"/>
    <tag k="phone" v="+3647580029"/>
    <tag k="addr:housenumber" v="35"/>
    <tag k="email" v="avia@avia.hu"/>
    <tag k="youtube" v="https://www.youtube.com/channel/UCjvjkjf2RgmKBuTnKSXk-Rg"/>
    <tag k="addr:city" v="Tarcal"/>
    <tag k="fuel:octane_95" v="yes"/>
    <tag k="payment:mastercard" v="yes"/>
    <tag k="addr:street" v="Sport tér"/>
    <tag k="source" v="website"/>
    <tag k="fuel:diesel" v="yes"/>
    <tag k="amenity" v="fuel"/>
    <tag k="name" v="Avia"/>
    <tag k="facebook" v="https://www.facebook.com/AVIAHungary"/>
    <tag k="payment:visa" v="yes"/>
    <tag k="addr:postcode" v="3915"/>
    <tag k="website" v="https://www.avia.hu/toltoallomas/?id=65"/>
    <tag k="operator" v="AVIA Hungária Kft."/>
  </node>
  <!-- Original coordinates: POINT (46.436111 18.769444) -->
  <!-- Original tags: None -->
  <node action="modify" changeset="99999" id="-76" lat="46.436111" lon="18.769444" timestamp="" uid="4579407" user="KAMI" version="99999">
    <tag k="brand" v="Avia"/>
    <tag k="addr:conscriptionnumber" v="077/4"/>
    <tag k="phone" v="+36704230066"/>
    <tag k="email" v="avia@avia.hu"/>
    <tag k="youtube" v="https://www.youtube.com/channel/UCjvjkjf2RgmKBuTnKSXk-Rg"/>
    <tag k="addr:city" v="Tolna"/>
    <tag k="fuel:octane_95" v="yes"/>
    <tag k="payment:mastercard" v="yes"/>
    <tag k="source" v="website"/>
    <tag k="fuel:diesel" v="yes"/>
    <tag k="amenity" v="fuel"/>
    <tag k="name" v="Avia"/>
    <tag k="facebook" v="https://www.facebook.com/AVIAHungary"/>
    <tag k="payment:visa" v="yes"/>
    <tag k="addr:postcode" v="7130"/>
    <tag k="website" v="https://www.avia.hu/toltoallomas/?id=104"/>
    <tag k="operator" v="AVIA Hungária Kft."/>
  </node>
  <!-- Original coordinates: POINT (47.3427698 18.7448036) -->
  <!-- Original tags: None -->
  <node action="modify" changeset="99999" id="-77" lat="47.3427698" lon="18.7448036" timestamp="" uid="4579407" user="KAMI" version="99999">
    <tag k="brand" v="Avia"/>
    <tag k="source" v="website"/>
    <tag k="phone" v="+36306803817"/>
    <tag k="email" v="avia@avia.hu"/>
    <tag k="youtube" v="https://www.youtube.com/channel/UCjvjkjf2RgmKBuTnKSXk-Rg"/>
    <tag k="addr:city" v="Tordas"/>
    <tag k="fuel:octane_95" v="yes"/>
    <tag k="payment:mastercard" v="yes"/>
    <tag k="fuel:diesel" v="yes"/>
    <tag k="amenity" v="fuel"/>
    <tag k="name" v="Avia"/>
    <tag k="facebook" v="https://www.facebook.com/AVIAHungary"/>
    <tag k="payment:visa" v="yes"/>
    <tag k="addr:postcode" v="2463"/>
    <tag k="website" v="https://www.avia.hu/toltoallomas/?id=133"/>
    <tag k="operator" v="AVIA Hungária Kft."/>
  </node>
  <!-- Original coordinates: POINT (48.006944 22.156944) -->
  <!-- Original tags: None -->
  <node action="modify" changeset="99999" id="-78" lat="48.006944" lon="22.156944" timestamp="" uid="4579407" user="KAMI" version="99999">
    <tag k="brand" v="Avia"/>
    <tag k="source" v="website"/>
    <tag k="phone" v="+3644385320"/>
    <tag k="addr:housenumber" v="2"/>
    <tag k="email" v="avia@avia.hu"/>
    <tag k="youtube" v="https://www.youtube.com/channel/UCjvjkjf2RgmKBuTnKSXk-Rg"/>
    <tag k="addr:city" v="Vaja"/>
    <tag k="fuel:octane_95" v="yes"/>
    <tag k="payment:mastercard" v="yes"/>
    <tag k="addr:street" v="Rohodi utca"/>
    <tag k="fuel:diesel" v="yes"/>
    <tag k="amenity" v="fuel"/>
    <tag k="name" v="Avia"/>
    <tag k="facebook" v="https://www.facebook.com/AVIAHungary"/>
    <tag k="payment:visa" v="yes"/>
    <tag k="addr:postcode" v="4562"/>
    <tag k="website" v="https://www.avia.hu/toltoallomas/?id=45"/>
    <tag k="operator" v="AVIA Hungária Kft."/>
  </node>
  <!-- Original coordinates: POINT (47.0359776 16.8110368) -->
  <!-- Original tags: None -->
  <node action="modify" changeset="99999" id="-79" lat="47.0359776" lon="16.8110368" timestamp="" uid="4579407" user="KAMI" version="99999">
    <tag k="brand" v="Avia"/>
    <tag k="source" v="website"/>
    <tag k="phone" v="+3694505391"/>
    <tag k="addr:housenumber" v="113"/>
    <tag k="email" v="avia@avia.hu"/>
    <tag k="youtube" v="https://www.youtube.com/channel/UCjvjkjf2RgmKBuTnKSXk-Rg"/>
    <tag k="addr:city" v="Vasvár"/>
    <tag k="fuel:octane_95" v="yes"/>
    <tag k="payment:mastercard" v="yes"/>
    <tag k="addr:street" v="Győrvári út"/>
    <tag k="fuel:diesel" v="yes"/>
    <tag k="amenity" v="fuel"/>
    <tag k="name" v="Avia"/>
    <tag k="facebook" v="https://www.facebook.com/AVIAHungary"/>
    <tag k="payment:visa" v="yes"/>
    <tag k="addr:postcode" v="9800"/>
    <tag k="website" v="https://www.avia.hu/toltoallomas/?id=56"/>
    <tag k="operator" v="AVIA Hungária Kft."/>
  </node>
  <!-- Original coordinates: POINT (47.4229 19.2372) -->
  <!-- Original tags: None -->
  <node action="modify" changeset="99999" id="-80" lat="47.4229" lon="19.2372" timestamp="" uid="4579407" user="KAMI" version="99999">
    <tag k="brand" v="Avia"/>
    <tag k="source" v="website"/>
    <tag k="phone" v="+3629552530"/>
    <tag k="addr:housenumber" v="812"/>
    <tag k="email" v="avia@avia.hu"/>
    <tag k="youtube" v="https://www.youtube.com/channel/UCjvjkjf2RgmKBuTnKSXk-Rg"/>
    <tag k="addr:city" v="Vecsés"/>
    <tag k="fuel:octane_95" v="yes"/>
    <tag k="payment:mastercard" v="yes"/>
    <tag k="addr:street" v="Üllői út"/>
    <tag k="fuel:diesel" v="yes"/>
    <tag k="amenity" v="fuel"/>
    <tag k="name" v="Avia"/>
    <tag k="facebook" v="https://www.facebook.com/AVIAHungary"/>
    <tag k="payment:visa" v="yes"/>
    <tag k="addr:postcode" v="2220"/>
    <tag k="website" v="https://www.avia.hu/toltoallomas/?id=13"/>
    <tag k="operator" v="AVIA Hungária Kft."/>
  </node>
  <!-- Original coordinates: POINT (46.97375 17.01521) -->
  <!-- Original tags: None -->
  <node action="modify" changeset="99999" id="-81" lat="46.97375" lon="17.01521" timestamp="" uid="4579407" user="KAMI" version="99999">
    <tag k="brand" v="Avia"/>
    <tag k="addr:conscriptionnumber" v="03155/2"/>
    <tag k="phone" v="+3683376087"/>
    <tag k="email" v="avia@avia.hu"/>
    <tag k="youtube" v="https://www.youtube.com/channel/UCjvjkjf2RgmKBuTnKSXk-Rg"/>
    <tag k="addr:city" v="Zalabér"/>
    <tag k="fuel:octane_95" v="yes"/>
    <tag k="payment:mastercard" v="yes"/>
    <tag k="source" v="website"/>
    <tag k="fuel:diesel" v="yes"/>
    <tag k="amenity" v="fuel"/>
    <tag k="name" v="Avia"/>
    <tag k="facebook" v="https://www.facebook.com/AVIAHungary"/>
    <tag k="payment:visa" v="yes"/>
    <tag k="addr:postcode" v="8798"/>
    <tag k="website" v="https://www.avia.hu/toltoallomas/?id=5"/>
    <tag k="operator" v="AVIA Hungária Kft."/>
  </node>
  <!-- Original coordinates: POINT (47.01919 17.23416) -->
  <!-- Original tags: None -->
  <node action="modify" changeset="99999" id="-82" lat="47.01919" lon="17.23416" timestamp="" uid="4579407" user="KAMI" version="99999">
    <tag k="brand" v="Avia"/>
    <tag k="source" v="website"/>
    <tag k="phone" v="+3687457509"/>
    <tag k="addr:housenumber" v="184"/>
    <tag k="email" v="avia@avia.hu"/>
    <tag k="youtube" v="https://www.youtube.com/channel/UCjvjkjf2RgmKBuTnKSXk-Rg"/>
    <tag k="addr:city" v="Zalagyömörő"/>
    <tag k="fuel:octane_95" v="yes"/>
    <tag k="payment:mastercard" v="yes"/>
    <tag k="addr:street" v="Rákóczi utca"/>
    <tag k="fuel:diesel" v="yes"/>
    <tag k="amenity" v="fuel"/>
    <tag k="name" v="Avia"/>
    <tag k="facebook" v="https://www.facebook.com/AVIAHungary"/>
    <tag k="payment:visa" v="yes"/>
    <tag k="addr:postcode" v="8349"/>
    <tag k="website" v="https://www.avia.hu/toltoallomas/?id=25"/>
    <tag k="operator" v="AVIA Hungária Kft."/>
  </node>
</osm>
