<?xml version='1.0' encoding='UTF-8'?>
<osm generator="JOSM" version="0.6">
  <node action="modify" changeset="99999" id="-1" lat="47.4264269" lon="18.6027487" timestamp="" uid="4579407" user="KAMI" version="99999">
    <tag k="name" v="Posta csomagautomata"/>
    <tag k="addr:city" v="Alcsútdoboz"/>
    <tag k="addr:postcode" v="8087"/>
    <tag k="addr:street" v="Béke utca"/>
    <tag k="addr:housenumber" v="1"/>
    <tag k="branch" v="51 sz. automata - Magyar Takarékszövetkezeti Bank Zrt."/>
    <tag k="website" v="https://www.posta.hu"/>
    <tag k="amenity" v="vending_machine"/>
    <tag k="vending" v="parcel_pickup"/>
    <tag k="operator" v="Magyar Posta Zrt."/>
    <tag k="brand" v="Magyar Posta"/>
  </node>
  <node action="modify" changeset="99999" id="-2" lat="47.540107" lon="18.965818" timestamp="" uid="4579407" user="KAMI" version="99999">
    <tag k="name" v="Posta csomagautomata"/>
    <tag k="addr:city" v="Budapest"/>
    <tag k="addr:postcode" v="1021"/>
    <tag k="addr:street" v="Hűvösvölgyi út"/>
    <tag k="addr:housenumber" v="138"/>
    <tag k="branch" v="1 sz. automata - Stop-Shop áruház"/>
    <tag k="website" v="https://www.posta.hu"/>
    <tag k="amenity" v="vending_machine"/>
    <tag k="vending" v="parcel_pickup"/>
    <tag k="operator" v="Magyar Posta Zrt."/>
    <tag k="brand" v="Magyar Posta"/>
  </node>
  <node action="modify" changeset="99999" id="-3" lat="47.562566" lon="19.021198" timestamp="" uid="4579407" user="KAMI" version="99999">
    <tag k="name" v="Posta csomagautomata"/>
    <tag k="addr:city" v="Budapest"/>
    <tag k="addr:postcode" v="1037"/>
    <tag k="addr:street" v="Bécsi út"/>
    <tag k="addr:housenumber" v="262"/>
    <tag k="branch" v="2 sz. automata - Bécsi út Tesco"/>
    <tag k="website" v="https://www.posta.hu"/>
    <tag k="amenity" v="vending_machine"/>
    <tag k="vending" v="parcel_pickup"/>
    <tag k="operator" v="Magyar Posta Zrt."/>
    <tag k="brand" v="Magyar Posta"/>
  </node>
  <node action="modify" changeset="99999" id="-4" lat="47.55563" lon="19.079757" timestamp="" uid="4579407" user="KAMI" version="99999">
    <tag k="name" v="Posta csomagautomata"/>
    <tag k="addr:city" v="Budapest"/>
    <tag k="addr:postcode" v="1138"/>
    <tag k="addr:street" v="Gács utca"/>
    <tag k="addr:housenumber" v="3"/>
    <tag k="branch" v="3 sz. automata - Váci út Tesco"/>
    <tag k="website" v="https://www.posta.hu"/>
    <tag k="amenity" v="vending_machine"/>
    <tag k="vending" v="parcel_pickup"/>
    <tag k="operator" v="Magyar Posta Zrt."/>
    <tag k="brand" v="Magyar Posta"/>
  </node>
  <node action="modify" changeset="99999" id="-5" lat="47.504606" lon="19.137486" timestamp="" uid="4579407" user="KAMI" version="99999">
    <tag k="name" v="Posta csomagautomata"/>
    <tag k="addr:city" v="Budapest"/>
    <tag k="addr:postcode" v="1144"/>
    <tag k="addr:street" v="Örs Vezér tere"/>
    <tag k="addr:housenumber" v="24 (b)"/>
    <tag k="branch" v="4 sz. automata - Sugár B (IKEA felől)"/>
    <tag k="website" v="https://www.posta.hu"/>
    <tag k="amenity" v="vending_machine"/>
    <tag k="vending" v="parcel_pickup"/>
    <tag k="operator" v="Magyar Posta Zrt."/>
    <tag k="brand" v="Magyar Posta"/>
  </node>
  <node action="modify" changeset="99999" id="-6" lat="47.463211" lon="19.129217" timestamp="" uid="4579407" user="KAMI" version="99999">
    <tag k="name" v="Posta csomagautomata"/>
    <tag k="addr:city" v="Budapest"/>
    <tag k="addr:postcode" v="1191"/>
    <tag k="addr:street" v="Üllői út"/>
    <tag k="addr:housenumber" v="201"/>
    <tag k="branch" v="5 sz. automata - Europark parkoló"/>
    <tag k="website" v="https://www.posta.hu"/>
    <tag k="amenity" v="vending_machine"/>
    <tag k="vending" v="parcel_pickup"/>
    <tag k="operator" v="Magyar Posta Zrt."/>
    <tag k="brand" v="Magyar Posta"/>
  </node>
  <node action="modify" changeset="99999" id="-7" lat="47.424434" lon="19.06742" timestamp="" uid="4579407" user="KAMI" version="99999">
    <tag k="name" v="Posta csomagautomata"/>
    <tag k="addr:city" v="Budapest"/>
    <tag k="addr:postcode" v="1212"/>
    <tag k="addr:street" v="Rákóczi Ferenc utca"/>
    <tag k="addr:housenumber" v="154-170"/>
    <tag k="branch" v="6 sz. automata - Csepel Pláza"/>
    <tag k="website" v="https://www.posta.hu"/>
    <tag k="amenity" v="vending_machine"/>
    <tag k="vending" v="parcel_pickup"/>
    <tag k="operator" v="Magyar Posta Zrt."/>
    <tag k="brand" v="Magyar Posta"/>
  </node>
  <node action="modify" changeset="99999" id="-8" lat="47.456304" lon="19.03966" timestamp="" uid="4579407" user="KAMI" version="99999">
    <tag k="name" v="Posta csomagautomata"/>
    <tag k="addr:city" v="Budapest"/>
    <tag k="addr:postcode" v="1119"/>
    <tag k="addr:street" v="Fehérvári út (Andor u. 1.) út"/>
    <tag k="addr:housenumber" v="161"/>
    <tag k="branch" v="7 sz. automata - Andor utca Spar"/>
    <tag k="website" v="https://www.posta.hu"/>
    <tag k="amenity" v="vending_machine"/>
    <tag k="vending" v="parcel_pickup"/>
    <tag k="operator" v="Magyar Posta Zrt."/>
    <tag k="brand" v="Magyar Posta"/>
  </node>
  <node action="modify" changeset="99999" id="-9" lat="47.407116" lon="19.016613" timestamp="" uid="4579407" user="KAMI" version="99999">
    <tag k="name" v="Posta csomagautomata"/>
    <tag k="addr:city" v="Budapest"/>
    <tag k="addr:postcode" v="1223"/>
    <tag k="addr:street" v="Nagytétényi út"/>
    <tag k="addr:housenumber" v="37-43"/>
    <tag k="branch" v="8 sz. automata - Campona"/>
    <tag k="website" v="https://www.posta.hu"/>
    <tag k="amenity" v="vending_machine"/>
    <tag k="vending" v="parcel_pickup"/>
    <tag k="operator" v="Magyar Posta Zrt."/>
    <tag k="brand" v="Magyar Posta"/>
  </node>
  <node action="modify" changeset="99999" id="-10" lat="47.5046855" lon="19.1384089" timestamp="" uid="4579407" user="KAMI" version="99999">
    <tag k="name" v="Posta csomagautomata"/>
    <tag k="addr:city" v="Budapest"/>
    <tag k="addr:postcode" v="1144"/>
    <tag k="addr:street" v="Örs Vezér tere"/>
    <tag k="addr:housenumber" v="24 (a)"/>
    <tag k="branch" v="9 sz. automata - Sugár A (IKEA felől)"/>
    <tag k="website" v="https://www.posta.hu"/>
    <tag k="amenity" v="vending_machine"/>
    <tag k="vending" v="parcel_pickup"/>
    <tag k="operator" v="Magyar Posta Zrt."/>
    <tag k="brand" v="Magyar Posta"/>
  </node>
  <node action="modify" changeset="99999" id="-11" lat="47.462297" lon="19.147798" timestamp="" uid="4579407" user="KAMI" version="99999">
    <tag k="name" v="Posta csomagautomata"/>
    <tag k="addr:city" v="Budapest"/>
    <tag k="addr:postcode" v="1191"/>
    <tag k="addr:street" v="Vak Bottyán utca"/>
    <tag k="addr:housenumber" v="75. a-c"/>
    <tag k="branch" v="10 sz. automata - KÖKI"/>
    <tag k="website" v="https://www.posta.hu"/>
    <tag k="amenity" v="vending_machine"/>
    <tag k="vending" v="parcel_pickup"/>
    <tag k="operator" v="Magyar Posta Zrt."/>
    <tag k="brand" v="Magyar Posta"/>
  </node>
  <node action="modify" changeset="99999" id="-12" lat="47.591898" lon="19.358322" timestamp="" uid="4579407" user="KAMI" version="99999">
    <tag k="name" v="Posta csomagautomata"/>
    <tag k="addr:city" v="Gödöllő"/>
    <tag k="addr:postcode" v="2100"/>
    <tag k="addr:street" v="MÁV pályaudvar"/>
    <tag k="addr:housenumber" v="1"/>
    <tag k="branch" v="11 sz. automata - MÁV állomás"/>
    <tag k="website" v="https://www.posta.hu"/>
    <tag k="amenity" v="vending_machine"/>
    <tag k="vending" v="parcel_pickup"/>
    <tag k="operator" v="Magyar Posta Zrt."/>
    <tag k="brand" v="Magyar Posta"/>
  </node>
  <node action="modify" changeset="99999" id="-13" lat="47.378176" lon="18.92131" timestamp="" uid="4579407" user="KAMI" version="99999">
    <tag k="name" v="Posta csomagautomata"/>
    <tag k="addr:city" v="Érd"/>
    <tag k="addr:postcode" v="2030"/>
    <tag k="addr:street" v="Budai út"/>
    <tag k="addr:housenumber" v="13"/>
    <tag k="branch" v="12 sz. automata - Stop-Shop áruház"/>
    <tag k="website" v="https://www.posta.hu"/>
    <tag k="amenity" v="vending_machine"/>
    <tag k="vending" v="parcel_pickup"/>
    <tag k="operator" v="Magyar Posta Zrt."/>
    <tag k="brand" v="Magyar Posta"/>
  </node>
  <node action="modify" changeset="99999" id="-14" lat="47.503818" lon="21.630521" timestamp="" uid="4579407" user="KAMI" version="99999">
    <tag k="name" v="Posta csomagautomata"/>
    <tag k="addr:city" v="Debrecen"/>
    <tag k="addr:postcode" v="4030"/>
    <tag k="addr:street" v="Mikepércsi út"/>
    <tag k="addr:housenumber" v="73/a"/>
    <tag k="branch" v="13 sz. automata - Mikepércsi út Tesco"/>
    <tag k="website" v="https://www.posta.hu"/>
    <tag k="amenity" v="vending_machine"/>
    <tag k="vending" v="parcel_pickup"/>
    <tag k="operator" v="Magyar Posta Zrt."/>
    <tag k="brand" v="Magyar Posta"/>
  </node>
  <node action="modify" changeset="99999" id="-15" lat="47.54211" lon="21.619696" timestamp="" uid="4579407" user="KAMI" version="99999">
    <tag k="name" v="Posta csomagautomata"/>
    <tag k="addr:city" v="Debrecen"/>
    <tag k="addr:postcode" v="4027"/>
    <tag k="addr:street" v="Füredi út"/>
    <tag k="addr:housenumber" v="27"/>
    <tag k="branch" v="14 sz. automata - Malompark"/>
    <tag k="website" v="https://www.posta.hu"/>
    <tag k="amenity" v="vending_machine"/>
    <tag k="vending" v="parcel_pickup"/>
    <tag k="operator" v="Magyar Posta Zrt."/>
    <tag k="brand" v="Magyar Posta"/>
  </node>
  <node action="modify" changeset="99999" id="-16" lat="48.101368" lon="20.731535" timestamp="" uid="4579407" user="KAMI" version="99999">
    <tag k="name" v="Posta csomagautomata"/>
    <tag k="addr:city" v="Miskolc"/>
    <tag k="addr:postcode" v="3532"/>
    <tag k="addr:street" v="Andrássy út"/>
    <tag k="addr:housenumber" v="43"/>
    <tag k="branch" v="15 sz. automata - Miskolc 9 - Újdiósgyőr posta"/>
    <tag k="website" v="https://www.posta.hu"/>
    <tag k="amenity" v="vending_machine"/>
    <tag k="vending" v="parcel_pickup"/>
    <tag k="operator" v="Magyar Posta Zrt."/>
    <tag k="brand" v="Magyar Posta"/>
  </node>
  <node action="modify" changeset="99999" id="-17" lat="48.071854" lon="20.784405" timestamp="" uid="4579407" user="KAMI" version="99999">
    <tag k="name" v="Posta csomagautomata"/>
    <tag k="addr:city" v="Miskolc"/>
    <tag k="addr:postcode" v="3508"/>
    <tag k="addr:street" v="Mésztelep utca"/>
    <tag k="addr:housenumber" v="1/a"/>
    <tag k="branch" v="16 sz. automata - Avas Tesco"/>
    <tag k="website" v="https://www.posta.hu"/>
    <tag k="amenity" v="vending_machine"/>
    <tag k="vending" v="parcel_pickup"/>
    <tag k="operator" v="Magyar Posta Zrt."/>
    <tag k="brand" v="Magyar Posta"/>
  </node>
  <node action="modify" changeset="99999" id="-18" lat="47.946402" lon="21.706196" timestamp="" uid="4579407" user="KAMI" version="99999">
    <tag k="name" v="Posta csomagautomata"/>
    <tag k="addr:city" v="Nyíregyháza"/>
    <tag k="addr:postcode" v="4400"/>
    <tag k="addr:street" v="Állomás tér"/>
    <tag k="addr:housenumber" v="2"/>
    <tag k="branch" v="17 sz. automata - MÁV állomás"/>
    <tag k="website" v="https://www.posta.hu"/>
    <tag k="amenity" v="vending_machine"/>
    <tag k="vending" v="parcel_pickup"/>
    <tag k="operator" v="Magyar Posta Zrt."/>
    <tag k="brand" v="Magyar Posta"/>
  </node>
  <node action="modify" changeset="99999" id="-19" lat="47.179422" lon="20.176664" timestamp="" uid="4579407" user="KAMI" version="99999">
    <tag k="name" v="Posta csomagautomata"/>
    <tag k="addr:city" v="Szolnok"/>
    <tag k="addr:postcode" v="5000"/>
    <tag k="addr:street" v="MÁV pu."/>
    <tag k="addr:housenumber" v="-"/>
    <tag k="branch" v="18 sz. automata - MÁV állomás"/>
    <tag k="website" v="https://www.posta.hu"/>
    <tag k="amenity" v="vending_machine"/>
    <tag k="vending" v="parcel_pickup"/>
    <tag k="operator" v="Magyar Posta Zrt."/>
    <tag k="brand" v="Magyar Posta"/>
  </node>
  <node action="modify" changeset="99999" id="-20" lat="47.9234747" lon="20.3692305" timestamp="" uid="4579407" user="KAMI" version="99999">
    <tag k="name" v="Posta csomagautomata"/>
    <tag k="addr:city" v="Eger"/>
    <tag k="addr:postcode" v="3300"/>
    <tag k="addr:street" v="II. Rákóczi Ferenc utca"/>
    <tag k="addr:housenumber" v="100"/>
    <tag k="branch" v="19 sz. automata - Tesco"/>
    <tag k="website" v="https://www.posta.hu"/>
    <tag k="amenity" v="vending_machine"/>
    <tag k="vending" v="parcel_pickup"/>
    <tag k="operator" v="Magyar Posta Zrt."/>
    <tag k="brand" v="Magyar Posta"/>
  </node>
  <node action="modify" changeset="99999" id="-21" lat="47.582992" lon="18.398277" timestamp="" uid="4579407" user="KAMI" version="99999">
    <tag k="name" v="Posta csomagautomata"/>
    <tag k="addr:city" v="Tatabánya"/>
    <tag k="addr:postcode" v="2800"/>
    <tag k="addr:street" v="Fő tér"/>
    <tag k="addr:housenumber" v="30"/>
    <tag k="branch" v="20 sz. automata - Tatabánya 1 posta"/>
    <tag k="website" v="https://www.posta.hu"/>
    <tag k="amenity" v="vending_machine"/>
    <tag k="vending" v="parcel_pickup"/>
    <tag k="operator" v="Magyar Posta Zrt."/>
    <tag k="brand" v="Magyar Posta"/>
  </node>
  <node action="modify" changeset="99999" id="-22" lat="47.239528" lon="16.65317" timestamp="" uid="4579407" user="KAMI" version="99999">
    <tag k="name" v="Posta csomagautomata"/>
    <tag k="addr:city" v="Szombathely"/>
    <tag k="addr:postcode" v="9700"/>
    <tag k="addr:street" v="Zanati út"/>
    <tag k="addr:housenumber" v="70"/>
    <tag k="branch" v="21 sz. automata - Tesco"/>
    <tag k="website" v="https://www.posta.hu"/>
    <tag k="amenity" v="vending_machine"/>
    <tag k="vending" v="parcel_pickup"/>
    <tag k="operator" v="Magyar Posta Zrt."/>
    <tag k="brand" v="Magyar Posta"/>
  </node>
  <node action="modify" changeset="99999" id="-23" lat="47.093368" lon="17.910811" timestamp="" uid="4579407" user="KAMI" version="99999">
    <tag k="name" v="Posta csomagautomata"/>
    <tag k="addr:city" v="Veszprém"/>
    <tag k="addr:postcode" v="8200"/>
    <tag k="addr:street" v="Kossuth Lajos utca"/>
    <tag k="addr:housenumber" v="19"/>
    <tag k="branch" v="22 sz. automata - Veszprém 1 posta"/>
    <tag k="website" v="https://www.posta.hu"/>
    <tag k="amenity" v="vending_machine"/>
    <tag k="vending" v="parcel_pickup"/>
    <tag k="operator" v="Magyar Posta Zrt."/>
    <tag k="brand" v="Magyar Posta"/>
  </node>
  <node action="modify" changeset="99999" id="-24" lat="47.670401" lon="16.61125" timestamp="" uid="4579407" user="KAMI" version="99999">
    <tag k="name" v="Posta csomagautomata"/>
    <tag k="addr:city" v="Sopron"/>
    <tag k="addr:postcode" v="9400"/>
    <tag k="addr:street" v="Ipar körút"/>
    <tag k="addr:housenumber" v="30"/>
    <tag k="branch" v="23 sz. automata - Tesco"/>
    <tag k="website" v="https://www.posta.hu"/>
    <tag k="amenity" v="vending_machine"/>
    <tag k="vending" v="parcel_pickup"/>
    <tag k="operator" v="Magyar Posta Zrt."/>
    <tag k="brand" v="Magyar Posta"/>
  </node>
  <node action="modify" changeset="99999" id="-25" lat="47.694236" lon="17.62917" timestamp="" uid="4579407" user="KAMI" version="99999">
    <tag k="name" v="Posta csomagautomata"/>
    <tag k="addr:city" v="Győr"/>
    <tag k="addr:postcode" v="9026"/>
    <tag k="addr:street" v="Hédervári út"/>
    <tag k="addr:housenumber" v="3"/>
    <tag k="branch" v="24 sz. automata - Győr 7 posta"/>
    <tag k="website" v="https://www.posta.hu"/>
    <tag k="amenity" v="vending_machine"/>
    <tag k="vending" v="parcel_pickup"/>
    <tag k="operator" v="Magyar Posta Zrt."/>
    <tag k="brand" v="Magyar Posta"/>
  </node>
  <node action="modify" changeset="99999" id="-26" lat="46.844632" lon="16.8514" timestamp="" uid="4579407" user="KAMI" version="99999">
    <tag k="name" v="Posta csomagautomata"/>
    <tag k="addr:city" v="Zalaegerszeg"/>
    <tag k="addr:postcode" v="8900"/>
    <tag k="addr:street" v="Stadion utca"/>
    <tag k="addr:housenumber" v="5"/>
    <tag k="branch" v="25 sz. automata - Zala Pláza"/>
    <tag k="website" v="https://www.posta.hu"/>
    <tag k="amenity" v="vending_machine"/>
    <tag k="vending" v="parcel_pickup"/>
    <tag k="operator" v="Magyar Posta Zrt."/>
    <tag k="brand" v="Magyar Posta"/>
  </node>
  <node action="modify" changeset="99999" id="-27" lat="46.458375" lon="16.98482" timestamp="" uid="4579407" user="KAMI" version="99999">
    <tag k="name" v="Posta csomagautomata"/>
    <tag k="addr:city" v="Nagykanizsa"/>
    <tag k="addr:postcode" v="8800"/>
    <tag k="addr:street" v="Európa Tanács utca"/>
    <tag k="addr:housenumber" v="2"/>
    <tag k="branch" v="26 sz. automata - Kanizsa Pláza"/>
    <tag k="website" v="https://www.posta.hu"/>
    <tag k="amenity" v="vending_machine"/>
    <tag k="vending" v="parcel_pickup"/>
    <tag k="operator" v="Magyar Posta Zrt."/>
    <tag k="brand" v="Magyar Posta"/>
  </node>
  <node action="modify" changeset="99999" id="-28" lat="46.066829" lon="18.226012" timestamp="" uid="4579407" user="KAMI" version="99999">
    <tag k="name" v="Posta csomagautomata"/>
    <tag k="addr:city" v="Pécs"/>
    <tag k="addr:postcode" v="7623"/>
    <tag k="addr:street" v="Indóház tér"/>
    <tag k="addr:housenumber" v="6"/>
    <tag k="branch" v="27 sz. automata - MÁV állomás"/>
    <tag k="website" v="https://www.posta.hu"/>
    <tag k="amenity" v="vending_machine"/>
    <tag k="vending" v="parcel_pickup"/>
    <tag k="operator" v="Magyar Posta Zrt."/>
    <tag k="brand" v="Magyar Posta"/>
  </node>
  <node action="modify" changeset="99999" id="-29" lat="46.03983" lon="18.223281" timestamp="" uid="4579407" user="KAMI" version="99999">
    <tag k="name" v="Posta csomagautomata"/>
    <tag k="addr:city" v="Pécs"/>
    <tag k="addr:postcode" v="7632"/>
    <tag k="addr:street" v="Csontváry utca"/>
    <tag k="addr:housenumber" v="2"/>
    <tag k="branch" v="28 sz. automata - Spar"/>
    <tag k="website" v="https://www.posta.hu"/>
    <tag k="amenity" v="vending_machine"/>
    <tag k="vending" v="parcel_pickup"/>
    <tag k="operator" v="Magyar Posta Zrt."/>
    <tag k="brand" v="Magyar Posta"/>
  </node>
  <node action="modify" changeset="99999" id="-30" lat="46.347373" lon="18.712128" timestamp="" uid="4579407" user="KAMI" version="99999">
    <tag k="name" v="Posta csomagautomata"/>
    <tag k="addr:city" v="Szekszárd"/>
    <tag k="addr:postcode" v="7100"/>
    <tag k="addr:street" v="Pollack Mihály út"/>
    <tag k="addr:housenumber" v="1-49"/>
    <tag k="branch" v="29 sz. automata - MÁV állomás"/>
    <tag k="website" v="https://www.posta.hu"/>
    <tag k="amenity" v="vending_machine"/>
    <tag k="vending" v="parcel_pickup"/>
    <tag k="operator" v="Magyar Posta Zrt."/>
    <tag k="brand" v="Magyar Posta"/>
  </node>
  <node action="modify" changeset="99999" id="-31" lat="47.182527" lon="18.420725" timestamp="" uid="4579407" user="KAMI" version="99999">
    <tag k="name" v="Posta csomagautomata"/>
    <tag k="addr:city" v="Székesfehérvár"/>
    <tag k="addr:postcode" v="8000"/>
    <tag k="addr:street" v="Kaszap István utca"/>
    <tag k="addr:housenumber" v="3"/>
    <tag k="branch" v="30 sz. automata - Posta Feldolgozó"/>
    <tag k="website" v="https://www.posta.hu"/>
    <tag k="amenity" v="vending_machine"/>
    <tag k="vending" v="parcel_pickup"/>
    <tag k="operator" v="Magyar Posta Zrt."/>
    <tag k="brand" v="Magyar Posta"/>
  </node>
  <node action="modify" changeset="99999" id="-32" lat="46.36502" lon="17.783972" timestamp="" uid="4579407" user="KAMI" version="99999">
    <tag k="name" v="Posta csomagautomata"/>
    <tag k="addr:city" v="Kaposvár"/>
    <tag k="addr:postcode" v="7400"/>
    <tag k="addr:street" v="Petőfi utca"/>
    <tag k="addr:housenumber" v="56"/>
    <tag k="branch" v="31 sz. automata - ALDI"/>
    <tag k="website" v="https://www.posta.hu"/>
    <tag k="amenity" v="vending_machine"/>
    <tag k="vending" v="parcel_pickup"/>
    <tag k="operator" v="Magyar Posta Zrt."/>
    <tag k="brand" v="Magyar Posta"/>
  </node>
  <node action="modify" changeset="99999" id="-33" lat="46.268566" lon="20.138412" timestamp="" uid="4579407" user="KAMI" version="99999">
    <tag k="name" v="Posta csomagautomata"/>
    <tag k="addr:city" v="Szeged"/>
    <tag k="addr:postcode" v="6724"/>
    <tag k="addr:street" v="Rókusi körút"/>
    <tag k="addr:housenumber" v="42-64"/>
    <tag k="branch" v="32 sz. automata - Rókusi körút Tesco"/>
    <tag k="website" v="https://www.posta.hu"/>
    <tag k="amenity" v="vending_machine"/>
    <tag k="vending" v="parcel_pickup"/>
    <tag k="operator" v="Magyar Posta Zrt."/>
    <tag k="brand" v="Magyar Posta"/>
  </node>
  <node action="modify" changeset="99999" id="-34" lat="46.275361" lon="20.165743" timestamp="" uid="4579407" user="KAMI" version="99999">
    <tag k="name" v="Posta csomagautomata"/>
    <tag k="addr:city" v="Szeged"/>
    <tag k="addr:postcode" v="6723"/>
    <tag k="addr:street" v="Olajbányász tér"/>
    <tag k="addr:housenumber" v="1"/>
    <tag k="branch" v="33 sz. automata - Szeged 8 posta"/>
    <tag k="website" v="https://www.posta.hu"/>
    <tag k="amenity" v="vending_machine"/>
    <tag k="vending" v="parcel_pickup"/>
    <tag k="operator" v="Magyar Posta Zrt."/>
    <tag k="brand" v="Magyar Posta"/>
  </node>
  <node action="modify" changeset="99999" id="-35" lat="46.679494" lon="21.098446" timestamp="" uid="4579407" user="KAMI" version="99999">
    <tag k="name" v="Posta csomagautomata"/>
    <tag k="addr:city" v="Békéscsaba"/>
    <tag k="addr:postcode" v="5600"/>
    <tag k="addr:street" v="Szabadság tér"/>
    <tag k="addr:housenumber" v="1-3. (cs.a"/>
    <tag k="branch" v="34 sz. automata - Önkormányzat"/>
    <tag k="website" v="https://www.posta.hu"/>
    <tag k="amenity" v="vending_machine"/>
    <tag k="vending" v="parcel_pickup"/>
    <tag k="operator" v="Magyar Posta Zrt."/>
    <tag k="brand" v="Magyar Posta"/>
  </node>
  <node action="modify" changeset="99999" id="-36" lat="46.920831" lon="19.691363" timestamp="" uid="4579407" user="KAMI" version="99999">
    <tag k="name" v="Posta csomagautomata"/>
    <tag k="addr:city" v="Kecskemét"/>
    <tag k="addr:postcode" v="6000"/>
    <tag k="addr:street" v="Talfája köz"/>
    <tag k="addr:housenumber" v="1. (cs.a.)"/>
    <tag k="branch" v="35 sz. automata - Talfája tanya Tesco"/>
    <tag k="website" v="https://www.posta.hu"/>
    <tag k="amenity" v="vending_machine"/>
    <tag k="vending" v="parcel_pickup"/>
    <tag k="operator" v="Magyar Posta Zrt."/>
    <tag k="brand" v="Magyar Posta"/>
  </node>
  <node action="modify" changeset="99999" id="-37" lat="47.486183" lon="19.074554" timestamp="" uid="4579407" user="KAMI" version="99999">
    <tag k="name" v="Posta csomagautomata"/>
    <tag k="addr:city" v="Budapest"/>
    <tag k="addr:postcode" v="1082"/>
    <tag k="addr:street" v="Futó utca"/>
    <tag k="addr:housenumber" v="37-45"/>
    <tag k="branch" v="36 sz. automata - Corvin Pláza"/>
    <tag k="website" v="https://www.posta.hu"/>
    <tag k="amenity" v="vending_machine"/>
    <tag k="vending" v="parcel_pickup"/>
    <tag k="operator" v="Magyar Posta Zrt."/>
    <tag k="brand" v="Magyar Posta"/>
  </node>
  <node action="modify" changeset="99999" id="-38" lat="47.470556" lon="19.084284" timestamp="" uid="4579407" user="KAMI" version="99999">
    <tag k="name" v="Posta csomagautomata"/>
    <tag k="addr:city" v="Budapest"/>
    <tag k="addr:postcode" v="1097"/>
    <tag k="addr:street" v="Könyves Kálmán körút"/>
    <tag k="addr:housenumber" v="12-14"/>
    <tag k="branch" v="37 sz. automata - Lurdy Bevásárlóközpont"/>
    <tag k="website" v="https://www.posta.hu"/>
    <tag k="amenity" v="vending_machine"/>
    <tag k="vending" v="parcel_pickup"/>
    <tag k="operator" v="Magyar Posta Zrt."/>
    <tag k="brand" v="Magyar Posta"/>
  </node>
  <node action="modify" changeset="99999" id="-39" lat="47.499384" lon="19.084834" timestamp="" uid="4579407" user="KAMI" version="99999">
    <tag k="name" v="Posta csomagautomata"/>
    <tag k="addr:city" v="Budapest"/>
    <tag k="addr:postcode" v="1087"/>
    <tag k="addr:street" v="Kerepesi út"/>
    <tag k="addr:housenumber" v="9"/>
    <tag k="branch" v="38 sz. automata - Aréna Pláza"/>
    <tag k="website" v="https://www.posta.hu"/>
    <tag k="amenity" v="vending_machine"/>
    <tag k="vending" v="parcel_pickup"/>
    <tag k="operator" v="Magyar Posta Zrt."/>
    <tag k="brand" v="Magyar Posta"/>
  </node>
  <node action="modify" changeset="99999" id="-40" lat="47.47398" lon="19.04913" timestamp="" uid="4579407" user="KAMI" version="99999">
    <tag k="name" v="Posta csomagautomata"/>
    <tag k="addr:city" v="Budapest"/>
    <tag k="addr:postcode" v="1117"/>
    <tag k="addr:street" v="Október huszonharmadika utca"/>
    <tag k="addr:housenumber" v="8-10"/>
    <tag k="branch" v="39 sz. automata - Allée Bevásárlóközpont"/>
    <tag k="website" v="https://www.posta.hu"/>
    <tag k="amenity" v="vending_machine"/>
    <tag k="vending" v="parcel_pickup"/>
    <tag k="operator" v="Magyar Posta Zrt."/>
    <tag k="brand" v="Magyar Posta"/>
  </node>
  <node action="modify" changeset="99999" id="-41" lat="47.499972" lon="19.024628" timestamp="" uid="4579407" user="KAMI" version="99999">
    <tag k="name" v="Posta csomagautomata"/>
    <tag k="addr:city" v="Budapest"/>
    <tag k="addr:postcode" v="1012"/>
    <tag k="addr:street" v="Déli pu."/>
    <tag k="branch" v="40 sz. automata - Déli pályaudvar"/>
    <tag k="website" v="https://www.posta.hu"/>
    <tag k="amenity" v="vending_machine"/>
    <tag k="vending" v="parcel_pickup"/>
    <tag k="operator" v="Magyar Posta Zrt."/>
    <tag k="brand" v="Magyar Posta"/>
  </node>
  <node action="modify" changeset="99999" id="-42" lat="47.51084" lon="19.055303" timestamp="" uid="4579407" user="KAMI" version="99999">
    <tag k="name" v="Posta csomagautomata"/>
    <tag k="addr:city" v="Budapest"/>
    <tag k="addr:postcode" v="1137"/>
    <tag k="addr:street" v="Nyugati tér"/>
    <tag k="addr:housenumber" v="1"/>
    <tag k="branch" v="41 sz. automata - Nyugati tér metró aluljáró"/>
    <tag k="website" v="https://www.posta.hu"/>
    <tag k="amenity" v="vending_machine"/>
    <tag k="vending" v="parcel_pickup"/>
    <tag k="operator" v="Magyar Posta Zrt."/>
    <tag k="brand" v="Magyar Posta"/>
  </node>
  <node action="modify" changeset="99999" id="-43" lat="47.4657395" lon="19.0226817" timestamp="" uid="4579407" user="KAMI" version="99999">
    <tag k="name" v="Posta csomagautomata"/>
    <tag k="addr:city" v="Budapest"/>
    <tag k="addr:postcode" v="1115"/>
    <tag k="addr:street" v="Etele tér"/>
    <tag k="addr:housenumber" v="6"/>
    <tag k="branch" v="42 sz. automata - Kelenföld pu. metró aluljáró"/>
    <tag k="website" v="https://www.posta.hu"/>
    <tag k="amenity" v="vending_machine"/>
    <tag k="vending" v="parcel_pickup"/>
    <tag k="operator" v="Magyar Posta Zrt."/>
    <tag k="brand" v="Magyar Posta"/>
  </node>
  <node action="modify" changeset="99999" id="-44" lat="47.532436" lon="19.066466" timestamp="" uid="4579407" user="KAMI" version="99999">
    <tag k="name" v="Posta csomagautomata"/>
    <tag k="addr:city" v="Budapest"/>
    <tag k="addr:postcode" v="1138"/>
    <tag k="addr:street" v="Árpád híd metró aluljáró"/>
    <tag k="branch" v="43 sz. automata - Árpád híd metró aluljáró"/>
    <tag k="website" v="https://www.posta.hu"/>
    <tag k="amenity" v="vending_machine"/>
    <tag k="vending" v="parcel_pickup"/>
    <tag k="operator" v="Magyar Posta Zrt."/>
    <tag k="brand" v="Magyar Posta"/>
  </node>
  <node action="modify" changeset="99999" id="-45" lat="47.454674" lon="18.94391" timestamp="" uid="4579407" user="KAMI" version="99999">
    <tag k="name" v="Posta csomagautomata"/>
    <tag k="addr:city" v="Budaörs"/>
    <tag k="addr:postcode" v="2040"/>
    <tag k="addr:street" v="Sport utca"/>
    <tag k="addr:housenumber" v="2-4"/>
    <tag k="branch" v="44 sz. automata - Auchan"/>
    <tag k="website" v="https://www.posta.hu"/>
    <tag k="amenity" v="vending_machine"/>
    <tag k="vending" v="parcel_pickup"/>
    <tag k="operator" v="Magyar Posta Zrt."/>
    <tag k="brand" v="Magyar Posta"/>
  </node>
  <node action="modify" changeset="99999" id="-46" lat="47.655201" lon="19.130842" timestamp="" uid="4579407" user="KAMI" version="99999">
    <tag k="name" v="Posta csomagautomata"/>
    <tag k="addr:city" v="Dunakeszi"/>
    <tag k="addr:postcode" v="2120"/>
    <tag k="addr:street" v="Fő út"/>
    <tag k="addr:housenumber" v="190"/>
    <tag k="branch" v="45 sz. automata - Tesco"/>
    <tag k="website" v="https://www.posta.hu"/>
    <tag k="amenity" v="vending_machine"/>
    <tag k="vending" v="parcel_pickup"/>
    <tag k="operator" v="Magyar Posta Zrt."/>
    <tag k="brand" v="Magyar Posta"/>
  </node>
  <node action="modify" changeset="99999" id="-47" lat="46.961144" lon="18.920093" timestamp="" uid="4579407" user="KAMI" version="99999">
    <tag k="name" v="Posta csomagautomata"/>
    <tag k="addr:city" v="Dunaújváros"/>
    <tag k="addr:postcode" v="2400"/>
    <tag k="addr:street" v="Béke körút"/>
    <tag k="addr:housenumber" v="3"/>
    <tag k="branch" v="46 sz. automata - Interspar"/>
    <tag k="website" v="https://www.posta.hu"/>
    <tag k="amenity" v="vending_machine"/>
    <tag k="vending" v="parcel_pickup"/>
    <tag k="operator" v="Magyar Posta Zrt."/>
    <tag k="brand" v="Magyar Posta"/>
  </node>
  <node action="modify" changeset="99999" id="-48" lat="46.190944" lon="18.940346" timestamp="" uid="4579407" user="KAMI" version="99999">
    <tag k="name" v="Posta csomagautomata"/>
    <tag k="addr:city" v="Baja"/>
    <tag k="addr:postcode" v="6500"/>
    <tag k="addr:street" v="Gránátos utca"/>
    <tag k="addr:housenumber" v="11"/>
    <tag k="branch" v="47 sz. automata - Tesco"/>
    <tag k="website" v="https://www.posta.hu"/>
    <tag k="amenity" v="vending_machine"/>
    <tag k="vending" v="parcel_pickup"/>
    <tag k="operator" v="Magyar Posta Zrt."/>
    <tag k="brand" v="Magyar Posta"/>
  </node>
  <node action="modify" changeset="99999" id="-49" lat="47.669108" lon="17.646586" timestamp="" uid="4579407" user="KAMI" version="99999">
    <tag k="name" v="Posta csomagautomata"/>
    <tag k="addr:city" v="Győr"/>
    <tag k="addr:postcode" v="9024"/>
    <tag k="addr:street" v="Vasvári Pál utca"/>
    <tag k="addr:housenumber" v="1/a"/>
    <tag k="branch" v="48 sz. automata - Győr Pláza"/>
    <tag k="website" v="https://www.posta.hu"/>
    <tag k="amenity" v="vending_machine"/>
    <tag k="vending" v="parcel_pickup"/>
    <tag k="operator" v="Magyar Posta Zrt."/>
    <tag k="brand" v="Magyar Posta"/>
  </node>
  <node action="modify" changeset="99999" id="-50" lat="47.66209" lon="19.07584" timestamp="" uid="4579407" user="KAMI" version="99999">
    <tag k="name" v="Posta csomagautomata"/>
    <tag k="addr:city" v="Szentendre"/>
    <tag k="addr:postcode" v="2000"/>
    <tag k="addr:street" v="Dunakanyar körút"/>
    <tag k="addr:housenumber" v="2"/>
    <tag k="branch" v="49 sz. automata - Spar"/>
    <tag k="website" v="https://www.posta.hu"/>
    <tag k="amenity" v="vending_machine"/>
    <tag k="vending" v="parcel_pickup"/>
    <tag k="operator" v="Magyar Posta Zrt."/>
    <tag k="brand" v="Magyar Posta"/>
  </node>
  <node action="modify" changeset="99999" id="-51" lat="47.873842" lon="17.267643" timestamp="" uid="4579407" user="KAMI" version="99999">
    <tag k="name" v="Posta csomagautomata"/>
    <tag k="addr:city" v="Mosonmagyaróvár"/>
    <tag k="addr:postcode" v="9200"/>
    <tag k="addr:street" v="Királyhidai utca"/>
    <tag k="addr:housenumber" v="42"/>
    <tag k="branch" v="50 sz. automata - Tesco"/>
    <tag k="website" v="https://www.posta.hu"/>
    <tag k="amenity" v="vending_machine"/>
    <tag k="vending" v="parcel_pickup"/>
    <tag k="operator" v="Magyar Posta Zrt."/>
    <tag k="brand" v="Magyar Posta"/>
  </node>
</osm>
