<?xml version='1.0' encoding='UTF-8'?>
<osm generator="JOSM" version="0.6">
  <!-- Original coordinates: POINT (47.495165 19.062358) -->
  <node action="modify" changeset="99999" id="-1" lat="47.495165" lon="19.062358" timestamp="" uid="4579407" user="KAMI" version="99999">
    <tag k="website" v="https://www.tesco.hu/aruhazak/aruhaz/tesco-astoria-expressz"/>
    <tag k="youtube" v="https://www.youtube.com/user/TescoMagyarorszag"/>
    <tag k="facebook" v="https://www.facebook.com/tescoaruhazak/"/>
    <tag k="shop" v="convenience"/>
    <tag k="brand" v="Tesco"/>
    <tag k="payment:cash" v="yes"/>
    <tag k="operator" v="Tesco Global Áruházak Zrt."/>
    <tag k="payment:debit_cards" v="yes"/>
    <tag k="addr:postcode" v="1072"/>
    <tag k="branch" v="Astoria Expressz"/>
    <tag k="addr:housenumber" v="1-3"/>
    <tag k="addr:city" v="Budapest"/>
    <tag k="name" v="Tesco Expressz"/>
    <tag k="source" v="website"/>
    <tag k="addr:street" v="Rákóczi út"/>
  </node>
  <!-- Original coordinates: POINT (47.481326 19.077352) -->
  <node action="modify" changeset="99999" id="-2" lat="47.481326" lon="19.077352" timestamp="" uid="4579407" user="KAMI" version="99999">
    <tag k="website" v="https://www.tesco.hu/aruhazak/aruhaz/tesco-budapest-thaly-kalman-expressz"/>
    <tag k="youtube" v="https://www.youtube.com/user/TescoMagyarorszag"/>
    <tag k="facebook" v="https://www.facebook.com/tescoaruhazak/"/>
    <tag k="shop" v="convenience"/>
    <tag k="brand" v="Tesco"/>
    <tag k="payment:cash" v="yes"/>
    <tag k="operator" v="Tesco Global Áruházak Zrt."/>
    <tag k="payment:debit_cards" v="yes"/>
    <tag k="addr:postcode" v="1096"/>
    <tag k="branch" v="Budapest-Thaly Kálmán Expressz"/>
    <tag k="addr:housenumber" v="46-48"/>
    <tag k="addr:city" v="Budapest"/>
    <tag k="name" v="Tesco Expressz"/>
    <tag k="source" v="website"/>
    <tag k="addr:street" v="Thaly Kálmán út"/>
  </node>
  <!-- Original coordinates: POINT (47.530466 21.624902) -->
  <node action="modify" changeset="99999" id="-3" lat="47.530466" lon="21.624902" timestamp="" uid="4579407" user="KAMI" version="99999">
    <tag k="website" v="https://www.tesco.hu/aruhazak/aruhaz/tesco-debrecen-piac-expressz"/>
    <tag k="youtube" v="https://www.youtube.com/user/TescoMagyarorszag"/>
    <tag k="facebook" v="https://www.facebook.com/tescoaruhazak/"/>
    <tag k="shop" v="convenience"/>
    <tag k="brand" v="Tesco"/>
    <tag k="payment:cash" v="yes"/>
    <tag k="operator" v="Tesco Global Áruházak Zrt."/>
    <tag k="payment:debit_cards" v="yes"/>
    <tag k="addr:postcode" v="4024"/>
    <tag k="branch" v="Debrecen Piac Expressz"/>
    <tag k="addr:housenumber" v="16"/>
    <tag k="addr:city" v="Debrecen"/>
    <tag k="name" v="Tesco Expressz"/>
    <tag k="source" v="website"/>
    <tag k="addr:street" v="Piac utca"/>
  </node>
  <!-- Original coordinates: POINT (47.547841 18.953952) -->
  <node action="modify" changeset="99999" id="-4" lat="47.547841" lon="18.953952" timestamp="" uid="4579407" user="KAMI" version="99999">
    <tag k="website" v="https://www.tesco.hu/aruhazak/aruhaz/tesco-express-bp-mariaremetei-ut"/>
    <tag k="youtube" v="https://www.youtube.com/user/TescoMagyarorszag"/>
    <tag k="facebook" v="https://www.facebook.com/tescoaruhazak/"/>
    <tag k="shop" v="convenience"/>
    <tag k="brand" v="Tesco"/>
    <tag k="payment:cash" v="yes"/>
    <tag k="operator" v="Tesco Global Áruházak Zrt."/>
    <tag k="payment:debit_cards" v="yes"/>
    <tag k="addr:postcode" v="1028"/>
    <tag k="branch" v="Express Bp. - Máriaremetei út"/>
    <tag k="addr:housenumber" v="72"/>
    <tag k="addr:city" v="Budapest"/>
    <tag k="name" v="Tesco Expressz"/>
    <tag k="source" v="website"/>
    <tag k="addr:street" v="Máriaremetei út"/>
  </node>
  <!-- Original coordinates: POINT (47.89598 17.20989) -->
  <node action="modify" changeset="99999" id="-5" lat="47.89598" lon="17.20989" timestamp="" uid="4579407" user="KAMI" version="99999">
    <tag k="website" v="https://www.tesco.hu/aruhazak/aruhaz/tesco-expressz-level-szovetkezet-utca"/>
    <tag k="youtube" v="https://www.youtube.com/user/TescoMagyarorszag"/>
    <tag k="facebook" v="https://www.facebook.com/tescoaruhazak/"/>
    <tag k="shop" v="convenience"/>
    <tag k="brand" v="Tesco"/>
    <tag k="payment:cash" v="yes"/>
    <tag k="operator" v="Tesco Global Áruházak Zrt."/>
    <tag k="payment:debit_cards" v="yes"/>
    <tag k="addr:postcode" v="9221"/>
    <tag k="branch" v="Expressz  Levél - Szövetkezet utca"/>
    <tag k="addr:housenumber" v="84"/>
    <tag k="addr:city" v="Levél"/>
    <tag k="name" v="Tesco Expressz"/>
    <tag k="source" v="website"/>
    <tag k="addr:street" v="Szövetkezet utca"/>
  </node>
  <!-- Original coordinates: POINT (46.849821 17.880166) -->
  <node action="modify" changeset="99999" id="-6" lat="46.849821" lon="17.880166" timestamp="" uid="4579407" user="KAMI" version="99999">
    <tag k="website" v="https://www.tesco.hu/aruhazak/aruhaz/tesco-expressz-balatonfoldvar-budapesti-ut"/>
    <tag k="youtube" v="https://www.youtube.com/user/TescoMagyarorszag"/>
    <tag k="facebook" v="https://www.facebook.com/tescoaruhazak/"/>
    <tag k="shop" v="convenience"/>
    <tag k="brand" v="Tesco"/>
    <tag k="payment:cash" v="yes"/>
    <tag k="operator" v="Tesco Global Áruházak Zrt."/>
    <tag k="payment:debit_cards" v="yes"/>
    <tag k="addr:postcode" v="8623"/>
    <tag k="branch" v="Expressz Balatonföldvár - Budapesti út"/>
    <tag k="addr:housenumber" v="1"/>
    <tag k="addr:city" v="Balatonföldvár"/>
    <tag k="name" v="Tesco Expressz"/>
    <tag k="source" v="website"/>
    <tag k="addr:street" v="Budapesti út"/>
  </node>
  <!-- Original coordinates: POINT (47.547407 19.037997) -->
  <node action="modify" changeset="99999" id="-7" lat="47.547407" lon="19.037997" timestamp="" uid="4579407" user="KAMI" version="99999">
    <tag k="website" v="https://www.tesco.hu/aruhazak/aruhaz/tesco-expressz-bp-vihar-utca"/>
    <tag k="youtube" v="https://www.youtube.com/user/TescoMagyarorszag"/>
    <tag k="facebook" v="https://www.facebook.com/tescoaruhazak/"/>
    <tag k="shop" v="convenience"/>
    <tag k="brand" v="Tesco"/>
    <tag k="payment:cash" v="yes"/>
    <tag k="operator" v="Tesco Global Áruházak Zrt."/>
    <tag k="payment:debit_cards" v="yes"/>
    <tag k="addr:postcode" v="1035"/>
    <tag k="branch" v="Expressz Bp. -  Vihar utca"/>
    <tag k="addr:housenumber" v="18-28"/>
    <tag k="addr:city" v="Budapest"/>
    <tag k="name" v="Tesco Expressz"/>
    <tag k="source" v="website"/>
    <tag k="addr:street" v="Vihar utca"/>
  </node>
  <!-- Original coordinates: POINT (47.460196 19.132587) -->
  <node action="modify" changeset="99999" id="-8" lat="47.460196" lon="19.132587" timestamp="" uid="4579407" user="KAMI" version="99999">
    <tag k="website" v="https://www.tesco.hu/aruhazak/aruhaz/tesco-expressz-bp-ady-endre-utca"/>
    <tag k="youtube" v="https://www.youtube.com/user/TescoMagyarorszag"/>
    <tag k="facebook" v="https://www.facebook.com/tescoaruhazak/"/>
    <tag k="shop" v="convenience"/>
    <tag k="brand" v="Tesco"/>
    <tag k="payment:cash" v="yes"/>
    <tag k="operator" v="Tesco Global Áruházak Zrt."/>
    <tag k="payment:debit_cards" v="yes"/>
    <tag k="addr:postcode" v="1191"/>
    <tag k="branch" v="Expressz Bp. - Ady Endre utca"/>
    <tag k="addr:housenumber" v="42-44"/>
    <tag k="addr:city" v="Budapest"/>
    <tag k="name" v="Tesco Expressz"/>
    <tag k="source" v="website"/>
    <tag k="addr:street" v="Ady Endre utca"/>
  </node>
  <!-- Original coordinates: POINT (47.456064 19.038883) -->
  <node action="modify" changeset="99999" id="-9" lat="47.456064" lon="19.038883" timestamp="" uid="4579407" user="KAMI" version="99999">
    <tag k="website" v="https://www.tesco.hu/aruhazak/aruhaz/tesco-expressz-bp-andor-utca"/>
    <tag k="youtube" v="https://www.youtube.com/user/TescoMagyarorszag"/>
    <tag k="facebook" v="https://www.facebook.com/tescoaruhazak/"/>
    <tag k="shop" v="convenience"/>
    <tag k="brand" v="Tesco"/>
    <tag k="payment:cash" v="yes"/>
    <tag k="operator" v="Tesco Global Áruházak Zrt."/>
    <tag k="payment:debit_cards" v="yes"/>
    <tag k="addr:postcode" v="1119"/>
    <tag k="branch" v="Expressz Bp. - Andor utca"/>
    <tag k="addr:housenumber" v="2"/>
    <tag k="addr:city" v="Budapest"/>
    <tag k="name" v="Tesco Expressz"/>
    <tag k="source" v="website"/>
    <tag k="addr:street" v="Andor utca"/>
  </node>
  <!-- Original coordinates: POINT (47.507174 19.07668) -->
  <node action="modify" changeset="99999" id="-10" lat="47.507174" lon="19.07668" timestamp="" uid="4579407" user="KAMI" version="99999">
    <tag k="website" v="https://www.tesco.hu/aruhazak/aruhaz/tesco-expressz-bp-bajza-utca"/>
    <tag k="youtube" v="https://www.youtube.com/user/TescoMagyarorszag"/>
    <tag k="facebook" v="https://www.facebook.com/tescoaruhazak/"/>
    <tag k="shop" v="convenience"/>
    <tag k="brand" v="Tesco"/>
    <tag k="payment:cash" v="yes"/>
    <tag k="operator" v="Tesco Global Áruházak Zrt."/>
    <tag k="payment:debit_cards" v="yes"/>
    <tag k="addr:postcode" v="1071"/>
    <tag k="branch" v="Expressz Bp. - Bajza utca"/>
    <tag k="addr:housenumber" v="1"/>
    <tag k="addr:city" v="Budapest"/>
    <tag k="name" v="Tesco Expressz"/>
    <tag k="source" v="website"/>
    <tag k="addr:street" v="Bajza utca"/>
  </node>
  <!-- Original coordinates: POINT (47.472404 19.032417) -->
  <node action="modify" changeset="99999" id="-11" lat="47.472404" lon="19.032417" timestamp="" uid="4579407" user="KAMI" version="99999">
    <tag k="website" v="https://www.tesco.hu/aruhazak/aruhaz/tesco-expressz-bp-bartok-bela-utca"/>
    <tag k="youtube" v="https://www.youtube.com/user/TescoMagyarorszag"/>
    <tag k="facebook" v="https://www.facebook.com/tescoaruhazak/"/>
    <tag k="shop" v="convenience"/>
    <tag k="brand" v="Tesco"/>
    <tag k="payment:cash" v="yes"/>
    <tag k="operator" v="Tesco Global Áruházak Zrt."/>
    <tag k="payment:debit_cards" v="yes"/>
    <tag k="addr:postcode" v="1115"/>
    <tag k="branch" v="Expressz Bp. - Bartók Béla utca"/>
    <tag k="addr:housenumber" v="105-113"/>
    <tag k="addr:city" v="Budapest"/>
    <tag k="name" v="Tesco Expressz"/>
    <tag k="source" v="website"/>
    <tag k="addr:street" v="Bartók Béla utca"/>
  </node>
  <!-- Original coordinates: POINT (47.533789 19.082166) -->
  <node action="modify" changeset="99999" id="-12" lat="47.533789" lon="19.082166" timestamp="" uid="4579407" user="KAMI" version="99999">
    <tag k="website" v="https://www.tesco.hu/aruhazak/aruhaz/tesco-expressz-bp-beke-ut"/>
    <tag k="youtube" v="https://www.youtube.com/user/TescoMagyarorszag"/>
    <tag k="facebook" v="https://www.facebook.com/tescoaruhazak/"/>
    <tag k="shop" v="convenience"/>
    <tag k="brand" v="Tesco"/>
    <tag k="payment:cash" v="yes"/>
    <tag k="operator" v="Tesco Global Áruházak Zrt."/>
    <tag k="payment:debit_cards" v="yes"/>
    <tag k="addr:postcode" v="1135"/>
    <tag k="branch" v="Expressz Bp. - Béke út "/>
    <tag k="addr:housenumber" v="13-19"/>
    <tag k="addr:city" v="Budapest"/>
    <tag k="name" v="Tesco Expressz"/>
    <tag k="source" v="website"/>
    <tag k="addr:street" v="Béke út"/>
  </node>
  <!-- Original coordinates: POINT (47.521018 19.00635) -->
  <node action="modify" changeset="99999" id="-13" lat="47.521018" lon="19.00635" timestamp="" uid="4579407" user="KAMI" version="99999">
    <tag k="website" v="https://www.tesco.hu/aruhazak/aruhaz/tesco-expressz-bp-bimbo-ut"/>
    <tag k="youtube" v="https://www.youtube.com/user/TescoMagyarorszag"/>
    <tag k="facebook" v="https://www.facebook.com/tescoaruhazak/"/>
    <tag k="shop" v="convenience"/>
    <tag k="brand" v="Tesco"/>
    <tag k="payment:cash" v="yes"/>
    <tag k="operator" v="Tesco Global Áruházak Zrt."/>
    <tag k="payment:debit_cards" v="yes"/>
    <tag k="addr:postcode" v="1026"/>
    <tag k="branch" v="Expressz Bp. - Bimbó út"/>
    <tag k="addr:housenumber" v="133"/>
    <tag k="addr:city" v="Budapest"/>
    <tag k="name" v="Tesco Expressz"/>
    <tag k="source" v="website"/>
    <tag k="addr:street" v="Bimbó út"/>
  </node>
  <!-- Original coordinates: POINT (47.510954 19.059487) -->
  <node action="modify" changeset="99999" id="-14" lat="47.510954" lon="19.059487" timestamp="" uid="4579407" user="KAMI" version="99999">
    <tag k="website" v="https://www.tesco.hu/aruhazak/aruhaz/tesco-expressz-bp-eiffel-ter"/>
    <tag k="youtube" v="https://www.youtube.com/user/TescoMagyarorszag"/>
    <tag k="facebook" v="https://www.facebook.com/tescoaruhazak/"/>
    <tag k="shop" v="convenience"/>
    <tag k="brand" v="Tesco"/>
    <tag k="payment:cash" v="yes"/>
    <tag k="operator" v="Tesco Global Áruházak Zrt."/>
    <tag k="payment:debit_cards" v="yes"/>
    <tag k="addr:postcode" v="1062"/>
    <tag k="branch" v="Expressz Bp. - Eiffel tér"/>
    <tag k="addr:housenumber" v="55-57"/>
    <tag k="addr:city" v="Budapest"/>
    <tag k="name" v="Tesco Expressz"/>
    <tag k="source" v="website"/>
    <tag k="addr:street" v="Teréz körút"/>
  </node>
  <!-- Original coordinates: POINT (47.535106 19.113143) -->
  <node action="modify" changeset="99999" id="-15" lat="47.535106" lon="19.113143" timestamp="" uid="4579407" user="KAMI" version="99999">
    <tag k="website" v="https://www.tesco.hu/aruhazak/aruhaz/tesco-expressz-bp-erzsebet-kiralyne-utja"/>
    <tag k="youtube" v="https://www.youtube.com/user/TescoMagyarorszag"/>
    <tag k="facebook" v="https://www.facebook.com/tescoaruhazak/"/>
    <tag k="shop" v="convenience"/>
    <tag k="brand" v="Tesco"/>
    <tag k="payment:cash" v="yes"/>
    <tag k="operator" v="Tesco Global Áruházak Zrt."/>
    <tag k="payment:debit_cards" v="yes"/>
    <tag k="addr:postcode" v="1142"/>
    <tag k="branch" v="Expressz Bp. - Erzsébet Királyné útja"/>
    <tag k="addr:housenumber" v="125"/>
    <tag k="addr:city" v="Budapest"/>
    <tag k="name" v="Tesco Expressz"/>
    <tag k="source" v="website"/>
    <tag k="addr:street" v="Erzsébet Királyné út"/>
  </node>
  <!-- Original coordinates: POINT (47.469967 19.044831) -->
  <node action="modify" changeset="99999" id="-16" lat="47.469967" lon="19.044831" timestamp="" uid="4579407" user="KAMI" version="99999">
    <tag k="website" v="https://www.tesco.hu/aruhazak/aruhaz/tesco-expressz-bp-fehervari-ut"/>
    <tag k="youtube" v="https://www.youtube.com/user/TescoMagyarorszag"/>
    <tag k="facebook" v="https://www.facebook.com/tescoaruhazak/"/>
    <tag k="shop" v="convenience"/>
    <tag k="brand" v="Tesco"/>
    <tag k="payment:cash" v="yes"/>
    <tag k="operator" v="Tesco Global Áruházak Zrt."/>
    <tag k="payment:debit_cards" v="yes"/>
    <tag k="addr:postcode" v="1119"/>
    <tag k="branch" v="Expressz Bp. - Fehérvári út"/>
    <tag k="addr:housenumber" v="45-47"/>
    <tag k="addr:city" v="Budapest"/>
    <tag k="name" v="Tesco Expressz"/>
    <tag k="source" v="website"/>
    <tag k="addr:street" v="Fehérvári út"/>
  </node>
  <!-- Original coordinates: POINT (47.55168 18.964269) -->
  <node action="modify" changeset="99999" id="-17" lat="47.55168" lon="18.964269" timestamp="" uid="4579407" user="KAMI" version="99999">
    <tag k="website" v="https://www.tesco.hu/aruhazak/aruhaz/tesco-expressz-bp-galoca-utca"/>
    <tag k="youtube" v="https://www.youtube.com/user/TescoMagyarorszag"/>
    <tag k="facebook" v="https://www.facebook.com/tescoaruhazak/"/>
    <tag k="shop" v="convenience"/>
    <tag k="brand" v="Tesco"/>
    <tag k="payment:cash" v="yes"/>
    <tag k="operator" v="Tesco Global Áruházak Zrt."/>
    <tag k="payment:debit_cards" v="yes"/>
    <tag k="addr:postcode" v="1028"/>
    <tag k="branch" v="Expressz Bp. - Galóca utca"/>
    <tag k="addr:housenumber" v="22"/>
    <tag k="addr:city" v="Budapest"/>
    <tag k="name" v="Tesco Expressz"/>
    <tag k="source" v="website"/>
    <tag k="addr:street" v="Galóca utca"/>
  </node>
  <!-- Original coordinates: POINT (47.562743 19.115663) -->
  <node action="modify" changeset="99999" id="-18" lat="47.562743" lon="19.115663" timestamp="" uid="4579407" user="KAMI" version="99999">
    <tag k="website" v="https://www.tesco.hu/aruhazak/aruhaz/tesco-expressz-bp-hubay-jeno-ter"/>
    <tag k="youtube" v="https://www.youtube.com/user/TescoMagyarorszag"/>
    <tag k="facebook" v="https://www.facebook.com/tescoaruhazak/"/>
    <tag k="shop" v="convenience"/>
    <tag k="brand" v="Tesco"/>
    <tag k="payment:cash" v="yes"/>
    <tag k="operator" v="Tesco Global Áruházak Zrt."/>
    <tag k="payment:debit_cards" v="yes"/>
    <tag k="addr:postcode" v="1153"/>
    <tag k="branch" v="Expressz Bp. - Hubay Jenő tér"/>
    <tag k="addr:housenumber" v="6"/>
    <tag k="addr:city" v="Budapest"/>
    <tag k="name" v="Tesco Expressz"/>
    <tag k="source" v="website"/>
    <tag k="addr:street" v="Hubay Jenő tér"/>
  </node>
  <!-- Original coordinates: POINT (47.488512 19.060489) -->
  <node action="modify" changeset="99999" id="-19" lat="47.488512" lon="19.060489" timestamp="" uid="4579407" user="KAMI" version="99999">
    <tag k="website" v="https://www.tesco.hu/aruhazak/aruhaz/tesco-expressz-bp-kalvin-ter"/>
    <tag k="youtube" v="https://www.youtube.com/user/TescoMagyarorszag"/>
    <tag k="facebook" v="https://www.facebook.com/tescoaruhazak/"/>
    <tag k="shop" v="convenience"/>
    <tag k="brand" v="Tesco"/>
    <tag k="payment:cash" v="yes"/>
    <tag k="operator" v="Tesco Global Áruházak Zrt."/>
    <tag k="payment:debit_cards" v="yes"/>
    <tag k="addr:postcode" v="1092"/>
    <tag k="branch" v="Expressz Bp. - Kálvin tér"/>
    <tag k="addr:housenumber" v="7"/>
    <tag k="addr:city" v="Budapest"/>
    <tag k="name" v="Tesco Expressz"/>
    <tag k="source" v="website"/>
    <tag k="addr:street" v="Kálvin tér"/>
  </node>
  <!-- Original coordinates: POINT (47.408668 19.19314) -->
  <node action="modify" changeset="99999" id="-20" lat="47.408668" lon="19.19314" timestamp="" uid="4579407" user="KAMI" version="99999">
    <tag k="website" v="https://www.tesco.hu/aruhazak/aruhaz/tesco-expressz-bp-kisfaludy-utca"/>
    <tag k="youtube" v="https://www.youtube.com/user/TescoMagyarorszag"/>
    <tag k="facebook" v="https://www.facebook.com/tescoaruhazak/"/>
    <tag k="shop" v="convenience"/>
    <tag k="brand" v="Tesco"/>
    <tag k="payment:cash" v="yes"/>
    <tag k="operator" v="Tesco Global Áruházak Zrt."/>
    <tag k="payment:debit_cards" v="yes"/>
    <tag k="addr:postcode" v="1188"/>
    <tag k="branch" v="Expressz Bp. - Kisfaludy utca"/>
    <tag k="addr:housenumber" v="70"/>
    <tag k="addr:city" v="Budapest"/>
    <tag k="name" v="Tesco Expressz"/>
    <tag k="source" v="website"/>
    <tag k="addr:street" v="Kisfaludy utca"/>
  </node>
  <!-- Original coordinates: POINT (47.527793 19.038244) -->
  <node action="modify" changeset="99999" id="-21" lat="47.527793" lon="19.038244" timestamp="" uid="4579407" user="KAMI" version="99999">
    <tag k="website" v="https://www.tesco.hu/aruhazak/aruhaz/tesco-expressz-bp-kolosy-ter"/>
    <tag k="youtube" v="https://www.youtube.com/user/TescoMagyarorszag"/>
    <tag k="facebook" v="https://www.facebook.com/tescoaruhazak/"/>
    <tag k="shop" v="convenience"/>
    <tag k="brand" v="Tesco"/>
    <tag k="payment:cash" v="yes"/>
    <tag k="operator" v="Tesco Global Áruházak Zrt."/>
    <tag k="payment:debit_cards" v="yes"/>
    <tag k="addr:postcode" v="1036"/>
    <tag k="branch" v="Expressz Bp. - Kolosy tér"/>
    <tag k="addr:housenumber" v="4"/>
    <tag k="addr:city" v="Budapest"/>
    <tag k="name" v="Tesco Expressz"/>
    <tag k="source" v="website"/>
    <tag k="addr:street" v="Kolosy tér"/>
  </node>
  <!-- Original coordinates: POINT (47.42817 19.070211) -->
  <node action="modify" changeset="99999" id="-22" lat="47.42817" lon="19.070211" timestamp="" uid="4579407" user="KAMI" version="99999">
    <tag k="website" v="https://www.tesco.hu/aruhazak/aruhaz/tesco-expressz-bp-kossuth-lajos-utca"/>
    <tag k="youtube" v="https://www.youtube.com/user/TescoMagyarorszag"/>
    <tag k="facebook" v="https://www.facebook.com/tescoaruhazak/"/>
    <tag k="shop" v="convenience"/>
    <tag k="brand" v="Tesco"/>
    <tag k="payment:cash" v="yes"/>
    <tag k="operator" v="Tesco Global Áruházak Zrt."/>
    <tag k="payment:debit_cards" v="yes"/>
    <tag k="addr:postcode" v="1211"/>
    <tag k="branch" v="Expressz Bp. - Kossuth Lajos utca"/>
    <tag k="addr:housenumber" v="70"/>
    <tag k="addr:city" v="Budapest"/>
    <tag k="name" v="Tesco Expressz"/>
    <tag k="source" v="website"/>
    <tag k="addr:street" v="Kossuth Lajos utca"/>
  </node>
  <!-- Original coordinates: POINT (47.601144 19.058229) -->
  <node action="modify" changeset="99999" id="-23" lat="47.601144" lon="19.058229" timestamp="" uid="4579407" user="KAMI" version="99999">
    <tag k="website" v="https://www.tesco.hu/aruhazak/aruhaz/tesco-expressz-bp-madzsar-jozsef-utca"/>
    <tag k="youtube" v="https://www.youtube.com/user/TescoMagyarorszag"/>
    <tag k="facebook" v="https://www.facebook.com/tescoaruhazak/"/>
    <tag k="shop" v="convenience"/>
    <tag k="brand" v="Tesco"/>
    <tag k="payment:cash" v="yes"/>
    <tag k="operator" v="Tesco Global Áruházak Zrt."/>
    <tag k="payment:debit_cards" v="yes"/>
    <tag k="addr:postcode" v="1039"/>
    <tag k="branch" v="Expressz Bp. - Madzsar József utca"/>
    <tag k="addr:housenumber" v="9-11"/>
    <tag k="addr:city" v="Budapest"/>
    <tag k="name" v="Tesco Expressz"/>
    <tag k="source" v="website"/>
    <tag k="addr:street" v="Madzsar József utca"/>
  </node>
  <!-- Original coordinates: POINT (47.58605 19.045257) -->
  <node action="modify" changeset="99999" id="-24" lat="47.58605" lon="19.045257" timestamp="" uid="4579407" user="KAMI" version="99999">
    <tag k="website" v="https://www.tesco.hu/aruhazak/aruhaz/tesco-expressz-bp-matyas-kiraly-ut"/>
    <tag k="youtube" v="https://www.youtube.com/user/TescoMagyarorszag"/>
    <tag k="facebook" v="https://www.facebook.com/tescoaruhazak/"/>
    <tag k="shop" v="convenience"/>
    <tag k="brand" v="Tesco"/>
    <tag k="payment:cash" v="yes"/>
    <tag k="operator" v="Tesco Global Áruházak Zrt."/>
    <tag k="payment:debit_cards" v="yes"/>
    <tag k="addr:postcode" v="1039"/>
    <tag k="branch" v="Expressz Bp. - Mátyás király út"/>
    <tag k="addr:housenumber" v="1"/>
    <tag k="addr:city" v="Budapest"/>
    <tag k="name" v="Tesco Expressz"/>
    <tag k="source" v="website"/>
    <tag k="addr:street" v="Mátyás király út"/>
  </node>
  <!-- Original coordinates: POINT (47.494665 19.077448) -->
  <node action="modify" changeset="99999" id="-25" lat="47.494665" lon="19.077448" timestamp="" uid="4579407" user="KAMI" version="99999">
    <tag k="website" v="https://www.tesco.hu/aruhazak/aruhaz/tesco-expressz-bp-nepszinhaz-utca"/>
    <tag k="youtube" v="https://www.youtube.com/user/TescoMagyarorszag"/>
    <tag k="facebook" v="https://www.facebook.com/tescoaruhazak/"/>
    <tag k="shop" v="convenience"/>
    <tag k="brand" v="Tesco"/>
    <tag k="payment:cash" v="yes"/>
    <tag k="operator" v="Tesco Global Áruházak Zrt."/>
    <tag k="payment:debit_cards" v="yes"/>
    <tag k="addr:postcode" v="1081"/>
    <tag k="branch" v="Expressz Bp. - Népszínház utca"/>
    <tag k="addr:housenumber" v="30"/>
    <tag k="addr:city" v="Budapest"/>
    <tag k="name" v="Tesco Expressz"/>
    <tag k="source" v="website"/>
    <tag k="addr:street" v="Népszínház utca"/>
  </node>
  <!-- Original coordinates: POINT (47.596693 19.049937) -->
  <node action="modify" changeset="99999" id="-26" lat="47.596693" lon="19.049937" timestamp="" uid="4579407" user="KAMI" version="99999">
    <tag k="website" v="https://www.tesco.hu/aruhazak/aruhaz/tesco-expressz-bp-pablo-neruda-utca"/>
    <tag k="youtube" v="https://www.youtube.com/user/TescoMagyarorszag"/>
    <tag k="facebook" v="https://www.facebook.com/tescoaruhazak/"/>
    <tag k="shop" v="convenience"/>
    <tag k="brand" v="Tesco"/>
    <tag k="payment:cash" v="yes"/>
    <tag k="operator" v="Tesco Global Áruházak Zrt."/>
    <tag k="payment:debit_cards" v="yes"/>
    <tag k="addr:postcode" v="1039"/>
    <tag k="branch" v="Expressz Bp. - Pablo Neruda utca"/>
    <tag k="addr:housenumber" v="1-2"/>
    <tag k="addr:city" v="Budapest"/>
    <tag k="name" v="Tesco Expressz"/>
    <tag k="source" v="website"/>
    <tag k="addr:street" v="Pablo Neruda utca"/>
  </node>
  <!-- Original coordinates: POINT (47.494839 19.005004) -->
  <node action="modify" changeset="99999" id="-27" lat="47.494839" lon="19.005004" timestamp="" uid="4579407" user="KAMI" version="99999">
    <tag k="website" v="https://www.tesco.hu/aruhazak/aruhaz/tesco-expressz-bp-pagony-utca"/>
    <tag k="youtube" v="https://www.youtube.com/user/TescoMagyarorszag"/>
    <tag k="facebook" v="https://www.facebook.com/tescoaruhazak/"/>
    <tag k="shop" v="convenience"/>
    <tag k="brand" v="Tesco"/>
    <tag k="payment:cash" v="yes"/>
    <tag k="operator" v="Tesco Global Áruházak Zrt."/>
    <tag k="payment:debit_cards" v="yes"/>
    <tag k="addr:postcode" v="1124"/>
    <tag k="branch" v="Expressz Bp. - Pagony utca"/>
    <tag k="addr:housenumber" v="27-29"/>
    <tag k="addr:city" v="Budapest"/>
    <tag k="name" v="Tesco Expressz"/>
    <tag k="source" v="website"/>
    <tag k="addr:street" v="Pagony utca"/>
  </node>
  <!-- Original coordinates: POINT (47.495512 19.064717) -->
  <node action="modify" changeset="99999" id="-28" lat="47.495512" lon="19.064717" timestamp="" uid="4579407" user="KAMI" version="99999">
    <tag k="website" v="https://www.tesco.hu/aruhazak/aruhaz/tesco-expressz-bp-rakoczi-ut"/>
    <tag k="youtube" v="https://www.youtube.com/user/TescoMagyarorszag"/>
    <tag k="facebook" v="https://www.facebook.com/tescoaruhazak/"/>
    <tag k="shop" v="convenience"/>
    <tag k="brand" v="Tesco"/>
    <tag k="payment:cash" v="yes"/>
    <tag k="operator" v="Tesco Global Áruházak Zrt."/>
    <tag k="payment:debit_cards" v="yes"/>
    <tag k="addr:postcode" v="1088"/>
    <tag k="branch" v="Expressz Bp. - Rákóczi út"/>
    <tag k="addr:housenumber" v="20"/>
    <tag k="addr:city" v="Budapest"/>
    <tag k="name" v="Tesco Expressz"/>
    <tag k="source" v="website"/>
    <tag k="addr:street" v="Rákóczi út"/>
  </node>
  <!-- Original coordinates: POINT (47.523441 19.172148) -->
  <node action="modify" changeset="99999" id="-29" lat="47.523441" lon="19.172148" timestamp="" uid="4579407" user="KAMI" version="99999">
    <tag k="website" v="https://www.tesco.hu/aruhazak/aruhaz/tesco-expressz-bp-rakosi-utca"/>
    <tag k="youtube" v="https://www.youtube.com/user/TescoMagyarorszag"/>
    <tag k="facebook" v="https://www.facebook.com/tescoaruhazak/"/>
    <tag k="shop" v="convenience"/>
    <tag k="brand" v="Tesco"/>
    <tag k="payment:cash" v="yes"/>
    <tag k="operator" v="Tesco Global Áruházak Zrt."/>
    <tag k="payment:debit_cards" v="yes"/>
    <tag k="addr:postcode" v="1162"/>
    <tag k="branch" v="Expressz Bp. - Rákosi utca"/>
    <tag k="addr:housenumber" v="142-146"/>
    <tag k="addr:city" v="Budapest"/>
    <tag k="name" v="Tesco Expressz"/>
    <tag k="source" v="website"/>
    <tag k="addr:street" v="Rákosi utca"/>
  </node>
  <!-- Original coordinates: POINT (47.540223 19.090772) -->
  <node action="modify" changeset="99999" id="-30" lat="47.540223" lon="19.090772" timestamp="" uid="4579407" user="KAMI" version="99999">
    <tag k="website" v="https://www.tesco.hu/aruhazak/aruhaz/tesco-expressz-bp-reitter-ferenc-utca"/>
    <tag k="youtube" v="https://www.youtube.com/user/TescoMagyarorszag"/>
    <tag k="facebook" v="https://www.facebook.com/tescoaruhazak/"/>
    <tag k="shop" v="convenience"/>
    <tag k="brand" v="Tesco"/>
    <tag k="payment:cash" v="yes"/>
    <tag k="operator" v="Tesco Global Áruházak Zrt."/>
    <tag k="payment:debit_cards" v="yes"/>
    <tag k="addr:postcode" v="1131"/>
    <tag k="branch" v="Expressz Bp. - Reitter Ferenc utca"/>
    <tag k="addr:housenumber" v="132"/>
    <tag k="addr:city" v="Budapest"/>
    <tag k="name" v="Tesco Expressz"/>
    <tag k="source" v="website"/>
    <tag k="addr:street" v="Reitter Ferenc utca"/>
  </node>
  <!-- Original coordinates: POINT (47.40775 19.079206) -->
  <node action="modify" changeset="99999" id="-31" lat="47.40775" lon="19.079206" timestamp="" uid="4579407" user="KAMI" version="99999">
    <tag k="website" v="https://www.tesco.hu/aruhazak/aruhaz/tesco-expressz-bp-szent-laszlo-ut"/>
    <tag k="youtube" v="https://www.youtube.com/user/TescoMagyarorszag"/>
    <tag k="facebook" v="https://www.facebook.com/tescoaruhazak/"/>
    <tag k="shop" v="convenience"/>
    <tag k="brand" v="Tesco"/>
    <tag k="payment:cash" v="yes"/>
    <tag k="operator" v="Tesco Global Áruházak Zrt."/>
    <tag k="payment:debit_cards" v="yes"/>
    <tag k="addr:postcode" v="1213"/>
    <tag k="branch" v="Expressz Bp. - Szent László út"/>
    <tag k="addr:housenumber" v="115"/>
    <tag k="addr:city" v="Budapest"/>
    <tag k="name" v="Tesco Expressz"/>
    <tag k="source" v="website"/>
    <tag k="addr:street" v="Szent László út"/>
  </node>
  <!-- Original coordinates: POINT (46.966954 18.930975) -->
  <node action="modify" changeset="99999" id="-32" lat="46.966954" lon="18.930975" timestamp="" uid="4579407" user="KAMI" version="99999">
    <tag k="website" v="https://www.tesco.hu/aruhazak/aruhaz/tesco-expressz-dunaujvaros-bercsenyi-utca"/>
    <tag k="youtube" v="https://www.youtube.com/user/TescoMagyarorszag"/>
    <tag k="facebook" v="https://www.facebook.com/tescoaruhazak/"/>
    <tag k="shop" v="convenience"/>
    <tag k="brand" v="Tesco"/>
    <tag k="payment:cash" v="yes"/>
    <tag k="operator" v="Tesco Global Áruházak Zrt."/>
    <tag k="payment:debit_cards" v="yes"/>
    <tag k="addr:postcode" v="2400"/>
    <tag k="branch" v="Expressz Dunaújváros - Bercsényi utca"/>
    <tag k="addr:housenumber" v="4"/>
    <tag k="addr:city" v="Dunaújváros"/>
    <tag k="name" v="Tesco Expressz"/>
    <tag k="source" v="website"/>
    <tag k="addr:street" v="Bercsényi utca"/>
  </node>
  <!-- Original coordinates: POINT (47.68219 17.63823) -->
  <node action="modify" changeset="99999" id="-33" lat="47.68219" lon="17.63823" timestamp="" uid="4579407" user="KAMI" version="99999">
    <tag k="website" v="https://www.tesco.hu/aruhazak/aruhaz/tesco-expressz-gyor-bartok-bela-utca"/>
    <tag k="youtube" v="https://www.youtube.com/user/TescoMagyarorszag"/>
    <tag k="facebook" v="https://www.facebook.com/tescoaruhazak/"/>
    <tag k="shop" v="convenience"/>
    <tag k="brand" v="Tesco"/>
    <tag k="payment:cash" v="yes"/>
    <tag k="operator" v="Tesco Global Áruházak Zrt."/>
    <tag k="payment:debit_cards" v="yes"/>
    <tag k="addr:postcode" v="9023"/>
    <tag k="branch" v="Expressz Győr - Bartók Béla utca"/>
    <tag k="addr:housenumber" v="13"/>
    <tag k="addr:city" v="Győr"/>
    <tag k="name" v="Tesco Expressz"/>
    <tag k="source" v="website"/>
    <tag k="addr:street" v="Bartók Béla utca"/>
  </node>
  <!-- Original coordinates: POINT (47.69457 17.63028) -->
  <node action="modify" changeset="99999" id="-34" lat="47.69457" lon="17.63028" timestamp="" uid="4579407" user="KAMI" version="99999">
    <tag k="website" v="https://www.tesco.hu/aruhazak/aruhaz/tesco-expressz-gyor-hedervari-ut"/>
    <tag k="youtube" v="https://www.youtube.com/user/TescoMagyarorszag"/>
    <tag k="facebook" v="https://www.facebook.com/tescoaruhazak/"/>
    <tag k="shop" v="convenience"/>
    <tag k="brand" v="Tesco"/>
    <tag k="payment:cash" v="yes"/>
    <tag k="operator" v="Tesco Global Áruházak Zrt."/>
    <tag k="payment:debit_cards" v="yes"/>
    <tag k="addr:postcode" v="9026"/>
    <tag k="branch" v="Expressz Győr - Hédervári út"/>
    <tag k="addr:housenumber" v="20"/>
    <tag k="addr:city" v="Győr"/>
    <tag k="name" v="Tesco Expressz"/>
    <tag k="source" v="website"/>
    <tag k="addr:street" v="Hédervári utca"/>
  </node>
  <!-- Original coordinates: POINT (47.68045 17.63266) -->
  <node action="modify" changeset="99999" id="-35" lat="47.68045" lon="17.63266" timestamp="" uid="4579407" user="KAMI" version="99999">
    <tag k="website" v="https://www.tesco.hu/aruhazak/aruhaz/tesco-expressz-gyor-hunyadi-utca"/>
    <tag k="youtube" v="https://www.youtube.com/user/TescoMagyarorszag"/>
    <tag k="facebook" v="https://www.facebook.com/tescoaruhazak/"/>
    <tag k="shop" v="convenience"/>
    <tag k="brand" v="Tesco"/>
    <tag k="payment:cash" v="yes"/>
    <tag k="operator" v="Tesco Global Áruházak Zrt."/>
    <tag k="payment:debit_cards" v="yes"/>
    <tag k="addr:postcode" v="9024"/>
    <tag k="branch" v="Expressz Győr - Hunyadi utca"/>
    <tag k="addr:housenumber" v="2"/>
    <tag k="addr:city" v="Győr"/>
    <tag k="name" v="Tesco Expressz"/>
    <tag k="source" v="website"/>
    <tag k="addr:street" v="Hunyadi utca"/>
  </node>
  <!-- Original coordinates: POINT (47.69258 17.66049) -->
  <node action="modify" changeset="99999" id="-36" lat="47.69258" lon="17.66049" timestamp="" uid="4579407" user="KAMI" version="99999">
    <tag k="website" v="https://www.tesco.hu/aruhazak/aruhaz/tesco-expressz-gyor-ipar-utca"/>
    <tag k="youtube" v="https://www.youtube.com/user/TescoMagyarorszag"/>
    <tag k="facebook" v="https://www.facebook.com/tescoaruhazak/"/>
    <tag k="shop" v="convenience"/>
    <tag k="brand" v="Tesco"/>
    <tag k="payment:cash" v="yes"/>
    <tag k="operator" v="Tesco Global Áruházak Zrt."/>
    <tag k="payment:debit_cards" v="yes"/>
    <tag k="addr:postcode" v="9027"/>
    <tag k="branch" v="Expressz Győr - Ipar utca"/>
    <tag k="addr:housenumber" v="28"/>
    <tag k="addr:city" v="Győr"/>
    <tag k="name" v="Tesco Expressz"/>
    <tag k="source" v="website"/>
    <tag k="addr:street" v="Ipar utca"/>
  </node>
  <!-- Original coordinates: POINT (47.68635 17.61824) -->
  <node action="modify" changeset="99999" id="-37" lat="47.68635" lon="17.61824" timestamp="" uid="4579407" user="KAMI" version="99999">
    <tag k="website" v="https://www.tesco.hu/aruhazak/aruhaz/tesco-expressz-gyor-koztelek-utca"/>
    <tag k="youtube" v="https://www.youtube.com/user/TescoMagyarorszag"/>
    <tag k="facebook" v="https://www.facebook.com/tescoaruhazak/"/>
    <tag k="shop" v="convenience"/>
    <tag k="brand" v="Tesco"/>
    <tag k="payment:cash" v="yes"/>
    <tag k="operator" v="Tesco Global Áruházak Zrt."/>
    <tag k="payment:debit_cards" v="yes"/>
    <tag k="addr:postcode" v="9025"/>
    <tag k="branch" v="Expressz Győr - Köztelek utca"/>
    <tag k="addr:housenumber" v="8"/>
    <tag k="addr:city" v="Győr"/>
    <tag k="name" v="Tesco Expressz"/>
    <tag k="source" v="website"/>
    <tag k="addr:street" v="Köztelek utca"/>
  </node>
  <!-- Original coordinates: POINT (47.320427 18.792617) -->
  <node action="modify" changeset="99999" id="-38" lat="47.320427" lon="18.792617" timestamp="" uid="4579407" user="KAMI" version="99999">
    <tag k="website" v="https://www.tesco.hu/aruhazak/aruhaz/tesco-expressz-martonvasar"/>
    <tag k="youtube" v="https://www.youtube.com/user/TescoMagyarorszag"/>
    <tag k="facebook" v="https://www.facebook.com/tescoaruhazak/"/>
    <tag k="shop" v="convenience"/>
    <tag k="brand" v="Tesco"/>
    <tag k="payment:cash" v="yes"/>
    <tag k="operator" v="Tesco Global Áruházak Zrt."/>
    <tag k="payment:debit_cards" v="yes"/>
    <tag k="addr:postcode" v="2462"/>
    <tag k="branch" v="Expressz Martonvásár"/>
    <tag k="addr:housenumber" v="6"/>
    <tag k="addr:city" v="Martonvásár"/>
    <tag k="name" v="Tesco Expressz"/>
    <tag k="source" v="website"/>
    <tag k="addr:street" v="Ady Endre utca"/>
  </node>
  <!-- Original coordinates: POINT (48.109297 20.787642) -->
  <node action="modify" changeset="99999" id="-39" lat="48.109297" lon="20.787642" timestamp="" uid="4579407" user="KAMI" version="99999">
    <tag k="website" v="https://www.tesco.hu/aruhazak/aruhaz/tesco-expressz-miskolc-arany-janos-ter"/>
    <tag k="youtube" v="https://www.youtube.com/user/TescoMagyarorszag"/>
    <tag k="facebook" v="https://www.facebook.com/tescoaruhazak/"/>
    <tag k="shop" v="convenience"/>
    <tag k="brand" v="Tesco"/>
    <tag k="payment:cash" v="yes"/>
    <tag k="operator" v="Tesco Global Áruházak Zrt."/>
    <tag k="payment:debit_cards" v="yes"/>
    <tag k="addr:postcode" v="3526"/>
    <tag k="branch" v="Expressz Miskolc - Arany János tér"/>
    <tag k="addr:housenumber" v="1"/>
    <tag k="addr:city" v="Miskolc"/>
    <tag k="name" v="Tesco Expressz"/>
    <tag k="source" v="website"/>
    <tag k="addr:street" v="Arany János tér"/>
  </node>
  <!-- Original coordinates: POINT (48.102623 20.783127) -->
  <node action="modify" changeset="99999" id="-40" lat="48.102623" lon="20.783127" timestamp="" uid="4579407" user="KAMI" version="99999">
    <tag k="website" v="https://www.tesco.hu/aruhazak/aruhaz/tesco-expressz-miskolc-szechenyi-utca"/>
    <tag k="youtube" v="https://www.youtube.com/user/TescoMagyarorszag"/>
    <tag k="facebook" v="https://www.facebook.com/tescoaruhazak/"/>
    <tag k="shop" v="convenience"/>
    <tag k="brand" v="Tesco"/>
    <tag k="payment:cash" v="yes"/>
    <tag k="operator" v="Tesco Global Áruházak Zrt."/>
    <tag k="payment:debit_cards" v="yes"/>
    <tag k="addr:postcode" v="3525"/>
    <tag k="branch" v="Expressz Miskolc - Széchenyi utca"/>
    <tag k="addr:housenumber" v="29"/>
    <tag k="addr:city" v="Miskolc"/>
    <tag k="name" v="Tesco Expressz"/>
    <tag k="source" v="website"/>
    <tag k="addr:street" v="Széchenyi utca"/>
  </node>
  <!-- Original coordinates: POINT (47.85557 17.27842) -->
  <node action="modify" changeset="99999" id="-41" lat="47.85557" lon="17.27842" timestamp="" uid="4579407" user="KAMI" version="99999">
    <tag k="website" v="https://www.tesco.hu/aruhazak/aruhaz/tesco-expressz-movar-szent-i-kir-utca"/>
    <tag k="youtube" v="https://www.youtube.com/user/TescoMagyarorszag"/>
    <tag k="facebook" v="https://www.facebook.com/tescoaruhazak/"/>
    <tag k="shop" v="convenience"/>
    <tag k="brand" v="Tesco"/>
    <tag k="payment:cash" v="yes"/>
    <tag k="operator" v="Tesco Global Áruházak Zrt."/>
    <tag k="payment:debit_cards" v="yes"/>
    <tag k="addr:postcode" v="9200"/>
    <tag k="branch" v="Expressz Móvár - Szent I. kir. utca"/>
    <tag k="addr:housenumber" v="96"/>
    <tag k="addr:city" v="Mosonmagyaróvár"/>
    <tag k="name" v="Tesco Expressz"/>
    <tag k="source" v="website"/>
    <tag k="addr:street" v="Szent I. kir. utca"/>
  </node>
  <!-- Original coordinates: POINT (47.86276 17.27494) -->
  <node action="modify" changeset="99999" id="-42" lat="47.86276" lon="17.27494" timestamp="" uid="4579407" user="KAMI" version="99999">
    <tag k="website" v="https://www.tesco.hu/aruhazak/aruhaz/tesco-expressz-movar-szent-i-kir-utca"/>
    <tag k="youtube" v="https://www.youtube.com/user/TescoMagyarorszag"/>
    <tag k="facebook" v="https://www.facebook.com/tescoaruhazak/"/>
    <tag k="shop" v="convenience"/>
    <tag k="brand" v="Tesco"/>
    <tag k="payment:cash" v="yes"/>
    <tag k="operator" v="Tesco Global Áruházak Zrt."/>
    <tag k="payment:debit_cards" v="yes"/>
    <tag k="addr:postcode" v="9200"/>
    <tag k="branch" v="Expressz Móvár - Szent I. kir. utca"/>
    <tag k="addr:housenumber" v="44"/>
    <tag k="addr:city" v="Mosonmagyaróvár"/>
    <tag k="name" v="Tesco Expressz"/>
    <tag k="source" v="website"/>
    <tag k="addr:street" v="Szent I. kir. utca"/>
  </node>
  <!-- Original coordinates: POINT (47.515252 18.829965) -->
  <node action="modify" changeset="99999" id="-43" lat="47.515252" lon="18.829965" timestamp="" uid="4579407" user="KAMI" version="99999">
    <tag k="website" v="https://www.tesco.hu/aruhazak/aruhaz/tesco-expressz-paty-rakoczi-utca"/>
    <tag k="youtube" v="https://www.youtube.com/user/TescoMagyarorszag"/>
    <tag k="facebook" v="https://www.facebook.com/tescoaruhazak/"/>
    <tag k="shop" v="convenience"/>
    <tag k="brand" v="Tesco"/>
    <tag k="payment:cash" v="yes"/>
    <tag k="operator" v="Tesco Global Áruházak Zrt."/>
    <tag k="payment:debit_cards" v="yes"/>
    <tag k="addr:postcode" v="2071"/>
    <tag k="branch" v="Expressz Páty - Rákóczi utca"/>
    <tag k="addr:housenumber" v="11"/>
    <tag k="addr:city" v="Páty"/>
    <tag k="name" v="Tesco Expressz"/>
    <tag k="source" v="website"/>
    <tag k="addr:street" v="Rákóczi utca"/>
  </node>
  <!-- Original coordinates: POINT (46.907659 18.061418) -->
  <node action="modify" changeset="99999" id="-44" lat="46.907659" lon="18.061418" timestamp="" uid="4579407" user="KAMI" version="99999">
    <tag k="website" v="https://www.tesco.hu/aruhazak/aruhaz/tesco-expressz-siofok-dozsa-gyorgy-utca"/>
    <tag k="youtube" v="https://www.youtube.com/user/TescoMagyarorszag"/>
    <tag k="facebook" v="https://www.facebook.com/tescoaruhazak/"/>
    <tag k="shop" v="convenience"/>
    <tag k="brand" v="Tesco"/>
    <tag k="payment:cash" v="yes"/>
    <tag k="operator" v="Tesco Global Áruházak Zrt."/>
    <tag k="payment:debit_cards" v="yes"/>
    <tag k="addr:postcode" v="8600"/>
    <tag k="branch" v="Expressz Siófok-Dózsa György utca"/>
    <tag k="addr:housenumber" v="20"/>
    <tag k="addr:city" v="Siófok"/>
    <tag k="name" v="Tesco Expressz"/>
    <tag k="source" v="website"/>
    <tag k="addr:street" v="Dózsa György utca"/>
  </node>
  <!-- Original coordinates: POINT (47.68343 16.59169) -->
  <node action="modify" changeset="99999" id="-45" lat="47.68343" lon="16.59169" timestamp="" uid="4579407" user="KAMI" version="99999">
    <tag k="website" v="https://www.tesco.hu/aruhazak/aruhaz/tesco-expressz-sopron-hatsokapu-utca"/>
    <tag k="youtube" v="https://www.youtube.com/user/TescoMagyarorszag"/>
    <tag k="facebook" v="https://www.facebook.com/tescoaruhazak/"/>
    <tag k="shop" v="convenience"/>
    <tag k="brand" v="Tesco"/>
    <tag k="payment:cash" v="yes"/>
    <tag k="operator" v="Tesco Global Áruházak Zrt."/>
    <tag k="payment:debit_cards" v="yes"/>
    <tag k="addr:postcode" v="9400"/>
    <tag k="branch" v="Expressz Sopron - Hátsókapu utca"/>
    <tag k="addr:housenumber" v="8"/>
    <tag k="addr:city" v="Sopron"/>
    <tag k="name" v="Tesco Expressz"/>
    <tag k="source" v="website"/>
    <tag k="addr:street" v="Hátsókapu. utca"/>
  </node>
  <!-- Original coordinates: POINT (47.69224 16.5732) -->
  <node action="modify" changeset="99999" id="-46" lat="47.69224" lon="16.5732" timestamp="" uid="4579407" user="KAMI" version="99999">
    <tag k="website" v="https://www.tesco.hu/aruhazak/aruhaz/tesco-expressz-sopron-iv-laszlo-utca"/>
    <tag k="youtube" v="https://www.youtube.com/user/TescoMagyarorszag"/>
    <tag k="facebook" v="https://www.facebook.com/tescoaruhazak/"/>
    <tag k="shop" v="convenience"/>
    <tag k="brand" v="Tesco"/>
    <tag k="payment:cash" v="yes"/>
    <tag k="operator" v="Tesco Global Áruházak Zrt."/>
    <tag k="payment:debit_cards" v="yes"/>
    <tag k="addr:postcode" v="9400"/>
    <tag k="branch" v="Expressz Sopron - IV. László utca"/>
    <tag k="addr:housenumber" v="39"/>
    <tag k="addr:city" v="Sopron"/>
    <tag k="name" v="Tesco Expressz"/>
    <tag k="source" v="website"/>
    <tag k="addr:street" v="IV. László király utca"/>
  </node>
  <!-- Original coordinates: POINT (47.67471 16.58269) -->
  <node action="modify" changeset="99999" id="-47" lat="47.67471" lon="16.58269" timestamp="" uid="4579407" user="KAMI" version="99999">
    <tag k="website" v="https://www.tesco.hu/aruhazak/aruhaz/tesco-expressz-sopron-jozsef-attila-utca"/>
    <tag k="youtube" v="https://www.youtube.com/user/TescoMagyarorszag"/>
    <tag k="facebook" v="https://www.facebook.com/tescoaruhazak/"/>
    <tag k="shop" v="convenience"/>
    <tag k="brand" v="Tesco"/>
    <tag k="payment:cash" v="yes"/>
    <tag k="operator" v="Tesco Global Áruházak Zrt."/>
    <tag k="payment:debit_cards" v="yes"/>
    <tag k="addr:postcode" v="9400"/>
    <tag k="branch" v="Expressz Sopron - József Attila utca"/>
    <tag k="addr:housenumber" v="1"/>
    <tag k="addr:city" v="Sopron"/>
    <tag k="name" v="Tesco Expressz"/>
    <tag k="source" v="website"/>
    <tag k="addr:street" v="József A. utca"/>
  </node>
  <!-- Original coordinates: POINT (47.67949 16.59297) -->
  <node action="modify" changeset="99999" id="-48" lat="47.67949" lon="16.59297" timestamp="" uid="4579407" user="KAMI" version="99999">
    <tag k="website" v="https://www.tesco.hu/aruhazak/aruhaz/tesco-expressz-sopron-kiraly-j-utca"/>
    <tag k="youtube" v="https://www.youtube.com/user/TescoMagyarorszag"/>
    <tag k="facebook" v="https://www.facebook.com/tescoaruhazak/"/>
    <tag k="shop" v="convenience"/>
    <tag k="brand" v="Tesco"/>
    <tag k="payment:cash" v="yes"/>
    <tag k="operator" v="Tesco Global Áruházak Zrt."/>
    <tag k="payment:debit_cards" v="yes"/>
    <tag k="addr:postcode" v="9400"/>
    <tag k="branch" v="Expressz Sopron - Király J. utca"/>
    <tag k="addr:housenumber" v="3"/>
    <tag k="addr:city" v="Sopron"/>
    <tag k="name" v="Tesco Expressz"/>
    <tag k="source" v="website"/>
    <tag k="addr:street" v="Király J. utca"/>
  </node>
  <!-- Original coordinates: POINT (47.68852 16.58626) -->
  <node action="modify" changeset="99999" id="-49" lat="47.68852" lon="16.58626" timestamp="" uid="4579407" user="KAMI" version="99999">
    <tag k="website" v="https://www.tesco.hu/aruhazak/aruhaz/tesco-expressz-sopron-lackner-k-utca"/>
    <tag k="youtube" v="https://www.youtube.com/user/TescoMagyarorszag"/>
    <tag k="facebook" v="https://www.facebook.com/tescoaruhazak/"/>
    <tag k="shop" v="convenience"/>
    <tag k="brand" v="Tesco"/>
    <tag k="payment:cash" v="yes"/>
    <tag k="operator" v="Tesco Global Áruházak Zrt."/>
    <tag k="payment:debit_cards" v="yes"/>
    <tag k="addr:postcode" v="9400"/>
    <tag k="branch" v="Expressz Sopron - Lackner K. utca"/>
    <tag k="addr:housenumber" v="11"/>
    <tag k="addr:city" v="Sopron"/>
    <tag k="name" v="Tesco Expressz"/>
    <tag k="source" v="website"/>
    <tag k="addr:street" v="Lackner K. utca"/>
  </node>
  <!-- Original coordinates: POINT (47.68508 16.5979) -->
  <node action="modify" changeset="99999" id="-50" lat="47.68508" lon="16.5979" timestamp="" uid="4579407" user="KAMI" version="99999">
    <tag k="website" v="https://www.tesco.hu/aruhazak/aruhaz/tesco-expressz-sopron-vegfordulat-utca"/>
    <tag k="youtube" v="https://www.youtube.com/user/TescoMagyarorszag"/>
    <tag k="facebook" v="https://www.facebook.com/tescoaruhazak/"/>
    <tag k="shop" v="convenience"/>
    <tag k="brand" v="Tesco"/>
    <tag k="payment:cash" v="yes"/>
    <tag k="operator" v="Tesco Global Áruházak Zrt."/>
    <tag k="payment:debit_cards" v="yes"/>
    <tag k="addr:postcode" v="9400"/>
    <tag k="branch" v="Expressz Sopron - Végfordulat utca"/>
    <tag k="addr:housenumber" v="9"/>
    <tag k="addr:city" v="Sopron"/>
    <tag k="name" v="Tesco Expressz"/>
    <tag k="source" v="website"/>
    <tag k="addr:street" v="Végfordulat utca"/>
  </node>
  <!-- Original coordinates: POINT (46.250812 20.143572) -->
  <node action="modify" changeset="99999" id="-51" lat="46.250812" lon="20.143572" timestamp="" uid="4579407" user="KAMI" version="99999">
    <tag k="website" v="https://www.tesco.hu/aruhazak/aruhaz/tesco-expressz-szeged-dugonics-ter"/>
    <tag k="youtube" v="https://www.youtube.com/user/TescoMagyarorszag"/>
    <tag k="facebook" v="https://www.facebook.com/tescoaruhazak/"/>
    <tag k="shop" v="convenience"/>
    <tag k="brand" v="Tesco"/>
    <tag k="payment:cash" v="yes"/>
    <tag k="operator" v="Tesco Global Áruházak Zrt."/>
    <tag k="payment:debit_cards" v="yes"/>
    <tag k="addr:postcode" v="6722"/>
    <tag k="branch" v="Expressz Szeged - Dugonics tér"/>
    <tag k="addr:housenumber" v="8-9"/>
    <tag k="addr:city" v="Szeged"/>
    <tag k="name" v="Tesco Expressz"/>
    <tag k="source" v="website"/>
    <tag k="addr:street" v="Dugonics tér"/>
  </node>
  <!-- Original coordinates: POINT (46.255891 20.147617) -->
  <node action="modify" changeset="99999" id="-52" lat="46.255891" lon="20.147617" timestamp="" uid="4579407" user="KAMI" version="99999">
    <tag k="website" v="https://www.tesco.hu/aruhazak/aruhaz/tesco-expressz-szeged-tisza-lajos-krt"/>
    <tag k="youtube" v="https://www.youtube.com/user/TescoMagyarorszag"/>
    <tag k="facebook" v="https://www.facebook.com/tescoaruhazak/"/>
    <tag k="shop" v="convenience"/>
    <tag k="brand" v="Tesco"/>
    <tag k="payment:cash" v="yes"/>
    <tag k="operator" v="Tesco Global Áruházak Zrt."/>
    <tag k="payment:debit_cards" v="yes"/>
    <tag k="addr:postcode" v="6722"/>
    <tag k="branch" v="Expressz Szeged - Tisza Lajos krt. "/>
    <tag k="addr:housenumber" v="41"/>
    <tag k="addr:city" v="Szeged"/>
    <tag k="name" v="Tesco Expressz"/>
    <tag k="source" v="website"/>
    <tag k="addr:street" v="Tisza Lajos körút"/>
  </node>
  <!-- Original coordinates: POINT (47.66936 17.63962) -->
  <node action="modify" changeset="99999" id="-53" lat="47.66936" lon="17.63962" timestamp="" uid="4579407" user="KAMI" version="99999">
    <tag k="website" v="https://www.tesco.hu/aruhazak/aruhaz/tesco-gyor-expressz-lajta-utca"/>
    <tag k="youtube" v="https://www.youtube.com/user/TescoMagyarorszag"/>
    <tag k="facebook" v="https://www.facebook.com/tescoaruhazak/"/>
    <tag k="shop" v="convenience"/>
    <tag k="brand" v="Tesco"/>
    <tag k="payment:cash" v="yes"/>
    <tag k="operator" v="Tesco Global Áruházak Zrt."/>
    <tag k="payment:debit_cards" v="yes"/>
    <tag k="addr:postcode" v="9024"/>
    <tag k="branch" v="Győr Expressz - Lajta utca"/>
    <tag k="addr:housenumber" v="12"/>
    <tag k="addr:city" v="Győr"/>
    <tag k="name" v="Tesco Expressz"/>
    <tag k="source" v="website"/>
    <tag k="addr:street" v="Lajta utca"/>
  </node>
  <!-- Original coordinates: POINT (47.440971 19.022408) -->
  <node action="modify" changeset="99999" id="-54" lat="47.440971" lon="19.022408" timestamp="" uid="4579407" user="KAMI" version="99999">
    <tag k="website" v="https://www.tesco.hu/aruhazak/aruhaz/tesco-hasadek-expressz"/>
    <tag k="youtube" v="https://www.youtube.com/user/TescoMagyarorszag"/>
    <tag k="facebook" v="https://www.facebook.com/tescoaruhazak/"/>
    <tag k="shop" v="convenience"/>
    <tag k="brand" v="Tesco"/>
    <tag k="payment:cash" v="yes"/>
    <tag k="operator" v="Tesco Global Áruházak Zrt."/>
    <tag k="payment:debit_cards" v="yes"/>
    <tag k="addr:postcode" v="1221"/>
    <tag k="branch" v="Hasadék Expressz"/>
    <tag k="addr:housenumber" v="99"/>
    <tag k="addr:city" v="Budapest"/>
    <tag k="name" v="Tesco Expressz"/>
    <tag k="source" v="website"/>
    <tag k="addr:street" v="Ady Endre utca"/>
  </node>
  <!-- Original coordinates: POINT (47.5128 19.123942) -->
  <node action="modify" changeset="99999" id="-55" lat="47.5128" lon="19.123942" timestamp="" uid="4579407" user="KAMI" version="99999">
    <tag k="website" v="https://www.tesco.hu/aruhazak/aruhaz/tesco-nagy-lajos-kiraly-utja-expressz"/>
    <tag k="youtube" v="https://www.youtube.com/user/TescoMagyarorszag"/>
    <tag k="facebook" v="https://www.facebook.com/tescoaruhazak/"/>
    <tag k="shop" v="convenience"/>
    <tag k="brand" v="Tesco"/>
    <tag k="payment:cash" v="yes"/>
    <tag k="operator" v="Tesco Global Áruházak Zrt."/>
    <tag k="payment:debit_cards" v="yes"/>
    <tag k="addr:postcode" v="1148"/>
    <tag k="branch" v="Nagy Lajos király útja Expressz"/>
    <tag k="addr:housenumber" v="73-77"/>
    <tag k="addr:city" v="Budapest"/>
    <tag k="name" v="Tesco Expressz"/>
    <tag k="source" v="website"/>
    <tag k="addr:street" v="Nagy Lajos király út"/>
  </node>
  <!-- Original coordinates: POINT (47.516139 19.106895) -->
  <node action="modify" changeset="99999" id="-56" lat="47.516139" lon="19.106895" timestamp="" uid="4579407" user="KAMI" version="99999">
    <tag k="website" v="https://www.tesco.hu/aruhazak/aruhaz/tesco-thokoly-ut-expressz"/>
    <tag k="youtube" v="https://www.youtube.com/user/TescoMagyarorszag"/>
    <tag k="facebook" v="https://www.facebook.com/tescoaruhazak/"/>
    <tag k="shop" v="convenience"/>
    <tag k="brand" v="Tesco"/>
    <tag k="payment:cash" v="yes"/>
    <tag k="operator" v="Tesco Global Áruházak Zrt."/>
    <tag k="payment:debit_cards" v="yes"/>
    <tag k="addr:postcode" v="1146"/>
    <tag k="branch" v="Thököly út Expressz"/>
    <tag k="addr:housenumber" v="151"/>
    <tag k="addr:city" v="Budapest"/>
    <tag k="name" v="Tesco Expressz"/>
    <tag k="source" v="website"/>
    <tag k="addr:street" v="Thököly út"/>
  </node>
  <!-- Original coordinates: POINT (47.440996 18.914191) -->
  <node action="modify" changeset="99999" id="-57" lat="47.440996" lon="18.914191" timestamp="" uid="4579407" user="KAMI" version="99999">
    <tag k="website" v="https://www.tesco.hu/aruhazak/aruhaz/tesco-torokbalint-expressz"/>
    <tag k="youtube" v="https://www.youtube.com/user/TescoMagyarorszag"/>
    <tag k="facebook" v="https://www.facebook.com/tescoaruhazak/"/>
    <tag k="shop" v="convenience"/>
    <tag k="brand" v="Tesco"/>
    <tag k="payment:cash" v="yes"/>
    <tag k="operator" v="Tesco Global Áruházak Zrt."/>
    <tag k="payment:debit_cards" v="yes"/>
    <tag k="addr:postcode" v="2045"/>
    <tag k="branch" v="Törökbálint Expressz"/>
    <tag k="addr:housenumber" v="67"/>
    <tag k="addr:city" v="Törökbálint"/>
    <tag k="name" v="Tesco Expressz"/>
    <tag k="source" v="website"/>
    <tag k="addr:street" v="Bajcsy-Zsilinszky utca"/>
  </node>
</osm>
