<?xml version='1.0' encoding='UTF-8'?>
<osm generator="JOSM" version="0.6">
  <!-- Original coordinates: POINT (47.5345928 18.9737698) -->
  <!-- Original tags: None -->
  <node action="modify" changeset="99999" id="-1" lat="47.5345928" lon="18.9737698" timestamp="" uid="4579407" user="KAMI" version="99999">
    <tag k="branch" v="Spar express OMV Budapest"/>
    <tag k="brand" v="Spar"/>
    <tag k="source" v="website"/>
    <tag k="payment" v="cash"/>
    <tag k="name" v="Spar Expressz"/>
    <tag k="addr:housenumber" v="118"/>
    <tag k="payment:debit_cards" v="yes"/>
    <tag k="addr:city" v="Budapest"/>
    <tag k="operator" v="SPAR Magyarország Kereskedelmi Kft."/>
    <tag k="shop" v="convenience"/>
    <tag k="addr:postcode" v="1021"/>
    <tag k="website" v="https://www.spar.hu/content/aspiag_spar_hu/hu_HU/uzletek/10/spar-exp-huevoesv-omv.html"/>
    <tag k="addr:street" v="Hűvösvölgyi út"/>
  </node>
  <!-- Original coordinates: POINT (47.510163 19.011189) -->
  <!-- Original tags: None -->
  <node action="modify" changeset="99999" id="-2" lat="47.510163" lon="19.011189" timestamp="" uid="4579407" user="KAMI" version="99999">
    <tag k="branch" v="Spar express Budapest"/>
    <tag k="brand" v="Spar"/>
    <tag k="source" v="website"/>
    <tag k="payment" v="cash"/>
    <tag k="name" v="Spar Expressz"/>
    <tag k="addr:housenumber" v="55"/>
    <tag k="payment:debit_cards" v="yes"/>
    <tag k="addr:city" v="Budapest"/>
    <tag k="operator" v="SPAR Magyarország Kereskedelmi Kft."/>
    <tag k="shop" v="convenience"/>
    <tag k="addr:postcode" v="1026"/>
    <tag k="website" v="https://www.spar.hu/content/aspiag_spar_hu/hu_HU/uzletek/10/spar-express-budapest-6719800-.html"/>
    <tag k="addr:street" v="Szilágyi Erzsébet fasor"/>
  </node>
  <!-- Original coordinates: POINT (47.435851 18.9748407) -->
  <!-- Original tags: None -->
  <node action="modify" changeset="99999" id="-3" lat="47.435851" lon="18.9748407" timestamp="" uid="4579407" user="KAMI" version="99999">
    <tag k="branch" v="Spar express OMV Budapest"/>
    <tag k="brand" v="Spar"/>
    <tag k="source" v="website"/>
    <tag k="payment" v="cash"/>
    <tag k="name" v="Spar Expressz"/>
    <tag k="addr:housenumber" v="1"/>
    <tag k="payment:debit_cards" v="yes"/>
    <tag k="addr:city" v="Budapest"/>
    <tag k="operator" v="SPAR Magyarország Kereskedelmi Kft."/>
    <tag k="shop" v="convenience"/>
    <tag k="addr:postcode" v="2040"/>
    <tag k="website" v="https://www.spar.hu/content/aspiag_spar_hu/hu_HU/uzletek/10/spar-exp-fekete-sas-omv.html"/>
    <tag k="addr:street" v="Tölgyfa utca"/>
  </node>
  <!-- Original coordinates: POINT (47.5510541 19.0445905) -->
  <!-- Original tags: None -->
  <node action="modify" changeset="99999" id="-4" lat="47.5510541" lon="19.0445905" timestamp="" uid="4579407" user="KAMI" version="99999">
    <tag k="branch" v="Spar express OMV Budapest"/>
    <tag k="brand" v="Spar"/>
    <tag k="source" v="website"/>
    <tag k="payment" v="cash"/>
    <tag k="name" v="Spar Expressz"/>
    <tag k="addr:housenumber" v="1"/>
    <tag k="payment:debit_cards" v="yes"/>
    <tag k="addr:city" v="Budapest"/>
    <tag k="operator" v="SPAR Magyarország Kereskedelmi Kft."/>
    <tag k="shop" v="convenience"/>
    <tag k="addr:postcode" v="1033"/>
    <tag k="website" v="https://www.spar.hu/content/aspiag_spar_hu/hu_HU/uzletek/10/spar-exp-ladik-u-omv.html"/>
    <tag k="addr:street" v="Ladik utca"/>
  </node>
  <!-- Original coordinates: POINT (47.579076119 19.0497911831) -->
  <!-- Original tags: None -->
  <node action="modify" changeset="99999" id="-5" lat="47.579076119" lon="19.0497911831" timestamp="" uid="4579407" user="KAMI" version="99999">
    <tag k="branch" v="Spar express OMV Budapest"/>
    <tag k="brand" v="Spar"/>
    <tag k="source" v="website"/>
    <tag k="payment" v="cash"/>
    <tag k="name" v="Spar Expressz"/>
    <tag k="payment:debit_cards" v="yes"/>
    <tag k="addr:city" v="Budapest"/>
    <tag k="operator" v="SPAR Magyarország Kereskedelmi Kft."/>
    <tag k="shop" v="convenience"/>
    <tag k="addr:postcode" v="1039"/>
    <tag k="website" v="https://www.spar.hu/content/aspiag_spar_hu/hu_HU/uzletek/10/spar-exp-sztendrei-ut.html"/>
    <tag k="addr:street" v="Szentendrei- Czetz János utca sarok"/>
  </node>
  <!-- Original coordinates: POINT (47.57714 19.081533) -->
  <!-- Original tags: None -->
  <node action="modify" changeset="99999" id="-6" lat="47.57714" lon="19.081533" timestamp="" uid="4579407" user="KAMI" version="99999">
    <tag k="branch" v="Spar express OMV Budapest"/>
    <tag k="brand" v="Spar"/>
    <tag k="source" v="website"/>
    <tag k="payment" v="cash"/>
    <tag k="name" v="Spar Expressz"/>
    <tag k="addr:housenumber" v="77"/>
    <tag k="payment:debit_cards" v="yes"/>
    <tag k="addr:city" v="Budapest"/>
    <tag k="operator" v="SPAR Magyarország Kereskedelmi Kft."/>
    <tag k="shop" v="convenience"/>
    <tag k="addr:postcode" v="1044"/>
    <tag k="website" v="https://www.spar.hu/content/aspiag_spar_hu/hu_HU/uzletek/10/spar-exp-megyeri-ut-omv.html"/>
    <tag k="addr:street" v="Váci út"/>
  </node>
  <!-- Original coordinates: POINT (47.4934304 19.0846625) -->
  <!-- Original tags: None -->
  <node action="modify" changeset="99999" id="-7" lat="47.4934304" lon="19.0846625" timestamp="" uid="4579407" user="KAMI" version="99999">
    <tag k="branch" v="Spar express OMV Budapest"/>
    <tag k="brand" v="Spar"/>
    <tag k="source" v="website"/>
    <tag k="payment" v="cash"/>
    <tag k="name" v="Spar Expressz"/>
    <tag k="payment:debit_cards" v="yes"/>
    <tag k="addr:city" v="Budapest"/>
    <tag k="operator" v="SPAR Magyarország Kereskedelmi Kft."/>
    <tag k="shop" v="convenience"/>
    <tag k="addr:postcode" v="1086"/>
    <tag k="website" v="https://www.spar.hu/content/aspiag_spar_hu/hu_HU/uzletek/10/spar-exp-teleki-ter-omv.html"/>
    <tag k="addr:street" v="Teleki tér"/>
  </node>
  <!-- Original coordinates: POINT (47.442475 19.094101) -->
  <!-- Original tags: None -->
  <node action="modify" changeset="99999" id="-8" lat="47.442475" lon="19.094101" timestamp="" uid="4579407" user="KAMI" version="99999">
    <tag k="branch" v="Spar express OMV Budapest"/>
    <tag k="brand" v="Spar"/>
    <tag k="source" v="website"/>
    <tag k="payment" v="cash"/>
    <tag k="name" v="Spar Expressz"/>
    <tag k="payment:debit_cards" v="yes"/>
    <tag k="addr:city" v="Budapest"/>
    <tag k="operator" v="SPAR Magyarország Kereskedelmi Kft."/>
    <tag k="shop" v="convenience"/>
    <tag k="addr:postcode" v="1097"/>
    <tag k="website" v="https://www.spar.hu/content/aspiag_spar_hu/hu_HU/uzletek/10/spar-exp-bp-soroksari-hatar-sarok.html"/>
    <tag k="addr:street" v="Soroksári út - Határ út sarok"/>
  </node>
  <!-- Original coordinates: POINT (47.4714166 19.1074857) -->
  <!-- Original tags: None -->
  <node action="modify" changeset="99999" id="-9" lat="47.4714166" lon="19.1074857" timestamp="" uid="4579407" user="KAMI" version="99999">
    <tag k="branch" v="Spar express OMV Budapest"/>
    <tag k="brand" v="Spar"/>
    <tag k="source" v="website"/>
    <tag k="payment" v="cash"/>
    <tag k="name" v="Spar Expressz"/>
    <tag k="addr:housenumber" v="137"/>
    <tag k="payment:debit_cards" v="yes"/>
    <tag k="addr:city" v="Budapest"/>
    <tag k="operator" v="SPAR Magyarország Kereskedelmi Kft."/>
    <tag k="shop" v="convenience"/>
    <tag k="addr:postcode" v="1098"/>
    <tag k="website" v="https://www.spar.hu/content/aspiag_spar_hu/hu_HU/uzletek/10/spar-exp-uell_i-ut.html"/>
    <tag k="addr:street" v="Üllői út"/>
  </node>
  <!-- Original coordinates: POINT (47.4720439 19.109074) -->
  <!-- Original tags: None -->
  <node action="modify" changeset="99999" id="-10" lat="47.4720439" lon="19.109074" timestamp="" uid="4579407" user="KAMI" version="99999">
    <tag k="branch" v="Spar express OMV Budapest"/>
    <tag k="brand" v="Spar"/>
    <tag k="source" v="website"/>
    <tag k="payment" v="cash"/>
    <tag k="name" v="Spar Expressz"/>
    <tag k="addr:housenumber" v="110-112"/>
    <tag k="payment:debit_cards" v="yes"/>
    <tag k="addr:city" v="Budapest"/>
    <tag k="operator" v="SPAR Magyarország Kereskedelmi Kft."/>
    <tag k="shop" v="convenience"/>
    <tag k="addr:postcode" v="1107"/>
    <tag k="website" v="https://www.spar.hu/content/aspiag_spar_hu/hu_HU/uzletek/11/spar-exp-uell_i-ut-110.html"/>
    <tag k="addr:street" v="Üllői út"/>
  </node>
  <!-- Original coordinates: POINT (47.504477 19.150793) -->
  <!-- Original tags: None -->
  <node action="modify" changeset="99999" id="-11" lat="47.504477" lon="19.150793" timestamp="" uid="4579407" user="KAMI" version="99999">
    <tag k="branch" v="Spar express OMV Budapest"/>
    <tag k="brand" v="Spar"/>
    <tag k="source" v="website"/>
    <tag k="payment" v="cash"/>
    <tag k="name" v="Spar Expressz"/>
    <tag k="addr:housenumber" v="73"/>
    <tag k="payment:debit_cards" v="yes"/>
    <tag k="addr:city" v="Budapest"/>
    <tag k="operator" v="SPAR Magyarország Kereskedelmi Kft."/>
    <tag k="shop" v="convenience"/>
    <tag k="addr:postcode" v="1106"/>
    <tag k="website" v="https://www.spar.hu/content/aspiag_spar_hu/hu_HU/uzletek/11/spar-exp-bp-kerepesi.html"/>
    <tag k="addr:street" v="Kerepesi út"/>
  </node>
  <!-- Original coordinates: POINT (47.465336 19.103918) -->
  <!-- Original tags: None -->
  <node action="modify" changeset="99999" id="-12" lat="47.465336" lon="19.103918" timestamp="" uid="4579407" user="KAMI" version="99999">
    <tag k="branch" v="Spar express OMV Budapest"/>
    <tag k="brand" v="Spar"/>
    <tag k="source" v="website"/>
    <tag k="payment" v="cash"/>
    <tag k="name" v="Spar Expressz"/>
    <tag k="addr:housenumber" v="112"/>
    <tag k="payment:debit_cards" v="yes"/>
    <tag k="addr:city" v="Budapest"/>
    <tag k="operator" v="SPAR Magyarország Kereskedelmi Kft."/>
    <tag k="shop" v="convenience"/>
    <tag k="addr:postcode" v="1097"/>
    <tag k="website" v="https://www.spar.hu/content/aspiag_spar_hu/hu_HU/uzletek/11/spar-exp-budaoersi-ut.html"/>
    <tag k="addr:street" v="Budaörsi utca"/>
  </node>
  <!-- Original coordinates: POINT (47.451272 19.038794) -->
  <!-- Original tags: None -->
  <node action="modify" changeset="99999" id="-13" lat="47.451272" lon="19.038794" timestamp="" uid="4579407" user="KAMI" version="99999">
    <tag k="branch" v="Spar express OMV Budapest"/>
    <tag k="brand" v="Spar"/>
    <tag k="source" v="website"/>
    <tag k="payment" v="cash"/>
    <tag k="name" v="Spar Expressz"/>
    <tag k="addr:housenumber" v="166"/>
    <tag k="payment:debit_cards" v="yes"/>
    <tag k="addr:city" v="Budapest"/>
    <tag k="operator" v="SPAR Magyarország Kereskedelmi Kft."/>
    <tag k="shop" v="convenience"/>
    <tag k="addr:postcode" v="1116"/>
    <tag k="website" v="https://www.spar.hu/content/aspiag_spar_hu/hu_HU/uzletek/11/spar-exp-f-vari-ut-omv.html"/>
    <tag k="addr:street" v="Fehérvári út"/>
  </node>
  <!-- Original coordinates: POINT (47.461479 19.052095) -->
  <!-- Original tags: None -->
  <node action="modify" changeset="99999" id="-14" lat="47.461479" lon="19.052095" timestamp="" uid="4579407" user="KAMI" version="99999">
    <tag k="branch" v="Spar express OMV Budapest"/>
    <tag k="brand" v="Spar"/>
    <tag k="source" v="website"/>
    <tag k="payment" v="cash"/>
    <tag k="name" v="Spar Expressz"/>
    <tag k="addr:housenumber" v="111-113"/>
    <tag k="payment:debit_cards" v="yes"/>
    <tag k="addr:city" v="Budapest"/>
    <tag k="operator" v="SPAR Magyarország Kereskedelmi Kft."/>
    <tag k="shop" v="convenience"/>
    <tag k="addr:postcode" v="1117"/>
    <tag k="website" v="https://www.spar.hu/content/aspiag_spar_hu/hu_HU/uzletek/11/spar-exp-budafoki-ut.html"/>
    <tag k="addr:street" v="Budafoki utca"/>
  </node>
  <!-- Original coordinates: POINT (47.4867593 19.0242397) -->
  <!-- Original tags: None -->
  <node action="modify" changeset="99999" id="-15" lat="47.4867593" lon="19.0242397" timestamp="" uid="4579407" user="KAMI" version="99999">
    <tag k="branch" v="Spar express OMV Budapest"/>
    <tag k="brand" v="Spar"/>
    <tag k="source" v="website"/>
    <tag k="payment" v="cash"/>
    <tag k="name" v="Spar Expressz"/>
    <tag k="addr:housenumber" v="1"/>
    <tag k="payment:debit_cards" v="yes"/>
    <tag k="addr:city" v="Budapest"/>
    <tag k="operator" v="SPAR Magyarország Kereskedelmi Kft."/>
    <tag k="shop" v="convenience"/>
    <tag k="addr:postcode" v="1118"/>
    <tag k="website" v="https://www.spar.hu/content/aspiag_spar_hu/hu_HU/uzletek/11/spar-exp-bah-csp-omv.html"/>
    <tag k="addr:street" v="Budaörsi út"/>
  </node>
  <!-- Original coordinates: POINT (47.5270563 19.075513) -->
  <!-- Original tags: None -->
  <node action="modify" changeset="99999" id="-16" lat="47.5270563" lon="19.075513" timestamp="" uid="4579407" user="KAMI" version="99999">
    <tag k="branch" v="Spar express OMV Budapest"/>
    <tag k="brand" v="Spar"/>
    <tag k="source" v="website"/>
    <tag k="payment" v="cash"/>
    <tag k="name" v="Spar Expressz"/>
    <tag k="addr:housenumber" v="64-66"/>
    <tag k="payment:debit_cards" v="yes"/>
    <tag k="addr:city" v="Budapest"/>
    <tag k="operator" v="SPAR Magyarország Kereskedelmi Kft."/>
    <tag k="shop" v="convenience"/>
    <tag k="addr:postcode" v="1135"/>
    <tag k="website" v="https://www.spar.hu/content/aspiag_spar_hu/hu_HU/uzletek/11/spar-exp-robert-k.html"/>
    <tag k="addr:street" v="Róbert Károly körút"/>
  </node>
  <!-- Original coordinates: POINT (47.5390079 19.0699432) -->
  <!-- Original tags: None -->
  <node action="modify" changeset="99999" id="-17" lat="47.5390079" lon="19.0699432" timestamp="" uid="4579407" user="KAMI" version="99999">
    <tag k="branch" v="Spar express OMV Budapest"/>
    <tag k="brand" v="Spar"/>
    <tag k="source" v="website"/>
    <tag k="payment" v="cash"/>
    <tag k="name" v="Spar Expressz"/>
    <tag k="addr:housenumber" v="95"/>
    <tag k="payment:debit_cards" v="yes"/>
    <tag k="addr:city" v="Budapest"/>
    <tag k="operator" v="SPAR Magyarország Kereskedelmi Kft."/>
    <tag k="shop" v="convenience"/>
    <tag k="addr:postcode" v="1139"/>
    <tag k="website" v="https://www.spar.hu/content/aspiag_spar_hu/hu_HU/uzletek/11/spar-exp-vaci-ut-omv.html"/>
    <tag k="addr:street" v="Váci út"/>
  </node>
  <!-- Original coordinates: POINT (47.50853 19.101894) -->
  <!-- Original tags: None -->
  <node action="modify" changeset="99999" id="-18" lat="47.50853" lon="19.101894" timestamp="" uid="4579407" user="KAMI" version="99999">
    <tag k="branch" v="Spar express OMV Budapest"/>
    <tag k="brand" v="Spar"/>
    <tag k="source" v="website"/>
    <tag k="payment" v="cash"/>
    <tag k="name" v="Spar Expressz"/>
    <tag k="addr:housenumber" v="116"/>
    <tag k="payment:debit_cards" v="yes"/>
    <tag k="addr:city" v="Budapest"/>
    <tag k="operator" v="SPAR Magyarország Kereskedelmi Kft."/>
    <tag k="shop" v="convenience"/>
    <tag k="addr:postcode" v="1143"/>
    <tag k="website" v="https://www.spar.hu/content/aspiag_spar_hu/hu_HU/uzletek/11/spar-exp-hung-krt-omv.html"/>
    <tag k="addr:street" v="Hungária  körút"/>
  </node>
  <!-- Original coordinates: POINT (47.5327743 19.1023526) -->
  <!-- Original tags: None -->
  <node action="modify" changeset="99999" id="-19" lat="47.5327743" lon="19.1023526" timestamp="" uid="4579407" user="KAMI" version="99999">
    <tag k="branch" v="Spar express OMV Budapest"/>
    <tag k="brand" v="Spar"/>
    <tag k="source" v="website"/>
    <tag k="payment" v="cash"/>
    <tag k="name" v="Spar Expressz"/>
    <tag k="addr:housenumber" v="131"/>
    <tag k="payment:debit_cards" v="yes"/>
    <tag k="addr:city" v="Budapest"/>
    <tag k="operator" v="SPAR Magyarország Kereskedelmi Kft."/>
    <tag k="shop" v="convenience"/>
    <tag k="addr:postcode" v="1142"/>
    <tag k="website" v="https://www.spar.hu/content/aspiag_spar_hu/hu_HU/uzletek/11/spar-exp-kacsoh-p-omv.html"/>
    <tag k="addr:street" v="Kacsóh Pongrác út"/>
  </node>
  <!-- Original coordinates: POINT (47.5047833 19.1205336) -->
  <!-- Original tags: None -->
  <node action="modify" changeset="99999" id="-20" lat="47.5047833" lon="19.1205336" timestamp="" uid="4579407" user="KAMI" version="99999">
    <tag k="branch" v="Spar express OMV Budapest"/>
    <tag k="brand" v="Spar"/>
    <tag k="source" v="website"/>
    <tag k="payment" v="cash"/>
    <tag k="name" v="Spar Expressz"/>
    <tag k="addr:housenumber" v="56/a"/>
    <tag k="payment:debit_cards" v="yes"/>
    <tag k="addr:city" v="Budapest"/>
    <tag k="operator" v="SPAR Magyarország Kereskedelmi Kft."/>
    <tag k="shop" v="convenience"/>
    <tag k="addr:postcode" v="1149"/>
    <tag k="website" v="https://www.spar.hu/content/aspiag_spar_hu/hu_HU/uzletek/11/spar-exp-fogarasi-ut.html"/>
    <tag k="addr:street" v="Fogarasi út"/>
  </node>
  <!-- Original coordinates: POINT (47.5605718 19.1209905) -->
  <!-- Original tags: None -->
  <node action="modify" changeset="99999" id="-21" lat="47.5605718" lon="19.1209905" timestamp="" uid="4579407" user="KAMI" version="99999">
    <tag k="branch" v="Spar express OMV Budapest"/>
    <tag k="brand" v="Spar"/>
    <tag k="source" v="website"/>
    <tag k="payment" v="cash"/>
    <tag k="name" v="Spar Expressz"/>
    <tag k="addr:housenumber" v="1"/>
    <tag k="payment:debit_cards" v="yes"/>
    <tag k="addr:city" v="Budapest"/>
    <tag k="operator" v="SPAR Magyarország Kereskedelmi Kft."/>
    <tag k="shop" v="convenience"/>
    <tag k="addr:postcode" v="1152"/>
    <tag k="website" v="https://www.spar.hu/content/aspiag_spar_hu/hu_HU/uzletek/11/spar-exp-bp-szechenyi-ter.html"/>
    <tag k="addr:street" v="Széchenyi tér"/>
  </node>
  <!-- Original coordinates: POINT (47.551514 19.138835) -->
  <!-- Original tags: None -->
  <node action="modify" changeset="99999" id="-22" lat="47.551514" lon="19.138835" timestamp="" uid="4579407" user="KAMI" version="99999">
    <tag k="branch" v="Spar express OMV Budapest"/>
    <tag k="brand" v="Spar"/>
    <tag k="source" v="website"/>
    <tag k="payment" v="cash"/>
    <tag k="name" v="Spar Expressz"/>
    <tag k="addr:housenumber" v="131"/>
    <tag k="payment:debit_cards" v="yes"/>
    <tag k="addr:city" v="Budapest"/>
    <tag k="operator" v="SPAR Magyarország Kereskedelmi Kft."/>
    <tag k="shop" v="convenience"/>
    <tag k="addr:postcode" v="1152"/>
    <tag k="website" v="https://www.spar.hu/content/aspiag_spar_hu/hu_HU/uzletek/11/spar-exp-szmih-ut-omv.html"/>
    <tag k="addr:street" v="Szentmihályi út"/>
  </node>
  <!-- Original coordinates: POINT (47.53493 19.18064) -->
  <!-- Original tags: None -->
  <node action="modify" changeset="99999" id="-23" lat="47.53493" lon="19.18064" timestamp="" uid="4579407" user="KAMI" version="99999">
    <tag k="branch" v="Spar express OMV Budapest"/>
    <tag k="brand" v="Spar"/>
    <tag k="source" v="website"/>
    <tag k="payment" v="cash"/>
    <tag k="name" v="Spar Expressz"/>
    <tag k="payment:debit_cards" v="yes"/>
    <tag k="addr:city" v="Budapest"/>
    <tag k="operator" v="SPAR Magyarország Kereskedelmi Kft."/>
    <tag k="shop" v="convenience"/>
    <tag k="addr:postcode" v="1162"/>
    <tag k="website" v="https://www.spar.hu/content/aspiag_spar_hu/hu_HU/uzletek/11/spar-exp-csoemoeri.html"/>
    <tag k="addr:street" v="Csömöri és Szlovák utca sarok"/>
  </node>
  <!-- Original coordinates: POINT (47.4840875 19.2354205) -->
  <!-- Original tags: None -->
  <node action="modify" changeset="99999" id="-24" lat="47.4840875" lon="19.2354205" timestamp="" uid="4579407" user="KAMI" version="99999">
    <tag k="branch" v="Spar express OMV Budapest"/>
    <tag k="brand" v="Spar"/>
    <tag k="source" v="website"/>
    <tag k="payment" v="cash"/>
    <tag k="name" v="Spar Expressz"/>
    <tag k="addr:housenumber" v="18"/>
    <tag k="payment:debit_cards" v="yes"/>
    <tag k="addr:city" v="Budapest"/>
    <tag k="operator" v="SPAR Magyarország Kereskedelmi Kft."/>
    <tag k="shop" v="convenience"/>
    <tag k="addr:postcode" v="1173"/>
    <tag k="website" v="https://www.spar.hu/content/aspiag_spar_hu/hu_HU/uzletek/11/spar-exp-pesti-ut-omv.html"/>
    <tag k="addr:street" v="Pesti út"/>
  </node>
  <!-- Original coordinates: POINT (47.4459023 19.1901158) -->
  <!-- Original tags: None -->
  <node action="modify" changeset="99999" id="-25" lat="47.4459023" lon="19.1901158" timestamp="" uid="4579407" user="KAMI" version="99999">
    <tag k="branch" v="Spar express OMV Budapest"/>
    <tag k="brand" v="Spar"/>
    <tag k="source" v="website"/>
    <tag k="payment" v="cash"/>
    <tag k="name" v="Spar Expressz"/>
    <tag k="addr:housenumber" v="39"/>
    <tag k="payment:debit_cards" v="yes"/>
    <tag k="addr:city" v="Budapest"/>
    <tag k="operator" v="SPAR Magyarország Kereskedelmi Kft."/>
    <tag k="shop" v="convenience"/>
    <tag k="addr:postcode" v="1183"/>
    <tag k="website" v="https://www.spar.hu/content/aspiag_spar_hu/hu_HU/uzletek/11/spar-exp-haladas-omv.html"/>
    <tag k="addr:street" v="Haladás utca"/>
  </node>
  <!-- Original coordinates: POINT (47.4168387 19.2074616) -->
  <!-- Original tags: None -->
  <node action="modify" changeset="99999" id="-26" lat="47.4168387" lon="19.2074616" timestamp="" uid="4579407" user="KAMI" version="99999">
    <tag k="branch" v="Spar express OMV Budapest"/>
    <tag k="brand" v="Spar"/>
    <tag k="source" v="website"/>
    <tag k="payment" v="cash"/>
    <tag k="name" v="Spar Expressz"/>
    <tag k="addr:housenumber" v="1"/>
    <tag k="payment:debit_cards" v="yes"/>
    <tag k="addr:city" v="Budapest"/>
    <tag k="operator" v="SPAR Magyarország Kereskedelmi Kft."/>
    <tag k="shop" v="convenience"/>
    <tag k="addr:postcode" v="1188"/>
    <tag k="website" v="https://www.spar.hu/content/aspiag_spar_hu/hu_HU/uzletek/11/spar-exp-alacska-omv.html"/>
    <tag k="addr:street" v="Alacskai út"/>
  </node>
  <!-- Original coordinates: POINT (47.4408156 19.134403) -->
  <!-- Original tags: None -->
  <node action="modify" changeset="99999" id="-27" lat="47.4408156" lon="19.134403" timestamp="" uid="4579407" user="KAMI" version="99999">
    <tag k="branch" v="Spar express OMV Budapest"/>
    <tag k="brand" v="Spar"/>
    <tag k="source" v="website"/>
    <tag k="payment" v="cash"/>
    <tag k="name" v="Spar Expressz"/>
    <tag k="addr:housenumber" v="185"/>
    <tag k="payment:debit_cards" v="yes"/>
    <tag k="addr:city" v="Budapest"/>
    <tag k="operator" v="SPAR Magyarország Kereskedelmi Kft."/>
    <tag k="shop" v="convenience"/>
    <tag k="addr:postcode" v="1202"/>
    <tag k="website" v="https://www.spar.hu/content/aspiag_spar_hu/hu_HU/uzletek/12/spar-exp-nagyk-omv.html"/>
    <tag k="addr:street" v="Nagykőrösi út"/>
  </node>
  <!-- Original coordinates: POINT (47.414734 19.0589308) -->
  <!-- Original tags: None -->
  <node action="modify" changeset="99999" id="-28" lat="47.414734" lon="19.0589308" timestamp="" uid="4579407" user="KAMI" version="99999">
    <tag k="branch" v="Spar express OMV Budapest"/>
    <tag k="brand" v="Spar"/>
    <tag k="source" v="website"/>
    <tag k="payment" v="cash"/>
    <tag k="name" v="Spar Expressz"/>
    <tag k="addr:housenumber" v="189"/>
    <tag k="payment:debit_cards" v="yes"/>
    <tag k="addr:city" v="Budapest"/>
    <tag k="operator" v="SPAR Magyarország Kereskedelmi Kft."/>
    <tag k="shop" v="convenience"/>
    <tag k="addr:postcode" v="1214"/>
    <tag k="website" v="https://www.spar.hu/content/aspiag_spar_hu/hu_HU/uzletek/12/spar-exp-rakoczi-u-omv.html"/>
    <tag k="addr:street" v="Rákóczi Ferenc utca"/>
  </node>
  <!-- Original coordinates: POINT (47.436087 19.084468) -->
  <!-- Original tags: None -->
  <node action="modify" changeset="99999" id="-29" lat="47.436087" lon="19.084468" timestamp="" uid="4579407" user="KAMI" version="99999">
    <tag k="branch" v="Spar express OMV Budapest"/>
    <tag k="brand" v="Spar"/>
    <tag k="source" v="website"/>
    <tag k="payment" v="cash"/>
    <tag k="name" v="Spar Expressz"/>
    <tag k="addr:housenumber" v="47"/>
    <tag k="payment:debit_cards" v="yes"/>
    <tag k="addr:city" v="Budapest"/>
    <tag k="operator" v="SPAR Magyarország Kereskedelmi Kft."/>
    <tag k="shop" v="convenience"/>
    <tag k="addr:postcode" v="1215"/>
    <tag k="website" v="https://www.spar.hu/content/aspiag_spar_hu/hu_HU/uzletek/12/spar-exp-vedgat-u.html"/>
    <tag k="addr:street" v="Védgát utca"/>
  </node>
  <!-- Original coordinates: POINT (47.4236 19.159443) -->
  <!-- Original tags: None -->
  <node action="modify" changeset="99999" id="-30" lat="47.4236" lon="19.159443" timestamp="" uid="4579407" user="KAMI" version="99999">
    <tag k="branch" v="Spar express OMV Budapest"/>
    <tag k="brand" v="Spar"/>
    <tag k="source" v="website"/>
    <tag k="payment" v="cash"/>
    <tag k="name" v="Spar Expressz"/>
    <tag k="addr:housenumber" v="349"/>
    <tag k="payment:debit_cards" v="yes"/>
    <tag k="addr:city" v="Budapest"/>
    <tag k="operator" v="SPAR Magyarország Kereskedelmi Kft."/>
    <tag k="shop" v="convenience"/>
    <tag k="addr:postcode" v="1238"/>
    <tag k="website" v="https://www.spar.hu/content/aspiag_spar_hu/hu_HU/uzletek/12/spar-exp-n-k_roesi-ut.html"/>
    <tag k="addr:street" v="Nagykőrösi út"/>
  </node>
  <!-- Original coordinates: POINT (47.641814 19.0674) -->
  <!-- Original tags: None -->
  <node action="modify" changeset="99999" id="-31" lat="47.641814" lon="19.0674" timestamp="" uid="4579407" user="KAMI" version="99999">
    <tag k="branch" v="Spar express OMV Szentendre"/>
    <tag k="brand" v="Spar"/>
    <tag k="source" v="website"/>
    <tag k="payment" v="cash"/>
    <tag k="name" v="Spar Expressz"/>
    <tag k="addr:housenumber" v="17"/>
    <tag k="payment:debit_cards" v="yes"/>
    <tag k="addr:city" v="Szentendre"/>
    <tag k="operator" v="SPAR Magyarország Kereskedelmi Kft."/>
    <tag k="shop" v="convenience"/>
    <tag k="addr:postcode" v="2000"/>
    <tag k="website" v="https://www.spar.hu/content/aspiag_spar_hu/hu_HU/uzletek/20/spar-exp-szentendre.html"/>
    <tag k="addr:street" v="11-es út"/>
  </node>
  <!-- Original coordinates: POINT (47.541014 18.723711) -->
  <!-- Original tags: None -->
  <node action="modify" changeset="99999" id="-32" lat="47.541014" lon="18.723711" timestamp="" uid="4579407" user="KAMI" version="99999">
    <tag k="branch" v="Spar express OMV Zsámbék"/>
    <tag k="brand" v="Spar"/>
    <tag k="source" v="website"/>
    <tag k="payment" v="cash"/>
    <tag k="name" v="Spar Expressz"/>
    <tag k="addr:housenumber" v="578/a"/>
    <tag k="payment:debit_cards" v="yes"/>
    <tag k="addr:city" v="Zsámbék"/>
    <tag k="operator" v="SPAR Magyarország Kereskedelmi Kft."/>
    <tag k="shop" v="convenience"/>
    <tag k="addr:postcode" v="2072"/>
    <tag k="website" v="https://www.spar.hu/content/aspiag_spar_hu/hu_HU/uzletek/20/spar-exp-zsambek.html"/>
    <tag k="addr:street" v="Herceghalmi út"/>
  </node>
  <!-- Original coordinates: POINT (47.584936 18.99847) -->
  <!-- Original tags: None -->
  <node action="modify" changeset="99999" id="-33" lat="47.584936" lon="18.99847" timestamp="" uid="4579407" user="KAMI" version="99999">
    <tag k="branch" v="Spar express OMV Üröm"/>
    <tag k="brand" v="Spar"/>
    <tag k="source" v="website"/>
    <tag k="payment" v="cash"/>
    <tag k="name" v="Spar Expressz"/>
    <tag k="addr:housenumber" v="2"/>
    <tag k="payment:debit_cards" v="yes"/>
    <tag k="addr:city" v="Üröm"/>
    <tag k="operator" v="SPAR Magyarország Kereskedelmi Kft."/>
    <tag k="shop" v="convenience"/>
    <tag k="addr:postcode" v="2096"/>
    <tag k="website" v="https://www.spar.hu/content/aspiag_spar_hu/hu_HU/uzletek/20/spar-exp-ueroem.html"/>
    <tag k="addr:street" v="Bécsi út"/>
  </node>
  <!-- Original coordinates: POINT (47.616688 19.197648) -->
  <!-- Original tags: None -->
  <node action="modify" changeset="99999" id="-34" lat="47.616688" lon="19.197648" timestamp="" uid="4579407" user="KAMI" version="99999">
    <tag k="branch" v="Spar express OMV Budapest"/>
    <tag k="brand" v="Spar"/>
    <tag k="source" v="website"/>
    <tag k="payment" v="cash"/>
    <tag k="name" v="Spar Expressz"/>
    <tag k="addr:housenumber" v="2/b"/>
    <tag k="payment:debit_cards" v="yes"/>
    <tag k="addr:city" v="Fót"/>
    <tag k="operator" v="SPAR Magyarország Kereskedelmi Kft."/>
    <tag k="shop" v="convenience"/>
    <tag k="addr:postcode" v="2151"/>
    <tag k="website" v="https://www.spar.hu/content/aspiag_spar_hu/hu_HU/uzletek/21/spar-exp-fot-omv.html"/>
    <tag k="addr:street" v="Szabó Dezső út"/>
  </node>
  <!-- Original coordinates: POINT (47.3992422311 19.2482949793) -->
  <!-- Original tags: None -->
  <node action="modify" changeset="99999" id="-35" lat="47.3992422311" lon="19.2482949793" timestamp="" uid="4579407" user="KAMI" version="99999">
    <tag k="branch" v="Spar express OMV Vecsés"/>
    <tag k="brand" v="Spar"/>
    <tag k="source" v="website"/>
    <tag k="payment" v="cash"/>
    <tag k="name" v="Spar Expressz"/>
    <tag k="addr:housenumber" v="20-22"/>
    <tag k="payment:debit_cards" v="yes"/>
    <tag k="addr:city" v="Vecsés"/>
    <tag k="operator" v="SPAR Magyarország Kereskedelmi Kft."/>
    <tag k="shop" v="convenience"/>
    <tag k="addr:postcode" v="2220"/>
    <tag k="website" v="https://www.spar.hu/content/aspiag_spar_hu/hu_HU/uzletek/22/spar-exp-vecses-omv.html"/>
    <tag k="addr:street" v="Gyáli út"/>
  </node>
  <!-- Original coordinates: POINT (47.3796 19.0528) -->
  <!-- Original tags: None -->
  <node action="modify" changeset="99999" id="-36" lat="47.3796" lon="19.0528" timestamp="" uid="4579407" user="KAMI" version="99999">
    <tag k="addr:city" v="Szigetszentmiklós"/>
    <tag k="branch" v="Spar express OMV Szigetszentmiklós"/>
    <tag k="brand" v="Spar"/>
    <tag k="source" v="website"/>
    <tag k="payment" v="cash"/>
    <tag k="name" v="Spar Expressz"/>
    <tag k="payment:debit_cards" v="yes"/>
    <tag k="shop" v="convenience"/>
    <tag k="addr:postcode" v="2310"/>
    <tag k="website" v="https://www.spar.hu/content/aspiag_spar_hu/hu_HU/uzletek/23/spar-exp-sz-miklos.html"/>
    <tag k="operator" v="SPAR Magyarország Kereskedelmi Kft."/>
  </node>
  <!-- Original coordinates: POINT (47.3536817 19.0970722) -->
  <!-- Original tags: None -->
  <node action="modify" changeset="99999" id="-37" lat="47.3536817" lon="19.0970722" timestamp="" uid="4579407" user="KAMI" version="99999">
    <tag k="branch" v="Spar express OMV Dunaharaszti"/>
    <tag k="brand" v="Spar"/>
    <tag k="source" v="website"/>
    <tag k="payment" v="cash"/>
    <tag k="name" v="Spar Expressz"/>
    <tag k="payment:debit_cards" v="yes"/>
    <tag k="addr:city" v="Dunaharaszti"/>
    <tag k="operator" v="SPAR Magyarország Kereskedelmi Kft."/>
    <tag k="shop" v="convenience"/>
    <tag k="addr:postcode" v="2330"/>
    <tag k="website" v="https://www.spar.hu/content/aspiag_spar_hu/hu_HU/uzletek/23/spar-exp-dunaharaszti.html"/>
    <tag k="addr:street" v="51. számú - Némedi út sarok"/>
  </node>
  <!-- Original coordinates: POINT (47.30212 19.17968) -->
  <!-- Original tags: None -->
  <node action="modify" changeset="99999" id="-38" lat="47.30212" lon="19.17968" timestamp="" uid="4579407" user="KAMI" version="99999">
    <tag k="branch" v="Spar express OMV Alsónémedi"/>
    <tag k="brand" v="Spar"/>
    <tag k="addr:conscriptionnumber" v="2553"/>
    <tag k="payment" v="cash"/>
    <tag k="name" v="Spar Expressz"/>
    <tag k="payment:debit_cards" v="yes"/>
    <tag k="addr:city" v="Alsónémedi"/>
    <tag k="operator" v="SPAR Magyarország Kereskedelmi Kft."/>
    <tag k="shop" v="convenience"/>
    <tag k="addr:postcode" v="2351"/>
    <tag k="website" v="https://www.spar.hu/content/aspiag_spar_hu/hu_HU/uzletek/23/spar-exp-alsonemedi.html"/>
    <tag k="addr:street" v="5. számú főút"/>
    <tag k="source" v="website"/>
  </node>
  <!-- Original coordinates: POINT (46.9669211954 18.9363084733) -->
  <!-- Original tags: None -->
  <node action="modify" changeset="99999" id="-39" lat="46.9669211954" lon="18.9363084733" timestamp="" uid="4579407" user="KAMI" version="99999">
    <tag k="branch" v="Spar express OMV Dunaújváros"/>
    <tag k="brand" v="Spar"/>
    <tag k="source" v="website"/>
    <tag k="payment" v="cash"/>
    <tag k="name" v="Spar Expressz"/>
    <tag k="payment:debit_cards" v="yes"/>
    <tag k="addr:city" v="Dunaújváros"/>
    <tag k="operator" v="SPAR Magyarország Kereskedelmi Kft."/>
    <tag k="shop" v="convenience"/>
    <tag k="addr:postcode" v="2400"/>
    <tag k="website" v="https://www.spar.hu/content/aspiag_spar_hu/hu_HU/uzletek/24/spar-exp-dujvaros-omv.html"/>
    <tag k="addr:street" v="Aranyvölgyi utca"/>
  </node>
  <!-- Original coordinates: POINT (47.764058 19.1408) -->
  <!-- Original tags: None -->
  <node action="modify" changeset="99999" id="-40" lat="47.764058" lon="19.1408" timestamp="" uid="4579407" user="KAMI" version="99999">
    <tag k="branch" v="Spar express OMV Vác"/>
    <tag k="brand" v="Spar"/>
    <tag k="source" v="website"/>
    <tag k="payment" v="cash"/>
    <tag k="name" v="Spar Expressz"/>
    <tag k="addr:housenumber" v="1"/>
    <tag k="payment:debit_cards" v="yes"/>
    <tag k="addr:city" v="Vác"/>
    <tag k="operator" v="SPAR Magyarország Kereskedelmi Kft."/>
    <tag k="shop" v="convenience"/>
    <tag k="addr:postcode" v="2600"/>
    <tag k="website" v="https://www.spar.hu/content/aspiag_spar_hu/hu_HU/uzletek/26/spar-express-omv-vac-6717110-.html"/>
    <tag k="addr:street" v="Gödöllői út"/>
  </node>
  <!-- Original coordinates: POINT (47.5560605 18.4204121) -->
  <!-- Original tags: None -->
  <node action="modify" changeset="99999" id="-41" lat="47.5560605" lon="18.4204121" timestamp="" uid="4579407" user="KAMI" version="99999">
    <tag k="branch" v="Spar express OMV Tatabánya"/>
    <tag k="brand" v="Spar"/>
    <tag k="source" v="website"/>
    <tag k="payment" v="cash"/>
    <tag k="name" v="Spar Expressz"/>
    <tag k="addr:housenumber" v="4"/>
    <tag k="payment:debit_cards" v="yes"/>
    <tag k="addr:city" v="Tatabánya"/>
    <tag k="operator" v="SPAR Magyarország Kereskedelmi Kft."/>
    <tag k="shop" v="convenience"/>
    <tag k="addr:postcode" v="2800"/>
    <tag k="website" v="https://www.spar.hu/content/aspiag_spar_hu/hu_HU/uzletek/28/spar-exp-tatabanya.html"/>
    <tag k="addr:street" v="Károlyi út-Ságvári út"/>
  </node>
  <!-- Original coordinates: POINT (47.890619 20.3790417) -->
  <!-- Original tags: None -->
  <node action="modify" changeset="99999" id="-42" lat="47.890619" lon="20.3790417" timestamp="" uid="4579407" user="KAMI" version="99999">
    <tag k="branch" v="Spar express OMV Eger"/>
    <tag k="brand" v="Spar"/>
    <tag k="source" v="website"/>
    <tag k="payment" v="cash"/>
    <tag k="name" v="Spar Expressz"/>
    <tag k="addr:housenumber" v="2"/>
    <tag k="payment:debit_cards" v="yes"/>
    <tag k="addr:city" v="Eger"/>
    <tag k="operator" v="SPAR Magyarország Kereskedelmi Kft."/>
    <tag k="shop" v="convenience"/>
    <tag k="addr:postcode" v="3300"/>
    <tag k="website" v="https://www.spar.hu/content/aspiag_spar_hu/hu_HU/uzletek/33/spar-exp-eger-matyas.html"/>
    <tag k="addr:street" v="Mátyás király utca"/>
  </node>
  <!-- Original coordinates: POINT (48.105664 20.789879) -->
  <!-- Original tags: None -->
  <node action="modify" changeset="99999" id="-43" lat="48.105664" lon="20.789879" timestamp="" uid="4579407" user="KAMI" version="99999">
    <tag k="branch" v="Spar express OMV Miskolc"/>
    <tag k="brand" v="Spar"/>
    <tag k="source" v="website"/>
    <tag k="payment" v="cash"/>
    <tag k="name" v="Spar Expressz"/>
    <tag k="addr:housenumber" v="16"/>
    <tag k="payment:debit_cards" v="yes"/>
    <tag k="addr:city" v="Miskolc"/>
    <tag k="operator" v="SPAR Magyarország Kereskedelmi Kft."/>
    <tag k="shop" v="convenience"/>
    <tag k="addr:postcode" v="3525"/>
    <tag k="website" v="https://www.spar.hu/content/aspiag_spar_hu/hu_HU/uzletek/35/spar-exp-miskolc.html"/>
    <tag k="addr:street" v="Búza tér"/>
  </node>
  <!-- Original coordinates: POINT (48.083609 20.78413) -->
  <!-- Original tags: None -->
  <node action="modify" changeset="99999" id="-44" lat="48.083609" lon="20.78413" timestamp="" uid="4579407" user="KAMI" version="99999">
    <tag k="branch" v="Spar express OMV Miskolc"/>
    <tag k="brand" v="Spar"/>
    <tag k="source" v="website"/>
    <tag k="payment" v="cash"/>
    <tag k="name" v="Spar Expressz"/>
    <tag k="addr:housenumber" v="2/a"/>
    <tag k="payment:debit_cards" v="yes"/>
    <tag k="addr:city" v="Miskolc"/>
    <tag k="operator" v="SPAR Magyarország Kereskedelmi Kft."/>
    <tag k="shop" v="convenience"/>
    <tag k="addr:postcode" v="3529"/>
    <tag k="website" v="https://www.spar.hu/content/aspiag_spar_hu/hu_HU/uzletek/35/spar-exp-miskolc-omv.html"/>
    <tag k="addr:street" v="Testvérvárosok út"/>
  </node>
  <!-- Original coordinates: POINT (48.099723 20.70297) -->
  <!-- Original tags: None -->
  <node action="modify" changeset="99999" id="-45" lat="48.099723" lon="20.70297" timestamp="" uid="4579407" user="KAMI" version="99999">
    <tag k="branch" v="Spar express OMV Miskolc"/>
    <tag k="brand" v="Spar"/>
    <tag k="source" v="website"/>
    <tag k="payment" v="cash"/>
    <tag k="name" v="Spar Expressz"/>
    <tag k="payment:debit_cards" v="yes"/>
    <tag k="addr:city" v="Miskolc"/>
    <tag k="operator" v="SPAR Magyarország Kereskedelmi Kft."/>
    <tag k="shop" v="convenience"/>
    <tag k="addr:postcode" v="3534"/>
    <tag k="website" v="https://www.spar.hu/content/aspiag_spar_hu/hu_HU/uzletek/35/spar-exp-miskolc0.html"/>
    <tag k="addr:street" v="Kiss Tábornok - Kandó Kálmán utca sarok"/>
  </node>
  <!-- Original coordinates: POINT (47.54172 21.620341) -->
  <!-- Original tags: None -->
  <node action="modify" changeset="99999" id="-46" lat="47.54172" lon="21.620341" timestamp="" uid="4579407" user="KAMI" version="99999">
    <tag k="branch" v="Spar express OMV Debrecen"/>
    <tag k="brand" v="Spar"/>
    <tag k="source" v="website"/>
    <tag k="payment" v="cash"/>
    <tag k="name" v="Spar Expressz"/>
    <tag k="addr:housenumber" v="27"/>
    <tag k="payment:debit_cards" v="yes"/>
    <tag k="addr:city" v="Debrecen"/>
    <tag k="operator" v="SPAR Magyarország Kereskedelmi Kft."/>
    <tag k="shop" v="convenience"/>
    <tag k="addr:postcode" v="4027"/>
    <tag k="website" v="https://www.spar.hu/content/aspiag_spar_hu/hu_HU/uzletek/40/spar-exp-debrecen1.html"/>
    <tag k="addr:street" v="Füredi út"/>
  </node>
  <!-- Original coordinates: POINT (47.551512 21.648301) -->
  <!-- Original tags: None -->
  <node action="modify" changeset="99999" id="-47" lat="47.551512" lon="21.648301" timestamp="" uid="4579407" user="KAMI" version="99999">
    <tag k="branch" v="Spar express OMV Debrecen"/>
    <tag k="brand" v="Spar"/>
    <tag k="source" v="website"/>
    <tag k="payment" v="cash"/>
    <tag k="name" v="Spar Expressz"/>
    <tag k="addr:housenumber" v="2"/>
    <tag k="payment:debit_cards" v="yes"/>
    <tag k="addr:city" v="Debrecen"/>
    <tag k="operator" v="SPAR Magyarország Kereskedelmi Kft."/>
    <tag k="shop" v="convenience"/>
    <tag k="addr:postcode" v="4028"/>
    <tag k="website" v="https://www.spar.hu/content/aspiag_spar_hu/hu_HU/uzletek/40/spar-exp-debrecen0.html"/>
    <tag k="addr:street" v="Kassai utca"/>
  </node>
  <!-- Original coordinates: POINT (47.516091 21.605806) -->
  <!-- Original tags: None -->
  <node action="modify" changeset="99999" id="-48" lat="47.516091" lon="21.605806" timestamp="" uid="4579407" user="KAMI" version="99999">
    <tag k="branch" v="Spar express OMV Debrecen"/>
    <tag k="brand" v="Spar"/>
    <tag k="source" v="website"/>
    <tag k="payment" v="cash"/>
    <tag k="name" v="Spar Expressz"/>
    <tag k="addr:housenumber" v="137"/>
    <tag k="payment:debit_cards" v="yes"/>
    <tag k="addr:city" v="Debrecen"/>
    <tag k="operator" v="SPAR Magyarország Kereskedelmi Kft."/>
    <tag k="shop" v="convenience"/>
    <tag k="addr:postcode" v="4031"/>
    <tag k="website" v="https://www.spar.hu/content/aspiag_spar_hu/hu_HU/uzletek/40/spar-exp-debrecen.html"/>
    <tag k="addr:street" v="István út"/>
  </node>
  <!-- Original coordinates: POINT (47.957281 21.685581) -->
  <!-- Original tags: None -->
  <node action="modify" changeset="99999" id="-49" lat="47.957281" lon="21.685581" timestamp="" uid="4579407" user="KAMI" version="99999">
    <tag k="branch" v="Spar express OMV Nyíregyháza"/>
    <tag k="brand" v="Spar"/>
    <tag k="source" v="website"/>
    <tag k="payment" v="cash"/>
    <tag k="name" v="Spar Expressz"/>
    <tag k="payment:debit_cards" v="yes"/>
    <tag k="addr:city" v="Nyíregyháza"/>
    <tag k="operator" v="SPAR Magyarország Kereskedelmi Kft."/>
    <tag k="shop" v="convenience"/>
    <tag k="addr:postcode" v="4400"/>
    <tag k="website" v="https://www.spar.hu/content/aspiag_spar_hu/hu_HU/uzletek/44/spar-exp-nyiregyhaza.html"/>
    <tag k="addr:street" v="Tiszavasvári út- Alkotás út sarok"/>
  </node>
  <!-- Original coordinates: POINT (47.944923 21.725386) -->
  <!-- Original tags: None -->
  <node action="modify" changeset="99999" id="-50" lat="47.944923" lon="21.725386" timestamp="" uid="4579407" user="KAMI" version="99999">
    <tag k="branch" v="Spar express OMV Nyíregyháza"/>
    <tag k="brand" v="Spar"/>
    <tag k="source" v="website"/>
    <tag k="payment" v="cash"/>
    <tag k="name" v="Spar Expressz"/>
    <tag k="addr:housenumber" v="47"/>
    <tag k="payment:debit_cards" v="yes"/>
    <tag k="addr:city" v="Nyíregyháza"/>
    <tag k="operator" v="SPAR Magyarország Kereskedelmi Kft."/>
    <tag k="shop" v="convenience"/>
    <tag k="addr:postcode" v="4400"/>
    <tag k="website" v="https://www.spar.hu/content/aspiag_spar_hu/hu_HU/uzletek/44/spar-exp-nyegyhaza.html"/>
    <tag k="addr:street" v="Kert utca"/>
  </node>
  <!-- Original coordinates: POINT (47.182342 20.183801) -->
  <!-- Original tags: None -->
  <node action="modify" changeset="99999" id="-51" lat="47.182342" lon="20.183801" timestamp="" uid="4579407" user="KAMI" version="99999">
    <tag k="branch" v="Spar express OMV Szolnok"/>
    <tag k="brand" v="Spar"/>
    <tag k="source" v="website"/>
    <tag k="payment" v="cash"/>
    <tag k="name" v="Spar Expressz"/>
    <tag k="addr:housenumber" v="51"/>
    <tag k="payment:debit_cards" v="yes"/>
    <tag k="addr:city" v="Szolnok"/>
    <tag k="operator" v="SPAR Magyarország Kereskedelmi Kft."/>
    <tag k="shop" v="convenience"/>
    <tag k="addr:postcode" v="5000"/>
    <tag k="website" v="https://www.spar.hu/content/aspiag_spar_hu/hu_HU/uzletek/50/spar-exp-szolnok-omv.html"/>
    <tag k="addr:street" v="Thököly út"/>
  </node>
  <!-- Original coordinates: POINT (46.6837338 21.0597964) -->
  <!-- Original tags: None -->
  <node action="modify" changeset="99999" id="-52" lat="46.6837338" lon="21.0597964" timestamp="" uid="4579407" user="KAMI" version="99999">
    <tag k="branch" v="Spar express OMV Békéscsaba"/>
    <tag k="brand" v="Spar"/>
    <tag k="source" v="website"/>
    <tag k="payment" v="cash"/>
    <tag k="name" v="Spar Expressz"/>
    <tag k="addr:housenumber" v="103"/>
    <tag k="payment:debit_cards" v="yes"/>
    <tag k="addr:city" v="Békéscsaba"/>
    <tag k="operator" v="SPAR Magyarország Kereskedelmi Kft."/>
    <tag k="shop" v="convenience"/>
    <tag k="addr:postcode" v="5600"/>
    <tag k="website" v="https://www.spar.hu/content/aspiag_spar_hu/hu_HU/uzletek/56/spar-exp-bekescsaba.html"/>
    <tag k="addr:street" v="Szarvasi út"/>
  </node>
  <!-- Original coordinates: POINT (46.9209 19.6793) -->
  <!-- Original tags: None -->
  <node action="modify" changeset="99999" id="-53" lat="46.9209" lon="19.6793" timestamp="" uid="4579407" user="KAMI" version="99999">
    <tag k="branch" v="Spar express OMV Kecskemét"/>
    <tag k="brand" v="Spar"/>
    <tag k="source" v="website"/>
    <tag k="payment" v="cash"/>
    <tag k="name" v="Spar Expressz"/>
    <tag k="payment:debit_cards" v="yes"/>
    <tag k="addr:city" v="Kecskemét"/>
    <tag k="operator" v="SPAR Magyarország Kereskedelmi Kft."/>
    <tag k="shop" v="convenience"/>
    <tag k="addr:postcode" v="6000"/>
    <tag k="website" v="https://www.spar.hu/content/aspiag_spar_hu/hu_HU/uzletek/60/spar-exp-kecskemet-omv.html"/>
    <tag k="addr:street" v="Budai út"/>
  </node>
  <!-- Original coordinates: POINT (46.625715 19.274241) -->
  <!-- Original tags: None -->
  <node action="modify" changeset="99999" id="-54" lat="46.625715" lon="19.274241" timestamp="" uid="4579407" user="KAMI" version="99999">
    <tag k="branch" v="Spar express OMV Kiskőrös"/>
    <tag k="brand" v="Spar"/>
    <tag k="source" v="website"/>
    <tag k="payment" v="cash"/>
    <tag k="name" v="Spar Expressz"/>
    <tag k="addr:housenumber" v="99"/>
    <tag k="payment:debit_cards" v="yes"/>
    <tag k="addr:city" v="Kiskőrös"/>
    <tag k="operator" v="SPAR Magyarország Kereskedelmi Kft."/>
    <tag k="shop" v="convenience"/>
    <tag k="addr:postcode" v="6200"/>
    <tag k="website" v="https://www.spar.hu/content/aspiag_spar_hu/hu_HU/uzletek/62/spar-exp-kisk_roes.html"/>
    <tag k="addr:street" v="Dózsa György út"/>
  </node>
  <!-- Original coordinates: POINT (46.2733692 20.1579439) -->
  <!-- Original tags: None -->
  <node action="modify" changeset="99999" id="-55" lat="46.2733692" lon="20.1579439" timestamp="" uid="4579407" user="KAMI" version="99999">
    <tag k="branch" v="Spar express OMV Szeged"/>
    <tag k="brand" v="Spar"/>
    <tag k="source" v="website"/>
    <tag k="payment" v="cash"/>
    <tag k="name" v="Spar Expressz"/>
    <tag k="addr:housenumber" v="1"/>
    <tag k="payment:debit_cards" v="yes"/>
    <tag k="addr:city" v="Szeged"/>
    <tag k="operator" v="SPAR Magyarország Kereskedelmi Kft."/>
    <tag k="shop" v="convenience"/>
    <tag k="addr:postcode" v="6723"/>
    <tag k="website" v="https://www.spar.hu/content/aspiag_spar_hu/hu_HU/uzletek/67/spar-exp-szeged-makkos.html"/>
    <tag k="addr:street" v="Makkosházi körút"/>
  </node>
  <!-- Original coordinates: POINT (46.22034 20.47701) -->
  <!-- Original tags: None -->
  <node action="modify" changeset="99999" id="-56" lat="46.22034" lon="20.47701" timestamp="" uid="4579407" user="KAMI" version="99999">
    <tag k="branch" v="Spar express OMV Makó"/>
    <tag k="brand" v="Spar"/>
    <tag k="source" v="website"/>
    <tag k="payment" v="cash"/>
    <tag k="name" v="Spar Expressz"/>
    <tag k="payment:debit_cards" v="yes"/>
    <tag k="addr:city" v="Makó"/>
    <tag k="operator" v="SPAR Magyarország Kereskedelmi Kft."/>
    <tag k="shop" v="convenience"/>
    <tag k="addr:postcode" v="6900"/>
    <tag k="website" v="https://www.spar.hu/content/aspiag_spar_hu/hu_HU/uzletek/69/spar-exp-mako.html"/>
    <tag k="addr:street" v="Kossuth Lajos utca"/>
  </node>
  <!-- Original coordinates: POINT (46.354611 17.7854394) -->
  <!-- Original tags: None -->
  <node action="modify" changeset="99999" id="-57" lat="46.354611" lon="17.7854394" timestamp="" uid="4579407" user="KAMI" version="99999">
    <tag k="branch" v="Spar express OMV Kaposvár"/>
    <tag k="brand" v="Spar"/>
    <tag k="addr:conscriptionnumber" v="113/14"/>
    <tag k="payment" v="cash"/>
    <tag k="name" v="Spar Expressz"/>
    <tag k="payment:debit_cards" v="yes"/>
    <tag k="addr:city" v="Kaposvár"/>
    <tag k="operator" v="SPAR Magyarország Kereskedelmi Kft."/>
    <tag k="shop" v="convenience"/>
    <tag k="addr:postcode" v="7400"/>
    <tag k="website" v="https://www.spar.hu/content/aspiag_spar_hu/hu_HU/uzletek/74/spar-exp-kaposvar.html"/>
    <tag k="addr:street" v="Áchim András utca"/>
    <tag k="source" v="website"/>
  </node>
  <!-- Original coordinates: POINT (46.0555444 18.2311233) -->
  <!-- Original tags: None -->
  <node action="modify" changeset="99999" id="-58" lat="46.0555444" lon="18.2311233" timestamp="" uid="4579407" user="KAMI" version="99999">
    <tag k="branch" v="Spar express OMV Pécs"/>
    <tag k="brand" v="Spar"/>
    <tag k="source" v="website"/>
    <tag k="payment" v="cash"/>
    <tag k="name" v="Spar Expressz"/>
    <tag k="addr:housenumber" v="45"/>
    <tag k="payment:debit_cards" v="yes"/>
    <tag k="addr:city" v="Pécs"/>
    <tag k="operator" v="SPAR Magyarország Kereskedelmi Kft."/>
    <tag k="shop" v="convenience"/>
    <tag k="addr:postcode" v="7632"/>
    <tag k="website" v="https://www.spar.hu/content/aspiag_spar_hu/hu_HU/uzletek/76/spar-expr-pecs-omv.html"/>
    <tag k="addr:street" v="Siklósi út"/>
  </node>
  <!-- Original coordinates: POINT (47.195781 18.458692) -->
  <!-- Original tags: None -->
  <node action="modify" changeset="99999" id="-59" lat="47.195781" lon="18.458692" timestamp="" uid="4579407" user="KAMI" version="99999">
    <tag k="branch" v="Spar express OMV Székesfehérvár"/>
    <tag k="brand" v="Spar"/>
    <tag k="source" v="website"/>
    <tag k="payment" v="cash"/>
    <tag k="name" v="Spar Expressz"/>
    <tag k="addr:housenumber" v="6"/>
    <tag k="payment:debit_cards" v="yes"/>
    <tag k="addr:city" v="Székesfehérvár"/>
    <tag k="operator" v="SPAR Magyarország Kereskedelmi Kft."/>
    <tag k="shop" v="convenience"/>
    <tag k="addr:postcode" v="8000"/>
    <tag k="website" v="https://www.spar.hu/content/aspiag_spar_hu/hu_HU/uzletek/80/spar-exp-szfvar.html"/>
    <tag k="addr:street" v="Donáth utca"/>
  </node>
  <!-- Original coordinates: POINT (47.1911958 18.4224656) -->
  <!-- Original tags: None -->
  <node action="modify" changeset="99999" id="-60" lat="47.1911958" lon="18.4224656" timestamp="" uid="4579407" user="KAMI" version="99999">
    <tag k="branch" v="Spar express OMV Székesfehérvár"/>
    <tag k="brand" v="Spar"/>
    <tag k="source" v="website"/>
    <tag k="payment" v="cash"/>
    <tag k="name" v="Spar Expressz"/>
    <tag k="addr:housenumber" v="29"/>
    <tag k="payment:debit_cards" v="yes"/>
    <tag k="addr:city" v="Székesfehérvár"/>
    <tag k="operator" v="SPAR Magyarország Kereskedelmi Kft."/>
    <tag k="shop" v="convenience"/>
    <tag k="addr:postcode" v="8000"/>
    <tag k="website" v="https://www.spar.hu/content/aspiag_spar_hu/hu_HU/uzletek/80/spar-exp-sz-fehervar.html"/>
    <tag k="addr:street" v="Budai út"/>
  </node>
  <!-- Original coordinates: POINT (47.112271 17.924475) -->
  <!-- Original tags: None -->
  <node action="modify" changeset="99999" id="-61" lat="47.112271" lon="17.924475" timestamp="" uid="4579407" user="KAMI" version="99999">
    <tag k="branch" v="Spar Express OMV Veszprém"/>
    <tag k="brand" v="Spar"/>
    <tag k="source" v="website"/>
    <tag k="payment" v="cash"/>
    <tag k="name" v="Spar Expressz"/>
    <tag k="addr:housenumber" v="11"/>
    <tag k="payment:debit_cards" v="yes"/>
    <tag k="addr:city" v="Veszprém"/>
    <tag k="operator" v="SPAR Magyarország Kereskedelmi Kft."/>
    <tag k="shop" v="convenience"/>
    <tag k="addr:postcode" v="8200"/>
    <tag k="website" v="https://www.spar.hu/content/aspiag_spar_hu/hu_HU/uzletek/82/spar-express-veszprem.html"/>
    <tag k="addr:street" v="Aradi Vértanúk út"/>
  </node>
  <!-- Original coordinates: POINT (47.0944911 17.9164813) -->
  <!-- Original tags: None -->
  <node action="modify" changeset="99999" id="-62" lat="47.0944911" lon="17.9164813" timestamp="" uid="4579407" user="KAMI" version="99999">
    <tag k="branch" v="Spar express OMV Veszprém"/>
    <tag k="brand" v="Spar"/>
    <tag k="source" v="website"/>
    <tag k="payment" v="cash"/>
    <tag k="name" v="Spar Expressz"/>
    <tag k="addr:housenumber" v="12"/>
    <tag k="payment:debit_cards" v="yes"/>
    <tag k="addr:city" v="Veszprém"/>
    <tag k="operator" v="SPAR Magyarország Kereskedelmi Kft."/>
    <tag k="shop" v="convenience"/>
    <tag k="addr:postcode" v="8200"/>
    <tag k="website" v="https://www.spar.hu/content/aspiag_spar_hu/hu_HU/uzletek/82/spar-exp-veszprem.html"/>
    <tag k="addr:street" v="Budapesti út"/>
  </node>
  <!-- Original coordinates: POINT (46.90163 18.0484459) -->
  <!-- Original tags: None -->
  <node action="modify" changeset="99999" id="-63" lat="46.90163" lon="18.0484459" timestamp="" uid="4579407" user="KAMI" version="99999">
    <tag k="branch" v="Spar express OMV Siófok"/>
    <tag k="brand" v="Spar"/>
    <tag k="source" v="website"/>
    <tag k="payment" v="cash"/>
    <tag k="name" v="Spar Expressz"/>
    <tag k="addr:housenumber" v="1"/>
    <tag k="payment:debit_cards" v="yes"/>
    <tag k="addr:city" v="Siófok"/>
    <tag k="operator" v="SPAR Magyarország Kereskedelmi Kft."/>
    <tag k="shop" v="convenience"/>
    <tag k="addr:postcode" v="8600"/>
    <tag k="website" v="https://www.spar.hu/content/aspiag_spar_hu/hu_HU/uzletek/86/spar-exp-siofok-omv.html"/>
    <tag k="addr:street" v="Vak Bottyán út"/>
  </node>
  <!-- Original coordinates: POINT (46.7876292453 17.6993434131) -->
  <!-- Original tags: None -->
  <node action="modify" changeset="99999" id="-64" lat="46.7876292453" lon="17.6993434131" timestamp="" uid="4579407" user="KAMI" version="99999">
    <tag k="branch" v="Spar express OMV Balatonlelle"/>
    <tag k="brand" v="Spar"/>
    <tag k="addr:conscriptionnumber" v="3069"/>
    <tag k="payment" v="cash"/>
    <tag k="name" v="Spar Expressz"/>
    <tag k="payment:debit_cards" v="yes"/>
    <tag k="addr:city" v="Balatonlelle"/>
    <tag k="operator" v="SPAR Magyarország Kereskedelmi Kft."/>
    <tag k="shop" v="convenience"/>
    <tag k="addr:postcode" v="8638"/>
    <tag k="website" v="https://www.spar.hu/content/aspiag_spar_hu/hu_HU/uzletek/86/spar-exp-balatonlelle.html"/>
    <tag k="addr:street" v="Rákóczi út"/>
    <tag k="source" v="website"/>
  </node>
  <!-- Original coordinates: POINT (46.456071 17.009847) -->
  <!-- Original tags: None -->
  <node action="modify" changeset="99999" id="-65" lat="46.456071" lon="17.009847" timestamp="" uid="4579407" user="KAMI" version="99999">
    <tag k="branch" v="Spar express OMV Nagykanizsa"/>
    <tag k="brand" v="Spar"/>
    <tag k="source" v="website"/>
    <tag k="payment" v="cash"/>
    <tag k="name" v="Spar Expressz"/>
    <tag k="addr:housenumber" v="5"/>
    <tag k="payment:debit_cards" v="yes"/>
    <tag k="addr:city" v="Nagykanizsa"/>
    <tag k="operator" v="SPAR Magyarország Kereskedelmi Kft."/>
    <tag k="shop" v="convenience"/>
    <tag k="addr:postcode" v="8800"/>
    <tag k="website" v="https://www.spar.hu/content/aspiag_spar_hu/hu_HU/uzletek/88/spar-exp-nagykanizsa.html"/>
    <tag k="addr:street" v="Hevesi Sándor  utca"/>
  </node>
  <!-- Original coordinates: POINT (46.835042 16.830809) -->
  <!-- Original tags: None -->
  <node action="modify" changeset="99999" id="-66" lat="46.835042" lon="16.830809" timestamp="" uid="4579407" user="KAMI" version="99999">
    <tag k="branch" v="Spar express OMV Zalaegerszeg"/>
    <tag k="brand" v="Spar"/>
    <tag k="source" v="website"/>
    <tag k="payment" v="cash"/>
    <tag k="name" v="Spar Expressz"/>
    <tag k="addr:housenumber" v="26"/>
    <tag k="payment:debit_cards" v="yes"/>
    <tag k="addr:city" v="Zalaegerszeg"/>
    <tag k="operator" v="SPAR Magyarország Kereskedelmi Kft."/>
    <tag k="shop" v="convenience"/>
    <tag k="addr:postcode" v="8900"/>
    <tag k="website" v="https://www.spar.hu/content/aspiag_spar_hu/hu_HU/uzletek/89/spar-exp-zalaegerszeg.html"/>
    <tag k="addr:street" v="Göcseji utca"/>
  </node>
  <!-- Original coordinates: POINT (47.656914 17.633928) -->
  <!-- Original tags: None -->
  <node action="modify" changeset="99999" id="-67" lat="47.656914" lon="17.633928" timestamp="" uid="4579407" user="KAMI" version="99999">
    <tag k="branch" v="Spar express OMV Győr"/>
    <tag k="brand" v="Spar"/>
    <tag k="source" v="website"/>
    <tag k="payment" v="cash"/>
    <tag k="name" v="Spar Expressz"/>
    <tag k="addr:housenumber" v="771"/>
    <tag k="payment:debit_cards" v="yes"/>
    <tag k="addr:city" v="Győr"/>
    <tag k="operator" v="SPAR Magyarország Kereskedelmi Kft."/>
    <tag k="shop" v="convenience"/>
    <tag k="addr:postcode" v="9024"/>
    <tag k="website" v="https://www.spar.hu/content/aspiag_spar_hu/hu_HU/uzletek/90/spar-exp-gy_r.html"/>
    <tag k="addr:street" v="Pápai út"/>
  </node>
  <!-- Original coordinates: POINT (47.676419 16.596474) -->
  <!-- Original tags: None -->
  <node action="modify" changeset="99999" id="-68" lat="47.676419" lon="16.596474" timestamp="" uid="4579407" user="KAMI" version="99999">
    <tag k="branch" v="Spar express OMV Sopron"/>
    <tag k="brand" v="Spar"/>
    <tag k="source" v="website"/>
    <tag k="payment" v="cash"/>
    <tag k="name" v="Spar Expressz"/>
    <tag k="addr:housenumber" v="93"/>
    <tag k="payment:debit_cards" v="yes"/>
    <tag k="addr:city" v="Sopron"/>
    <tag k="operator" v="SPAR Magyarország Kereskedelmi Kft."/>
    <tag k="shop" v="convenience"/>
    <tag k="addr:postcode" v="9400"/>
    <tag k="website" v="https://www.spar.hu/content/aspiag_spar_hu/hu_HU/uzletek/94/spar-exp-sopron.html"/>
    <tag k="addr:street" v="Csengery utca"/>
  </node>
  <!-- Original coordinates: POINT (47.211575 16.618967) -->
  <!-- Original tags: None -->
  <node action="modify" changeset="99999" id="-69" lat="47.211575" lon="16.618967" timestamp="" uid="4579407" user="KAMI" version="99999">
    <tag k="branch" v="Spar express OMV Szombathely"/>
    <tag k="brand" v="Spar"/>
    <tag k="source" v="website"/>
    <tag k="payment" v="cash"/>
    <tag k="name" v="Spar Expressz"/>
    <tag k="addr:housenumber" v="92"/>
    <tag k="payment:debit_cards" v="yes"/>
    <tag k="addr:city" v="Szombathely"/>
    <tag k="operator" v="SPAR Magyarország Kereskedelmi Kft."/>
    <tag k="shop" v="convenience"/>
    <tag k="addr:postcode" v="9700"/>
    <tag k="website" v="https://www.spar.hu/content/aspiag_spar_hu/hu_HU/uzletek/97/spar-exp-szombathely.html"/>
    <tag k="addr:street" v="Körmendi út"/>
  </node>
</osm>
