<?xml version='1.0' encoding='UTF-8'?>
<osm generator="JOSM" version="0.6">
  <way action="modify" changeset="1" id="244656801" timestamp="1426408455000000000" uid="4579407" user="KAMI" version="3">
    <nd ref="2519518076"/>
    <nd ref="2519518077"/>
    <nd ref="2519518078"/>
    <nd ref="2519518079"/>
    <nd ref="2519518081"/>
    <nd ref="2519518082"/>
    <nd ref="2519518076"/>
    <tag k="name" v="Shell"/>
    <tag k="addr:city" v="Baja"/>
    <tag k="addr:postcode" v="6500"/>
    <tag k="addr:street" v="Dózsa György út"/>
    <tag k="addr:housenumber" v="13"/>
    <tag k="branch" v="BAJA II."/>
    <tag k="phone" v="+3679428096"/>
    <tag k="website" v="https://www.shell.hu"/>
    <tag k="payment:cash" v="yes"/>
    <tag k="payment:debit_cards" v="yes"/>
    <tag k="amenity" v="fuel"/>
    <tag k="fuel:octane_95" v="yes"/>
    <tag k="fuel:diesel" v="yes"/>
    <tag k="brand" v="Shell"/>
  </way>
  <way action="modify" changeset="1" id="440993296" timestamp="1473188075000000000" uid="4579407" user="KAMI" version="1">
    <nd ref="4387573548"/>
    <nd ref="4387573549"/>
    <nd ref="4387573550"/>
    <nd ref="4387573551"/>
    <nd ref="4387573548"/>
    <tag k="name" v="Shell"/>
    <tag k="addr:city" v="Mohács"/>
    <tag k="addr:postcode" v="7700"/>
    <tag k="branch" v="MOHÁCS II"/>
    <tag k="phone" v="+3669510037"/>
    <tag k="website" v="https://www.shell.hu"/>
    <tag k="payment:cash" v="yes"/>
    <tag k="payment:debit_cards" v="yes"/>
    <tag k="amenity" v="fuel"/>
    <tag k="fuel:octane_95" v="yes"/>
    <tag k="fuel:diesel" v="yes"/>
    <tag k="brand" v="Shell"/>
  </way>
  <way action="modify" changeset="1" id="372584711" timestamp="1443360061000000000" uid="4579407" user="KAMI" version="1">
    <nd ref="3761425643"/>
    <nd ref="3761425644"/>
    <nd ref="3761425645"/>
    <nd ref="3761425646"/>
    <nd ref="3761425647"/>
    <nd ref="3761425648"/>
    <nd ref="3761425649"/>
    <nd ref="3761425650"/>
    <nd ref="3761425651"/>
    <nd ref="3761425652"/>
    <nd ref="3761425643"/>
    <tag k="name" v="Shell"/>
    <tag k="addr:city" v="Szigetvár"/>
    <tag k="addr:postcode" v="7900"/>
    <tag k="addr:street" v="József a. utca"/>
    <tag k="branch" v="SZIGETVÁR"/>
    <tag k="phone" v="+3673510075"/>
    <tag k="website" v="https://www.shell.hu"/>
    <tag k="payment:cash" v="yes"/>
    <tag k="payment:debit_cards" v="yes"/>
    <tag k="amenity" v="fuel"/>
    <tag k="fuel:octane_95" v="yes"/>
    <tag k="fuel:diesel" v="yes"/>
    <tag k="brand" v="Shell"/>
  </way>
  <way action="modify" changeset="1" id="386818927" timestamp="1450630824000000000" uid="4579407" user="KAMI" version="1">
    <nd ref="3901691334"/>
    <nd ref="3901691332"/>
    <nd ref="3901691337"/>
    <nd ref="3901691338"/>
    <nd ref="3901691334"/>
    <tag k="name" v="Shell"/>
    <tag k="addr:city" v="Pécs"/>
    <tag k="addr:postcode" v="7632"/>
    <tag k="addr:street" v="Siklósi út"/>
    <tag k="addr:housenumber" v="66"/>
    <tag k="branch" v="PÉCS III."/>
    <tag k="phone" v="+3672438437"/>
    <tag k="website" v="https://www.shell.hu"/>
    <tag k="payment:cash" v="yes"/>
    <tag k="payment:debit_cards" v="yes"/>
    <tag k="amenity" v="fuel"/>
    <tag k="fuel:octane_95" v="yes"/>
    <tag k="fuel:diesel" v="yes"/>
    <tag k="brand" v="Shell"/>
  </way>
  <node action="modify" changeset="1" id="1119815948" lat="46.075038" lon="18.241582" timestamp="1504514039000000000" uid="4579407" user="KAMI" version="6">
    <tag k="name" v="Shell"/>
    <tag k="addr:city" v="Pécs"/>
    <tag k="addr:postcode" v="7622"/>
    <tag k="addr:street" v="Zsolnay V. utca"/>
    <tag k="addr:housenumber" v="4"/>
    <tag k="branch" v="PÉCS V."/>
    <tag k="phone" v="+3672211980"/>
    <tag k="website" v="https://www.shell.hu"/>
    <tag k="payment:cash" v="yes"/>
    <tag k="payment:debit_cards" v="yes"/>
    <tag k="amenity" v="fuel"/>
    <tag k="fuel:octane_95" v="yes"/>
    <tag k="fuel:diesel" v="yes"/>
    <tag k="brand" v="Shell"/>
  </node>
  <node action="modify" changeset="1" id="1119863882" lat="46.079617" lon="18.253785" timestamp="1448819774000000000" uid="4579407" user="KAMI" version="4">
    <tag k="name" v="Shell"/>
    <tag k="addr:city" v="Pécs"/>
    <tag k="addr:postcode" v="7630"/>
    <tag k="addr:street" v="Zsolnay V. utca"/>
    <tag k="addr:housenumber" v="41-43"/>
    <tag k="branch" v="PÉCS IV."/>
    <tag k="phone" v="+3672224600"/>
    <tag k="website" v="https://www.shell.hu"/>
    <tag k="payment:cash" v="yes"/>
    <tag k="payment:debit_cards" v="yes"/>
    <tag k="amenity" v="fuel"/>
    <tag k="fuel:octane_95" v="yes"/>
    <tag k="fuel:diesel" v="yes"/>
    <tag k="brand" v="Shell"/>
  </node>
  <node action="modify" changeset="1" id="2376254232" lat="46.084406" lon="18.268648000000002" timestamp="1426408459000000000" uid="4579407" user="KAMI" version="2">
    <tag k="name" v="Shell"/>
    <tag k="addr:city" v="Pécs"/>
    <tag k="addr:postcode" v="7630"/>
    <tag k="addr:street" v="Budai vám"/>
    <tag k="addr:housenumber" v="1"/>
    <tag k="branch" v="PÉCS VI 574"/>
    <tag k="phone" v="+3672711237"/>
    <tag k="website" v="https://www.shell.hu"/>
    <tag k="payment:cash" v="yes"/>
    <tag k="payment:debit_cards" v="yes"/>
    <tag k="amenity" v="fuel"/>
    <tag k="fuel:octane_95" v="yes"/>
    <tag k="fuel:diesel" v="yes"/>
    <tag k="brand" v="Shell"/>
  </node>
  <way action="modify" changeset="1" id="235434820" timestamp="1426408449000000000" uid="4579407" user="KAMI" version="6">
    <nd ref="2434958314"/>
    <nd ref="1813643076"/>
    <nd ref="1813643082"/>
    <nd ref="2436844501"/>
    <nd ref="2436844496"/>
    <nd ref="1813643091"/>
    <nd ref="2436844499"/>
    <nd ref="1813643095"/>
    <nd ref="1813643103"/>
    <nd ref="1813643097"/>
    <nd ref="1813643088"/>
    <nd ref="2439263303"/>
    <nd ref="1813643080"/>
    <nd ref="1813643066"/>
    <nd ref="1813643056"/>
    <nd ref="1813643052"/>
    <nd ref="2439263302"/>
    <nd ref="1813643064"/>
    <nd ref="2434958314"/>
    <tag k="name" v="Shell"/>
    <tag k="addr:city" v="Komló"/>
    <tag k="addr:postcode" v="7300"/>
    <tag k="addr:street" v="Kossuth Lajos utca"/>
    <tag k="addr:housenumber" v="54-56"/>
    <tag k="branch" v="KOMLÓ 545"/>
    <tag k="phone" v="+3672731003"/>
    <tag k="website" v="https://www.shell.hu"/>
    <tag k="payment:cash" v="yes"/>
    <tag k="payment:debit_cards" v="yes"/>
    <tag k="amenity" v="fuel"/>
    <tag k="fuel:octane_95" v="yes"/>
    <tag k="fuel:diesel" v="yes"/>
    <tag k="brand" v="Shell"/>
  </way>
  <node action="modify" changeset="1" id="2042308667" lat="46.194389" lon="18.950869" timestamp="1448398924000000000" uid="4579407" user="KAMI" version="4">
    <tag k="name" v="Shell"/>
    <tag k="addr:city" v="Baja"/>
    <tag k="addr:postcode" v="6500"/>
    <tag k="addr:street" v="Dózsa György út"/>
    <tag k="addr:housenumber" v="126-130"/>
    <tag k="branch" v="BAJA I"/>
    <tag k="phone" v="+3679522680"/>
    <tag k="website" v="https://www.shell.hu"/>
    <tag k="payment:cash" v="yes"/>
    <tag k="payment:debit_cards" v="yes"/>
    <tag k="amenity" v="fuel"/>
    <tag k="fuel:octane_95" v="yes"/>
    <tag k="fuel:diesel" v="yes"/>
    <tag k="brand" v="Shell"/>
  </node>
  <node action="modify" changeset="99999" id="-10" lat="46.216227" lon="20.502021" timestamp="" uid="4579407" user="KAMI" version="99999">
    <tag k="name" v="Shell"/>
    <tag k="addr:city" v="Makó"/>
    <tag k="addr:postcode" v="6900"/>
    <tag k="addr:street" v="Aradi utca"/>
    <tag k="addr:housenumber" v="103"/>
    <tag k="branch" v="MAKÓ II 572"/>
    <tag k="phone" v="+3662510044"/>
    <tag k="website" v="https://www.shell.hu"/>
    <tag k="payment:cash" v="yes"/>
    <tag k="payment:debit_cards" v="yes"/>
    <tag k="amenity" v="fuel"/>
    <tag k="fuel:octane_95" v="yes"/>
    <tag k="fuel:diesel" v="yes"/>
    <tag k="brand" v="Shell"/>
  </node>
  <node action="modify" changeset="99999" id="-11" lat="46.216772" lon="20.507070000000002" timestamp="" uid="4579407" user="KAMI" version="99999">
    <tag k="name" v="Shell"/>
    <tag k="addr:city" v="Makó"/>
    <tag k="addr:postcode" v="6900"/>
    <tag k="addr:street" v="Aradi utca"/>
    <tag k="addr:housenumber" v="117"/>
    <tag k="branch" v="MAKÓ"/>
    <tag k="phone" v="+3662510372"/>
    <tag k="website" v="https://www.shell.hu"/>
    <tag k="payment:cash" v="yes"/>
    <tag k="payment:debit_cards" v="yes"/>
    <tag k="amenity" v="fuel"/>
    <tag k="fuel:octane_95" v="yes"/>
    <tag k="fuel:diesel" v="yes"/>
    <tag k="brand" v="Shell"/>
  </node>
  <way action="modify" changeset="1" id="97097370" timestamp="1504560068000000000" uid="4579407" user="KAMI" version="6">
    <nd ref="1124898682"/>
    <nd ref="1124898492"/>
    <nd ref="1124897973"/>
    <nd ref="1124897799"/>
    <nd ref="1124898682"/>
    <tag k="name" v="Shell"/>
    <tag k="addr:city" v="Szeged"/>
    <tag k="addr:postcode" v="6725"/>
    <tag k="addr:street" v="Szabadkai út"/>
    <tag k="addr:housenumber" v="7"/>
    <tag k="branch" v="SZEGED I."/>
    <tag k="phone" v="+3662548605"/>
    <tag k="website" v="https://www.shell.hu"/>
    <tag k="payment:cash" v="yes"/>
    <tag k="payment:debit_cards" v="yes"/>
    <tag k="amenity" v="fuel"/>
    <tag k="fuel:octane_95" v="yes"/>
    <tag k="fuel:diesel" v="yes"/>
    <tag k="brand" v="Shell"/>
  </way>
  <way action="modify" changeset="1" id="312886234" timestamp="1504571713000000000" uid="4579407" user="KAMI" version="4">
    <nd ref="3188063317"/>
    <nd ref="3188063318"/>
    <nd ref="3188063319"/>
    <nd ref="3188063320"/>
    <nd ref="3188063321"/>
    <nd ref="3188063322"/>
    <nd ref="3188063317"/>
    <tag k="name" v="Shell"/>
    <tag k="addr:city" v="Szeged"/>
    <tag k="addr:postcode" v="6728"/>
    <tag k="addr:street" v="Bajai út"/>
    <tag k="addr:housenumber" v="2-4"/>
    <tag k="branch" v="SZEGED III."/>
    <tag k="phone" v="+3662465643"/>
    <tag k="website" v="https://www.shell.hu"/>
    <tag k="payment:cash" v="yes"/>
    <tag k="payment:debit_cards" v="yes"/>
    <tag k="amenity" v="fuel"/>
    <tag k="fuel:octane_95" v="yes"/>
    <tag k="fuel:diesel" v="yes"/>
    <tag k="brand" v="Shell"/>
  </way>
  <way action="modify" changeset="1" id="93303505" timestamp="1497040619000000000" uid="4579407" user="KAMI" version="2">
    <nd ref="1081767365"/>
    <nd ref="1081767614"/>
    <nd ref="1081766641"/>
    <nd ref="1081767103"/>
    <nd ref="1081767365"/>
    <tag k="name" v="Shell"/>
    <tag k="addr:city" v="Szeged"/>
    <tag k="addr:postcode" v="6728"/>
    <tag k="addr:street" v="Budapesti út"/>
    <tag k="addr:housenumber" v="8"/>
    <tag k="branch" v="SZEGED IV."/>
    <tag k="phone" v="+3662464024"/>
    <tag k="website" v="https://www.shell.hu"/>
    <tag k="payment:cash" v="yes"/>
    <tag k="payment:debit_cards" v="yes"/>
    <tag k="amenity" v="fuel"/>
    <tag k="fuel:octane_95" v="yes"/>
    <tag k="fuel:diesel" v="yes"/>
    <tag k="brand" v="Shell"/>
  </way>
  <node action="modify" changeset="1" id="2351098936" lat="46.287632" lon="20.172968" timestamp="1426408460000000000" uid="4579407" user="KAMI" version="2">
    <tag k="name" v="Shell"/>
    <tag k="addr:city" v="Szeged"/>
    <tag k="addr:postcode" v="6727"/>
    <tag k="addr:street" v="Algyői út"/>
    <tag k="addr:housenumber" v="67"/>
    <tag k="branch" v="SZEGED II."/>
    <tag k="phone" v="+3662540164"/>
    <tag k="website" v="https://www.shell.hu"/>
    <tag k="payment:cash" v="yes"/>
    <tag k="payment:debit_cards" v="yes"/>
    <tag k="amenity" v="fuel"/>
    <tag k="fuel:octane_95" v="yes"/>
    <tag k="fuel:diesel" v="yes"/>
    <tag k="brand" v="Shell"/>
  </node>
  <way action="modify" changeset="1" id="228898993" timestamp="1468166248000000000" uid="4579407" user="KAMI" version="4">
    <nd ref="2375555574"/>
    <nd ref="2375553314"/>
    <nd ref="2375553312"/>
    <nd ref="2375553316"/>
    <nd ref="2375553315"/>
    <nd ref="2375553313"/>
    <nd ref="2375553311"/>
    <nd ref="2375555555"/>
    <nd ref="2375555563"/>
    <nd ref="2375553318"/>
    <nd ref="2375555550"/>
    <nd ref="2375555569"/>
    <nd ref="2375555574"/>
    <tag k="name" v="Shell"/>
    <tag k="addr:city" v="Kaposvár"/>
    <tag k="addr:postcode" v="7400"/>
    <tag k="addr:street" v="Berzsenyi dániel utca"/>
    <tag k="branch" v="KAPOSVÁR II."/>
    <tag k="phone" v="+3682510614"/>
    <tag k="website" v="https://www.shell.hu"/>
    <tag k="payment:cash" v="yes"/>
    <tag k="payment:debit_cards" v="yes"/>
    <tag k="amenity" v="fuel"/>
    <tag k="fuel:octane_95" v="yes"/>
    <tag k="fuel:diesel" v="yes"/>
    <tag k="brand" v="Shell"/>
  </way>
  <node action="modify" changeset="1" id="205318625" lat="46.366139000000004" lon="18.705929" timestamp="1426408460000000000" uid="4579407" user="KAMI" version="4">
    <tag k="name" v="Shell"/>
    <tag k="addr:city" v="Szekszárd"/>
    <tag k="addr:postcode" v="7100"/>
    <tag k="addr:street" v="Palánki utca"/>
    <tag k="addr:housenumber" v="2"/>
    <tag k="branch" v="SZEKSZÁRD III."/>
    <tag k="phone" v="+3674311828"/>
    <tag k="website" v="https://www.shell.hu"/>
    <tag k="payment:cash" v="yes"/>
    <tag k="payment:debit_cards" v="yes"/>
    <tag k="amenity" v="fuel"/>
    <tag k="fuel:octane_95" v="yes"/>
    <tag k="fuel:diesel" v="yes"/>
    <tag k="brand" v="Shell"/>
  </node>
  <node action="modify" changeset="99999" id="-18" lat="46.38624" lon="18.14099" timestamp="" uid="4579407" user="KAMI" version="99999">
    <tag k="name" v="Shell"/>
    <tag k="addr:city" v="Dombóvár"/>
    <tag k="addr:postcode" v="7200"/>
    <tag k="addr:street" v="Juhász Gy. utca"/>
    <tag k="addr:housenumber" v="2"/>
    <tag k="branch" v="DOMBÓVÁR"/>
    <tag k="phone" v="+3674467374"/>
    <tag k="website" v="https://www.shell.hu"/>
    <tag k="payment:cash" v="yes"/>
    <tag k="payment:debit_cards" v="yes"/>
    <tag k="amenity" v="fuel"/>
    <tag k="fuel:octane_95" v="yes"/>
    <tag k="fuel:diesel" v="yes"/>
    <tag k="brand" v="Shell"/>
  </node>
  <node action="modify" changeset="1" id="1864798552" lat="46.411331" lon="20.331189000000002" timestamp="1426408460000000000" uid="4579407" user="KAMI" version="3">
    <tag k="name" v="Shell"/>
    <tag k="addr:city" v="Hódmezovásárhely"/>
    <tag k="addr:postcode" v="6800"/>
    <tag k="addr:street" v="Hódtó utca"/>
    <tag k="addr:housenumber" v="17-19"/>
    <tag k="branch" v="HÓDMEZŐV. II 559"/>
    <tag k="phone" v="+308446853"/>
    <tag k="website" v="https://www.shell.hu"/>
    <tag k="payment:cash" v="yes"/>
    <tag k="payment:debit_cards" v="yes"/>
    <tag k="amenity" v="fuel"/>
    <tag k="fuel:octane_95" v="yes"/>
    <tag k="fuel:diesel" v="yes"/>
    <tag k="brand" v="Shell"/>
  </node>
  <way action="modify" changeset="1" id="562765327" timestamp="1519140963000000000" uid="4579407" user="KAMI" version="1">
    <nd ref="5424775491"/>
    <nd ref="5424775492"/>
    <nd ref="5424775493"/>
    <nd ref="5424775494"/>
    <nd ref="5424775495"/>
    <nd ref="5424775496"/>
    <nd ref="5424775497"/>
    <nd ref="5424775498"/>
    <nd ref="5424775499"/>
    <nd ref="5424775500"/>
    <nd ref="5424775491"/>
    <tag k="name" v="Shell"/>
    <tag k="addr:city" v="Kiskunhalas"/>
    <tag k="addr:postcode" v="6400"/>
    <tag k="addr:street" v="Kárpát utca"/>
    <tag k="addr:housenumber" v="9"/>
    <tag k="branch" v="KISKUNHALAS II."/>
    <tag k="phone" v="+3677421798"/>
    <tag k="website" v="https://www.shell.hu"/>
    <tag k="payment:cash" v="yes"/>
    <tag k="payment:debit_cards" v="yes"/>
    <tag k="amenity" v="fuel"/>
    <tag k="fuel:octane_95" v="yes"/>
    <tag k="fuel:diesel" v="yes"/>
    <tag k="brand" v="Shell"/>
  </way>
  <way action="modify" changeset="1" id="243661835" timestamp="1426408454000000000" uid="4579407" user="KAMI" version="3">
    <nd ref="2510412198"/>
    <nd ref="2510412200"/>
    <nd ref="2579603052"/>
    <nd ref="2510412204"/>
    <nd ref="2510412202"/>
    <nd ref="2510412198"/>
    <tag k="name" v="Shell"/>
    <tag k="addr:city" v="Nagykanizsa"/>
    <tag k="addr:postcode" v="8800"/>
    <tag k="addr:street" v="Balatoni út"/>
    <tag k="addr:housenumber" v="183"/>
    <tag k="branch" v="NAGYKANIZSA I."/>
    <tag k="phone" v="+3693310599"/>
    <tag k="website" v="https://www.shell.hu"/>
    <tag k="payment:cash" v="yes"/>
    <tag k="payment:debit_cards" v="yes"/>
    <tag k="amenity" v="fuel"/>
    <tag k="fuel:octane_95" v="yes"/>
    <tag k="fuel:diesel" v="yes"/>
    <tag k="brand" v="Shell"/>
  </way>
  <way action="modify" changeset="1" id="199635323" timestamp="1426408452000000000" uid="4579407" user="KAMI" version="4">
    <nd ref="2096179456"/>
    <nd ref="2096179462"/>
    <nd ref="2096179511"/>
    <nd ref="2096179498"/>
    <nd ref="2096179456"/>
    <tag k="name" v="Shell"/>
    <tag k="addr:city" v="Nagykanizsa"/>
    <tag k="addr:postcode" v="8800"/>
    <tag k="addr:street" v="Boszorkány utca"/>
    <tag k="addr:housenumber" v="2"/>
    <tag k="branch" v="NAGYKAN. III 555"/>
    <tag k="phone" v="+3693516320"/>
    <tag k="website" v="https://www.shell.hu"/>
    <tag k="payment:cash" v="yes"/>
    <tag k="payment:debit_cards" v="yes"/>
    <tag k="amenity" v="fuel"/>
    <tag k="fuel:octane_95" v="yes"/>
    <tag k="fuel:diesel" v="yes"/>
    <tag k="brand" v="Shell"/>
  </way>
  <way action="modify" changeset="1" id="585747886" timestamp="1525459974000000000" uid="4579407" user="KAMI" version="1">
    <nd ref="5597041334"/>
    <nd ref="5597041333"/>
    <nd ref="5597041330"/>
    <nd ref="5597041328"/>
    <nd ref="5597041327"/>
    <nd ref="5597041329"/>
    <nd ref="5597041332"/>
    <nd ref="5597041331"/>
    <nd ref="5597041334"/>
    <tag k="name" v="Shell"/>
    <tag k="addr:city" v="Kalocsa"/>
    <tag k="addr:postcode" v="6300"/>
    <tag k="addr:street" v="Bátyai út"/>
    <tag k="addr:housenumber" v="8-10"/>
    <tag k="branch" v="KALOCSA 557"/>
    <tag k="phone" v="+3678700511"/>
    <tag k="website" v="https://www.shell.hu"/>
    <tag k="payment:cash" v="yes"/>
    <tag k="payment:debit_cards" v="yes"/>
    <tag k="amenity" v="fuel"/>
    <tag k="fuel:octane_95" v="yes"/>
    <tag k="fuel:diesel" v="yes"/>
    <tag k="brand" v="Shell"/>
  </way>
  <node action="modify" changeset="1" id="2384493975" lat="46.549397" lon="20.648149" timestamp="1426408461000000000" uid="4579407" user="KAMI" version="2">
    <tag k="name" v="Shell"/>
    <tag k="addr:city" v="Orosháza"/>
    <tag k="addr:postcode" v="5900"/>
    <tag k="addr:street" v="Vásárhelyi út"/>
    <tag k="addr:housenumber" v="23/a"/>
    <tag k="branch" v="OROSHÁZA II 576"/>
    <tag k="phone" v="+309026938"/>
    <tag k="website" v="https://www.shell.hu"/>
    <tag k="payment:cash" v="yes"/>
    <tag k="payment:debit_cards" v="yes"/>
    <tag k="amenity" v="fuel"/>
    <tag k="fuel:octane_95" v="yes"/>
    <tag k="fuel:diesel" v="yes"/>
    <tag k="brand" v="Shell"/>
  </node>
  <way action="modify" changeset="1" id="401309426" timestamp="1456962450000000000" uid="4579407" user="KAMI" version="1">
    <nd ref="4037496747"/>
    <nd ref="4037496748"/>
    <nd ref="4037496749"/>
    <nd ref="4037496750"/>
    <nd ref="4037496751"/>
    <nd ref="4037496752"/>
    <nd ref="4037496747"/>
    <tag k="name" v="Shell"/>
    <tag k="addr:city" v="Szentes"/>
    <tag k="addr:postcode" v="6600"/>
    <tag k="addr:street" v="Vásárhelyi út"/>
    <tag k="addr:housenumber" v="110"/>
    <tag k="branch" v="SZENTES"/>
    <tag k="phone" v="+3663311212"/>
    <tag k="website" v="https://www.shell.hu"/>
    <tag k="payment:cash" v="yes"/>
    <tag k="payment:debit_cards" v="yes"/>
    <tag k="amenity" v="fuel"/>
    <tag k="fuel:octane_95" v="yes"/>
    <tag k="fuel:diesel" v="yes"/>
    <tag k="brand" v="Shell"/>
  </way>
  <node action="modify" changeset="1" id="3485100710" lat="46.640862" lon="21.262971" timestamp="1465158926000000000" uid="4579407" user="KAMI" version="2">
    <tag k="name" v="Shell"/>
    <tag k="addr:city" v="Gyula"/>
    <tag k="addr:postcode" v="5700"/>
    <tag k="addr:street" v="csabai út"/>
    <tag k="branch" v="GYULA"/>
    <tag k="phone" v="+3666463170"/>
    <tag k="website" v="https://www.shell.hu"/>
    <tag k="payment:cash" v="yes"/>
    <tag k="payment:debit_cards" v="yes"/>
    <tag k="amenity" v="fuel"/>
    <tag k="fuel:octane_95" v="yes"/>
    <tag k="fuel:diesel" v="yes"/>
    <tag k="brand" v="Shell"/>
  </node>
  <way action="modify" changeset="1" id="330381603" timestamp="1424970450000000000" uid="4579407" user="KAMI" version="2">
    <nd ref="3373450485"/>
    <nd ref="3373450486"/>
    <nd ref="3373450487"/>
    <nd ref="3373450488"/>
    <nd ref="3373450489"/>
    <nd ref="3373450490"/>
    <nd ref="3373454168"/>
    <nd ref="3373450491"/>
    <nd ref="3373450492"/>
    <nd ref="3373450693"/>
    <nd ref="3373450694"/>
    <nd ref="3373450695"/>
    <nd ref="3373450696"/>
    <nd ref="3373450697"/>
    <nd ref="3373450698"/>
    <nd ref="3373450485"/>
    <tag k="name" v="Shell"/>
    <tag k="addr:city" v="Balatonkeresztúr"/>
    <tag k="addr:postcode" v="8648"/>
    <tag k="addr:street" v="M7 Autópálya 167 Km. bal oldal"/>
    <tag k="branch" v="M7 BALATONKERESZTÚR B"/>
    <tag k="phone" v="+3685702019"/>
    <tag k="website" v="https://www.shell.hu"/>
    <tag k="payment:cash" v="yes"/>
    <tag k="payment:debit_cards" v="yes"/>
    <tag k="amenity" v="fuel"/>
    <tag k="fuel:octane_95" v="yes"/>
    <tag k="fuel:diesel" v="yes"/>
    <tag k="brand" v="Shell"/>
  </way>
  <way action="modify" changeset="1" id="330381600" timestamp="1424970226000000000" uid="4579407" user="KAMI" version="1">
    <nd ref="3373450468"/>
    <nd ref="3373450469"/>
    <nd ref="3373450470"/>
    <nd ref="3373450471"/>
    <nd ref="3373450472"/>
    <nd ref="3373450473"/>
    <nd ref="3373450474"/>
    <nd ref="3373450475"/>
    <nd ref="3373450476"/>
    <nd ref="3373450477"/>
    <nd ref="3373450478"/>
    <nd ref="3373450479"/>
    <nd ref="3373450480"/>
    <nd ref="3373450481"/>
    <nd ref="3373450468"/>
    <tag k="name" v="Shell"/>
    <tag k="addr:city" v="Balatonkeresztúr"/>
    <tag k="addr:postcode" v="8648"/>
    <tag k="addr:street" v="M7 Autópálya 167 Km. jobb oldal"/>
    <tag k="branch" v="M7 BALATONKERESZTÚR A"/>
    <tag k="phone" v="+3685702041"/>
    <tag k="website" v="https://www.shell.hu"/>
    <tag k="payment:cash" v="yes"/>
    <tag k="payment:debit_cards" v="yes"/>
    <tag k="amenity" v="fuel"/>
    <tag k="fuel:octane_95" v="yes"/>
    <tag k="fuel:diesel" v="yes"/>
    <tag k="brand" v="Shell"/>
  </way>
  <node action="modify" changeset="1" id="673334420" lat="46.689780999999996" lon="19.849985" timestamp="1426408462000000000" uid="4579407" user="KAMI" version="3">
    <tag k="name" v="Shell"/>
    <tag k="addr:city" v="Kiskunfélegyháza"/>
    <tag k="addr:postcode" v="6100"/>
    <tag k="addr:street" v="Ix. körzet"/>
    <tag k="addr:housenumber" v="8/b"/>
    <tag k="branch" v="KISKUNFÉL II 560"/>
    <tag k="phone" v="+3676712023"/>
    <tag k="website" v="https://www.shell.hu"/>
    <tag k="payment:cash" v="yes"/>
    <tag k="payment:debit_cards" v="yes"/>
    <tag k="amenity" v="fuel"/>
    <tag k="fuel:octane_95" v="yes"/>
    <tag k="fuel:diesel" v="yes"/>
    <tag k="brand" v="Shell"/>
  </node>
  <way action="modify" changeset="1" id="368319002" timestamp="1481033936000000000" uid="4579407" user="KAMI" version="2">
    <nd ref="3721683416"/>
    <nd ref="3721683417"/>
    <nd ref="3721683418"/>
    <nd ref="3721683419"/>
    <nd ref="3721683420"/>
    <nd ref="3721683421"/>
    <nd ref="3721683422"/>
    <nd ref="3721683423"/>
    <nd ref="3721683424"/>
    <nd ref="3721683525"/>
    <nd ref="3721683416"/>
    <tag k="name" v="Shell"/>
    <tag k="addr:city" v="Békéscsaba"/>
    <tag k="addr:postcode" v="5600"/>
    <tag k="addr:street" v="Berényi út"/>
    <tag k="addr:housenumber" v="121"/>
    <tag k="branch" v="BÉKÉSCSABA I."/>
    <tag k="phone" v="+3666326430"/>
    <tag k="website" v="https://www.shell.hu"/>
    <tag k="payment:cash" v="yes"/>
    <tag k="payment:debit_cards" v="yes"/>
    <tag k="amenity" v="fuel"/>
    <tag k="fuel:octane_95" v="yes"/>
    <tag k="fuel:diesel" v="yes"/>
    <tag k="brand" v="Shell"/>
  </way>
  <way action="modify" changeset="1" id="234859640" timestamp="1426408455000000000" uid="4579407" user="KAMI" version="3">
    <nd ref="2429840877"/>
    <nd ref="2429840870"/>
    <nd ref="2429840819"/>
    <nd ref="2429840808"/>
    <nd ref="2429840818"/>
    <nd ref="2429840889"/>
    <nd ref="2429840877"/>
    <tag k="name" v="Shell"/>
    <tag k="addr:city" v="Kiskunfélegyháza"/>
    <tag k="addr:postcode" v="6100"/>
    <tag k="addr:street" v="szegedi út"/>
    <tag k="branch" v="KISKUNFÉLEGYHÁZA I."/>
    <tag k="phone" v="+3676560036"/>
    <tag k="website" v="https://www.shell.hu"/>
    <tag k="payment:cash" v="yes"/>
    <tag k="payment:debit_cards" v="yes"/>
    <tag k="amenity" v="fuel"/>
    <tag k="fuel:octane_95" v="yes"/>
    <tag k="fuel:diesel" v="yes"/>
    <tag k="brand" v="Shell"/>
  </way>
  <way action="modify" changeset="1" id="548704016" timestamp="1514037898000000000" uid="4579407" user="KAMI" version="1">
    <nd ref="5300743943"/>
    <nd ref="5300743944"/>
    <nd ref="5300743945"/>
    <nd ref="5300743946"/>
    <nd ref="5300743947"/>
    <nd ref="5300743948"/>
    <nd ref="5300743949"/>
    <nd ref="5300743950"/>
    <nd ref="5300743943"/>
    <tag k="name" v="Shell"/>
    <tag k="addr:city" v="Békés"/>
    <tag k="addr:postcode" v="5630"/>
    <tag k="addr:street" v="csabai út"/>
    <tag k="branch" v="BÉKÉS"/>
    <tag k="phone" v="+3666510830"/>
    <tag k="website" v="https://www.shell.hu"/>
    <tag k="payment:cash" v="yes"/>
    <tag k="payment:debit_cards" v="yes"/>
    <tag k="amenity" v="fuel"/>
    <tag k="fuel:octane_95" v="yes"/>
    <tag k="fuel:diesel" v="yes"/>
    <tag k="brand" v="Shell"/>
  </way>
  <way action="modify" changeset="1" id="289077846" timestamp="1426408450000000000" uid="4579407" user="KAMI" version="2">
    <nd ref="2926282300"/>
    <nd ref="2926282502"/>
    <nd ref="2926282505"/>
    <nd ref="2926282504"/>
    <nd ref="2926282300"/>
    <tag k="name" v="Shell"/>
    <tag k="addr:city" v="Balatonboglár"/>
    <tag k="addr:postcode" v="8630"/>
    <tag k="addr:street" v="Klapka utca"/>
    <tag k="addr:housenumber" v="32"/>
    <tag k="branch" v="BALATONBOGL. 586"/>
    <tag k="phone" v="+3685700358"/>
    <tag k="website" v="https://www.shell.hu"/>
    <tag k="payment:cash" v="yes"/>
    <tag k="payment:debit_cards" v="yes"/>
    <tag k="amenity" v="fuel"/>
    <tag k="fuel:octane_95" v="yes"/>
    <tag k="fuel:diesel" v="yes"/>
    <tag k="brand" v="Shell"/>
  </way>
  <way action="modify" changeset="1" id="171814321" timestamp="1426408451000000000" uid="4579407" user="KAMI" version="4">
    <nd ref="1827906777"/>
    <nd ref="1827906779"/>
    <nd ref="1827906787"/>
    <nd ref="1827906786"/>
    <nd ref="1827906777"/>
    <tag k="name" v="Shell"/>
    <tag k="addr:city" v="Keszthely"/>
    <tag k="addr:postcode" v="8360"/>
    <tag k="addr:street" v="Csapás utca"/>
    <tag k="addr:housenumber" v="27"/>
    <tag k="branch" v="KESZTHELY II 578"/>
    <tag k="phone" v="+3683510178"/>
    <tag k="website" v="https://www.shell.hu"/>
    <tag k="payment:cash" v="yes"/>
    <tag k="payment:debit_cards" v="yes"/>
    <tag k="amenity" v="fuel"/>
    <tag k="fuel:octane_95" v="yes"/>
    <tag k="fuel:diesel" v="yes"/>
    <tag k="brand" v="Shell"/>
  </way>
  <node action="modify" changeset="1" id="2827139059" lat="46.813674" lon="18.908148999999998" timestamp="1447602427000000000" uid="4579407" user="KAMI" version="3">
    <tag k="name" v="Shell"/>
    <tag k="addr:city" v="Dunaföldvár"/>
    <tag k="addr:postcode" v="7020"/>
    <tag k="addr:street" v="előszállási út"/>
    <tag k="branch" v="DUNAFÖLDVÁR"/>
    <tag k="phone" v="+3675541110"/>
    <tag k="website" v="https://www.shell.hu"/>
    <tag k="payment:cash" v="yes"/>
    <tag k="payment:debit_cards" v="yes"/>
    <tag k="amenity" v="fuel"/>
    <tag k="fuel:octane_95" v="yes"/>
    <tag k="fuel:diesel" v="yes"/>
    <tag k="brand" v="Shell"/>
  </node>
  <node action="modify" changeset="1" id="2168591143" lat="46.844628" lon="16.864809" timestamp="1426408462000000000" uid="4579407" user="KAMI" version="3">
    <tag k="name" v="Shell"/>
    <tag k="addr:city" v="Zalaegerszeg"/>
    <tag k="addr:postcode" v="8900"/>
    <tag k="addr:street" v="Balatoni utca"/>
    <tag k="addr:housenumber" v="8/a"/>
    <tag k="branch" v="ZALAEGERSZEG II."/>
    <tag k="phone" v="+3692596618"/>
    <tag k="website" v="https://www.shell.hu"/>
    <tag k="payment:cash" v="yes"/>
    <tag k="payment:debit_cards" v="yes"/>
    <tag k="amenity" v="fuel"/>
    <tag k="fuel:octane_95" v="yes"/>
    <tag k="fuel:diesel" v="yes"/>
    <tag k="brand" v="Shell"/>
  </node>
  <node action="modify" changeset="1" id="2747662769" lat="46.854017" lon="20.573782" timestamp="1518454436000000000" uid="4579407" user="KAMI" version="2">
    <tag k="name" v="Shell"/>
    <tag k="addr:city" v="Szarvas"/>
    <tag k="addr:postcode" v="5540"/>
    <tag k="addr:street" v="Csabai út"/>
    <tag k="addr:housenumber" v="9"/>
    <tag k="branch" v="SZARVAS II 563"/>
    <tag k="phone" v="+3666210081"/>
    <tag k="website" v="https://www.shell.hu"/>
    <tag k="payment:cash" v="yes"/>
    <tag k="payment:debit_cards" v="yes"/>
    <tag k="amenity" v="fuel"/>
    <tag k="fuel:octane_95" v="yes"/>
    <tag k="fuel:diesel" v="yes"/>
    <tag k="brand" v="Shell"/>
  </node>
  <way action="modify" changeset="1" id="208958663" timestamp="1509352924000000000" uid="4579407" user="KAMI" version="4">
    <nd ref="2192116375"/>
    <nd ref="2192116396"/>
    <nd ref="2192116465"/>
    <nd ref="2192116446"/>
    <nd ref="2192116407"/>
    <nd ref="2192116381"/>
    <nd ref="2192116453"/>
    <nd ref="2192116378"/>
    <nd ref="2192116375"/>
    <tag k="name" v="Shell"/>
    <tag k="addr:city" v="Zalaegerszeg"/>
    <tag k="addr:postcode" v="8900"/>
    <tag k="addr:street" v="Hock j. utca"/>
    <tag k="branch" v="ZALAEGERSZEG I."/>
    <tag k="phone" v="+3692596160"/>
    <tag k="website" v="https://www.shell.hu"/>
    <tag k="payment:cash" v="yes"/>
    <tag k="payment:debit_cards" v="yes"/>
    <tag k="amenity" v="fuel"/>
    <tag k="fuel:octane_95" v="yes"/>
    <tag k="fuel:diesel" v="yes"/>
    <tag k="brand" v="Shell"/>
  </way>
  <node action="modify" changeset="1" id="4028750297" lat="46.8793" lon="17.454929999999997" timestamp="1485262152000000000" uid="4579407" user="KAMI" version="2">
    <tag k="name" v="Shell"/>
    <tag k="addr:city" v="Tapolca"/>
    <tag k="addr:postcode" v="8300"/>
    <tag k="addr:street" v="Veszprémi út"/>
    <tag k="addr:housenumber" v="5"/>
    <tag k="branch" v="TAPOLCA 558"/>
    <tag k="phone" v="+3687709009"/>
    <tag k="website" v="https://www.shell.hu"/>
    <tag k="payment:cash" v="yes"/>
    <tag k="payment:debit_cards" v="yes"/>
    <tag k="amenity" v="fuel"/>
    <tag k="fuel:octane_95" v="yes"/>
    <tag k="fuel:diesel" v="yes"/>
    <tag k="brand" v="Shell"/>
  </node>
  <way action="modify" changeset="1" id="478889313" timestamp="1518900716000000000" uid="4579407" user="KAMI" version="2">
    <nd ref="4720732986"/>
    <nd ref="4720732987"/>
    <nd ref="4720732988"/>
    <nd ref="4720733089"/>
    <nd ref="4720732986"/>
    <tag k="name" v="Shell"/>
    <tag k="addr:city" v="Kecskemét"/>
    <tag k="addr:postcode" v="6000"/>
    <tag k="addr:street" v="Kiskunfélegyházi út"/>
    <tag k="addr:housenumber" v="50"/>
    <tag k="branch" v="KECSKEMÉT I."/>
    <tag k="phone" v="+3676481764"/>
    <tag k="website" v="https://www.shell.hu"/>
    <tag k="payment:cash" v="yes"/>
    <tag k="payment:debit_cards" v="yes"/>
    <tag k="amenity" v="fuel"/>
    <tag k="fuel:octane_95" v="yes"/>
    <tag k="fuel:diesel" v="yes"/>
    <tag k="brand" v="Shell"/>
  </way>
  <node action="modify" changeset="1" id="1261801722" lat="46.892625" lon="18.059086999999998" timestamp="1448921182000000000" uid="4579407" user="KAMI" version="4">
    <tag k="name" v="Shell"/>
    <tag k="addr:city" v="Siófok"/>
    <tag k="addr:postcode" v="8611"/>
    <tag k="addr:street" v="Vak B. utca"/>
    <tag k="addr:housenumber" v="29"/>
    <tag k="branch" v="SIÓFOK II 549"/>
    <tag k="phone" v="+3684522057"/>
    <tag k="website" v="https://www.shell.hu"/>
    <tag k="payment:cash" v="yes"/>
    <tag k="payment:debit_cards" v="yes"/>
    <tag k="amenity" v="fuel"/>
    <tag k="fuel:octane_95" v="yes"/>
    <tag k="fuel:diesel" v="yes"/>
    <tag k="brand" v="Shell"/>
  </node>
  <way action="modify" changeset="1" id="425177518" timestamp="1518900715000000000" uid="4579407" user="KAMI" version="4">
    <nd ref="4244826632"/>
    <nd ref="4244826633"/>
    <nd ref="4244826634"/>
    <nd ref="4244826635"/>
    <nd ref="4244826632"/>
    <tag k="name" v="Shell"/>
    <tag k="addr:city" v="Kecskemét"/>
    <tag k="addr:postcode" v="6000"/>
    <tag k="addr:street" v="Izsáki út"/>
    <tag k="addr:housenumber" v="4"/>
    <tag k="branch" v="KECSKEMÉT IV."/>
    <tag k="phone" v="+3676505347"/>
    <tag k="website" v="https://www.shell.hu"/>
    <tag k="payment:cash" v="yes"/>
    <tag k="payment:debit_cards" v="yes"/>
    <tag k="amenity" v="fuel"/>
    <tag k="fuel:octane_95" v="yes"/>
    <tag k="fuel:diesel" v="yes"/>
    <tag k="brand" v="Shell"/>
  </way>
  <way action="modify" changeset="1" id="264931924" timestamp="1518900711000000000" uid="4579407" user="KAMI" version="3">
    <nd ref="2705787863"/>
    <nd ref="2705787855"/>
    <nd ref="2705787861"/>
    <nd ref="2705787865"/>
    <nd ref="2705787867"/>
    <nd ref="2705787863"/>
    <tag k="name" v="Shell"/>
    <tag k="addr:city" v="Kecskemét"/>
    <tag k="addr:postcode" v="6000"/>
    <tag k="addr:street" v="Bethlen körút"/>
    <tag k="addr:housenumber" v="57-61"/>
    <tag k="branch" v="KECSKEMÉT III."/>
    <tag k="phone" v="+3676410578"/>
    <tag k="website" v="https://www.shell.hu"/>
    <tag k="payment:cash" v="yes"/>
    <tag k="payment:debit_cards" v="yes"/>
    <tag k="amenity" v="fuel"/>
    <tag k="fuel:octane_95" v="yes"/>
    <tag k="fuel:diesel" v="yes"/>
    <tag k="brand" v="Shell"/>
  </way>
  <node action="modify" changeset="1" id="1095512518" lat="46.931487" lon="19.664460000000002" timestamp="1518900704000000000" uid="4579407" user="KAMI" version="6">
    <tag k="name" v="Shell"/>
    <tag k="addr:city" v="Kecskemét"/>
    <tag k="addr:postcode" v="6000"/>
    <tag k="addr:street" v="Talfája utca"/>
    <tag k="addr:housenumber" v="1"/>
    <tag k="branch" v="KECSKEMÉT V 569"/>
    <tag k="phone" v="+3676701418"/>
    <tag k="website" v="https://www.shell.hu"/>
    <tag k="payment:cash" v="yes"/>
    <tag k="payment:debit_cards" v="yes"/>
    <tag k="amenity" v="fuel"/>
    <tag k="fuel:octane_95" v="yes"/>
    <tag k="fuel:diesel" v="yes"/>
    <tag k="brand" v="Shell"/>
  </node>
  <way action="modify" changeset="1" id="116726383" timestamp="1426408454000000000" uid="4579407" user="KAMI" version="3">
    <nd ref="1315219145"/>
    <nd ref="1315219157"/>
    <nd ref="1315219100"/>
    <nd ref="1315219220"/>
    <nd ref="1315219205"/>
    <nd ref="1315219188"/>
    <nd ref="1315219145"/>
    <tag k="name" v="Shell"/>
    <tag k="addr:city" v="Balatonfüred"/>
    <tag k="addr:postcode" v="8230"/>
    <tag k="addr:street" v="széchenyi út"/>
    <tag k="branch" v="BALATONFÜRED"/>
    <tag k="phone" v="+3687580554"/>
    <tag k="website" v="https://www.shell.hu"/>
    <tag k="payment:cash" v="yes"/>
    <tag k="payment:debit_cards" v="yes"/>
    <tag k="amenity" v="fuel"/>
    <tag k="fuel:octane_95" v="yes"/>
    <tag k="fuel:diesel" v="yes"/>
    <tag k="brand" v="Shell"/>
  </way>
  <way action="modify" changeset="1" id="243419251" timestamp="1507147834000000000" uid="4579407" user="KAMI" version="3">
    <nd ref="2508327311"/>
    <nd ref="2508327312"/>
    <nd ref="2508327313"/>
    <nd ref="2508327314"/>
    <nd ref="2508327311"/>
    <tag k="name" v="Shell"/>
    <tag k="addr:city" v="Dunaújváros"/>
    <tag k="addr:postcode" v="2400"/>
    <tag k="addr:street" v="Arany J. utca"/>
    <tag k="addr:housenumber" v="1"/>
    <tag k="branch" v="DUNAÚJVÁROS"/>
    <tag k="phone" v="+3625281081"/>
    <tag k="website" v="https://www.shell.hu"/>
    <tag k="payment:cash" v="yes"/>
    <tag k="payment:debit_cards" v="yes"/>
    <tag k="amenity" v="fuel"/>
    <tag k="fuel:octane_95" v="yes"/>
    <tag k="fuel:diesel" v="yes"/>
    <tag k="brand" v="Shell"/>
  </way>
  <node action="modify" changeset="1" id="398872045" lat="46.985659999999996" lon="17.283936999999998" timestamp="1497870740000000000" uid="4579407" user="KAMI" version="3">
    <tag k="name" v="Shell"/>
    <tag k="addr:city" v="Sümeg"/>
    <tag k="addr:postcode" v="8330"/>
    <tag k="addr:street" v="84-es főút"/>
    <tag k="branch" v="SÜMEG"/>
    <tag k="phone" v="+3687550035"/>
    <tag k="website" v="https://www.shell.hu"/>
    <tag k="payment:cash" v="yes"/>
    <tag k="payment:debit_cards" v="yes"/>
    <tag k="amenity" v="fuel"/>
    <tag k="fuel:octane_95" v="yes"/>
    <tag k="fuel:diesel" v="yes"/>
    <tag k="brand" v="Shell"/>
  </node>
  <node action="modify" changeset="1" id="2161429751" lat="47.009923" lon="16.583371" timestamp="1506073464000000000" uid="4579407" user="KAMI" version="4">
    <tag k="name" v="Shell"/>
    <tag k="addr:city" v="Körmend"/>
    <tag k="addr:postcode" v="9900"/>
    <tag k="addr:street" v="Rákóczi utca"/>
    <tag k="addr:housenumber" v="124"/>
    <tag k="branch" v="KÖRMEND"/>
    <tag k="phone" v="+3694594042"/>
    <tag k="website" v="https://www.shell.hu"/>
    <tag k="payment:cash" v="yes"/>
    <tag k="payment:debit_cards" v="yes"/>
    <tag k="amenity" v="fuel"/>
    <tag k="fuel:octane_95" v="yes"/>
    <tag k="fuel:diesel" v="yes"/>
    <tag k="brand" v="Shell"/>
  </node>
  <node action="modify" changeset="1" id="536805430" lat="47.014728000000005" lon="21.149974" timestamp="1256065392000000000" uid="4579407" user="KAMI" version="1">
    <tag k="name" v="Shell"/>
    <tag k="addr:city" v="Szeghalom"/>
    <tag k="addr:postcode" v="5520"/>
    <tag k="addr:street" v="Kinizsi utca"/>
    <tag k="addr:housenumber" v="12-14"/>
    <tag k="branch" v="SZEGHALOM"/>
    <tag k="phone" v="+3666371704"/>
    <tag k="website" v="https://www.shell.hu"/>
    <tag k="payment:cash" v="yes"/>
    <tag k="payment:debit_cards" v="yes"/>
    <tag k="amenity" v="fuel"/>
    <tag k="fuel:octane_95" v="yes"/>
    <tag k="fuel:diesel" v="yes"/>
    <tag k="brand" v="Shell"/>
  </node>
  <node action="modify" changeset="1" id="448081655" lat="47.0412" lon="19.566824" timestamp="1426408463000000000" uid="4579407" user="KAMI" version="4">
    <tag k="name" v="Shell"/>
    <tag k="addr:city" v="Lajosmizse"/>
    <tag k="addr:postcode" v="6050"/>
    <tag k="addr:street" v="M5 autópálya"/>
    <tag k="addr:housenumber" v="67"/>
    <tag k="branch" v="LAJOSMIZSE  (K/BAL)."/>
    <tag k="phone" v="+3676555016"/>
    <tag k="website" v="https://www.shell.hu"/>
    <tag k="payment:cash" v="yes"/>
    <tag k="payment:debit_cards" v="yes"/>
    <tag k="amenity" v="fuel"/>
    <tag k="fuel:octane_95" v="yes"/>
    <tag k="fuel:diesel" v="yes"/>
    <tag k="brand" v="Shell"/>
  </node>
  <node action="modify" changeset="1" id="1714722100" lat="47.085854" lon="17.920128" timestamp="1504792036000000000" uid="4579407" user="KAMI" version="6">
    <tag k="name" v="Shell"/>
    <tag k="addr:city" v="Veszprém"/>
    <tag k="addr:postcode" v="8200"/>
    <tag k="addr:street" v="Almádi út"/>
    <tag k="addr:housenumber" v="7"/>
    <tag k="branch" v="VESZPRÉM II."/>
    <tag k="phone" v="+3688564890"/>
    <tag k="website" v="https://www.shell.hu"/>
    <tag k="payment:cash" v="yes"/>
    <tag k="payment:debit_cards" v="yes"/>
    <tag k="amenity" v="fuel"/>
    <tag k="fuel:octane_95" v="yes"/>
    <tag k="fuel:diesel" v="yes"/>
    <tag k="brand" v="Shell"/>
  </node>
  <way action="modify" changeset="1" id="279622169" timestamp="1521017689000000000" uid="4579407" user="KAMI" version="2">
    <nd ref="2838394449"/>
    <nd ref="2838394444"/>
    <nd ref="2838394442"/>
    <nd ref="2838394447"/>
    <nd ref="2838394449"/>
    <tag k="name" v="Shell"/>
    <tag k="addr:city" v="Veszprém"/>
    <tag k="addr:postcode" v="8200"/>
    <tag k="addr:street" v="Külső-kádártai utca"/>
    <tag k="addr:housenumber" v="3"/>
    <tag k="branch" v="VESZPRÉM III 541"/>
    <tag k="phone" v="+308468499"/>
    <tag k="website" v="https://www.shell.hu"/>
    <tag k="payment:cash" v="yes"/>
    <tag k="payment:debit_cards" v="yes"/>
    <tag k="amenity" v="fuel"/>
    <tag k="fuel:octane_95" v="yes"/>
    <tag k="fuel:diesel" v="yes"/>
    <tag k="brand" v="Shell"/>
  </way>
  <node action="modify" changeset="1" id="1840260158" lat="47.113521" lon="17.549560999999997" timestamp="1505308108000000000" uid="4579407" user="KAMI" version="4">
    <tag k="name" v="Shell"/>
    <tag k="addr:city" v="Ajka"/>
    <tag k="addr:postcode" v="8400"/>
    <tag k="addr:street" v="Fő út"/>
    <tag k="addr:housenumber" v="66"/>
    <tag k="branch" v="AJKA 542"/>
    <tag k="phone" v="+305874385"/>
    <tag k="website" v="https://www.shell.hu"/>
    <tag k="payment:cash" v="yes"/>
    <tag k="payment:debit_cards" v="yes"/>
    <tag k="amenity" v="fuel"/>
    <tag k="fuel:octane_95" v="yes"/>
    <tag k="fuel:diesel" v="yes"/>
    <tag k="brand" v="Shell"/>
  </node>
  <node action="modify" changeset="1" id="2902692670" lat="47.128979" lon="17.755958" timestamp="1478270245000000000" uid="4579407" user="KAMI" version="6">
    <tag k="name" v="Shell"/>
    <tag k="addr:city" v="Herend"/>
    <tag k="addr:postcode" v="8440"/>
    <tag k="addr:street" v="8 sz. főút"/>
    <tag k="branch" v="HEREND."/>
    <tag k="phone" v="+3688261110"/>
    <tag k="website" v="https://www.shell.hu"/>
    <tag k="payment:cash" v="yes"/>
    <tag k="payment:debit_cards" v="yes"/>
    <tag k="amenity" v="fuel"/>
    <tag k="fuel:octane_95" v="yes"/>
    <tag k="fuel:diesel" v="yes"/>
    <tag k="brand" v="Shell"/>
  </node>
  <way action="modify" changeset="1" id="331195602" timestamp="1425460016000000000" uid="4579407" user="KAMI" version="1">
    <nd ref="3382517223"/>
    <nd ref="3382517224"/>
    <nd ref="3382517225"/>
    <nd ref="3382517226"/>
    <nd ref="3382517223"/>
    <tag k="name" v="Shell"/>
    <tag k="addr:city" v="Szolnok"/>
    <tag k="addr:postcode" v="5000"/>
    <tag k="addr:street" v="Tószegi út"/>
    <tag k="addr:housenumber" v="5/a"/>
    <tag k="branch" v="SZOLNOK II"/>
    <tag k="phone" v="+3656521450"/>
    <tag k="website" v="https://www.shell.hu"/>
    <tag k="payment:cash" v="yes"/>
    <tag k="payment:debit_cards" v="yes"/>
    <tag k="amenity" v="fuel"/>
    <tag k="fuel:octane_95" v="yes"/>
    <tag k="fuel:diesel" v="yes"/>
    <tag k="brand" v="Shell"/>
  </way>
  <node action="modify" changeset="1" id="1107631188" lat="47.162975" lon="20.248951" timestamp="1470384575000000000" uid="4579407" user="KAMI" version="2">
    <tag k="name" v="Shell"/>
    <tag k="addr:city" v="Szajol"/>
    <tag k="addr:postcode" v="5081"/>
    <tag k="addr:street" v="4-es főút"/>
    <tag k="addr:housenumber" v="103"/>
    <tag k="branch" v="SZAJOL"/>
    <tag k="phone" v="+3656711004"/>
    <tag k="website" v="https://www.shell.hu"/>
    <tag k="payment:cash" v="yes"/>
    <tag k="payment:debit_cards" v="yes"/>
    <tag k="amenity" v="fuel"/>
    <tag k="fuel:octane_95" v="yes"/>
    <tag k="fuel:diesel" v="yes"/>
    <tag k="brand" v="Shell"/>
  </node>
  <node action="modify" changeset="1" id="911910582" lat="47.173404999999995" lon="20.379345999999998" timestamp="1525604244000000000" uid="4579407" user="KAMI" version="6">
    <tag k="name" v="Shell"/>
    <tag k="addr:city" v="Törökszentmiklós"/>
    <tag k="addr:postcode" v="5200"/>
    <tag k="addr:street" v="Kossuth Lajos utca"/>
    <tag k="addr:housenumber" v="137"/>
    <tag k="branch" v="TÖRÖKSZENTMIKLÓS"/>
    <tag k="phone" v="+3656391730"/>
    <tag k="website" v="https://www.shell.hu"/>
    <tag k="payment:cash" v="yes"/>
    <tag k="payment:debit_cards" v="yes"/>
    <tag k="amenity" v="fuel"/>
    <tag k="fuel:octane_95" v="yes"/>
    <tag k="fuel:diesel" v="yes"/>
    <tag k="brand" v="Shell"/>
  </node>
  <way action="modify" changeset="1" id="552338514" timestamp="1515662152000000000" uid="4579407" user="KAMI" version="1">
    <nd ref="5332876147"/>
    <nd ref="5332876148"/>
    <nd ref="5332876149"/>
    <nd ref="5332876150"/>
    <nd ref="5332876160"/>
    <nd ref="5332876151"/>
    <nd ref="5332876152"/>
    <nd ref="5332876155"/>
    <nd ref="5332876153"/>
    <nd ref="5332876154"/>
    <nd ref="5332876147"/>
    <tag k="name" v="Shell"/>
    <tag k="addr:city" v="Székesfehérvár"/>
    <tag k="addr:postcode" v="8000"/>
    <tag k="branch" v="SZÉKESFEHÉRVÁR M7 B."/>
    <tag k="phone" v="+3622505105"/>
    <tag k="website" v="https://www.shell.hu"/>
    <tag k="payment:cash" v="yes"/>
    <tag k="payment:debit_cards" v="yes"/>
    <tag k="amenity" v="fuel"/>
    <tag k="fuel:octane_95" v="yes"/>
    <tag k="fuel:diesel" v="yes"/>
    <tag k="brand" v="Shell"/>
  </way>
  <node action="modify" changeset="1" id="686626103" lat="47.175971999999994" lon="20.181898" timestamp="1447962100000000000" uid="4579407" user="KAMI" version="4">
    <tag k="name" v="Shell"/>
    <tag k="addr:city" v="Szolnok"/>
    <tag k="addr:postcode" v="5000"/>
    <tag k="addr:street" v="Hunyadi út"/>
    <tag k="addr:housenumber" v="2-4"/>
    <tag k="branch" v="SZOLNOK"/>
    <tag k="phone" v="+3656427043"/>
    <tag k="website" v="https://www.shell.hu"/>
    <tag k="payment:cash" v="yes"/>
    <tag k="payment:debit_cards" v="yes"/>
    <tag k="amenity" v="fuel"/>
    <tag k="fuel:octane_95" v="yes"/>
    <tag k="fuel:diesel" v="yes"/>
    <tag k="brand" v="Shell"/>
  </node>
  <node action="modify" changeset="1" id="959254053" lat="47.176419" lon="20.16619" timestamp="1507101610000000000" uid="4579407" user="KAMI" version="4">
    <tag k="name" v="Shell"/>
    <tag k="addr:city" v="Szolnok"/>
    <tag k="addr:postcode" v="5000"/>
    <tag k="addr:street" v="Téglagyári út"/>
    <tag k="addr:housenumber" v="30"/>
    <tag k="branch" v="SZOLNOK III 565"/>
    <tag k="phone" v="+3656513144"/>
    <tag k="website" v="https://www.shell.hu"/>
    <tag k="payment:cash" v="yes"/>
    <tag k="payment:debit_cards" v="yes"/>
    <tag k="amenity" v="fuel"/>
    <tag k="fuel:octane_95" v="yes"/>
    <tag k="fuel:diesel" v="yes"/>
    <tag k="brand" v="Shell"/>
  </node>
  <way action="modify" changeset="1" id="216512249" timestamp="1517078335000000000" uid="4579407" user="KAMI" version="2">
    <nd ref="2258482280"/>
    <nd ref="2258482283"/>
    <nd ref="2258482297"/>
    <nd ref="2258482296"/>
    <nd ref="2258482290"/>
    <nd ref="2258482289"/>
    <nd ref="2258482287"/>
    <nd ref="2258482295"/>
    <nd ref="2258482280"/>
    <tag k="name" v="Shell"/>
    <tag k="addr:city" v="Székesfehérvár"/>
    <tag k="addr:postcode" v="8000"/>
    <tag k="addr:street" v="balatoni út"/>
    <tag k="branch" v="SZÉKESFEHÉRVÁR IV."/>
    <tag k="phone" v="+3622503710"/>
    <tag k="website" v="https://www.shell.hu"/>
    <tag k="payment:cash" v="yes"/>
    <tag k="payment:debit_cards" v="yes"/>
    <tag k="amenity" v="fuel"/>
    <tag k="fuel:octane_95" v="yes"/>
    <tag k="fuel:diesel" v="yes"/>
    <tag k="brand" v="Shell"/>
  </way>
  <node action="modify" changeset="1" id="2450567757" lat="47.182147" lon="19.799924" timestamp="1426408464000000000" uid="4579407" user="KAMI" version="3">
    <tag k="name" v="Shell"/>
    <tag k="addr:city" v="Cegléd"/>
    <tag k="addr:postcode" v="2700"/>
    <tag k="addr:street" v="Malomtószél utca"/>
    <tag k="addr:housenumber" v="26"/>
    <tag k="branch" v="CEGLÉD I."/>
    <tag k="phone" v="+3653318678"/>
    <tag k="website" v="https://www.shell.hu"/>
    <tag k="payment:cash" v="yes"/>
    <tag k="payment:debit_cards" v="yes"/>
    <tag k="amenity" v="fuel"/>
    <tag k="fuel:octane_95" v="yes"/>
    <tag k="fuel:diesel" v="yes"/>
    <tag k="brand" v="Shell"/>
  </node>
  <node action="modify" changeset="1" id="3471930774" lat="47.192931" lon="19.32909" timestamp="1429731628000000000" uid="4579407" user="KAMI" version="1">
    <tag k="name" v="Shell"/>
    <tag k="addr:city" v="Dabas"/>
    <tag k="addr:postcode" v="2370"/>
    <tag k="addr:street" v="Pesti út"/>
    <tag k="addr:housenumber" v="236"/>
    <tag k="branch" v="DABAS"/>
    <tag k="phone" v="+3629360962"/>
    <tag k="website" v="https://www.shell.hu"/>
    <tag k="payment:cash" v="yes"/>
    <tag k="payment:debit_cards" v="yes"/>
    <tag k="amenity" v="fuel"/>
    <tag k="fuel:octane_95" v="yes"/>
    <tag k="fuel:diesel" v="yes"/>
    <tag k="brand" v="Shell"/>
  </node>
  <node action="modify" changeset="1" id="2334789029" lat="47.1937" lon="18.40194" timestamp="1468659006000000000" uid="4579407" user="KAMI" version="5">
    <tag k="name" v="Shell"/>
    <tag k="addr:city" v="Székesfehérvár"/>
    <tag k="addr:postcode" v="8000"/>
    <tag k="addr:street" v="palotai út"/>
    <tag k="branch" v="SZÉKESFEHÉRVÁR III."/>
    <tag k="phone" v="+3622502616"/>
    <tag k="website" v="https://www.shell.hu"/>
    <tag k="payment:cash" v="yes"/>
    <tag k="payment:debit_cards" v="yes"/>
    <tag k="amenity" v="fuel"/>
    <tag k="fuel:octane_95" v="yes"/>
    <tag k="fuel:diesel" v="yes"/>
    <tag k="brand" v="Shell"/>
  </node>
  <node action="modify" changeset="1" id="311061378" lat="47.19916" lon="18.41905" timestamp="1446934932000000000" uid="4579407" user="KAMI" version="7">
    <tag k="name" v="Shell"/>
    <tag k="addr:city" v="Székesfehérvár"/>
    <tag k="addr:postcode" v="8000"/>
    <tag k="addr:street" v="Olaj utca"/>
    <tag k="addr:housenumber" v="1"/>
    <tag k="branch" v="SZÉKESFEHÉRVÁR V."/>
    <tag k="phone" v="+3622500495"/>
    <tag k="website" v="https://www.shell.hu"/>
    <tag k="payment:cash" v="yes"/>
    <tag k="payment:debit_cards" v="yes"/>
    <tag k="amenity" v="fuel"/>
    <tag k="fuel:octane_95" v="yes"/>
    <tag k="fuel:diesel" v="yes"/>
    <tag k="brand" v="Shell"/>
  </node>
  <node action="modify" changeset="1" id="999329489" lat="47.200721" lon="18.152225" timestamp="1447528817000000000" uid="4579407" user="KAMI" version="5">
    <tag k="name" v="Shell"/>
    <tag k="addr:city" v="Várpalota"/>
    <tag k="addr:postcode" v="8100"/>
    <tag k="addr:street" v="Fehérvári utca"/>
    <tag k="addr:housenumber" v="17"/>
    <tag k="branch" v="VÁRPALOTA 579"/>
    <tag k="phone" v="+308468499"/>
    <tag k="website" v="https://www.shell.hu"/>
    <tag k="payment:cash" v="yes"/>
    <tag k="payment:debit_cards" v="yes"/>
    <tag k="amenity" v="fuel"/>
    <tag k="fuel:octane_95" v="yes"/>
    <tag k="fuel:diesel" v="yes"/>
    <tag k="brand" v="Shell"/>
  </node>
  <node action="modify" changeset="1" id="316818440" lat="47.209185" lon="18.425131" timestamp="1448132547000000000" uid="4579407" user="KAMI" version="7">
    <tag k="name" v="Shell"/>
    <tag k="addr:city" v="Székesfehérvár"/>
    <tag k="addr:postcode" v="8000"/>
    <tag k="addr:street" v="Aszalvölgyi utca"/>
    <tag k="addr:housenumber" v="1"/>
    <tag k="branch" v="SZÉKESFE. VI 561"/>
    <tag k="phone" v="+3622726041"/>
    <tag k="website" v="https://www.shell.hu"/>
    <tag k="payment:cash" v="yes"/>
    <tag k="payment:debit_cards" v="yes"/>
    <tag k="amenity" v="fuel"/>
    <tag k="fuel:octane_95" v="yes"/>
    <tag k="fuel:diesel" v="yes"/>
    <tag k="brand" v="Shell"/>
  </node>
  <way action="modify" changeset="1" id="229795769" timestamp="1506666516000000000" uid="4579407" user="KAMI" version="4">
    <nd ref="2383408178"/>
    <nd ref="2383408175"/>
    <nd ref="2383408167"/>
    <nd ref="2383408177"/>
    <nd ref="2383408166"/>
    <nd ref="2383408160"/>
    <nd ref="2383408178"/>
    <tag k="name" v="Shell"/>
    <tag k="addr:city" v="Szombathely"/>
    <tag k="addr:postcode" v="9700"/>
    <tag k="addr:street" v="Kiskar utca"/>
    <tag k="addr:housenumber" v="6"/>
    <tag k="branch" v="SZOMBATHELY III."/>
    <tag k="phone" v="+694509182"/>
    <tag k="website" v="https://www.shell.hu"/>
    <tag k="payment:cash" v="yes"/>
    <tag k="payment:debit_cards" v="yes"/>
    <tag k="amenity" v="fuel"/>
    <tag k="fuel:octane_95" v="yes"/>
    <tag k="fuel:diesel" v="yes"/>
    <tag k="brand" v="Shell"/>
  </way>
  <node action="modify" changeset="1" id="2390611100" lat="47.24139" lon="16.652838" timestamp="1426408465000000000" uid="4579407" user="KAMI" version="3">
    <tag k="name" v="Shell"/>
    <tag k="addr:city" v="Szombathely"/>
    <tag k="addr:postcode" v="9700"/>
    <tag k="addr:street" v="Zanati út"/>
    <tag k="addr:housenumber" v="70"/>
    <tag k="branch" v="SZOMBATHELY IV."/>
    <tag k="phone" v="+694714225"/>
    <tag k="website" v="https://www.shell.hu"/>
    <tag k="payment:cash" v="yes"/>
    <tag k="payment:debit_cards" v="yes"/>
    <tag k="amenity" v="fuel"/>
    <tag k="fuel:octane_95" v="yes"/>
    <tag k="fuel:diesel" v="yes"/>
    <tag k="brand" v="Shell"/>
  </node>
  <node action="modify" changeset="1" id="1134273495" lat="47.242083" lon="16.590791" timestamp="1432470557000000000" uid="4579407" user="KAMI" version="4">
    <tag k="name" v="Shell"/>
    <tag k="addr:city" v="Szombathely"/>
    <tag k="addr:postcode" v="9700"/>
    <tag k="addr:street" v="Oladi ltp."/>
    <tag k="branch" v="SZOMBATHELY II."/>
    <tag k="phone" v="+694506990"/>
    <tag k="website" v="https://www.shell.hu"/>
    <tag k="payment:cash" v="yes"/>
    <tag k="payment:debit_cards" v="yes"/>
    <tag k="amenity" v="fuel"/>
    <tag k="fuel:octane_95" v="yes"/>
    <tag k="fuel:diesel" v="yes"/>
    <tag k="brand" v="Shell"/>
  </node>
  <node action="modify" changeset="1" id="623646134" lat="47.25803" lon="16.93817" timestamp="1411976502000000000" uid="4579407" user="KAMI" version="4">
    <tag k="name" v="Shell"/>
    <tag k="addr:city" v="Sárvár"/>
    <tag k="addr:postcode" v="9600"/>
    <tag k="addr:street" v="feketehíd út"/>
    <tag k="branch" v="SÁRVÁR."/>
    <tag k="phone" v="+3695325200"/>
    <tag k="website" v="https://www.shell.hu"/>
    <tag k="payment:cash" v="yes"/>
    <tag k="payment:debit_cards" v="yes"/>
    <tag k="amenity" v="fuel"/>
    <tag k="fuel:octane_95" v="yes"/>
    <tag k="fuel:diesel" v="yes"/>
    <tag k="brand" v="Shell"/>
  </node>
  <node action="modify" changeset="1" id="2379280211" lat="47.258231" lon="16.612629000000002" timestamp="1431661983000000000" uid="4579407" user="KAMI" version="4">
    <tag k="name" v="Shell"/>
    <tag k="addr:city" v="Szombathely"/>
    <tag k="addr:postcode" v="9700"/>
    <tag k="addr:street" v="Kőszegi út"/>
    <tag k="branch" v="SZOMBATHELY"/>
    <tag k="phone" v="+694506261"/>
    <tag k="website" v="https://www.shell.hu"/>
    <tag k="payment:cash" v="yes"/>
    <tag k="payment:debit_cards" v="yes"/>
    <tag k="amenity" v="fuel"/>
    <tag k="fuel:octane_95" v="yes"/>
    <tag k="fuel:diesel" v="yes"/>
    <tag k="brand" v="Shell"/>
  </node>
  <node action="modify" changeset="1" id="2050554038" lat="47.304021999999996" lon="20.904412" timestamp="1354660626000000000" uid="4579407" user="KAMI" version="1">
    <tag k="name" v="Shell"/>
    <tag k="addr:city" v="Karcag"/>
    <tag k="addr:postcode" v="5300"/>
    <tag k="addr:street" v="Kisújszállási utca"/>
    <tag k="addr:housenumber" v="34"/>
    <tag k="branch" v="KARCAG 582"/>
    <tag k="phone" v="+3659703009"/>
    <tag k="website" v="https://www.shell.hu"/>
    <tag k="payment:cash" v="yes"/>
    <tag k="payment:debit_cards" v="yes"/>
    <tag k="amenity" v="fuel"/>
    <tag k="fuel:octane_95" v="yes"/>
    <tag k="fuel:diesel" v="yes"/>
    <tag k="brand" v="Shell"/>
  </node>
  <way action="modify" changeset="1" id="514139690" timestamp="1502267930000000000" uid="4579407" user="KAMI" version="1">
    <nd ref="5023756674"/>
    <nd ref="5023756678"/>
    <nd ref="5023756675"/>
    <nd ref="5023756673"/>
    <nd ref="5023756674"/>
    <tag k="name" v="Shell"/>
    <tag k="addr:city" v="Százhalombatta"/>
    <tag k="addr:postcode" v="2440"/>
    <tag k="addr:street" v="Damjanich utca"/>
    <tag k="addr:housenumber" v="29"/>
    <tag k="branch" v="SZÁZHALOMBAT 547"/>
    <tag k="phone" v="+3623710002"/>
    <tag k="website" v="https://www.shell.hu"/>
    <tag k="payment:cash" v="yes"/>
    <tag k="payment:debit_cards" v="yes"/>
    <tag k="amenity" v="fuel"/>
    <tag k="fuel:octane_95" v="yes"/>
    <tag k="fuel:diesel" v="yes"/>
    <tag k="brand" v="Shell"/>
  </way>
  <way action="modify" changeset="1" id="229077293" timestamp="1505226393000000000" uid="4579407" user="KAMI" version="5">
    <nd ref="2377138775"/>
    <nd ref="2377138747"/>
    <nd ref="2377138749"/>
    <nd ref="2377138748"/>
    <nd ref="2377138775"/>
    <tag k="name" v="Shell"/>
    <tag k="addr:city" v="Pápa"/>
    <tag k="addr:postcode" v="8500"/>
    <tag k="addr:street" v="Celli út"/>
    <tag k="addr:housenumber" v="92"/>
    <tag k="branch" v="PÁPA III 556"/>
    <tag k="phone" v="+204136347"/>
    <tag k="website" v="https://www.shell.hu"/>
    <tag k="payment:cash" v="yes"/>
    <tag k="payment:debit_cards" v="yes"/>
    <tag k="amenity" v="fuel"/>
    <tag k="fuel:octane_95" v="yes"/>
    <tag k="fuel:diesel" v="yes"/>
    <tag k="brand" v="Shell"/>
  </way>
  <way action="modify" changeset="1" id="300018972" timestamp="1432637324000000000" uid="4579407" user="KAMI" version="4">
    <nd ref="3041210537"/>
    <nd ref="3041210538"/>
    <nd ref="3041210539"/>
    <nd ref="3041210540"/>
    <nd ref="3041210541"/>
    <nd ref="3041210542"/>
    <nd ref="3041210543"/>
    <nd ref="3041210544"/>
    <nd ref="3041210545"/>
    <nd ref="3041210546"/>
    <nd ref="3041210547"/>
    <nd ref="3041210548"/>
    <nd ref="3041210549"/>
    <nd ref="3041210550"/>
    <nd ref="3041210551"/>
    <nd ref="3041210552"/>
    <nd ref="3041210537"/>
    <tag k="name" v="Shell"/>
    <tag k="addr:city" v="Pápa"/>
    <tag k="addr:postcode" v="8500"/>
    <tag k="addr:street" v="Celli utca"/>
    <tag k="addr:housenumber" v="6"/>
    <tag k="branch" v="PÁPA II."/>
    <tag k="phone" v="+3689511290"/>
    <tag k="website" v="https://www.shell.hu"/>
    <tag k="payment:cash" v="yes"/>
    <tag k="payment:debit_cards" v="yes"/>
    <tag k="amenity" v="fuel"/>
    <tag k="fuel:octane_95" v="yes"/>
    <tag k="fuel:diesel" v="yes"/>
    <tag k="brand" v="Shell"/>
  </way>
  <node action="modify" changeset="1" id="1993171476" lat="47.341183" lon="19.426254999999998" timestamp="1426408466000000000" uid="4579407" user="KAMI" version="5">
    <tag k="name" v="Shell"/>
    <tag k="addr:city" v="Monor"/>
    <tag k="addr:postcode" v="2200"/>
    <tag k="addr:street" v="Vasadi utca"/>
    <tag k="addr:housenumber" v="1"/>
    <tag k="branch" v="MONOR"/>
    <tag k="phone" v="+3629410837"/>
    <tag k="website" v="https://www.shell.hu"/>
    <tag k="payment:cash" v="yes"/>
    <tag k="payment:debit_cards" v="yes"/>
    <tag k="amenity" v="fuel"/>
    <tag k="fuel:octane_95" v="yes"/>
    <tag k="fuel:diesel" v="yes"/>
    <tag k="brand" v="Shell"/>
  </node>
  <way action="modify" changeset="1" id="276062372" timestamp="1426408450000000000" uid="4579407" user="KAMI" version="3">
    <nd ref="2807019171"/>
    <nd ref="2807020920"/>
    <nd ref="2807020928"/>
    <nd ref="2807020934"/>
    <nd ref="2807020939"/>
    <nd ref="2807019172"/>
    <nd ref="2807019173"/>
    <nd ref="2807019174"/>
    <nd ref="2807019175"/>
    <nd ref="2807019176"/>
    <nd ref="2807019177"/>
    <nd ref="2807019178"/>
    <nd ref="2807019179"/>
    <nd ref="2807019180"/>
    <nd ref="2807019181"/>
    <nd ref="2807020938"/>
    <nd ref="2807020933"/>
    <nd ref="2807020927"/>
    <nd ref="2807020919"/>
    <nd ref="2807019182"/>
    <nd ref="2807019171"/>
    <tag k="name" v="Shell"/>
    <tag k="addr:city" v="Szigetszentmiklós"/>
    <tag k="addr:postcode" v="2310"/>
    <tag k="addr:street" v="Csepeli út"/>
    <tag k="addr:housenumber" v="19"/>
    <tag k="branch" v="SZIGETSZENTMIKLÓS II."/>
    <tag k="phone" v="+3624539855"/>
    <tag k="website" v="https://www.shell.hu"/>
    <tag k="payment:cash" v="yes"/>
    <tag k="payment:debit_cards" v="yes"/>
    <tag k="amenity" v="fuel"/>
    <tag k="fuel:octane_95" v="yes"/>
    <tag k="fuel:diesel" v="yes"/>
    <tag k="brand" v="Shell"/>
  </way>
  <node action="modify" changeset="1" id="2005443352" lat="47.36753" lon="18.99527" timestamp="1448900801000000000" uid="4579407" user="KAMI" version="4">
    <tag k="name" v="Shell"/>
    <tag k="addr:city" v="Szigetszentmiklós"/>
    <tag k="addr:postcode" v="2310"/>
    <tag k="addr:street" v="Rákóczi ferenc út"/>
    <tag k="branch" v="HALÁSZTELEK"/>
    <tag k="phone" v="+3624540405"/>
    <tag k="website" v="https://www.shell.hu"/>
    <tag k="payment:cash" v="yes"/>
    <tag k="payment:debit_cards" v="yes"/>
    <tag k="amenity" v="fuel"/>
    <tag k="fuel:octane_95" v="yes"/>
    <tag k="fuel:diesel" v="yes"/>
    <tag k="brand" v="Shell"/>
  </node>
  <way action="modify" changeset="1" id="295640763" timestamp="1447789351000000000" uid="4579407" user="KAMI" version="3">
    <nd ref="2971720052"/>
    <nd ref="2971720056"/>
    <nd ref="2971720046"/>
    <nd ref="2971720042"/>
    <nd ref="2971720052"/>
    <tag k="name" v="Shell"/>
    <tag k="addr:city" v="Érd"/>
    <tag k="addr:postcode" v="2030"/>
    <tag k="addr:street" v="Budafoki út"/>
    <tag k="addr:housenumber" v="2-4"/>
    <tag k="branch" v="ÉRD II 575"/>
    <tag k="phone" v="+3623707186"/>
    <tag k="website" v="https://www.shell.hu"/>
    <tag k="payment:cash" v="yes"/>
    <tag k="payment:debit_cards" v="yes"/>
    <tag k="amenity" v="fuel"/>
    <tag k="fuel:octane_95" v="yes"/>
    <tag k="fuel:diesel" v="yes"/>
    <tag k="brand" v="Shell"/>
  </way>
  <way action="modify" changeset="1" id="115921296" timestamp="1443268663000000000" uid="4579407" user="KAMI" version="6">
    <nd ref="1308300016"/>
    <nd ref="1308300081"/>
    <nd ref="1308300007"/>
    <nd ref="1308299998"/>
    <nd ref="1308300016"/>
    <tag k="name" v="Shell"/>
    <tag k="addr:city" v="Szigetszentmiklós"/>
    <tag k="addr:postcode" v="2310"/>
    <tag k="branch" v="SZIGETSZENTMIKLÓS M0."/>
    <tag k="phone" v="+3624441651"/>
    <tag k="website" v="https://www.shell.hu"/>
    <tag k="payment:cash" v="yes"/>
    <tag k="payment:debit_cards" v="yes"/>
    <tag k="amenity" v="fuel"/>
    <tag k="fuel:octane_95" v="yes"/>
    <tag k="fuel:diesel" v="yes"/>
    <tag k="brand" v="Shell"/>
  </way>
  <way action="modify" changeset="1" id="544626044" timestamp="1518965869000000000" uid="4579407" user="KAMI" version="2">
    <nd ref="5264470940"/>
    <nd ref="5264470941"/>
    <nd ref="5264470949"/>
    <nd ref="5264470942"/>
    <nd ref="5264470943"/>
    <nd ref="5264470940"/>
    <tag k="name" v="Shell"/>
    <tag k="addr:city" v="Budapest"/>
    <tag k="addr:postcode" v="1239"/>
    <tag k="addr:street" v="ócsai út"/>
    <tag k="branch" v="ÓCSAI ÚT."/>
    <tag k="phone" v="+3612873852"/>
    <tag k="website" v="https://www.shell.hu"/>
    <tag k="payment:cash" v="yes"/>
    <tag k="payment:debit_cards" v="yes"/>
    <tag k="amenity" v="fuel"/>
    <tag k="fuel:octane_95" v="yes"/>
    <tag k="fuel:diesel" v="yes"/>
    <tag k="brand" v="Shell"/>
  </way>
  <node action="modify" changeset="1" id="1003605925" lat="47.383067" lon="19.107021" timestamp="1487615023000000000" uid="4579407" user="KAMI" version="6">
    <tag k="name" v="Shell"/>
    <tag k="addr:city" v="Budapest"/>
    <tag k="addr:postcode" v="1239"/>
    <tag k="addr:street" v="Haraszti út"/>
    <tag k="addr:housenumber" v="38/b"/>
    <tag k="branch" v="HARASZTI ÚT"/>
    <tag k="phone" v="+3612860982"/>
    <tag k="website" v="https://www.shell.hu"/>
    <tag k="payment:cash" v="yes"/>
    <tag k="payment:debit_cards" v="yes"/>
    <tag k="amenity" v="fuel"/>
    <tag k="fuel:octane_95" v="yes"/>
    <tag k="fuel:diesel" v="yes"/>
    <tag k="brand" v="Shell"/>
  </node>
  <node action="modify" changeset="1" id="3029317254" lat="47.952446" lon="21.742643" timestamp="1522909897000000000" uid="4579407" user="KAMI" version="9">
    <tag k="name" v="Shell"/>
    <tag k="addr:city" v="Nyiregyháza"/>
    <tag k="addr:postcode" v="4400"/>
    <tag k="addr:street" v="Orosi út"/>
    <tag k="addr:housenumber" v="22"/>
    <tag k="branch" v="NYÍREGYHÁZA I"/>
    <tag k="phone" v="+3642451611"/>
    <tag k="website" v="https://www.shell.hu"/>
    <tag k="payment:cash" v="yes"/>
    <tag k="payment:debit_cards" v="yes"/>
    <tag k="amenity" v="fuel"/>
    <tag k="fuel:octane_95" v="yes"/>
    <tag k="fuel:diesel" v="yes"/>
    <tag k="brand" v="Shell"/>
  </node>
  <node action="modify" changeset="1" id="149493794" lat="47.410146999999995" lon="19.022159" timestamp="1453568370000000000" uid="4579407" user="KAMI" version="5">
    <tag k="name" v="Shell"/>
    <tag k="addr:city" v="Budapest"/>
    <tag k="addr:postcode" v="1223"/>
    <tag k="addr:street" v="Nagytétényi út"/>
    <tag k="addr:housenumber" v="27"/>
    <tag k="branch" v="NAGYTÉTÉNYI ÚT"/>
    <tag k="phone" v="+3614245005"/>
    <tag k="website" v="https://www.shell.hu"/>
    <tag k="payment:cash" v="yes"/>
    <tag k="payment:debit_cards" v="yes"/>
    <tag k="amenity" v="fuel"/>
    <tag k="fuel:octane_95" v="yes"/>
    <tag k="fuel:diesel" v="yes"/>
    <tag k="brand" v="Shell"/>
  </node>
  <way action="modify" changeset="1" id="278060633" timestamp="1502393795000000000" uid="4579407" user="KAMI" version="8">
    <nd ref="2824939095"/>
    <nd ref="2824939092"/>
    <nd ref="2824939093"/>
    <nd ref="2824939096"/>
    <nd ref="2824939094"/>
    <nd ref="2824939097"/>
    <nd ref="2824939095"/>
    <tag k="name" v="Shell"/>
    <tag k="addr:city" v="Érd"/>
    <tag k="addr:postcode" v="2030"/>
    <tag k="addr:street" v="Iparos út"/>
    <tag k="addr:housenumber" v="42"/>
    <tag k="branch" v="ÉRD."/>
    <tag k="phone" v="+3623378945"/>
    <tag k="website" v="https://www.shell.hu"/>
    <tag k="payment:cash" v="yes"/>
    <tag k="payment:debit_cards" v="yes"/>
    <tag k="amenity" v="fuel"/>
    <tag k="fuel:octane_95" v="yes"/>
    <tag k="fuel:diesel" v="yes"/>
    <tag k="brand" v="Shell"/>
  </way>
  <node action="modify" changeset="1" id="1190960309" lat="47.417512" lon="19.25506" timestamp="1515865873000000000" uid="4579407" user="KAMI" version="6">
    <tag k="name" v="Shell"/>
    <tag k="addr:city" v="Vecsés"/>
    <tag k="addr:postcode" v="2220"/>
    <tag k="addr:street" v="4. sz. főút"/>
    <tag k="branch" v="FERIHEGY"/>
    <tag k="phone" v="+3629355876"/>
    <tag k="website" v="https://www.shell.hu"/>
    <tag k="payment:cash" v="yes"/>
    <tag k="payment:debit_cards" v="yes"/>
    <tag k="amenity" v="fuel"/>
    <tag k="fuel:octane_95" v="yes"/>
    <tag k="fuel:diesel" v="yes"/>
    <tag k="brand" v="Shell"/>
  </node>
  <way action="modify" changeset="1" id="219244817" timestamp="1445020798000000000" uid="4579407" user="KAMI" version="6">
    <nd ref="2284365776"/>
    <nd ref="2284365769"/>
    <nd ref="2284365775"/>
    <nd ref="2284365782"/>
    <nd ref="2284365774"/>
    <nd ref="2284365780"/>
    <nd ref="2284365776"/>
    <tag k="name" v="Shell"/>
    <tag k="addr:city" v="Budapest"/>
    <tag k="addr:postcode" v="1214"/>
    <tag k="addr:street" v="Ii. Rákóczi Ferenc út"/>
    <tag k="addr:housenumber" v="182"/>
    <tag k="branch" v="CSEPEL"/>
    <tag k="phone" v="+3612779911"/>
    <tag k="website" v="https://www.shell.hu"/>
    <tag k="payment:cash" v="yes"/>
    <tag k="payment:debit_cards" v="yes"/>
    <tag k="amenity" v="fuel"/>
    <tag k="fuel:octane_95" v="yes"/>
    <tag k="fuel:diesel" v="yes"/>
    <tag k="brand" v="Shell"/>
  </way>
  <way action="modify" changeset="1" id="542004078" timestamp="1516455415000000000" uid="4579407" user="KAMI" version="2">
    <nd ref="5240459499"/>
    <nd ref="5240459500"/>
    <nd ref="5240459501"/>
    <nd ref="5240459502"/>
    <nd ref="5240459499"/>
    <tag k="name" v="Shell"/>
    <tag k="addr:city" v="Budapest"/>
    <tag k="addr:postcode" v="1202"/>
    <tag k="addr:street" v="Mártírok út"/>
    <tag k="addr:housenumber" v="281"/>
    <tag k="branch" v="MEGAPARK 540"/>
    <tag k="phone" v="+3612830945"/>
    <tag k="website" v="https://www.shell.hu"/>
    <tag k="payment:cash" v="yes"/>
    <tag k="payment:debit_cards" v="yes"/>
    <tag k="amenity" v="fuel"/>
    <tag k="fuel:octane_95" v="yes"/>
    <tag k="fuel:diesel" v="yes"/>
    <tag k="brand" v="Shell"/>
  </way>
  <way action="modify" changeset="1" id="243721859" timestamp="1426408449000000000" uid="4579407" user="KAMI" version="3">
    <nd ref="2510947917"/>
    <nd ref="2510947929"/>
    <nd ref="2510947918"/>
    <nd ref="2510947919"/>
    <nd ref="2510947920"/>
    <nd ref="2510947921"/>
    <nd ref="2510947922"/>
    <nd ref="2510947923"/>
    <nd ref="2510947924"/>
    <nd ref="2510965201"/>
    <nd ref="2510947925"/>
    <nd ref="2510947926"/>
    <nd ref="2510947917"/>
    <tag k="name" v="Shell"/>
    <tag k="addr:city" v="Budapest"/>
    <tag k="addr:postcode" v="1186"/>
    <tag k="addr:street" v="gloriett lakótelep"/>
    <tag k="branch" v="MÉTA"/>
    <tag k="phone" v="+3612940756"/>
    <tag k="website" v="https://www.shell.hu"/>
    <tag k="payment:cash" v="yes"/>
    <tag k="payment:debit_cards" v="yes"/>
    <tag k="amenity" v="fuel"/>
    <tag k="fuel:octane_95" v="yes"/>
    <tag k="fuel:diesel" v="yes"/>
    <tag k="brand" v="Shell"/>
  </way>
  <node action="modify" changeset="1" id="1689322771" lat="47.433972999999995" lon="21.375401999999998" timestamp="1469418944000000000" uid="4579407" user="KAMI" version="3">
    <tag k="name" v="Shell"/>
    <tag k="addr:city" v="Hajdúszoboszló"/>
    <tag k="addr:postcode" v="4200"/>
    <tag k="addr:street" v="kabai út"/>
    <tag k="branch" v="HAJDÚSZOBOSZ 590"/>
    <tag k="phone" v="+3652722610"/>
    <tag k="website" v="https://www.shell.hu"/>
    <tag k="payment:cash" v="yes"/>
    <tag k="payment:debit_cards" v="yes"/>
    <tag k="amenity" v="fuel"/>
    <tag k="fuel:octane_95" v="yes"/>
    <tag k="fuel:diesel" v="yes"/>
    <tag k="brand" v="Shell"/>
  </node>
  <way action="modify" changeset="1" id="481274706" timestamp="1489939445000000000" uid="4579407" user="KAMI" version="2">
    <nd ref="4742095517"/>
    <nd ref="4742095516"/>
    <nd ref="4742095505"/>
    <nd ref="4742095515"/>
    <nd ref="4742095502"/>
    <nd ref="4742095497"/>
    <nd ref="4742095498"/>
    <nd ref="4742095503"/>
    <nd ref="4742095501"/>
    <nd ref="4742095500"/>
    <nd ref="4742095514"/>
    <nd ref="4742095499"/>
    <nd ref="4742095504"/>
    <nd ref="4742095517"/>
    <tag k="name" v="Shell"/>
    <tag k="addr:city" v="Budapest"/>
    <tag k="addr:postcode" v="1112"/>
    <tag k="addr:street" v="balatoni út"/>
    <tag k="branch" v="BALATONI ÚT"/>
    <tag k="phone" v="+3614240400"/>
    <tag k="website" v="https://www.shell.hu"/>
    <tag k="payment:cash" v="yes"/>
    <tag k="payment:debit_cards" v="yes"/>
    <tag k="amenity" v="fuel"/>
    <tag k="fuel:octane_95" v="yes"/>
    <tag k="fuel:diesel" v="yes"/>
    <tag k="brand" v="Shell"/>
  </way>
  <way action="modify" changeset="1" id="102733898" timestamp="1426408457000000000" uid="4579407" user="KAMI" version="6">
    <nd ref="1186521658"/>
    <nd ref="1186521666"/>
    <nd ref="1186521692"/>
    <nd ref="1186521695"/>
    <nd ref="1186521667"/>
    <nd ref="1186521681"/>
    <nd ref="1186521683"/>
    <nd ref="1186521693"/>
    <nd ref="1186521658"/>
    <tag k="name" v="Shell"/>
    <tag k="addr:city" v="Budapest"/>
    <tag k="addr:postcode" v="1112"/>
    <tag k="addr:street" v="Hetényi utca"/>
    <tag k="addr:housenumber" v="3"/>
    <tag k="branch" v="HETÉNYI U."/>
    <tag k="phone" v="+3614248160"/>
    <tag k="website" v="https://www.shell.hu"/>
    <tag k="payment:cash" v="yes"/>
    <tag k="payment:debit_cards" v="yes"/>
    <tag k="amenity" v="fuel"/>
    <tag k="fuel:octane_95" v="yes"/>
    <tag k="fuel:diesel" v="yes"/>
    <tag k="brand" v="Shell"/>
  </way>
  <node action="modify" changeset="1" id="2313702332" lat="47.448762" lon="19.532197" timestamp="1426408466000000000" uid="4579407" user="KAMI" version="2">
    <tag k="name" v="Shell"/>
    <tag k="addr:city" v="Sülysáp"/>
    <tag k="addr:postcode" v="2241"/>
    <tag k="addr:street" v="Pesti út"/>
    <tag k="addr:housenumber" v="56"/>
    <tag k="branch" v="SÜLYSÁP"/>
    <tag k="phone" v="+3629435123"/>
    <tag k="website" v="https://www.shell.hu"/>
    <tag k="payment:cash" v="yes"/>
    <tag k="payment:debit_cards" v="yes"/>
    <tag k="amenity" v="fuel"/>
    <tag k="fuel:octane_95" v="yes"/>
    <tag k="fuel:diesel" v="yes"/>
    <tag k="brand" v="Shell"/>
  </node>
  <node action="modify" changeset="1" id="1018717347" lat="47.451974" lon="18.903423" timestamp="1521289838000000000" uid="4579407" user="KAMI" version="6">
    <tag k="name" v="Shell"/>
    <tag k="addr:city" v="Törökbálint"/>
    <tag k="addr:postcode" v="2045"/>
    <tag k="addr:street" v="Park utca"/>
    <tag k="addr:housenumber" v="1"/>
    <tag k="branch" v="TÖRÖKBÁLINT"/>
    <tag k="phone" v="+3623418060"/>
    <tag k="website" v="https://www.shell.hu"/>
    <tag k="payment:cash" v="yes"/>
    <tag k="payment:debit_cards" v="yes"/>
    <tag k="amenity" v="fuel"/>
    <tag k="fuel:octane_95" v="yes"/>
    <tag k="fuel:diesel" v="yes"/>
    <tag k="brand" v="Shell"/>
  </node>
  <node action="modify" changeset="1" id="1365277331" lat="47.452075" lon="18.964988" timestamp="1449065092000000000" uid="4579407" user="KAMI" version="4">
    <tag k="name" v="Shell"/>
    <tag k="addr:city" v="Budaörs"/>
    <tag k="addr:postcode" v="2040"/>
    <tag k="addr:street" v="Kinizsi út"/>
    <tag k="addr:housenumber" v="1-3"/>
    <tag k="branch" v="BUDAÖRS II 546"/>
    <tag k="phone" v="+3623703001"/>
    <tag k="website" v="https://www.shell.hu"/>
    <tag k="payment:cash" v="yes"/>
    <tag k="payment:debit_cards" v="yes"/>
    <tag k="amenity" v="fuel"/>
    <tag k="fuel:octane_95" v="yes"/>
    <tag k="fuel:diesel" v="yes"/>
    <tag k="brand" v="Shell"/>
  </node>
  <node action="modify" changeset="1" id="866751034" lat="47.452809" lon="19.050821" timestamp="1404581334000000000" uid="4579407" user="KAMI" version="4">
    <tag k="name" v="Shell"/>
    <tag k="addr:city" v="Budapest"/>
    <tag k="addr:postcode" v="1117"/>
    <tag k="addr:street" v="Budafoki út"/>
    <tag k="addr:housenumber" v="209-215"/>
    <tag k="branch" v="BUDAFOKI ÚT"/>
    <tag k="phone" v="+3613710096"/>
    <tag k="website" v="https://www.shell.hu"/>
    <tag k="payment:cash" v="yes"/>
    <tag k="payment:debit_cards" v="yes"/>
    <tag k="amenity" v="fuel"/>
    <tag k="fuel:octane_95" v="yes"/>
    <tag k="fuel:diesel" v="yes"/>
    <tag k="brand" v="Shell"/>
  </node>
  <node action="modify" changeset="1" id="750466174" lat="47.455022" lon="19.019522" timestamp="1426408467000000000" uid="4579407" user="KAMI" version="3">
    <tag k="name" v="Shell"/>
    <tag k="addr:city" v="Budapest"/>
    <tag k="addr:postcode" v="1112"/>
    <tag k="addr:street" v="Péterhegyi út"/>
    <tag k="addr:housenumber" v="54"/>
    <tag k="branch" v="PÉTERHEGYI  U."/>
    <tag k="phone" v="+3612481252"/>
    <tag k="website" v="https://www.shell.hu"/>
    <tag k="payment:cash" v="yes"/>
    <tag k="payment:debit_cards" v="yes"/>
    <tag k="amenity" v="fuel"/>
    <tag k="fuel:octane_95" v="yes"/>
    <tag k="fuel:diesel" v="yes"/>
    <tag k="brand" v="Shell"/>
  </node>
  <way action="modify" changeset="1" id="356631212" timestamp="1525931254000000000" uid="4579407" user="KAMI" version="3">
    <nd ref="3620479907"/>
    <nd ref="2063488151"/>
    <nd ref="3620479914"/>
    <nd ref="3620479916"/>
    <nd ref="3620479907"/>
    <tag k="name" v="Shell"/>
    <tag k="addr:city" v="Budapest"/>
    <tag k="addr:postcode" v="1097"/>
    <tag k="addr:street" v="Kén utca"/>
    <tag k="addr:housenumber" v="1"/>
    <tag k="branch" v="KÉN U."/>
    <tag k="phone" v="+3612806266"/>
    <tag k="website" v="https://www.shell.hu"/>
    <tag k="payment:cash" v="yes"/>
    <tag k="payment:debit_cards" v="yes"/>
    <tag k="amenity" v="fuel"/>
    <tag k="fuel:octane_95" v="yes"/>
    <tag k="fuel:diesel" v="yes"/>
    <tag k="brand" v="Shell"/>
  </way>
  <way action="modify" changeset="1" id="550397061" timestamp="1515753558000000000" uid="4579407" user="KAMI" version="2">
    <nd ref="5316108742"/>
    <nd ref="5316108743"/>
    <nd ref="5316108744"/>
    <nd ref="5316108745"/>
    <nd ref="5316108742"/>
    <tag k="name" v="Shell"/>
    <tag k="addr:city" v="Budapest"/>
    <tag k="addr:postcode" v="1183"/>
    <tag k="addr:street" v="gyömrői út"/>
    <tag k="branch" v="GYÖMRŐI II"/>
    <tag k="phone" v="+3614310898"/>
    <tag k="website" v="https://www.shell.hu"/>
    <tag k="payment:cash" v="yes"/>
    <tag k="payment:debit_cards" v="yes"/>
    <tag k="amenity" v="fuel"/>
    <tag k="fuel:octane_95" v="yes"/>
    <tag k="fuel:diesel" v="yes"/>
    <tag k="brand" v="Shell"/>
  </way>
  <way action="modify" changeset="1" id="222819923" timestamp="1515061101000000000" uid="4579407" user="KAMI" version="2">
    <nd ref="5319991589"/>
    <nd ref="5319991590"/>
    <nd ref="2317644327"/>
    <nd ref="2317644332"/>
    <nd ref="2317644337"/>
    <nd ref="5319991589"/>
    <tag k="name" v="Shell"/>
    <tag k="addr:city" v="Budapest"/>
    <tag k="addr:postcode" v="1191"/>
    <tag k="addr:street" v="Üllői út"/>
    <tag k="addr:housenumber" v="233"/>
    <tag k="branch" v="ÜLLŐI ÚT"/>
    <tag k="phone" v="+3613480794"/>
    <tag k="website" v="https://www.shell.hu"/>
    <tag k="payment:cash" v="yes"/>
    <tag k="payment:debit_cards" v="yes"/>
    <tag k="amenity" v="fuel"/>
    <tag k="fuel:octane_95" v="yes"/>
    <tag k="fuel:diesel" v="yes"/>
    <tag k="brand" v="Shell"/>
  </way>
  <way action="modify" changeset="1" id="377273943" timestamp="1518965865000000000" uid="4579407" user="KAMI" version="4">
    <nd ref="4885660740"/>
    <nd ref="3806477341"/>
    <nd ref="3806477327"/>
    <nd ref="3806477336"/>
    <nd ref="4885660738"/>
    <nd ref="4885660740"/>
    <tag k="name" v="Shell"/>
    <tag k="addr:city" v="Budapest"/>
    <tag k="addr:postcode" v="1112"/>
    <tag k="addr:street" v="budaörsi út"/>
    <tag k="branch" v="BUDAÖRSI ÚT"/>
    <tag k="phone" v="+3612465047"/>
    <tag k="website" v="https://www.shell.hu"/>
    <tag k="payment:cash" v="yes"/>
    <tag k="payment:debit_cards" v="yes"/>
    <tag k="amenity" v="fuel"/>
    <tag k="fuel:octane_95" v="yes"/>
    <tag k="fuel:diesel" v="yes"/>
    <tag k="brand" v="Shell"/>
  </way>
  <node action="modify" changeset="1" id="1934871732" lat="47.46864" lon="19.15533" timestamp="1524827031000000000" uid="4579407" user="KAMI" version="4">
    <tag k="name" v="Shell"/>
    <tag k="addr:city" v="Budapest"/>
    <tag k="addr:postcode" v="1103"/>
    <tag k="addr:street" v="Sibrik Miklós út"/>
    <tag k="addr:housenumber" v="30"/>
    <tag k="branch" v="SIBRIK"/>
    <tag k="phone" v="+3612604527"/>
    <tag k="website" v="https://www.shell.hu"/>
    <tag k="payment:cash" v="yes"/>
    <tag k="payment:debit_cards" v="yes"/>
    <tag k="amenity" v="fuel"/>
    <tag k="fuel:octane_95" v="yes"/>
    <tag k="fuel:diesel" v="yes"/>
    <tag k="brand" v="Shell"/>
  </node>
  <way action="modify" changeset="1" id="256049160" timestamp="1525424088000000000" uid="4579407" user="KAMI" version="4">
    <nd ref="2617472561"/>
    <nd ref="764623032"/>
    <nd ref="2617472563"/>
    <nd ref="2617472549"/>
    <nd ref="2617472552"/>
    <nd ref="2617472560"/>
    <nd ref="2617472561"/>
    <tag k="name" v="Shell"/>
    <tag k="addr:city" v="Budapest"/>
    <tag k="addr:postcode" v="1097"/>
    <tag k="addr:street" v="Könyves K. körút"/>
    <tag k="addr:housenumber" v="24"/>
    <tag k="branch" v="KÖNYVES K. KRT."/>
    <tag k="phone" v="+3612151703"/>
    <tag k="website" v="https://www.shell.hu"/>
    <tag k="payment:cash" v="yes"/>
    <tag k="payment:debit_cards" v="yes"/>
    <tag k="amenity" v="fuel"/>
    <tag k="fuel:octane_95" v="yes"/>
    <tag k="fuel:diesel" v="yes"/>
    <tag k="brand" v="Shell"/>
  </way>
  <node action="modify" changeset="1" id="268878316" lat="47.472367" lon="19.034334" timestamp="1426408467000000000" uid="4579407" user="KAMI" version="5">
    <tag k="name" v="Shell"/>
    <tag k="addr:city" v="Budapest"/>
    <tag k="addr:postcode" v="1115"/>
    <tag k="addr:street" v="Tétényi út"/>
    <tag k="addr:housenumber" v="2"/>
    <tag k="branch" v="TÉTÉNYI ÚT"/>
    <tag k="phone" v="+3612033811"/>
    <tag k="website" v="https://www.shell.hu"/>
    <tag k="payment:cash" v="yes"/>
    <tag k="payment:debit_cards" v="yes"/>
    <tag k="amenity" v="fuel"/>
    <tag k="fuel:octane_95" v="yes"/>
    <tag k="fuel:diesel" v="yes"/>
    <tag k="brand" v="Shell"/>
  </node>
  <way action="modify" changeset="1" id="349141057" timestamp="1442487155000000000" uid="4579407" user="KAMI" version="2">
    <nd ref="3207652564"/>
    <nd ref="3550615820"/>
    <nd ref="3550615824"/>
    <nd ref="3550615818"/>
    <nd ref="3550615817"/>
    <nd ref="3207652564"/>
    <tag k="name" v="Shell"/>
    <tag k="addr:city" v="Budapest"/>
    <tag k="addr:postcode" v="1173"/>
    <tag k="addr:street" v="Pesti út"/>
    <tag k="addr:housenumber" v="273/c"/>
    <tag k="branch" v="PESTI ÚT I."/>
    <tag k="phone" v="+3612530025"/>
    <tag k="website" v="https://www.shell.hu"/>
    <tag k="payment:cash" v="yes"/>
    <tag k="payment:debit_cards" v="yes"/>
    <tag k="amenity" v="fuel"/>
    <tag k="fuel:octane_95" v="yes"/>
    <tag k="fuel:diesel" v="yes"/>
    <tag k="brand" v="Shell"/>
  </way>
  <way action="modify" changeset="1" id="261477253" timestamp="1511860929000000000" uid="4579407" user="KAMI" version="5">
    <nd ref="2670925451"/>
    <nd ref="2670925437"/>
    <nd ref="2670925440"/>
    <nd ref="2670925448"/>
    <nd ref="1564496993"/>
    <nd ref="2670925451"/>
    <tag k="name" v="Shell"/>
    <tag k="addr:city" v="Budapest"/>
    <tag k="addr:postcode" v="1096"/>
    <tag k="addr:street" v="Haller utca"/>
    <tag k="addr:housenumber" v="56"/>
    <tag k="branch" v="HALLER U."/>
    <tag k="phone" v="+3614560210"/>
    <tag k="website" v="https://www.shell.hu"/>
    <tag k="payment:cash" v="yes"/>
    <tag k="payment:debit_cards" v="yes"/>
    <tag k="amenity" v="fuel"/>
    <tag k="fuel:octane_95" v="yes"/>
    <tag k="fuel:diesel" v="yes"/>
    <tag k="brand" v="Shell"/>
  </way>
  <way action="modify" changeset="1" id="434836137" timestamp="1528193214000000000" uid="4579407" user="KAMI" version="4">
    <nd ref="4327544775"/>
    <nd ref="4327544776"/>
    <nd ref="4327544782"/>
    <nd ref="4327544777"/>
    <nd ref="4327544778"/>
    <nd ref="4327544775"/>
    <tag k="name" v="Shell"/>
    <tag k="addr:city" v="Budapest"/>
    <tag k="addr:postcode" v="1101"/>
    <tag k="addr:street" v="Kőbányai út"/>
    <tag k="addr:housenumber" v="56"/>
    <tag k="branch" v="KŐBÁNYAI ÚT"/>
    <tag k="phone" v="+3612607186"/>
    <tag k="website" v="https://www.shell.hu"/>
    <tag k="payment:cash" v="yes"/>
    <tag k="payment:debit_cards" v="yes"/>
    <tag k="amenity" v="fuel"/>
    <tag k="fuel:octane_95" v="yes"/>
    <tag k="fuel:diesel" v="yes"/>
    <tag k="brand" v="Shell"/>
  </way>
  <way action="modify" changeset="1" id="586925833" timestamp="1525869960000000000" uid="4579407" user="KAMI" version="1">
    <nd ref="5607092150"/>
    <nd ref="5607092148"/>
    <nd ref="1691296973"/>
    <nd ref="5607092140"/>
    <nd ref="5607092141"/>
    <nd ref="5607092149"/>
    <nd ref="5607092150"/>
    <tag k="name" v="Shell"/>
    <tag k="addr:city" v="Budapest"/>
    <tag k="addr:postcode" v="1173"/>
    <tag k="addr:street" v="Pesti út"/>
    <tag k="addr:housenumber" v="6"/>
    <tag k="branch" v="PESTI ÚT II."/>
    <tag k="phone" v="+3612560175"/>
    <tag k="website" v="https://www.shell.hu"/>
    <tag k="payment:cash" v="yes"/>
    <tag k="payment:debit_cards" v="yes"/>
    <tag k="amenity" v="fuel"/>
    <tag k="fuel:octane_95" v="yes"/>
    <tag k="fuel:diesel" v="yes"/>
    <tag k="brand" v="Shell"/>
  </way>
  <way action="modify" changeset="1" id="246729161" timestamp="1500274955000000000" uid="4579407" user="KAMI" version="4">
    <nd ref="2537287744"/>
    <nd ref="2537287745"/>
    <nd ref="2537287746"/>
    <nd ref="2537287747"/>
    <nd ref="2537287748"/>
    <nd ref="2537287744"/>
    <tag k="name" v="Shell"/>
    <tag k="addr:city" v="Budapest"/>
    <tag k="addr:postcode" v="1086"/>
    <tag k="addr:street" v="kálvária tér"/>
    <tag k="branch" v="KÁLVÁRIA TÉR"/>
    <tag k="phone" v="+3613336998"/>
    <tag k="website" v="https://www.shell.hu"/>
    <tag k="payment:cash" v="yes"/>
    <tag k="payment:debit_cards" v="yes"/>
    <tag k="amenity" v="fuel"/>
    <tag k="fuel:octane_95" v="yes"/>
    <tag k="fuel:diesel" v="yes"/>
    <tag k="brand" v="Shell"/>
  </way>
  <node action="modify" changeset="1" id="339095523" lat="47.490885" lon="19.03085" timestamp="1426408468000000000" uid="4579407" user="KAMI" version="3">
    <tag k="name" v="Shell"/>
    <tag k="addr:city" v="Budapest"/>
    <tag k="addr:postcode" v="1016"/>
    <tag k="addr:street" v="Mészáros utca"/>
    <tag k="addr:housenumber" v="56"/>
    <tag k="branch" v="MÉSZÁROS ÚT"/>
    <tag k="phone" v="+3612250651"/>
    <tag k="website" v="https://www.shell.hu"/>
    <tag k="payment:cash" v="yes"/>
    <tag k="payment:debit_cards" v="yes"/>
    <tag k="amenity" v="fuel"/>
    <tag k="fuel:octane_95" v="yes"/>
    <tag k="fuel:diesel" v="yes"/>
    <tag k="brand" v="Shell"/>
  </node>
  <way action="modify" changeset="1" id="314309058" timestamp="1416860995000000000" uid="4579407" user="KAMI" version="1">
    <nd ref="3203589843"/>
    <nd ref="3203589842"/>
    <nd ref="3203589846"/>
    <nd ref="3203589849"/>
    <nd ref="3203589847"/>
    <nd ref="3203589848"/>
    <nd ref="3203589845"/>
    <nd ref="3203589844"/>
    <nd ref="3203589843"/>
    <tag k="name" v="Shell"/>
    <tag k="addr:city" v="Oroszlány"/>
    <tag k="addr:postcode" v="2840"/>
    <tag k="addr:street" v="Környei út"/>
    <tag k="addr:housenumber" v="3-5"/>
    <tag k="branch" v="OROSZLÁNY II 585"/>
    <tag k="phone" v="+3634704006"/>
    <tag k="website" v="https://www.shell.hu"/>
    <tag k="payment:cash" v="yes"/>
    <tag k="payment:debit_cards" v="yes"/>
    <tag k="amenity" v="fuel"/>
    <tag k="fuel:octane_95" v="yes"/>
    <tag k="fuel:diesel" v="yes"/>
    <tag k="brand" v="Shell"/>
  </way>
  <way action="modify" changeset="1" id="562499747" timestamp="1519051774000000000" uid="4579407" user="KAMI" version="1">
    <nd ref="5422575700"/>
    <nd ref="5422575701"/>
    <nd ref="5422575702"/>
    <nd ref="5422575703"/>
    <nd ref="5422575704"/>
    <nd ref="5422575705"/>
    <nd ref="5422575706"/>
    <nd ref="5422575707"/>
    <nd ref="5422575708"/>
    <nd ref="5422575709"/>
    <nd ref="5422575710"/>
    <nd ref="5422575711"/>
    <nd ref="5422575700"/>
    <tag k="name" v="Shell"/>
    <tag k="addr:city" v="Jászberény"/>
    <tag k="addr:postcode" v="5100"/>
    <tag k="addr:street" v="szt.istván körút"/>
    <tag k="branch" v="JÁSZBERÉNY"/>
    <tag k="phone" v="+3657504970"/>
    <tag k="website" v="https://www.shell.hu"/>
    <tag k="payment:cash" v="yes"/>
    <tag k="payment:debit_cards" v="yes"/>
    <tag k="amenity" v="fuel"/>
    <tag k="fuel:octane_95" v="yes"/>
    <tag k="fuel:diesel" v="yes"/>
    <tag k="brand" v="Shell"/>
  </way>
  <way action="modify" changeset="1" id="250264442" timestamp="1518965863000000000" uid="4579407" user="KAMI" version="4">
    <nd ref="2567526812"/>
    <nd ref="2567526810"/>
    <nd ref="2567526809"/>
    <nd ref="2567526808"/>
    <nd ref="2567526811"/>
    <nd ref="2567526812"/>
    <tag k="name" v="Shell"/>
    <tag k="addr:city" v="Budapest"/>
    <tag k="addr:postcode" v="1012"/>
    <tag k="addr:street" v="Alkotás utca"/>
    <tag k="addr:housenumber" v="20-24"/>
    <tag k="branch" v="ALKOTÁS U."/>
    <tag k="phone" v="+3612250541"/>
    <tag k="website" v="https://www.shell.hu"/>
    <tag k="payment:cash" v="yes"/>
    <tag k="payment:debit_cards" v="yes"/>
    <tag k="amenity" v="fuel"/>
    <tag k="fuel:octane_95" v="yes"/>
    <tag k="fuel:diesel" v="yes"/>
    <tag k="brand" v="Shell"/>
  </way>
  <node action="modify" changeset="1" id="295576493" lat="47.500966" lon="19.11251" timestamp="1426408468000000000" uid="4579407" user="KAMI" version="4">
    <tag k="name" v="Shell"/>
    <tag k="addr:city" v="Budapest"/>
    <tag k="addr:postcode" v="1143"/>
    <tag k="addr:street" v="Kerepesi út"/>
    <tag k="addr:housenumber" v="42-46"/>
    <tag k="branch" v="Kerepesi II"/>
    <tag k="phone" v="+3612223002"/>
    <tag k="website" v="https://www.shell.hu"/>
    <tag k="payment:cash" v="yes"/>
    <tag k="payment:debit_cards" v="yes"/>
    <tag k="amenity" v="fuel"/>
    <tag k="fuel:octane_95" v="yes"/>
    <tag k="fuel:diesel" v="yes"/>
    <tag k="brand" v="Shell"/>
  </node>
  <way action="modify" changeset="1" id="248836479" timestamp="1476029607000000000" uid="4579407" user="KAMI" version="3">
    <nd ref="2555649749"/>
    <nd ref="2555649774"/>
    <nd ref="752198349"/>
    <nd ref="2555649745"/>
    <nd ref="2555649738"/>
    <nd ref="2555649777"/>
    <nd ref="2555649758"/>
    <nd ref="2555649796"/>
    <nd ref="4439314016"/>
    <nd ref="2555649790"/>
    <nd ref="2555649757"/>
    <nd ref="4439314015"/>
    <nd ref="2555649779"/>
    <nd ref="2555649755"/>
    <nd ref="2555649749"/>
    <tag k="name" v="Shell"/>
    <tag k="addr:city" v="Budakeszi"/>
    <tag k="addr:postcode" v="2092"/>
    <tag k="addr:street" v="Szőlőskert utca"/>
    <tag k="addr:housenumber" v="1"/>
    <tag k="branch" v="BUDAKESZI"/>
    <tag k="phone" v="+3623457530"/>
    <tag k="website" v="https://www.shell.hu"/>
    <tag k="payment:cash" v="yes"/>
    <tag k="payment:debit_cards" v="yes"/>
    <tag k="amenity" v="fuel"/>
    <tag k="fuel:octane_95" v="yes"/>
    <tag k="fuel:diesel" v="yes"/>
    <tag k="brand" v="Shell"/>
  </way>
  <node action="modify" changeset="1" id="1455171800" lat="47.502772" lon="19.106057" timestamp="1426408468000000000" uid="4579407" user="KAMI" version="3">
    <tag k="name" v="Shell"/>
    <tag k="addr:city" v="Budapest"/>
    <tag k="addr:postcode" v="1143"/>
    <tag k="addr:street" v="Stefánia út"/>
    <tag k="addr:housenumber" v="1-5"/>
    <tag k="branch" v="STEFÁNIA ÚT"/>
    <tag k="phone" v="+3612730002"/>
    <tag k="website" v="https://www.shell.hu"/>
    <tag k="payment:cash" v="yes"/>
    <tag k="payment:debit_cards" v="yes"/>
    <tag k="amenity" v="fuel"/>
    <tag k="fuel:octane_95" v="yes"/>
    <tag k="fuel:diesel" v="yes"/>
    <tag k="brand" v="Shell"/>
  </node>
  <node action="modify" changeset="1" id="1074894602" lat="47.503572999999996" lon="19.141232000000002" timestamp="1501520033000000000" uid="4579407" user="KAMI" version="4">
    <tag k="name" v="Shell"/>
    <tag k="addr:city" v="Budapest"/>
    <tag k="addr:postcode" v="1106"/>
    <tag k="addr:street" v="Kerepesi út"/>
    <tag k="addr:housenumber" v="61"/>
    <tag k="branch" v="KEREPESI ÚT"/>
    <tag k="phone" v="+3612641554"/>
    <tag k="website" v="https://www.shell.hu"/>
    <tag k="payment:cash" v="yes"/>
    <tag k="payment:debit_cards" v="yes"/>
    <tag k="amenity" v="fuel"/>
    <tag k="fuel:octane_95" v="yes"/>
    <tag k="fuel:diesel" v="yes"/>
    <tag k="brand" v="Shell"/>
  </node>
  <node action="modify" changeset="1" id="3304259493" lat="47.507895" lon="19.028412" timestamp="1505579398000000000" uid="4579407" user="KAMI" version="2">
    <tag k="name" v="Shell"/>
    <tag k="addr:city" v="Budapest"/>
    <tag k="addr:postcode" v="1015"/>
    <tag k="addr:street" v="Csalogány utca"/>
    <tag k="addr:housenumber" v="55"/>
    <tag k="branch" v="CSALOGÁNY U."/>
    <tag k="phone" v="+3614870085"/>
    <tag k="website" v="https://www.shell.hu"/>
    <tag k="payment:cash" v="yes"/>
    <tag k="payment:debit_cards" v="yes"/>
    <tag k="amenity" v="fuel"/>
    <tag k="fuel:octane_95" v="yes"/>
    <tag k="fuel:diesel" v="yes"/>
    <tag k="brand" v="Shell"/>
  </node>
  <way action="modify" changeset="1" id="285877711" timestamp="1478346448000000000" uid="4579407" user="KAMI" version="2">
    <nd ref="2895155951"/>
    <nd ref="2895155948"/>
    <nd ref="2895155952"/>
    <nd ref="2895155956"/>
    <nd ref="2895155953"/>
    <nd ref="2895155951"/>
    <tag k="name" v="Shell"/>
    <tag k="addr:city" v="Budapest"/>
    <tag k="addr:postcode" v="1149"/>
    <tag k="addr:street" v="Egressy út"/>
    <tag k="addr:housenumber" v="35-55"/>
    <tag k="branch" v="EGRESSY ÚT"/>
    <tag k="phone" v="+3612730383"/>
    <tag k="website" v="https://www.shell.hu"/>
    <tag k="payment:cash" v="yes"/>
    <tag k="payment:debit_cards" v="yes"/>
    <tag k="amenity" v="fuel"/>
    <tag k="fuel:octane_95" v="yes"/>
    <tag k="fuel:diesel" v="yes"/>
    <tag k="brand" v="Shell"/>
  </way>
  <way action="modify" changeset="1" id="209570448" timestamp="1426408454000000000" uid="4579407" user="KAMI" version="3">
    <nd ref="2197771449"/>
    <nd ref="2197771443"/>
    <nd ref="2197771492"/>
    <nd ref="2197771317"/>
    <nd ref="2197771320"/>
    <nd ref="2197771480"/>
    <nd ref="2197771449"/>
    <tag k="name" v="Shell"/>
    <tag k="addr:city" v="Budapest"/>
    <tag k="addr:postcode" v="1144"/>
    <tag k="addr:street" v="füredi út"/>
    <tag k="branch" v="FÜREDI ÚT"/>
    <tag k="phone" v="+3612730768"/>
    <tag k="website" v="https://www.shell.hu"/>
    <tag k="payment:cash" v="yes"/>
    <tag k="payment:debit_cards" v="yes"/>
    <tag k="amenity" v="fuel"/>
    <tag k="fuel:octane_95" v="yes"/>
    <tag k="fuel:diesel" v="yes"/>
    <tag k="brand" v="Shell"/>
  </way>
  <node action="modify" changeset="1" id="1534782923" lat="47.515516" lon="21.606603" timestamp="1429891046000000000" uid="4579407" user="KAMI" version="3">
    <tag k="name" v="Shell"/>
    <tag k="addr:city" v="Debrecen"/>
    <tag k="addr:postcode" v="4031"/>
    <tag k="addr:street" v="István utca"/>
    <tag k="addr:housenumber" v="124"/>
    <tag k="branch" v="DEBRECEN III."/>
    <tag k="phone" v="+3652316433"/>
    <tag k="website" v="https://www.shell.hu"/>
    <tag k="payment:cash" v="yes"/>
    <tag k="payment:debit_cards" v="yes"/>
    <tag k="amenity" v="fuel"/>
    <tag k="fuel:octane_95" v="yes"/>
    <tag k="fuel:diesel" v="yes"/>
    <tag k="brand" v="Shell"/>
  </node>
  <way action="modify" changeset="1" id="243152476" timestamp="1494013821000000000" uid="4579407" user="KAMI" version="4">
    <nd ref="2505795788"/>
    <nd ref="2564361034"/>
    <nd ref="2564361033"/>
    <nd ref="2505795789"/>
    <nd ref="2505795790"/>
    <nd ref="2505795791"/>
    <nd ref="2505795792"/>
    <nd ref="2505795793"/>
    <nd ref="2564361035"/>
    <nd ref="2564361036"/>
    <nd ref="2505795788"/>
    <tag k="name" v="Shell"/>
    <tag k="addr:city" v="Budapest"/>
    <tag k="addr:postcode" v="1026"/>
    <tag k="addr:street" v="Szilágyi E. fasor"/>
    <tag k="addr:housenumber" v="125"/>
    <tag k="branch" v="SZILÁGYI E."/>
    <tag k="phone" v="+3613942602"/>
    <tag k="website" v="https://www.shell.hu"/>
    <tag k="payment:cash" v="yes"/>
    <tag k="payment:debit_cards" v="yes"/>
    <tag k="amenity" v="fuel"/>
    <tag k="fuel:octane_95" v="yes"/>
    <tag k="fuel:diesel" v="yes"/>
    <tag k="brand" v="Shell"/>
  </way>
  <way action="modify" changeset="1" id="209570423" timestamp="1514699980000000000" uid="4579407" user="KAMI" version="5">
    <nd ref="2197771326"/>
    <nd ref="2197771286"/>
    <nd ref="2197771427"/>
    <nd ref="2197771486"/>
    <nd ref="2197771326"/>
    <tag k="name" v="Shell"/>
    <tag k="addr:city" v="Budapest"/>
    <tag k="addr:postcode" v="1144"/>
    <tag k="addr:street" v="Fogarasi út"/>
    <tag k="addr:housenumber" v="183"/>
    <tag k="branch" v="FOGARASI"/>
    <tag k="phone" v="+3612207383"/>
    <tag k="website" v="https://www.shell.hu"/>
    <tag k="payment:cash" v="yes"/>
    <tag k="payment:debit_cards" v="yes"/>
    <tag k="amenity" v="fuel"/>
    <tag k="fuel:octane_95" v="yes"/>
    <tag k="fuel:diesel" v="yes"/>
    <tag k="brand" v="Shell"/>
  </way>
  <way action="modify" changeset="1" id="528169719" timestamp="1518965868000000000" uid="4579407" user="KAMI" version="2">
    <nd ref="5133411842"/>
    <nd ref="5133411843"/>
    <nd ref="5133411844"/>
    <nd ref="1433197437"/>
    <nd ref="1433197467"/>
    <nd ref="5133411845"/>
    <nd ref="5133411842"/>
    <tag k="name" v="Shell"/>
    <tag k="addr:city" v="Budapest"/>
    <tag k="addr:postcode" v="1068"/>
    <tag k="addr:street" v="Dózsa györgy út"/>
    <tag k="branch" v="DÓZSA GYÖRGY ÚT"/>
    <tag k="phone" v="+3614121482"/>
    <tag k="website" v="https://www.shell.hu"/>
    <tag k="payment:cash" v="yes"/>
    <tag k="payment:debit_cards" v="yes"/>
    <tag k="amenity" v="fuel"/>
    <tag k="fuel:octane_95" v="yes"/>
    <tag k="fuel:diesel" v="yes"/>
    <tag k="brand" v="Shell"/>
  </way>
  <node action="modify" changeset="1" id="499621040" lat="47.535286" lon="21.612495000000003" timestamp="1426408468000000000" uid="4579407" user="KAMI" version="5">
    <tag k="name" v="Shell"/>
    <tag k="addr:city" v="Debrecen"/>
    <tag k="addr:postcode" v="4027"/>
    <tag k="addr:street" v="Böszörményi út"/>
    <tag k="addr:housenumber" v="1"/>
    <tag k="branch" v="DEBRECEN II."/>
    <tag k="phone" v="+3652425317"/>
    <tag k="website" v="https://www.shell.hu"/>
    <tag k="payment:cash" v="yes"/>
    <tag k="payment:debit_cards" v="yes"/>
    <tag k="amenity" v="fuel"/>
    <tag k="fuel:octane_95" v="yes"/>
    <tag k="fuel:diesel" v="yes"/>
    <tag k="brand" v="Shell"/>
  </node>
  <way action="modify" changeset="1" id="240266590" timestamp="1512241364000000000" uid="4579407" user="KAMI" version="6">
    <nd ref="2480029297"/>
    <nd ref="2480029298"/>
    <nd ref="1703304298"/>
    <nd ref="2480029299"/>
    <nd ref="2480029300"/>
    <nd ref="2480029301"/>
    <nd ref="2480029302"/>
    <nd ref="2480029303"/>
    <nd ref="2480029304"/>
    <nd ref="2480029305"/>
    <nd ref="2480029306"/>
    <nd ref="2480029307"/>
    <nd ref="2480029297"/>
    <tag k="name" v="Shell"/>
    <tag k="addr:city" v="Budapest"/>
    <tag k="addr:postcode" v="1135"/>
    <tag k="addr:street" v="Béke út"/>
    <tag k="addr:housenumber" v="58"/>
    <tag k="branch" v="BÉKE ÚT"/>
    <tag k="phone" v="+3613305077"/>
    <tag k="website" v="https://www.shell.hu"/>
    <tag k="payment:cash" v="yes"/>
    <tag k="payment:debit_cards" v="yes"/>
    <tag k="amenity" v="fuel"/>
    <tag k="fuel:octane_95" v="yes"/>
    <tag k="fuel:diesel" v="yes"/>
    <tag k="brand" v="Shell"/>
  </way>
  <node action="modify" changeset="1" id="1827811408" lat="47.95904" lon="21.70413" timestamp="1522909897000000000" uid="4579407" user="KAMI" version="6">
    <tag k="name" v="Shell"/>
    <tag k="addr:city" v="Nyíregyháza"/>
    <tag k="addr:postcode" v="4400"/>
    <tag k="addr:street" v="Mező utca"/>
    <tag k="addr:housenumber" v="28-40"/>
    <tag k="branch" v="NYÍREGYHÁZA II."/>
    <tag k="phone" v="+3642504182"/>
    <tag k="website" v="https://www.shell.hu"/>
    <tag k="payment:cash" v="yes"/>
    <tag k="payment:debit_cards" v="yes"/>
    <tag k="amenity" v="fuel"/>
    <tag k="fuel:octane_95" v="yes"/>
    <tag k="fuel:diesel" v="yes"/>
    <tag k="brand" v="Shell"/>
  </node>
  <node action="modify" changeset="1" id="678854275" lat="47.542571" lon="19.150199" timestamp="1426408469000000000" uid="4579407" user="KAMI" version="4">
    <tag k="name" v="Shell"/>
    <tag k="addr:city" v="Budapest"/>
    <tag k="addr:postcode" v="1157"/>
    <tag k="addr:street" v="szentmihályi út"/>
    <tag k="branch" v="SZENTMIHÁLYI"/>
    <tag k="phone" v="+3614183612"/>
    <tag k="website" v="https://www.shell.hu"/>
    <tag k="payment:cash" v="yes"/>
    <tag k="payment:debit_cards" v="yes"/>
    <tag k="amenity" v="fuel"/>
    <tag k="fuel:octane_95" v="yes"/>
    <tag k="fuel:diesel" v="yes"/>
    <tag k="brand" v="Shell"/>
  </node>
  <way action="modify" changeset="1" id="336887620" timestamp="1428259057000000000" uid="4579407" user="KAMI" version="1">
    <nd ref="3439693335"/>
    <nd ref="3439693334"/>
    <nd ref="3439693330"/>
    <nd ref="3439693331"/>
    <nd ref="3439693332"/>
    <nd ref="3439693333"/>
    <nd ref="3439693335"/>
    <tag k="name" v="Shell"/>
    <tag k="addr:city" v="Debrecen"/>
    <tag k="addr:postcode" v="4027"/>
    <tag k="addr:street" v="Balmazújvárosi út"/>
    <tag k="addr:housenumber" v="5"/>
    <tag k="branch" v="DEBRECEN I."/>
    <tag k="phone" v="+3652418822"/>
    <tag k="website" v="https://www.shell.hu"/>
    <tag k="payment:cash" v="yes"/>
    <tag k="payment:debit_cards" v="yes"/>
    <tag k="amenity" v="fuel"/>
    <tag k="fuel:octane_95" v="yes"/>
    <tag k="fuel:diesel" v="yes"/>
    <tag k="brand" v="Shell"/>
  </way>
  <way action="modify" changeset="1" id="121422728" timestamp="1310482025000000000" uid="4579407" user="KAMI" version="1">
    <nd ref="1359445016"/>
    <nd ref="1359444991"/>
    <nd ref="1359445013"/>
    <nd ref="1359445015"/>
    <nd ref="1359445006"/>
    <nd ref="1359445016"/>
    <tag k="name" v="Shell"/>
    <tag k="addr:city" v="Budapest"/>
    <tag k="addr:postcode" v="1045"/>
    <tag k="addr:street" v="Pozsonyi út"/>
    <tag k="addr:housenumber" v="1"/>
    <tag k="branch" v="POZSONYI ÚT"/>
    <tag k="phone" v="+3612310707"/>
    <tag k="website" v="https://www.shell.hu"/>
    <tag k="payment:cash" v="yes"/>
    <tag k="payment:debit_cards" v="yes"/>
    <tag k="amenity" v="fuel"/>
    <tag k="fuel:octane_95" v="yes"/>
    <tag k="fuel:diesel" v="yes"/>
    <tag k="brand" v="Shell"/>
  </way>
  <way action="modify" changeset="1" id="252755074" timestamp="1514726379000000000" uid="4579407" user="KAMI" version="4">
    <nd ref="2587867830"/>
    <nd ref="2587867827"/>
    <nd ref="2587867826"/>
    <nd ref="2587867822"/>
    <nd ref="2587867824"/>
    <nd ref="2587867829"/>
    <nd ref="2587867828"/>
    <nd ref="2587867831"/>
    <nd ref="2587867830"/>
    <tag k="name" v="Shell"/>
    <tag k="addr:city" v="Budapest"/>
    <tag k="addr:postcode" v="1037"/>
    <tag k="addr:street" v="Bécsi út"/>
    <tag k="addr:housenumber" v="277"/>
    <tag k="branch" v="BÉCSI ÚT  A."/>
    <tag k="phone" v="+3612506858"/>
    <tag k="website" v="https://www.shell.hu"/>
    <tag k="payment:cash" v="yes"/>
    <tag k="payment:debit_cards" v="yes"/>
    <tag k="amenity" v="fuel"/>
    <tag k="fuel:octane_95" v="yes"/>
    <tag k="fuel:diesel" v="yes"/>
    <tag k="brand" v="Shell"/>
  </way>
  <node action="modify" changeset="1" id="1358621815" lat="47.558184000000004" lon="19.076584" timestamp="1438298459000000000" uid="4579407" user="KAMI" version="5">
    <tag k="name" v="Shell"/>
    <tag k="addr:city" v="Budapest"/>
    <tag k="addr:postcode" v="1138"/>
    <tag k="addr:street" v="Váci út"/>
    <tag k="addr:housenumber" v="196"/>
    <tag k="branch" v="VÁCI ÚT"/>
    <tag k="phone" v="+3612390022"/>
    <tag k="website" v="https://www.shell.hu"/>
    <tag k="payment:cash" v="yes"/>
    <tag k="payment:debit_cards" v="yes"/>
    <tag k="amenity" v="fuel"/>
    <tag k="fuel:octane_95" v="yes"/>
    <tag k="fuel:diesel" v="yes"/>
    <tag k="brand" v="Shell"/>
  </node>
  <way action="modify" changeset="1" id="505027569" timestamp="1518965868000000000" uid="4579407" user="KAMI" version="2">
    <nd ref="4950713555"/>
    <nd ref="4950713556"/>
    <nd ref="4950713557"/>
    <nd ref="4950713558"/>
    <nd ref="4950713555"/>
    <tag k="name" v="Shell"/>
    <tag k="addr:city" v="Budapest"/>
    <tag k="addr:postcode" v="1037"/>
    <tag k="addr:street" v="Bécsi út"/>
    <tag k="addr:housenumber" v="248-250"/>
    <tag k="branch" v="BÉCSI ÚT  B."/>
    <tag k="phone" v="+3612504344"/>
    <tag k="website" v="https://www.shell.hu"/>
    <tag k="payment:cash" v="yes"/>
    <tag k="payment:debit_cards" v="yes"/>
    <tag k="amenity" v="fuel"/>
    <tag k="fuel:octane_95" v="yes"/>
    <tag k="fuel:diesel" v="yes"/>
    <tag k="brand" v="Shell"/>
  </way>
  <node action="modify" changeset="1" id="112377166" lat="47.565796" lon="19.145982" timestamp="1426408469000000000" uid="4579407" user="KAMI" version="4">
    <tag k="name" v="Shell"/>
    <tag k="addr:city" v="Budapest"/>
    <tag k="addr:postcode" v="1152"/>
    <tag k="branch" v="BUDAPEST M3 A."/>
    <tag k="phone" v="+3614101049"/>
    <tag k="website" v="https://www.shell.hu"/>
    <tag k="payment:cash" v="yes"/>
    <tag k="payment:debit_cards" v="yes"/>
    <tag k="amenity" v="fuel"/>
    <tag k="fuel:octane_95" v="yes"/>
    <tag k="fuel:diesel" v="yes"/>
    <tag k="brand" v="Shell"/>
  </node>
  <node action="modify" changeset="1" id="1975881312" lat="47.571591" lon="18.425968" timestamp="1522389318000000000" uid="4579407" user="KAMI" version="7">
    <tag k="name" v="Shell"/>
    <tag k="addr:city" v="Tatabánya"/>
    <tag k="addr:postcode" v="2800"/>
    <tag k="addr:street" v="100. Sz. főút"/>
    <tag k="addr:housenumber" v="53"/>
    <tag k="branch" v="TATABÁNYA II."/>
    <tag k="phone" v="+3634310753"/>
    <tag k="website" v="https://www.shell.hu"/>
    <tag k="payment:cash" v="yes"/>
    <tag k="payment:debit_cards" v="yes"/>
    <tag k="amenity" v="fuel"/>
    <tag k="fuel:octane_95" v="yes"/>
    <tag k="fuel:diesel" v="yes"/>
    <tag k="brand" v="Shell"/>
  </node>
  <node action="modify" changeset="1" id="1502716088" lat="47.576044" lon="18.938769" timestamp="1500298663000000000" uid="4579407" user="KAMI" version="2">
    <tag k="name" v="Shell"/>
    <tag k="addr:city" v="Solymár"/>
    <tag k="addr:postcode" v="2083"/>
    <tag k="addr:street" v="Rózsika utca"/>
    <tag k="addr:housenumber" v="2"/>
    <tag k="branch" v="SOLYMÁR"/>
    <tag k="phone" v="+3626560089"/>
    <tag k="website" v="https://www.shell.hu"/>
    <tag k="payment:cash" v="yes"/>
    <tag k="payment:debit_cards" v="yes"/>
    <tag k="amenity" v="fuel"/>
    <tag k="fuel:octane_95" v="yes"/>
    <tag k="fuel:diesel" v="yes"/>
    <tag k="brand" v="Shell"/>
  </node>
  <node action="modify" changeset="1" id="2357455741" lat="47.582046000000005" lon="18.397366" timestamp="1514901885000000000" uid="4579407" user="KAMI" version="6">
    <tag k="name" v="Shell"/>
    <tag k="addr:city" v="Tatabánya"/>
    <tag k="addr:postcode" v="2800"/>
    <tag k="addr:street" v="köztársaság út"/>
    <tag k="branch" v="TATABÁNYA I."/>
    <tag k="phone" v="+3634510544"/>
    <tag k="website" v="https://www.shell.hu"/>
    <tag k="payment:cash" v="yes"/>
    <tag k="payment:debit_cards" v="yes"/>
    <tag k="amenity" v="fuel"/>
    <tag k="fuel:octane_95" v="yes"/>
    <tag k="fuel:diesel" v="yes"/>
    <tag k="brand" v="Shell"/>
  </node>
  <way action="modify" changeset="1" id="504619873" timestamp="1499029767000000000" uid="4579407" user="KAMI" version="1">
    <nd ref="4947656366"/>
    <nd ref="4947656367"/>
    <nd ref="4947656368"/>
    <nd ref="4947656369"/>
    <nd ref="4947656366"/>
    <tag k="name" v="Shell"/>
    <tag k="addr:city" v="Budapest"/>
    <tag k="addr:postcode" v="1039"/>
    <tag k="addr:street" v="Batthyány út"/>
    <tag k="addr:housenumber" v="27"/>
    <tag k="branch" v="SZENTENDREI ÚT B"/>
    <tag k="phone" v="+3614300005"/>
    <tag k="website" v="https://www.shell.hu"/>
    <tag k="payment:cash" v="yes"/>
    <tag k="payment:debit_cards" v="yes"/>
    <tag k="amenity" v="fuel"/>
    <tag k="fuel:octane_95" v="yes"/>
    <tag k="fuel:diesel" v="yes"/>
    <tag k="brand" v="Shell"/>
  </way>
  <way action="modify" changeset="1" id="287623387" timestamp="1499029769000000000" uid="4579407" user="KAMI" version="4">
    <nd ref="2911976397"/>
    <nd ref="2911976392"/>
    <nd ref="2911976393"/>
    <nd ref="2911976395"/>
    <nd ref="2911976396"/>
    <nd ref="2911976398"/>
    <nd ref="2911976397"/>
    <tag k="name" v="Shell"/>
    <tag k="addr:city" v="Budapest"/>
    <tag k="addr:postcode" v="1039"/>
    <tag k="addr:street" v="Szentendrei út"/>
    <tag k="addr:housenumber" v="373"/>
    <tag k="branch" v="SZENTENDREI ÚT A"/>
    <tag k="phone" v="+3612503388"/>
    <tag k="website" v="https://www.shell.hu"/>
    <tag k="payment:cash" v="yes"/>
    <tag k="payment:debit_cards" v="yes"/>
    <tag k="amenity" v="fuel"/>
    <tag k="fuel:octane_95" v="yes"/>
    <tag k="fuel:diesel" v="yes"/>
    <tag k="brand" v="Shell"/>
  </way>
  <node action="modify" changeset="1" id="1673398287" lat="47.60563" lon="19.196779" timestamp="1426408470000000000" uid="4579407" user="KAMI" version="5">
    <tag k="name" v="Shell"/>
    <tag k="addr:city" v="Fót"/>
    <tag k="addr:postcode" v="2151"/>
    <tag k="addr:street" v="Szabadság út"/>
    <tag k="addr:housenumber" v="10"/>
    <tag k="branch" v="FÓT"/>
    <tag k="phone" v="+3627360355"/>
    <tag k="website" v="https://www.shell.hu"/>
    <tag k="payment:cash" v="yes"/>
    <tag k="payment:debit_cards" v="yes"/>
    <tag k="amenity" v="fuel"/>
    <tag k="fuel:octane_95" v="yes"/>
    <tag k="fuel:diesel" v="yes"/>
    <tag k="brand" v="Shell"/>
  </node>
  <way action="modify" changeset="1" id="283924473" timestamp="1503045336000000000" uid="4579407" user="KAMI" version="3">
    <nd ref="2877359561"/>
    <nd ref="2877359562"/>
    <nd ref="2877359563"/>
    <nd ref="2877359564"/>
    <nd ref="2877359565"/>
    <nd ref="2877359566"/>
    <nd ref="2877359567"/>
    <nd ref="2877359568"/>
    <nd ref="2877359561"/>
    <tag k="name" v="Shell"/>
    <tag k="addr:city" v="Gödöllo"/>
    <tag k="addr:postcode" v="2100"/>
    <tag k="addr:street" v="Dózsa György út"/>
    <tag k="addr:housenumber" v="108"/>
    <tag k="branch" v="GÖDÖLLŐ"/>
    <tag k="phone" v="+3628516110"/>
    <tag k="website" v="https://www.shell.hu"/>
    <tag k="payment:cash" v="yes"/>
    <tag k="payment:debit_cards" v="yes"/>
    <tag k="amenity" v="fuel"/>
    <tag k="fuel:octane_95" v="yes"/>
    <tag k="fuel:diesel" v="yes"/>
    <tag k="brand" v="Shell"/>
  </way>
  <node action="modify" changeset="1" id="503724559" lat="47.607952000000004" lon="20.764282" timestamp="1426408470000000000" uid="4579407" user="KAMI" version="4">
    <tag k="name" v="Shell"/>
    <tag k="addr:city" v="Tiszafüred"/>
    <tag k="addr:postcode" v="5350"/>
    <tag k="addr:street" v="Húszöles utca"/>
    <tag k="addr:housenumber" v="2/b"/>
    <tag k="branch" v="TISZAFÜRED."/>
    <tag k="phone" v="+3659511104"/>
    <tag k="website" v="https://www.shell.hu"/>
    <tag k="payment:cash" v="yes"/>
    <tag k="payment:debit_cards" v="yes"/>
    <tag k="amenity" v="fuel"/>
    <tag k="fuel:octane_95" v="yes"/>
    <tag k="fuel:diesel" v="yes"/>
    <tag k="brand" v="Shell"/>
  </node>
  <node action="modify" changeset="1" id="2596896735" lat="47.610512" lon="17.239812" timestamp="1507031499000000000" uid="4579407" user="KAMI" version="8">
    <tag k="name" v="Shell"/>
    <tag k="addr:city" v="Csorna"/>
    <tag k="addr:postcode" v="9300"/>
    <tag k="addr:street" v="Soproni utca"/>
    <tag k="addr:housenumber" v="64"/>
    <tag k="branch" v="CSORNA"/>
    <tag k="phone" v="+3696593072"/>
    <tag k="website" v="https://www.shell.hu"/>
    <tag k="payment:cash" v="yes"/>
    <tag k="payment:debit_cards" v="yes"/>
    <tag k="amenity" v="fuel"/>
    <tag k="fuel:octane_95" v="yes"/>
    <tag k="fuel:diesel" v="yes"/>
    <tag k="brand" v="Shell"/>
  </node>
  <node action="modify" changeset="1" id="448022802" lat="47.616976" lon="18.340749" timestamp="1432300179000000000" uid="4579407" user="KAMI" version="5">
    <tag k="name" v="Shell"/>
    <tag k="addr:city" v="Tata"/>
    <tag k="addr:postcode" v="2890"/>
    <tag k="branch" v="TATA M1 B."/>
    <tag k="phone" v="+3634588155"/>
    <tag k="website" v="https://www.shell.hu"/>
    <tag k="payment:cash" v="yes"/>
    <tag k="payment:debit_cards" v="yes"/>
    <tag k="amenity" v="fuel"/>
    <tag k="fuel:octane_95" v="yes"/>
    <tag k="fuel:diesel" v="yes"/>
    <tag k="brand" v="Shell"/>
  </node>
  <node action="modify" changeset="1" id="1679665892" lat="47.626718" lon="19.126372" timestamp="1439336254000000000" uid="4579407" user="KAMI" version="2">
    <tag k="name" v="Shell"/>
    <tag k="addr:city" v="Dunakeszi"/>
    <tag k="addr:postcode" v="2120"/>
    <tag k="branch" v="DUNAKESZI"/>
    <tag k="phone" v="+3627547300"/>
    <tag k="website" v="https://www.shell.hu"/>
    <tag k="payment:cash" v="yes"/>
    <tag k="payment:debit_cards" v="yes"/>
    <tag k="amenity" v="fuel"/>
    <tag k="fuel:octane_95" v="yes"/>
    <tag k="fuel:diesel" v="yes"/>
    <tag k="brand" v="Shell"/>
  </node>
  <node action="modify" changeset="1" id="889217305" lat="47.629678000000006" lon="18.313544" timestamp="1503726470000000000" uid="4579407" user="KAMI" version="5">
    <tag k="name" v="Shell"/>
    <tag k="addr:city" v="Tata"/>
    <tag k="addr:postcode" v="2890"/>
    <tag k="addr:street" v="Ring utca"/>
    <tag k="addr:housenumber" v="1"/>
    <tag k="branch" v="TATA IV 580"/>
    <tag k="phone" v="+3634708029"/>
    <tag k="website" v="https://www.shell.hu"/>
    <tag k="payment:cash" v="yes"/>
    <tag k="payment:debit_cards" v="yes"/>
    <tag k="amenity" v="fuel"/>
    <tag k="fuel:octane_95" v="yes"/>
    <tag k="fuel:diesel" v="yes"/>
    <tag k="brand" v="Shell"/>
  </node>
  <way action="modify" changeset="1" id="202423013" timestamp="1426408453000000000" uid="4579407" user="KAMI" version="3">
    <nd ref="2123905184"/>
    <nd ref="2123905119"/>
    <nd ref="2123905157"/>
    <nd ref="2123905135"/>
    <nd ref="2123905184"/>
    <tag k="name" v="Shell"/>
    <tag k="addr:city" v="Gyor"/>
    <tag k="addr:postcode" v="9024"/>
    <tag k="addr:street" v="Királyszéki út"/>
    <tag k="addr:housenumber" v="33"/>
    <tag k="branch" v="GYŐR IV 544"/>
    <tag k="phone" v="+3696700151"/>
    <tag k="website" v="https://www.shell.hu"/>
    <tag k="payment:cash" v="yes"/>
    <tag k="payment:debit_cards" v="yes"/>
    <tag k="amenity" v="fuel"/>
    <tag k="fuel:octane_95" v="yes"/>
    <tag k="fuel:diesel" v="yes"/>
    <tag k="brand" v="Shell"/>
  </way>
  <node action="modify" changeset="1" id="968831494" lat="47.650587" lon="18.315949" timestamp="1426408470000000000" uid="4579407" user="KAMI" version="2">
    <tag k="name" v="Shell"/>
    <tag k="addr:city" v="Tata"/>
    <tag k="addr:postcode" v="2890"/>
    <tag k="addr:street" v="Május 1 út"/>
    <tag k="branch" v="TATA"/>
    <tag k="phone" v="+3634586475"/>
    <tag k="website" v="https://www.shell.hu"/>
    <tag k="payment:cash" v="yes"/>
    <tag k="payment:debit_cards" v="yes"/>
    <tag k="amenity" v="fuel"/>
    <tag k="fuel:octane_95" v="yes"/>
    <tag k="fuel:diesel" v="yes"/>
    <tag k="brand" v="Shell"/>
  </node>
  <node action="modify" changeset="1" id="279755361" lat="47.654866999999996" lon="19.160153" timestamp="1426408470000000000" uid="4579407" user="KAMI" version="7">
    <tag k="name" v="Shell"/>
    <tag k="addr:city" v="Dunakeszi"/>
    <tag k="addr:postcode" v="2120"/>
    <tag k="addr:street" v="2/a főút"/>
    <tag k="branch" v="M2/A A."/>
    <tag k="phone" v="+303347630"/>
    <tag k="website" v="https://www.shell.hu"/>
    <tag k="payment:cash" v="yes"/>
    <tag k="payment:debit_cards" v="yes"/>
    <tag k="amenity" v="fuel"/>
    <tag k="fuel:octane_95" v="yes"/>
    <tag k="fuel:diesel" v="yes"/>
    <tag k="brand" v="Shell"/>
  </node>
  <node action="modify" changeset="1" id="3662389960" lat="47.662361" lon="21.505141000000002" timestamp="1437606461000000000" uid="4579407" user="KAMI" version="1">
    <tag k="name" v="Shell"/>
    <tag k="addr:city" v="Hajduböszörmény"/>
    <tag k="addr:postcode" v="4220"/>
    <tag k="addr:street" v="bánság tér"/>
    <tag k="branch" v="HAJDUBÖSZÖRMÉNY"/>
    <tag k="phone" v="+3652372872"/>
    <tag k="website" v="https://www.shell.hu"/>
    <tag k="payment:cash" v="yes"/>
    <tag k="payment:debit_cards" v="yes"/>
    <tag k="amenity" v="fuel"/>
    <tag k="fuel:octane_95" v="yes"/>
    <tag k="fuel:diesel" v="yes"/>
    <tag k="brand" v="Shell"/>
  </node>
  <node action="modify" changeset="1" id="1404498109" lat="47.669143" lon="19.674529999999997" timestamp="1426408471000000000" uid="4579407" user="KAMI" version="4">
    <tag k="name" v="Shell"/>
    <tag k="addr:city" v="Hatvan"/>
    <tag k="addr:postcode" v="3000"/>
    <tag k="addr:street" v="Radnóti tér"/>
    <tag k="addr:housenumber" v="20"/>
    <tag k="branch" v="HATVAN"/>
    <tag k="phone" v="+3637540171"/>
    <tag k="website" v="https://www.shell.hu"/>
    <tag k="payment:cash" v="yes"/>
    <tag k="payment:debit_cards" v="yes"/>
    <tag k="amenity" v="fuel"/>
    <tag k="fuel:octane_95" v="yes"/>
    <tag k="fuel:diesel" v="yes"/>
    <tag k="brand" v="Shell"/>
  </node>
  <way action="modify" changeset="1" id="137382314" timestamp="1519582669000000000" uid="4579407" user="KAMI" version="4">
    <nd ref="1507187049"/>
    <nd ref="1507187053"/>
    <nd ref="1507187050"/>
    <nd ref="1507187044"/>
    <nd ref="1507187049"/>
    <tag k="name" v="Shell"/>
    <tag k="addr:city" v="Sopron"/>
    <tag k="addr:postcode" v="9400"/>
    <tag k="addr:street" v="Ipar körút"/>
    <tag k="addr:housenumber" v="32"/>
    <tag k="branch" v="SOPRON II 550"/>
    <tag k="phone" v="+3699702103"/>
    <tag k="website" v="https://www.shell.hu"/>
    <tag k="payment:cash" v="yes"/>
    <tag k="payment:debit_cards" v="yes"/>
    <tag k="amenity" v="fuel"/>
    <tag k="fuel:octane_95" v="yes"/>
    <tag k="fuel:diesel" v="yes"/>
    <tag k="brand" v="Shell"/>
  </way>
  <way action="modify" changeset="1" id="129684411" timestamp="1481199789000000000" uid="4579407" user="KAMI" version="4">
    <nd ref="1430276335"/>
    <nd ref="1430276338"/>
    <nd ref="367832533"/>
    <nd ref="1430276331"/>
    <nd ref="1430276332"/>
    <nd ref="1430276333"/>
    <nd ref="1430276334"/>
    <nd ref="1430276336"/>
    <nd ref="1430276335"/>
    <tag k="name" v="Shell"/>
    <tag k="addr:city" v="Gyor"/>
    <tag k="addr:postcode" v="9023"/>
    <tag k="addr:street" v="Szigethy attila út"/>
    <tag k="branch" v="GYŐR II."/>
    <tag k="phone" v="+3696414122"/>
    <tag k="website" v="https://www.shell.hu"/>
    <tag k="payment:cash" v="yes"/>
    <tag k="payment:debit_cards" v="yes"/>
    <tag k="amenity" v="fuel"/>
    <tag k="fuel:octane_95" v="yes"/>
    <tag k="fuel:diesel" v="yes"/>
    <tag k="brand" v="Shell"/>
  </way>
  <node action="modify" changeset="1" id="1404502919" lat="47.67803" lon="19.667609" timestamp="1426408471000000000" uid="4579407" user="KAMI" version="3">
    <tag k="name" v="Shell"/>
    <tag k="addr:city" v="Hatvan"/>
    <tag k="addr:postcode" v="3000"/>
    <tag k="addr:street" v="Bibó István út"/>
    <tag k="addr:housenumber" v="1"/>
    <tag k="branch" v="HATVAN II 588"/>
    <tag k="phone" v="+3637540086"/>
    <tag k="website" v="https://www.shell.hu"/>
    <tag k="payment:cash" v="yes"/>
    <tag k="payment:debit_cards" v="yes"/>
    <tag k="amenity" v="fuel"/>
    <tag k="fuel:octane_95" v="yes"/>
    <tag k="fuel:diesel" v="yes"/>
    <tag k="brand" v="Shell"/>
  </node>
  <way action="modify" changeset="1" id="203713726" timestamp="1482797937000000000" uid="4579407" user="KAMI" version="3">
    <nd ref="2137116670"/>
    <nd ref="2137116660"/>
    <nd ref="2137116667"/>
    <nd ref="2137116654"/>
    <nd ref="2137116672"/>
    <nd ref="2137116658"/>
    <nd ref="2137116653"/>
    <nd ref="2137116673"/>
    <nd ref="2137116670"/>
    <tag k="name" v="Shell"/>
    <tag k="addr:city" v="Gyor"/>
    <tag k="addr:postcode" v="9021"/>
    <tag k="addr:street" v="Domb utca"/>
    <tag k="addr:housenumber" v="2-4"/>
    <tag k="branch" v="GYŐR I."/>
    <tag k="phone" v="+309980394"/>
    <tag k="website" v="https://www.shell.hu"/>
    <tag k="payment:cash" v="yes"/>
    <tag k="payment:debit_cards" v="yes"/>
    <tag k="amenity" v="fuel"/>
    <tag k="fuel:octane_95" v="yes"/>
    <tag k="fuel:diesel" v="yes"/>
    <tag k="brand" v="Shell"/>
  </way>
  <way action="modify" changeset="1" id="121040292" timestamp="1506664412000000000" uid="4579407" user="KAMI" version="3">
    <nd ref="1355696746"/>
    <nd ref="1355696742"/>
    <nd ref="1355696740"/>
    <nd ref="1355696744"/>
    <nd ref="380493498"/>
    <nd ref="1355696751"/>
    <nd ref="1355696747"/>
    <nd ref="1355696746"/>
    <tag k="name" v="Shell"/>
    <tag k="addr:city" v="Gyor"/>
    <tag k="addr:postcode" v="9027"/>
    <tag k="addr:street" v="Tompa utca"/>
    <tag k="addr:housenumber" v="7"/>
    <tag k="branch" v="GYŐR III."/>
    <tag k="phone" v="+3696313346"/>
    <tag k="website" v="https://www.shell.hu"/>
    <tag k="payment:cash" v="yes"/>
    <tag k="payment:debit_cards" v="yes"/>
    <tag k="amenity" v="fuel"/>
    <tag k="fuel:octane_95" v="yes"/>
    <tag k="fuel:diesel" v="yes"/>
    <tag k="brand" v="Shell"/>
  </way>
  <way action="modify" changeset="1" id="303679624" timestamp="1426408449000000000" uid="4579407" user="KAMI" version="4">
    <nd ref="3080817290"/>
    <nd ref="3080817289"/>
    <nd ref="3080817283"/>
    <nd ref="3080817278"/>
    <nd ref="3080817270"/>
    <nd ref="3080817272"/>
    <nd ref="3080817269"/>
    <nd ref="3080817271"/>
    <nd ref="3080817288"/>
    <nd ref="3080817286"/>
    <nd ref="3080817292"/>
    <nd ref="3080817293"/>
    <nd ref="3080817303"/>
    <nd ref="3080817299"/>
    <nd ref="3080817284"/>
    <nd ref="3080817279"/>
    <nd ref="3080817290"/>
    <tag k="name" v="Shell"/>
    <tag k="addr:city" v="Sopron"/>
    <tag k="addr:postcode" v="9400"/>
    <tag k="addr:street" v="Lackner K. utca"/>
    <tag k="addr:housenumber" v="60"/>
    <tag k="branch" v="SOPRON"/>
    <tag k="phone" v="+3699505946"/>
    <tag k="website" v="https://www.shell.hu"/>
    <tag k="payment:cash" v="yes"/>
    <tag k="payment:debit_cards" v="yes"/>
    <tag k="amenity" v="fuel"/>
    <tag k="fuel:octane_95" v="yes"/>
    <tag k="fuel:diesel" v="yes"/>
    <tag k="brand" v="Shell"/>
  </way>
  <way action="modify" changeset="1" id="432327712" timestamp="1491559775000000000" uid="4579407" user="KAMI" version="2">
    <nd ref="4314040856"/>
    <nd ref="4314040857"/>
    <nd ref="4314040858"/>
    <nd ref="4314040859"/>
    <nd ref="4780867252"/>
    <nd ref="4780867249"/>
    <nd ref="4314040856"/>
    <tag k="name" v="Shell"/>
    <tag k="addr:city" v="Gyöngyös"/>
    <tag k="addr:postcode" v="3200"/>
    <tag k="addr:street" v="Pesti utca"/>
    <tag k="addr:housenumber" v="74"/>
    <tag k="branch" v="GYÖNGYÖS"/>
    <tag k="phone" v="+3637313133"/>
    <tag k="website" v="https://www.shell.hu"/>
    <tag k="payment:cash" v="yes"/>
    <tag k="payment:debit_cards" v="yes"/>
    <tag k="amenity" v="fuel"/>
    <tag k="fuel:octane_95" v="yes"/>
    <tag k="fuel:diesel" v="yes"/>
    <tag k="brand" v="Shell"/>
  </way>
  <way action="modify" changeset="1" id="432327717" timestamp="1469089684000000000" uid="4579407" user="KAMI" version="1">
    <nd ref="4314040886"/>
    <nd ref="4314040887"/>
    <nd ref="4314040888"/>
    <nd ref="4314041490"/>
    <nd ref="4314040886"/>
    <tag k="name" v="Shell"/>
    <tag k="addr:city" v="Gyöngyös"/>
    <tag k="addr:postcode" v="3200"/>
    <tag k="addr:street" v="Vásár utca"/>
    <tag k="addr:housenumber" v="2"/>
    <tag k="branch" v="GYÖNGYÖS II 566"/>
    <tag k="phone" v="+3637705000"/>
    <tag k="website" v="https://www.shell.hu"/>
    <tag k="payment:cash" v="yes"/>
    <tag k="payment:debit_cards" v="yes"/>
    <tag k="amenity" v="fuel"/>
    <tag k="fuel:octane_95" v="yes"/>
    <tag k="fuel:diesel" v="yes"/>
    <tag k="brand" v="Shell"/>
  </way>
  <way action="modify" changeset="1" id="395706264" timestamp="1526841664000000000" uid="4579407" user="KAMI" version="5">
    <nd ref="5391163899"/>
    <nd ref="5391163900"/>
    <nd ref="5391163901"/>
    <nd ref="5391163902"/>
    <nd ref="5391163899"/>
    <tag k="name" v="Shell"/>
    <tag k="addr:city" v="Esztergom"/>
    <tag k="addr:postcode" v="2500"/>
    <tag k="addr:street" v="Mátyás Király út"/>
    <tag k="addr:housenumber" v="30"/>
    <tag k="branch" v="ESZTERGOM 587"/>
    <tag k="phone" v="+3633319075"/>
    <tag k="website" v="https://www.shell.hu"/>
    <tag k="payment:cash" v="yes"/>
    <tag k="payment:debit_cards" v="yes"/>
    <tag k="amenity" v="fuel"/>
    <tag k="fuel:octane_95" v="yes"/>
    <tag k="fuel:diesel" v="yes"/>
    <tag k="brand" v="Shell"/>
  </way>
  <node action="modify" changeset="1" id="2007195610" lat="47.80921" lon="20.550983" timestamp="1446969861000000000" uid="4579407" user="KAMI" version="2">
    <tag k="name" v="Shell"/>
    <tag k="addr:city" v="Mezokövesd"/>
    <tag k="addr:postcode" v="3400"/>
    <tag k="addr:street" v="Egri utca"/>
    <tag k="addr:housenumber" v="51"/>
    <tag k="branch" v="MEZŐKÖV. II 571"/>
    <tag k="phone" v="+3649706002"/>
    <tag k="website" v="https://www.shell.hu"/>
    <tag k="payment:cash" v="yes"/>
    <tag k="payment:debit_cards" v="yes"/>
    <tag k="amenity" v="fuel"/>
    <tag k="fuel:octane_95" v="yes"/>
    <tag k="fuel:diesel" v="yes"/>
    <tag k="brand" v="Shell"/>
  </node>
  <node action="modify" changeset="1" id="244170774" lat="47.841584000000005" lon="20.74396" timestamp="1509132434000000000" uid="4579407" user="KAMI" version="8">
    <tag k="name" v="Shell"/>
    <tag k="addr:city" v="Gelej"/>
    <tag k="addr:postcode" v="3444"/>
    <tag k="branch" v="GELEJ M3 A."/>
    <tag k="phone" v="+3649704230"/>
    <tag k="website" v="https://www.shell.hu"/>
    <tag k="payment:cash" v="yes"/>
    <tag k="payment:debit_cards" v="yes"/>
    <tag k="amenity" v="fuel"/>
    <tag k="fuel:octane_95" v="yes"/>
    <tag k="fuel:diesel" v="yes"/>
    <tag k="brand" v="Shell"/>
  </node>
  <node action="modify" changeset="1" id="244170819" lat="47.843126" lon="20.7428" timestamp="1426408471000000000" uid="4579407" user="KAMI" version="6">
    <tag k="name" v="Shell"/>
    <tag k="addr:city" v="Mezokeresztes"/>
    <tag k="addr:postcode" v="3444"/>
    <tag k="branch" v="GELEJ M3 B"/>
    <tag k="phone" v="+3649700571"/>
    <tag k="website" v="https://www.shell.hu"/>
    <tag k="payment:cash" v="yes"/>
    <tag k="payment:debit_cards" v="yes"/>
    <tag k="amenity" v="fuel"/>
    <tag k="fuel:octane_95" v="yes"/>
    <tag k="fuel:diesel" v="yes"/>
    <tag k="brand" v="Shell"/>
  </node>
  <node action="modify" changeset="99999" id="-165" lat="47.847712" lon="17.281816" timestamp="" uid="4579407" user="KAMI" version="99999">
    <tag k="name" v="Shell"/>
    <tag k="addr:city" v="Mosonmagyaróvár"/>
    <tag k="addr:postcode" v="9200"/>
    <tag k="branch" v="MOSONMAGYARÓVÁR I."/>
    <tag k="phone" v="+3696566121"/>
    <tag k="website" v="https://www.shell.hu"/>
    <tag k="payment:cash" v="yes"/>
    <tag k="payment:debit_cards" v="yes"/>
    <tag k="amenity" v="fuel"/>
    <tag k="fuel:octane_95" v="yes"/>
    <tag k="fuel:diesel" v="yes"/>
    <tag k="brand" v="Shell"/>
  </node>
  <node action="modify" changeset="1" id="2425932444" lat="47.851997999999995" lon="17.281545" timestamp="1426408472000000000" uid="4579407" user="KAMI" version="2">
    <tag k="name" v="Shell"/>
    <tag k="addr:city" v="Mosonmagyaróvár"/>
    <tag k="addr:postcode" v="9200"/>
    <tag k="addr:street" v="Szent István Király út"/>
    <tag k="addr:housenumber" v="170"/>
    <tag k="branch" v="MOSONMAGYARÓVÁR II."/>
    <tag k="phone" v="+3696579044"/>
    <tag k="website" v="https://www.shell.hu"/>
    <tag k="payment:cash" v="yes"/>
    <tag k="payment:debit_cards" v="yes"/>
    <tag k="amenity" v="fuel"/>
    <tag k="fuel:octane_95" v="yes"/>
    <tag k="fuel:diesel" v="yes"/>
    <tag k="brand" v="Shell"/>
  </node>
  <way action="modify" changeset="1" id="220889187" timestamp="1426408447000000000" uid="4579407" user="KAMI" version="3">
    <nd ref="2299674239"/>
    <nd ref="2299674240"/>
    <nd ref="2299674241"/>
    <nd ref="2299674242"/>
    <nd ref="2299674243"/>
    <nd ref="2299674244"/>
    <nd ref="2299674245"/>
    <nd ref="2299674246"/>
    <nd ref="2299674247"/>
    <nd ref="2299674248"/>
    <nd ref="2299674239"/>
    <tag k="name" v="Shell"/>
    <tag k="addr:city" v="Eger"/>
    <tag k="addr:postcode" v="3300"/>
    <tag k="addr:street" v="Rákóczi út"/>
    <tag k="addr:housenumber" v="95"/>
    <tag k="branch" v="EGER"/>
    <tag k="phone" v="+3636412676"/>
    <tag k="website" v="https://www.shell.hu"/>
    <tag k="payment:cash" v="yes"/>
    <tag k="payment:debit_cards" v="yes"/>
    <tag k="amenity" v="fuel"/>
    <tag k="fuel:octane_95" v="yes"/>
    <tag k="fuel:diesel" v="yes"/>
    <tag k="brand" v="Shell"/>
  </way>
  <way action="modify" changeset="1" id="220694261" timestamp="1426408451000000000" uid="4579407" user="KAMI" version="3">
    <nd ref="2297867611"/>
    <nd ref="2297867612"/>
    <nd ref="2297867613"/>
    <nd ref="2297867614"/>
    <nd ref="2297867611"/>
    <tag k="name" v="Shell"/>
    <tag k="addr:city" v="Eger"/>
    <tag k="addr:postcode" v="3300"/>
    <tag k="addr:street" v="Rákóczi út"/>
    <tag k="addr:housenumber" v="100"/>
    <tag k="branch" v="EGER II 568"/>
    <tag k="phone" v="+3636700602"/>
    <tag k="website" v="https://www.shell.hu"/>
    <tag k="payment:cash" v="yes"/>
    <tag k="payment:debit_cards" v="yes"/>
    <tag k="amenity" v="fuel"/>
    <tag k="fuel:octane_95" v="yes"/>
    <tag k="fuel:diesel" v="yes"/>
    <tag k="brand" v="Shell"/>
  </way>
  <way action="modify" changeset="1" id="291672728" timestamp="1422646134000000000" uid="4579407" user="KAMI" version="3">
    <nd ref="2951387254"/>
    <nd ref="2951387255"/>
    <nd ref="2951387256"/>
    <nd ref="2951387257"/>
    <nd ref="2951387254"/>
    <tag k="name" v="Shell"/>
    <tag k="addr:city" v="Tiszaújváros"/>
    <tag k="addr:postcode" v="3580"/>
    <tag k="addr:street" v="Örösi út"/>
    <tag k="addr:housenumber" v="1/a"/>
    <tag k="branch" v="TISZAÚJV II 548"/>
    <tag k="phone" v="+3649708004"/>
    <tag k="website" v="https://www.shell.hu"/>
    <tag k="payment:cash" v="yes"/>
    <tag k="payment:debit_cards" v="yes"/>
    <tag k="amenity" v="fuel"/>
    <tag k="fuel:octane_95" v="yes"/>
    <tag k="fuel:diesel" v="yes"/>
    <tag k="brand" v="Shell"/>
  </way>
  <node action="modify" changeset="1" id="2440881484" lat="47.947379999999995" lon="22.32442" timestamp="1479736461000000000" uid="4579407" user="KAMI" version="2">
    <tag k="name" v="Shell"/>
    <tag k="addr:city" v="Mátészalka"/>
    <tag k="addr:postcode" v="4700"/>
    <tag k="addr:street" v="Alkotmány utca"/>
    <tag k="addr:housenumber" v="1"/>
    <tag k="branch" v="MÁTÉSZALKA"/>
    <tag k="phone" v="+3644500358"/>
    <tag k="website" v="https://www.shell.hu"/>
    <tag k="payment:cash" v="yes"/>
    <tag k="payment:debit_cards" v="yes"/>
    <tag k="amenity" v="fuel"/>
    <tag k="fuel:octane_95" v="yes"/>
    <tag k="fuel:diesel" v="yes"/>
    <tag k="brand" v="Shell"/>
  </node>
  <node action="modify" changeset="1" id="3393827764" lat="47.968579999999996" lon="21.72449" timestamp="1522909898000000000" uid="4579407" user="KAMI" version="7">
    <tag k="name" v="Shell"/>
    <tag k="addr:city" v="Nyíregyháza"/>
    <tag k="addr:postcode" v="4400"/>
    <tag k="addr:street" v="Korányi Frigyes utca"/>
    <tag k="addr:housenumber" v="14"/>
    <tag k="branch" v="NYÍREGYHÁZA IV."/>
    <tag k="phone" v="+3642595557"/>
    <tag k="website" v="https://www.shell.hu"/>
    <tag k="payment:cash" v="yes"/>
    <tag k="payment:debit_cards" v="yes"/>
    <tag k="amenity" v="fuel"/>
    <tag k="fuel:octane_95" v="yes"/>
    <tag k="fuel:diesel" v="yes"/>
    <tag k="brand" v="Shell"/>
  </node>
  <node action="modify" changeset="1" id="2767262770" lat="47.970240000000004" lon="21.737710999999997" timestamp="1522909899000000000" uid="4579407" user="KAMI" version="10">
    <tag k="name" v="Shell"/>
    <tag k="addr:city" v="Nyíregyháza"/>
    <tag k="addr:postcode" v="4400"/>
    <tag k="addr:street" v="Pazonyi út"/>
    <tag k="addr:housenumber" v="36"/>
    <tag k="branch" v="NYÍREGYH. V 552"/>
    <tag k="phone" v="+3642727984"/>
    <tag k="website" v="https://www.shell.hu"/>
    <tag k="payment:cash" v="yes"/>
    <tag k="payment:debit_cards" v="yes"/>
    <tag k="amenity" v="fuel"/>
    <tag k="fuel:octane_95" v="yes"/>
    <tag k="fuel:diesel" v="yes"/>
    <tag k="brand" v="Shell"/>
  </node>
  <way action="modify" changeset="1" id="332394724" timestamp="1518968423000000000" uid="4579407" user="KAMI" version="3">
    <nd ref="3395154330"/>
    <nd ref="3395154331"/>
    <nd ref="3395154332"/>
    <nd ref="5130044893"/>
    <nd ref="5130044894"/>
    <nd ref="5130044895"/>
    <nd ref="5130044899"/>
    <nd ref="5130044898"/>
    <nd ref="3395154333"/>
    <nd ref="3395154330"/>
    <tag k="name" v="Shell"/>
    <tag k="addr:city" v="Fehérgyarmat"/>
    <tag k="addr:postcode" v="4900"/>
    <tag k="addr:street" v="Mártírok út"/>
    <tag k="addr:housenumber" v="38"/>
    <tag k="branch" v="FEHÉRGYARMAT"/>
    <tag k="phone" v="+3644510110"/>
    <tag k="website" v="https://www.shell.hu"/>
    <tag k="payment:cash" v="yes"/>
    <tag k="payment:debit_cards" v="yes"/>
    <tag k="amenity" v="fuel"/>
    <tag k="fuel:octane_95" v="yes"/>
    <tag k="fuel:diesel" v="yes"/>
    <tag k="brand" v="Shell"/>
  </way>
  <node action="modify" changeset="1" id="1841546849" lat="48.103925" lon="19.803084" timestamp="1448484592000000000" uid="4579407" user="KAMI" version="5">
    <tag k="name" v="Shell"/>
    <tag k="addr:city" v="Salgótarján"/>
    <tag k="addr:postcode" v="3100"/>
    <tag k="addr:street" v="Fürdő utca"/>
    <tag k="addr:housenumber" v="1"/>
    <tag k="branch" v="SALGÓTARJÁN"/>
    <tag k="phone" v="+3632420450"/>
    <tag k="website" v="https://www.shell.hu"/>
    <tag k="payment:cash" v="yes"/>
    <tag k="payment:debit_cards" v="yes"/>
    <tag k="amenity" v="fuel"/>
    <tag k="fuel:octane_95" v="yes"/>
    <tag k="fuel:diesel" v="yes"/>
    <tag k="brand" v="Shell"/>
  </node>
  <node action="modify" changeset="1" id="1330410607" lat="48.106339" lon="20.76923" timestamp="1446323458000000000" uid="4579407" user="KAMI" version="4">
    <tag k="name" v="Shell"/>
    <tag k="addr:city" v="Miskolc"/>
    <tag k="addr:postcode" v="3525"/>
    <tag k="addr:street" v="vologda út"/>
    <tag k="branch" v="MISKOLC II."/>
    <tag k="phone" v="+3646428051"/>
    <tag k="website" v="https://www.shell.hu"/>
    <tag k="payment:cash" v="yes"/>
    <tag k="payment:debit_cards" v="yes"/>
    <tag k="amenity" v="fuel"/>
    <tag k="fuel:octane_95" v="yes"/>
    <tag k="fuel:diesel" v="yes"/>
    <tag k="brand" v="Shell"/>
  </node>
  <way action="modify" changeset="1" id="118506998" timestamp="1426408453000000000" uid="4579407" user="KAMI" version="4">
    <nd ref="1332742399"/>
    <nd ref="1332742465"/>
    <nd ref="1332742476"/>
    <nd ref="1332742421"/>
    <nd ref="1332742399"/>
    <tag k="name" v="Shell"/>
    <tag k="addr:city" v="Miskolc"/>
    <tag k="addr:postcode" v="3527"/>
    <tag k="addr:street" v="József A. út"/>
    <tag k="addr:housenumber" v="76"/>
    <tag k="branch" v="MISKOLC I."/>
    <tag k="phone" v="+303361585"/>
    <tag k="website" v="https://www.shell.hu"/>
    <tag k="payment:cash" v="yes"/>
    <tag k="payment:debit_cards" v="yes"/>
    <tag k="amenity" v="fuel"/>
    <tag k="fuel:octane_95" v="yes"/>
    <tag k="fuel:diesel" v="yes"/>
    <tag k="brand" v="Shell"/>
  </way>
  <node action="modify" changeset="1" id="3596651395" lat="48.107907" lon="20.843693" timestamp="1505193876000000000" uid="4579407" user="KAMI" version="2">
    <tag k="name" v="Shell"/>
    <tag k="addr:city" v="Miskolc"/>
    <tag k="addr:postcode" v="3527"/>
    <tag k="addr:street" v="3. Sz. Főút felső"/>
    <tag k="branch" v="MISKOLC IV."/>
    <tag k="phone" v="+3646504150"/>
    <tag k="website" v="https://www.shell.hu"/>
    <tag k="payment:cash" v="yes"/>
    <tag k="payment:debit_cards" v="yes"/>
    <tag k="amenity" v="fuel"/>
    <tag k="fuel:octane_95" v="yes"/>
    <tag k="fuel:diesel" v="yes"/>
    <tag k="brand" v="Shell"/>
  </node>
  <way action="modify" changeset="1" id="332309421" timestamp="1505130832000000000" uid="4579407" user="KAMI" version="3">
    <nd ref="3394234494"/>
    <nd ref="3394234495"/>
    <nd ref="3394234496"/>
    <nd ref="3394234497"/>
    <nd ref="3394234498"/>
    <nd ref="3394234499"/>
    <nd ref="3394234500"/>
    <nd ref="3394234501"/>
    <nd ref="3394234494"/>
    <tag k="name" v="Shell"/>
    <tag k="addr:city" v="Rakamaz"/>
    <tag k="addr:postcode" v="4465"/>
    <tag k="addr:street" v="tokaji út"/>
    <tag k="branch" v="RAKAMAZ"/>
    <tag k="phone" v="+3642371196"/>
    <tag k="website" v="https://www.shell.hu"/>
    <tag k="payment:cash" v="yes"/>
    <tag k="payment:debit_cards" v="yes"/>
    <tag k="amenity" v="fuel"/>
    <tag k="fuel:octane_95" v="yes"/>
    <tag k="fuel:diesel" v="yes"/>
    <tag k="brand" v="Shell"/>
  </way>
  <node action="modify" changeset="1" id="1337352156" lat="48.128167" lon="20.783228" timestamp="1477925857000000000" uid="4579407" user="KAMI" version="2">
    <tag k="name" v="Shell"/>
    <tag k="addr:city" v="Miskolc"/>
    <tag k="addr:postcode" v="3526"/>
    <tag k="addr:street" v="szentpéteri kapu"/>
    <tag k="branch" v="MISKOLC III."/>
    <tag k="phone" v="+3646428058"/>
    <tag k="website" v="https://www.shell.hu"/>
    <tag k="payment:cash" v="yes"/>
    <tag k="payment:debit_cards" v="yes"/>
    <tag k="amenity" v="fuel"/>
    <tag k="fuel:octane_95" v="yes"/>
    <tag k="fuel:diesel" v="yes"/>
    <tag k="brand" v="Shell"/>
  </node>
  <way action="modify" changeset="1" id="545761981" timestamp="1512874777000000000" uid="4579407" user="KAMI" version="1">
    <nd ref="5246829436"/>
    <nd ref="5246829431"/>
    <nd ref="5246829432"/>
    <nd ref="5246829433"/>
    <nd ref="5246829434"/>
    <nd ref="5246829435"/>
    <nd ref="5246829436"/>
    <tag k="name" v="Shell"/>
    <tag k="addr:city" v="Ózd"/>
    <tag k="addr:postcode" v="3600"/>
    <tag k="addr:street" v="Vas köz"/>
    <tag k="addr:housenumber" v="1-2"/>
    <tag k="branch" v="ÓZD"/>
    <tag k="phone" v="+3648470611"/>
    <tag k="website" v="https://www.shell.hu"/>
    <tag k="payment:cash" v="yes"/>
    <tag k="payment:debit_cards" v="yes"/>
    <tag k="amenity" v="fuel"/>
    <tag k="fuel:octane_95" v="yes"/>
    <tag k="fuel:diesel" v="yes"/>
    <tag k="brand" v="Shell"/>
  </way>
  <way action="modify" changeset="1" id="542722483" timestamp="1515244630000000000" uid="4579407" user="KAMI" version="2">
    <nd ref="5246884228"/>
    <nd ref="5246884234"/>
    <nd ref="5246884225"/>
    <nd ref="5246884227"/>
    <nd ref="5246884228"/>
    <tag k="name" v="Shell"/>
    <tag k="addr:city" v="Ózd"/>
    <tag k="addr:postcode" v="3600"/>
    <tag k="addr:street" v="Brassói út"/>
    <tag k="addr:housenumber" v="3"/>
    <tag k="branch" v="ÓZD II 570"/>
    <tag k="phone" v="+3648569385"/>
    <tag k="website" v="https://www.shell.hu"/>
    <tag k="payment:cash" v="yes"/>
    <tag k="payment:debit_cards" v="yes"/>
    <tag k="amenity" v="fuel"/>
    <tag k="fuel:octane_95" v="yes"/>
    <tag k="fuel:diesel" v="yes"/>
    <tag k="brand" v="Shell"/>
  </way>
  <node action="modify" changeset="1" id="3050736492" lat="48.226597999999996" lon="22.08444" timestamp="1448994885000000000" uid="4579407" user="KAMI" version="4">
    <tag k="name" v="Shell"/>
    <tag k="addr:city" v="Kisvárda"/>
    <tag k="addr:postcode" v="4600"/>
    <tag k="addr:street" v="Csillag utca"/>
    <tag k="addr:housenumber" v="46"/>
    <tag k="branch" v="KISVÁRDA"/>
    <tag k="phone" v="+3645500235"/>
    <tag k="website" v="https://www.shell.hu"/>
    <tag k="payment:cash" v="yes"/>
    <tag k="payment:debit_cards" v="yes"/>
    <tag k="amenity" v="fuel"/>
    <tag k="fuel:octane_95" v="yes"/>
    <tag k="fuel:diesel" v="yes"/>
    <tag k="brand" v="Shell"/>
  </node>
  <way action="modify" changeset="1" id="272849432" timestamp="1503999252000000000" uid="4579407" user="KAMI" version="6">
    <nd ref="2777721195"/>
    <nd ref="2777721199"/>
    <nd ref="2777721203"/>
    <nd ref="2777721206"/>
    <nd ref="2777721195"/>
    <tag k="name" v="Shell"/>
    <tag k="addr:city" v="Kisvárda"/>
    <tag k="addr:postcode" v="4600"/>
    <tag k="addr:street" v="Városmajor út"/>
    <tag k="addr:housenumber" v="72"/>
    <tag k="branch" v="KISVÁRDA II 554"/>
    <tag k="phone" v="+3645700600"/>
    <tag k="website" v="https://www.shell.hu"/>
    <tag k="payment:cash" v="yes"/>
    <tag k="payment:debit_cards" v="yes"/>
    <tag k="amenity" v="fuel"/>
    <tag k="fuel:octane_95" v="yes"/>
    <tag k="fuel:diesel" v="yes"/>
    <tag k="brand" v="Shell"/>
  </way>
  <way action="modify" changeset="1" id="363908857" timestamp="1438685780000000000" uid="4579407" user="KAMI" version="1">
    <nd ref="3680244770"/>
    <nd ref="3680244774"/>
    <nd ref="3680244772"/>
    <nd ref="3680244773"/>
    <nd ref="3680244769"/>
    <nd ref="3680244765"/>
    <nd ref="3680244766"/>
    <nd ref="3680244768"/>
    <nd ref="3680244771"/>
    <nd ref="3680244767"/>
    <nd ref="3680244770"/>
    <tag k="name" v="Shell"/>
    <tag k="addr:city" v="Kazincbarcika"/>
    <tag k="addr:postcode" v="3700"/>
    <tag k="addr:street" v="Jószerencsét út"/>
    <tag k="addr:housenumber" v="16"/>
    <tag k="branch" v="KAZINCBARCIKA"/>
    <tag k="phone" v="+3648512400"/>
    <tag k="website" v="https://www.shell.hu"/>
    <tag k="payment:cash" v="yes"/>
    <tag k="payment:debit_cards" v="yes"/>
    <tag k="amenity" v="fuel"/>
    <tag k="fuel:octane_95" v="yes"/>
    <tag k="fuel:diesel" v="yes"/>
    <tag k="brand" v="Shell"/>
  </way>
  <way action="modify" changeset="1" id="423684914" timestamp="1502393797000000000" uid="4579407" user="KAMI" version="4">
    <nd ref="4232376476"/>
    <nd ref="4232376477"/>
    <nd ref="4232376478"/>
    <nd ref="4232376479"/>
    <nd ref="4232376476"/>
    <tag k="name" v="Shell"/>
    <tag k="addr:city" v="Kazincbarcika"/>
    <tag k="addr:postcode" v="3700"/>
    <tag k="addr:street" v="Attila utca"/>
    <tag k="addr:housenumber" v="10/a"/>
    <tag k="branch" v="KAZINCBAR II 584"/>
    <tag k="phone" v="+3648704031"/>
    <tag k="website" v="https://www.shell.hu"/>
    <tag k="payment:cash" v="yes"/>
    <tag k="payment:debit_cards" v="yes"/>
    <tag k="amenity" v="fuel"/>
    <tag k="fuel:octane_95" v="yes"/>
    <tag k="fuel:diesel" v="yes"/>
    <tag k="brand" v="Shell"/>
  </way>
</osm>
