<?xml version='1.0' encoding='UTF-8'?>
<osm generator="JOSM" version="0.6">
  <!-- Original coordinates: POINT (47.709941 18.015708) -->
  <!-- Original tags: None -->
  <node action="modify" changeset="99999" id="-1" lat="47.709941" lon="18.015708" timestamp="" uid="4579407" user="KAMI" version="99999">
    <tag k="brand" v="Avia"/>
    <tag k="source" v="website"/>
    <tag k="phone" v="+3634595009"/>
    <tag k="addr:housenumber" v="2"/>
    <tag k="email" v="avia@avia.hu"/>
    <tag k="youtube" v="https://www.youtube.com/channel/UCjvjkjf2RgmKBuTnKSXk-Rg"/>
    <tag k="addr:city" v="Ács"/>
    <tag k="fuel:octane_95" v="yes"/>
    <tag k="payment:mastercard" v="yes"/>
    <tag k="addr:street" v="Fő utca"/>
    <tag k="fuel:diesel" v="yes"/>
    <tag k="amenity" v="fuel"/>
    <tag k="name" v="Avia"/>
    <tag k="facebook" v="https://www.facebook.com/AVIAHungary"/>
    <tag k="payment:visa" v="yes"/>
    <tag k="addr:postcode" v="2941"/>
    <tag k="website" v="https://www.avia.hu/toltoallomas/?id=114"/>
    <tag k="operator" v="AVIA Hungária Kft."/>
  </node>
  <!-- OSM link: https://osm.org/node/1559171089 -->
  <!-- Original coordinates: POINT (46.652441 17.924793) -->
  <!-- Original tags: {'fuel:octane_91': 'no', 'fuel:e85': 'no', 'fuel:lpg': 'no', 'amenity': 'fuel', 'fuel:biogas': 'no', 'fuel:biodiesel': 'no', 'fuel:electricity': 'no', 'fuel:octane_100': 'no', 'fuel:e10': 'no', 'fuel:octane_98': 'yes', 'fuel:cng': 'no', 'fuel:1_50': 'no', 'fuel:GTL_diesel': 'no', 'fuel:HGV_diesel': 'no', 'fuel:octane_95': 'yes', 'fuel:1_25': 'no', 'fuel:diesel': 'yes'} -->
  <node action="modify" changeset="1" id="1559171089" lat="46.652441" lon="17.924793" timestamp="2011-12-23T11:1354Z" uid="4579407" user="KAMI" version="1">
    <tag k="brand" v="Avia"/>
    <tag k="fuel:diesel" v="yes"/>
    <tag k="phone" v="+3684330734"/>
    <tag k="source" v="website"/>
    <tag k="email" v="avia@avia.hu"/>
    <tag k="fuel:electricity" v="no"/>
    <tag k="youtube" v="https://www.youtube.com/channel/UCjvjkjf2RgmKBuTnKSXk-Rg"/>
    <tag k="addr:city" v="Andocs"/>
    <tag k="fuel:HGV_diesel" v="no"/>
    <tag k="fuel:1_50" v="no"/>
    <tag k="fuel:octane_100" v="no"/>
    <tag k="fuel:octane_95" v="yes"/>
    <tag k="payment:mastercard" v="yes"/>
    <tag k="addr:street" v="Ady Endre utca"/>
    <tag k="fuel:octane_91" v="no"/>
    <tag k="addr:conscriptionnumber" v="206/5"/>
    <tag k="fuel:e85" v="no"/>
    <tag k="fuel:lpg" v="no"/>
    <tag k="amenity" v="fuel"/>
    <tag k="name" v="Avia"/>
    <tag k="fuel:biogas" v="no"/>
    <tag k="facebook" v="https://www.facebook.com/AVIAHungary"/>
    <tag k="payment:visa" v="yes"/>
    <tag k="fuel:cng" v="no"/>
    <tag k="fuel:e10" v="no"/>
    <tag k="fuel:GTL_diesel" v="no"/>
    <tag k="fuel:octane_98" v="yes"/>
    <tag k="fuel:1_25" v="no"/>
    <tag k="fuel:biodiesel" v="no"/>
    <tag k="addr:postcode" v="8675"/>
    <tag k="website" v="https://www.avia.hu/toltoallomas/?id=47"/>
    <tag k="operator" v="AVIA Hungária Kft."/>
  </node>
  <!-- Original coordinates: POINT (47.6587106 19.4994406) -->
  <!-- Original tags: None -->
  <node action="modify" changeset="99999" id="-3" lat="47.6587106" lon="19.4994406" timestamp="" uid="4579407" user="KAMI" version="99999">
    <tag k="brand" v="Avia"/>
    <tag k="source" v="website"/>
    <tag k="phone" v="+36202004000"/>
    <tag k="addr:housenumber" v="44"/>
    <tag k="email" v="avia@avia.hu"/>
    <tag k="youtube" v="https://www.youtube.com/channel/UCjvjkjf2RgmKBuTnKSXk-Rg"/>
    <tag k="addr:city" v="Aszód"/>
    <tag k="fuel:octane_95" v="yes"/>
    <tag k="payment:mastercard" v="yes"/>
    <tag k="addr:street" v="Falujárók út"/>
    <tag k="fuel:diesel" v="yes"/>
    <tag k="amenity" v="fuel"/>
    <tag k="name" v="Avia"/>
    <tag k="facebook" v="https://www.facebook.com/AVIAHungary"/>
    <tag k="payment:visa" v="yes"/>
    <tag k="addr:postcode" v="2170"/>
    <tag k="website" v="https://www.avia.hu/toltoallomas/?id=88"/>
    <tag k="operator" v="AVIA Hungária Kft."/>
  </node>
  <!-- Original coordinates: POINT (46.87672420429322 16.74576044082642) -->
  <!-- Original tags: None -->
  <node action="modify" changeset="99999" id="-4" lat="46.87672420429322" lon="16.745760440826416" timestamp="" uid="4579407" user="KAMI" version="99999">
    <tag k="brand" v="Avia"/>
    <tag k="source" v="website"/>
    <tag k="phone" v="+3692460696"/>
    <tag k="addr:housenumber" v="21-23"/>
    <tag k="email" v="avia@avia.hu"/>
    <tag k="youtube" v="https://www.youtube.com/channel/UCjvjkjf2RgmKBuTnKSXk-Rg"/>
    <tag k="addr:city" v="Bagod"/>
    <tag k="fuel:octane_95" v="yes"/>
    <tag k="payment:mastercard" v="yes"/>
    <tag k="addr:street" v="Kossuth utca"/>
    <tag k="fuel:diesel" v="yes"/>
    <tag k="amenity" v="fuel"/>
    <tag k="name" v="Avia"/>
    <tag k="facebook" v="https://www.facebook.com/AVIAHungary"/>
    <tag k="payment:visa" v="yes"/>
    <tag k="addr:postcode" v="8992"/>
    <tag k="website" v="https://www.avia.hu/toltoallomas/?id=9"/>
    <tag k="operator" v="AVIA Hungária Kft."/>
  </node>
  <!-- Original coordinates: POINT (46.18934 18.933) -->
  <!-- Original tags: None -->
  <node action="modify" changeset="99999" id="-5" lat="46.18934" lon="18.933" timestamp="" uid="4579407" user="KAMI" version="99999">
    <tag k="brand" v="Avia"/>
    <tag k="source" v="website"/>
    <tag k="phone" v="+3679522730"/>
    <tag k="addr:housenumber" v="56"/>
    <tag k="email" v="avia@avia.hu"/>
    <tag k="youtube" v="https://www.youtube.com/channel/UCjvjkjf2RgmKBuTnKSXk-Rg"/>
    <tag k="addr:city" v="Baja"/>
    <tag k="fuel:octane_95" v="yes"/>
    <tag k="payment:mastercard" v="yes"/>
    <tag k="addr:street" v="Bajcsy-Zs. utca"/>
    <tag k="fuel:diesel" v="yes"/>
    <tag k="amenity" v="fuel"/>
    <tag k="name" v="Avia"/>
    <tag k="facebook" v="https://www.facebook.com/AVIAHungary"/>
    <tag k="payment:visa" v="yes"/>
    <tag k="addr:postcode" v="6500"/>
    <tag k="website" v="https://www.avia.hu/toltoallomas/?id=61"/>
    <tag k="operator" v="AVIA Hungária Kft."/>
  </node>
  <!-- Original coordinates: POINT (46.2086169 17.1451804) -->
  <!-- Original tags: None -->
  <node action="modify" changeset="99999" id="-6" lat="46.2086169" lon="17.1451804" timestamp="" uid="4579407" user="KAMI" version="99999">
    <tag k="brand" v="Avia"/>
    <tag k="source" v="website"/>
    <tag k="phone" v="+3682778711"/>
    <tag k="addr:housenumber" v="1"/>
    <tag k="email" v="avia@avia.hu"/>
    <tag k="youtube" v="https://www.youtube.com/channel/UCjvjkjf2RgmKBuTnKSXk-Rg"/>
    <tag k="addr:city" v="Berzence"/>
    <tag k="fuel:octane_95" v="yes"/>
    <tag k="payment:mastercard" v="yes"/>
    <tag k="addr:street" v="Árpád tér"/>
    <tag k="fuel:diesel" v="yes"/>
    <tag k="amenity" v="fuel"/>
    <tag k="name" v="Avia"/>
    <tag k="facebook" v="https://www.facebook.com/AVIAHungary"/>
    <tag k="payment:visa" v="yes"/>
    <tag k="addr:postcode" v="7516"/>
    <tag k="website" v="https://www.avia.hu/toltoallomas/?id=44"/>
    <tag k="operator" v="AVIA Hungária Kft."/>
  </node>
  <!-- OSM link: https://osm.org/node/3489613996 -->
  <!-- Original coordinates: POINT (47.813262 21.850911) -->
  <!-- Original tags: {'source:date': '2010-05-10', 'url': 'http://turistautak.hu/poi.php?id=53006', 'amenity': 'fuel', 'source': 'turistautak.hu'} -->
  <node action="modify" changeset="1" id="3489613996" lat="47.813262" lon="21.850911" timestamp="2015-04-30T20:5108Z" uid="4579407" user="KAMI" version="1">
    <tag k="source:date" v="2010-05-10"/>
    <tag k="source" v="website"/>
    <tag k="addr:housenumber" v="32"/>
    <tag k="email" v="avia@avia.hu"/>
    <tag k="youtube" v="https://www.youtube.com/channel/UCjvjkjf2RgmKBuTnKSXk-Rg"/>
    <tag k="addr:city" v="Biri"/>
    <tag k="brand" v="Avia"/>
    <tag k="fuel:octane_95" v="yes"/>
    <tag k="payment:mastercard" v="yes"/>
    <tag k="addr:street" v="Fő utca"/>
    <tag k="fuel:diesel" v="yes"/>
    <tag k="url" v="http://turistautak.hu/poi.php?id=53006"/>
    <tag k="amenity" v="fuel"/>
    <tag k="name" v="Avia"/>
    <tag k="facebook" v="https://www.facebook.com/AVIAHungary"/>
    <tag k="payment:visa" v="yes"/>
    <tag k="addr:postcode" v="4235"/>
    <tag k="website" v="https://www.avia.hu/toltoallomas/?id=85"/>
    <tag k="operator" v="AVIA Hungária Kft."/>
  </node>
  <!-- OSM link: https://osm.org/way/209570435 -->
  <!-- Original coordinates: POINT (47.5146 19.1466) -->
  <!-- Original tags: {'building': 'yes', 'website': 'http://www.avia.hu', 'brand': 'AVIA', 'amenity': 'fuel', 'name': 'AVIA'} -->
  <way action="modify" changeset="1" id="209570435" timestamp="2015-03-15T10:4957Z" uid="4579407" user="KAMI" version="3">
    <nd ref="2197771374"/>
    <nd ref="2197771460"/>
    <nd ref="2197771287"/>
    <nd ref="2197771468"/>
    <nd ref="2197771328"/>
    <nd ref="2197771388"/>
    <nd ref="2197771502"/>
    <nd ref="2197771280"/>
    <nd ref="2197771447"/>
    <nd ref="2197771361"/>
    <nd ref="2197771396"/>
    <nd ref="2197771481"/>
    <nd ref="2197771374"/>
    <tag k="fuel:diesel" v="yes"/>
    <tag k="brand" v="Avia"/>
    <tag k="amenity" v="fuel"/>
    <tag k="name" v="Avia"/>
    <tag k="phone" v="+3614609623"/>
    <tag k="facebook" v="https://www.facebook.com/AVIAHungary"/>
    <tag k="addr:housenumber" v="67"/>
    <tag k="payment:visa" v="yes"/>
    <tag k="email" v="avia@avia.hu"/>
    <tag k="youtube" v="https://www.youtube.com/channel/UCjvjkjf2RgmKBuTnKSXk-Rg"/>
    <tag k="addr:city" v="Budapest"/>
    <tag k="building" v="yes"/>
    <tag k="operator" v="AVIA Hungária Kft."/>
    <tag k="fuel:octane_95" v="yes"/>
    <tag k="payment:mastercard" v="yes"/>
    <tag k="addr:postcode" v="1144"/>
    <tag k="website" v="https://www.avia.hu/toltoallomas/?id=12"/>
    <tag k="addr:street" v="Gvadányi út"/>
    <tag k="source" v="website"/>
  </way>
  <!-- Original coordinates: POINT (47.4114179 19.0566853) -->
  <!-- Original tags: None -->
  <node action="modify" changeset="99999" id="-9" lat="47.4114179" lon="19.0566853" timestamp="" uid="4579407" user="KAMI" version="99999">
    <tag k="brand" v="Avia"/>
    <tag k="source" v="website"/>
    <tag k="phone" v="+3614206675"/>
    <tag k="addr:housenumber" v="195-197"/>
    <tag k="email" v="avia@avia.hu"/>
    <tag k="youtube" v="https://www.youtube.com/channel/UCjvjkjf2RgmKBuTnKSXk-Rg"/>
    <tag k="addr:city" v="Budapest"/>
    <tag k="fuel:octane_95" v="yes"/>
    <tag k="payment:mastercard" v="yes"/>
    <tag k="addr:street" v="II. Rákóczi Ferenc utca"/>
    <tag k="fuel:diesel" v="yes"/>
    <tag k="amenity" v="fuel"/>
    <tag k="name" v="Avia"/>
    <tag k="facebook" v="https://www.facebook.com/AVIAHungary"/>
    <tag k="payment:visa" v="yes"/>
    <tag k="addr:postcode" v="1214"/>
    <tag k="website" v="https://www.avia.hu/toltoallomas/?id=1"/>
    <tag k="operator" v="AVIA Hungária Kft."/>
  </node>
  <!-- OSM link: https://osm.org/way/203129409 -->
  <!-- Original coordinates: POINT (47.5056 19.1604) -->
  <!-- Original tags: {'addr:city': 'Budapest', 'brand': 'AVIA', 'building': 'yes', 'addr:housename': 'Avia töltőállomás', 'name': 'AVIA', 'addr:housenumber': '89', 'addr:postcode': '1106', 'website': 'http://www.avia.hu', 'addr:street': 'Kerepesi út', 'amenity': 'fuel'} -->
  <way action="modify" changeset="1" id="203129409" timestamp="2016-02-02T10:1802Z" uid="4579407" user="KAMI" version="6">
    <nd ref="2131009295"/>
    <nd ref="2131009260"/>
    <nd ref="2473458175"/>
    <nd ref="2131009268"/>
    <nd ref="2131009244"/>
    <nd ref="2473458174"/>
    <nd ref="2131009295"/>
    <tag k="fuel:diesel" v="yes"/>
    <tag k="operator" v="AVIA Hungária Kft."/>
    <tag k="brand" v="Avia"/>
    <tag k="amenity" v="fuel"/>
    <tag k="name" v="Avia"/>
    <tag k="phone" v="+36209791555"/>
    <tag k="facebook" v="https://www.facebook.com/AVIAHungary"/>
    <tag k="addr:housenumber" v="89"/>
    <tag k="payment:visa" v="yes"/>
    <tag k="email" v="avia@avia.hu"/>
    <tag k="youtube" v="https://www.youtube.com/channel/UCjvjkjf2RgmKBuTnKSXk-Rg"/>
    <tag k="addr:city" v="Budapest"/>
    <tag k="building" v="yes"/>
    <tag k="addr:housename" v="Avia töltőállomás"/>
    <tag k="fuel:octane_95" v="yes"/>
    <tag k="payment:mastercard" v="yes"/>
    <tag k="addr:postcode" v="1106"/>
    <tag k="website" v="https://www.avia.hu/toltoallomas/?id=15"/>
    <tag k="addr:street" v="Kerepesi út"/>
    <tag k="source" v="website"/>
  </way>
  <!-- Original coordinates: POINT (47.4906585 19.1707465) -->
  <!-- Original tags: None -->
  <node action="modify" changeset="99999" id="-11" lat="47.4906585" lon="19.1707465" timestamp="" uid="4579407" user="KAMI" version="99999">
    <tag k="brand" v="Avia"/>
    <tag k="source" v="website"/>
    <tag k="phone" v="+36705055589"/>
    <tag k="addr:housenumber" v="108/a"/>
    <tag k="email" v="avia@avia.hu"/>
    <tag k="youtube" v="https://www.youtube.com/channel/UCjvjkjf2RgmKBuTnKSXk-Rg"/>
    <tag k="addr:city" v="Budapest"/>
    <tag k="fuel:octane_95" v="yes"/>
    <tag k="payment:mastercard" v="yes"/>
    <tag k="addr:street" v="Keresztúri utca"/>
    <tag k="fuel:diesel" v="yes"/>
    <tag k="amenity" v="fuel"/>
    <tag k="name" v="Avia"/>
    <tag k="facebook" v="https://www.facebook.com/AVIAHungary"/>
    <tag k="payment:visa" v="yes"/>
    <tag k="addr:postcode" v="1106"/>
    <tag k="website" v="https://www.avia.hu/toltoallomas/?id=132"/>
    <tag k="operator" v="AVIA Hungária Kft."/>
  </node>
  <!-- Original coordinates: POINT (47.3737605161 16.7782258987) -->
  <!-- Original tags: None -->
  <node action="modify" changeset="99999" id="-12" lat="47.3737605161" lon="16.7782258987" timestamp="" uid="4579407" user="KAMI" version="99999">
    <tag k="brand" v="Avia"/>
    <tag k="addr:conscriptionnumber" v="0131/3"/>
    <tag k="phone" v="+3694358050"/>
    <tag k="email" v="avia@avia.hu"/>
    <tag k="youtube" v="https://www.youtube.com/channel/UCjvjkjf2RgmKBuTnKSXk-Rg"/>
    <tag k="addr:city" v="Bük"/>
    <tag k="fuel:octane_95" v="yes"/>
    <tag k="payment:mastercard" v="yes"/>
    <tag k="source" v="website"/>
    <tag k="fuel:diesel" v="yes"/>
    <tag k="amenity" v="fuel"/>
    <tag k="name" v="Avia"/>
    <tag k="facebook" v="https://www.facebook.com/AVIAHungary"/>
    <tag k="payment:visa" v="yes"/>
    <tag k="addr:postcode" v="9737"/>
    <tag k="website" v="https://www.avia.hu/toltoallomas/?id=24"/>
    <tag k="operator" v="AVIA Hungária Kft."/>
  </node>
  <!-- OSM link: https://osm.org/node/2832259629 -->
  <!-- Original coordinates: POINT (48.2635133 21.8943333) -->
  <!-- Original tags: {'amenity': 'fuel'} -->
  <node action="modify" changeset="1" id="2832259629" lat="48.2635133" lon="21.8943333" timestamp="2014-05-02T18:4405Z" uid="4579407" user="KAMI" version="1">
    <tag k="brand" v="Avia"/>
    <tag k="source" v="website"/>
    <tag k="phone" v="+3647334222"/>
    <tag k="addr:housenumber" v="52/a"/>
    <tag k="email" v="avia@avia.hu"/>
    <tag k="youtube" v="https://www.youtube.com/channel/UCjvjkjf2RgmKBuTnKSXk-Rg"/>
    <tag k="addr:city" v="Cigánd"/>
    <tag k="fuel:octane_95" v="yes"/>
    <tag k="payment:mastercard" v="yes"/>
    <tag k="addr:street" v="Vasút út"/>
    <tag k="fuel:diesel" v="yes"/>
    <tag k="amenity" v="fuel"/>
    <tag k="name" v="Avia"/>
    <tag k="facebook" v="https://www.facebook.com/AVIAHungary"/>
    <tag k="payment:visa" v="yes"/>
    <tag k="addr:postcode" v="3973"/>
    <tag k="website" v="https://www.avia.hu/toltoallomas/?id=30"/>
    <tag k="operator" v="AVIA Hungária Kft."/>
  </node>
  <!-- OSM link: https://osm.org/node/3459862390 -->
  <!-- Original coordinates: POINT (46.978751 16.504104) -->
  <!-- Original tags: {'fixme': 'resurvey (source was old)', 'url': 'http://turistautak.hu/poi.php?id=25207', 'source': 'turistautak.hu', 'name': 'S&S', 'source:date': '2008-07-22', 'amenity': 'fuel'} -->
  <node action="modify" changeset="1" id="3459862390" lat="46.978751" lon="16.504104" timestamp="2015-04-16T17:4625Z" uid="4579407" user="KAMI" version="1">
    <tag k="fuel:diesel" v="yes"/>
    <tag k="source:date" v="2008-07-22"/>
    <tag k="url" v="http://turistautak.hu/poi.php?id=25207"/>
    <tag k="source" v="website"/>
    <tag k="name" v="Avia"/>
    <tag k="phone" v="+36203672096"/>
    <tag k="facebook" v="https://www.facebook.com/AVIAHungary"/>
    <tag k="addr:housenumber" v="70"/>
    <tag k="payment:visa" v="yes"/>
    <tag k="email" v="avia@avia.hu"/>
    <tag k="youtube" v="https://www.youtube.com/channel/UCjvjkjf2RgmKBuTnKSXk-Rg"/>
    <tag k="addr:city" v="Csákánydoroszló"/>
    <tag k="brand" v="Avia"/>
    <tag k="operator" v="AVIA Hungária Kft."/>
    <tag k="fixme" v="resurvey (source was old)"/>
    <tag k="fuel:octane_95" v="yes"/>
    <tag k="payment:mastercard" v="yes"/>
    <tag k="addr:postcode" v="9919"/>
    <tag k="website" v="https://www.avia.hu/toltoallomas/?id=121"/>
    <tag k="addr:street" v="Vasút utca"/>
    <tag k="amenity" v="fuel"/>
  </node>
  <!-- OSM link: https://osm.org/node/2706914586 -->
  <!-- Original coordinates: POINT (46.53155 20.883113) -->
  <!-- Original tags: {'amenity': 'fuel'} -->
  <node action="modify" changeset="1" id="2706914586" lat="46.53155" lon="20.883113" timestamp="2014-03-08T12:3703Z" uid="4579407" user="KAMI" version="1">
    <tag k="brand" v="Avia"/>
    <tag k="source" v="website"/>
    <tag k="phone" v="+3668520030"/>
    <tag k="email" v="avia@avia.hu"/>
    <tag k="youtube" v="https://www.youtube.com/channel/UCjvjkjf2RgmKBuTnKSXk-Rg"/>
    <tag k="addr:city" v="Csanádapáca"/>
    <tag k="fuel:octane_95" v="yes"/>
    <tag k="payment:mastercard" v="yes"/>
    <tag k="fuel:diesel" v="yes"/>
    <tag k="amenity" v="fuel"/>
    <tag k="name" v="Avia"/>
    <tag k="facebook" v="https://www.facebook.com/AVIAHungary"/>
    <tag k="payment:visa" v="yes"/>
    <tag k="addr:postcode" v="5662"/>
    <tag k="website" v="https://www.avia.hu/toltoallomas/?id=117"/>
    <tag k="operator" v="AVIA Hungária Kft."/>
  </node>
  <!-- OSM link: https://osm.org/node/3522567887 -->
  <!-- Original coordinates: POINT (47.650888 19.817247) -->
  <!-- Original tags: {'amenity': 'fuel'} -->
  <node action="modify" changeset="1" id="3522567887" lat="47.650888" lon="19.817247" timestamp="2015-05-16T21:0455Z" uid="4579407" user="KAMI" version="1">
    <tag k="brand" v="Avia"/>
    <tag k="source" v="website"/>
    <tag k="phone" v="+36309038486"/>
    <tag k="addr:housenumber" v="2/a"/>
    <tag k="email" v="avia@avia.hu"/>
    <tag k="youtube" v="https://www.youtube.com/channel/UCjvjkjf2RgmKBuTnKSXk-Rg"/>
    <tag k="addr:city" v="Csány"/>
    <tag k="fuel:octane_95" v="yes"/>
    <tag k="payment:mastercard" v="yes"/>
    <tag k="addr:street" v="Hatvani út"/>
    <tag k="fuel:diesel" v="yes"/>
    <tag k="amenity" v="fuel"/>
    <tag k="name" v="Avia"/>
    <tag k="facebook" v="https://www.facebook.com/AVIAHungary"/>
    <tag k="payment:visa" v="yes"/>
    <tag k="addr:postcode" v="3015"/>
    <tag k="website" v="https://www.avia.hu/toltoallomas/?id=115"/>
    <tag k="operator" v="AVIA Hungária Kft."/>
  </node>
  <!-- Original coordinates: POINT (47.41536 16.72103) -->
  <!-- Original tags: None -->
  <node action="modify" changeset="99999" id="-17" lat="47.41536" lon="16.72103" timestamp="" uid="4579407" user="KAMI" version="99999">
    <tag k="brand" v="Avia"/>
    <tag k="addr:conscriptionnumber" v="020/38"/>
    <tag k="phone" v="+3694565104"/>
    <tag k="email" v="avia@avia.hu"/>
    <tag k="youtube" v="https://www.youtube.com/channel/UCjvjkjf2RgmKBuTnKSXk-Rg"/>
    <tag k="addr:city" v="Csepreg"/>
    <tag k="fuel:octane_95" v="yes"/>
    <tag k="payment:mastercard" v="yes"/>
    <tag k="source" v="website"/>
    <tag k="fuel:diesel" v="yes"/>
    <tag k="amenity" v="fuel"/>
    <tag k="name" v="Avia"/>
    <tag k="facebook" v="https://www.facebook.com/AVIAHungary"/>
    <tag k="payment:visa" v="yes"/>
    <tag k="addr:postcode" v="9735"/>
    <tag k="website" v="https://www.avia.hu/toltoallomas/?id=7"/>
    <tag k="operator" v="AVIA Hungária Kft."/>
  </node>
  <!-- Original coordinates: POINT (46.372436 18.1480223) -->
  <!-- Original tags: None -->
  <node action="modify" changeset="99999" id="-18" lat="46.372436" lon="18.1480223" timestamp="" uid="4579407" user="KAMI" version="99999">
    <tag k="brand" v="Avia"/>
    <tag k="source" v="website"/>
    <tag k="phone" v="+3674679031"/>
    <tag k="addr:housenumber" v="1"/>
    <tag k="email" v="avia@avia.hu"/>
    <tag k="youtube" v="https://www.youtube.com/channel/UCjvjkjf2RgmKBuTnKSXk-Rg"/>
    <tag k="addr:city" v="Dombóvár"/>
    <tag k="fuel:octane_95" v="yes"/>
    <tag k="payment:mastercard" v="yes"/>
    <tag k="addr:street" v="Kórház utca"/>
    <tag k="fuel:diesel" v="yes"/>
    <tag k="amenity" v="fuel"/>
    <tag k="name" v="Avia"/>
    <tag k="facebook" v="https://www.facebook.com/AVIAHungary"/>
    <tag k="payment:visa" v="yes"/>
    <tag k="addr:postcode" v="7200"/>
    <tag k="website" v="https://www.avia.hu/toltoallomas/?id=3"/>
    <tag k="operator" v="AVIA Hungária Kft."/>
  </node>
  <!-- Original coordinates: POINT (46.9469324 18.2296874) -->
  <!-- Original tags: None -->
  <node action="modify" changeset="99999" id="-19" lat="46.9469324" lon="18.2296874" timestamp="" uid="4579407" user="KAMI" version="99999">
    <tag k="brand" v="Avia"/>
    <tag k="source" v="website"/>
    <tag k="phone" v="+3622572092"/>
    <tag k="addr:housenumber" v="119"/>
    <tag k="email" v="avia@avia.hu"/>
    <tag k="youtube" v="https://www.youtube.com/channel/UCjvjkjf2RgmKBuTnKSXk-Rg"/>
    <tag k="addr:city" v="Enying"/>
    <tag k="fuel:octane_95" v="yes"/>
    <tag k="payment:mastercard" v="yes"/>
    <tag k="addr:street" v="Dózsa György út"/>
    <tag k="fuel:diesel" v="yes"/>
    <tag k="amenity" v="fuel"/>
    <tag k="name" v="Avia"/>
    <tag k="facebook" v="https://www.facebook.com/AVIAHungary"/>
    <tag k="payment:visa" v="yes"/>
    <tag k="addr:postcode" v="8131"/>
    <tag k="website" v="https://www.avia.hu/toltoallomas/?id=123"/>
    <tag k="operator" v="AVIA Hungária Kft."/>
  </node>
  <!-- OSM link: https://osm.org/way/230182255 -->
  <!-- Original coordinates: POINT (47.38187568671469 18.90533030033112) -->
  <!-- Original tags: {'addr:city': 'Érd', 'addr:country': 'HU', 'brand': 'AVIA', 'fuel:lpg': 'yes', 'amenity': 'fuel', 'name': 'AVIA', 'building': 'yes', 'addr:postcode': '2030', 'opening_hours': 'Mo-Fr 6:00-18:00, Sa 6:00-13:00', 'addr:street': 'Szent László tér', 'website': 'http://www.avia.hu'} -->
  <way action="modify" changeset="1" id="230182255" timestamp="2015-06-01T05:5517Z" uid="4579407" user="KAMI" version="5">
    <nd ref="2387126750"/>
    <nd ref="2924649153"/>
    <nd ref="2924649156"/>
    <nd ref="2387126757"/>
    <nd ref="2387126761"/>
    <nd ref="2924649159"/>
    <nd ref="2924649158"/>
    <nd ref="2387126754"/>
    <nd ref="2924649150"/>
    <nd ref="2387126750"/>
    <tag k="addr:country" v="HU"/>
    <tag k="brand" v="Avia"/>
    <tag k="source" v="website"/>
    <tag k="phone" v="+36203967870"/>
    <tag k="addr:housenumber" v="6"/>
    <tag k="email" v="avia@avia.hu"/>
    <tag k="youtube" v="https://www.youtube.com/channel/UCjvjkjf2RgmKBuTnKSXk-Rg"/>
    <tag k="addr:city" v="Érd"/>
    <tag k="fuel:octane_95" v="yes"/>
    <tag k="payment:mastercard" v="yes"/>
    <tag k="addr:street" v="Szent László tér"/>
    <tag k="fuel:diesel" v="yes"/>
    <tag k="fuel:lpg" v="yes"/>
    <tag k="amenity" v="fuel"/>
    <tag k="name" v="Avia"/>
    <tag k="facebook" v="https://www.facebook.com/AVIAHungary"/>
    <tag k="payment:visa" v="yes"/>
    <tag k="opening_hours" v="Mo-Fr 6:00-18:00, Sa 6:00-13:00"/>
    <tag k="building" v="yes"/>
    <tag k="addr:postcode" v="2030"/>
    <tag k="website" v="https://www.avia.hu/toltoallomas/?id=67"/>
    <tag k="operator" v="AVIA Hungária Kft."/>
  </way>
  <!-- OSM link: https://osm.org/node/2007242256 -->
  <!-- Original coordinates: POINT (48.32901 21.0965) -->
  <!-- Original tags: {'amenity': 'fuel'} -->
  <node action="modify" changeset="1" id="2007242256" lat="48.32901" lon="21.0965" timestamp="2012-11-10T22:3428Z" uid="4579407" user="KAMI" version="6">
    <tag k="brand" v="Avia"/>
    <tag k="source" v="website"/>
    <tag k="phone" v="+3646587299"/>
    <tag k="addr:housenumber" v="1"/>
    <tag k="email" v="avia@avia.hu"/>
    <tag k="youtube" v="https://www.youtube.com/channel/UCjvjkjf2RgmKBuTnKSXk-Rg"/>
    <tag k="addr:city" v="Forró"/>
    <tag k="fuel:octane_95" v="yes"/>
    <tag k="payment:mastercard" v="yes"/>
    <tag k="addr:street" v="Széchenyi utca"/>
    <tag k="fuel:diesel" v="yes"/>
    <tag k="amenity" v="fuel"/>
    <tag k="name" v="Avia"/>
    <tag k="facebook" v="https://www.facebook.com/AVIAHungary"/>
    <tag k="payment:visa" v="yes"/>
    <tag k="addr:postcode" v="3849"/>
    <tag k="website" v="https://www.avia.hu/toltoallomas/?id=28"/>
    <tag k="operator" v="AVIA Hungária Kft."/>
  </node>
  <!-- Original coordinates: POINT (47.436245 19.383544) -->
  <!-- Original tags: None -->
  <node action="modify" changeset="99999" id="-22" lat="47.436245" lon="19.383544" timestamp="" uid="4579407" user="KAMI" version="99999">
    <tag k="brand" v="Avia"/>
    <tag k="addr:conscriptionnumber" v="5823"/>
    <tag k="phone" v="+36309964591"/>
    <tag k="email" v="avia@avia.hu"/>
    <tag k="youtube" v="https://www.youtube.com/channel/UCjvjkjf2RgmKBuTnKSXk-Rg"/>
    <tag k="addr:city" v="Gyömrő"/>
    <tag k="fuel:octane_95" v="yes"/>
    <tag k="payment:mastercard" v="yes"/>
    <tag k="addr:street" v="Kóczán út"/>
    <tag k="source" v="website"/>
    <tag k="fuel:diesel" v="yes"/>
    <tag k="amenity" v="fuel"/>
    <tag k="name" v="Avia"/>
    <tag k="facebook" v="https://www.facebook.com/AVIAHungary"/>
    <tag k="payment:visa" v="yes"/>
    <tag k="addr:postcode" v="2230"/>
    <tag k="website" v="https://www.avia.hu/toltoallomas/?id=93"/>
    <tag k="operator" v="AVIA Hungária Kft."/>
  </node>
  <!-- OSM link: https://osm.org/node/4855752833 -->
  <!-- Original coordinates: POINT (47.775872 19.947977) -->
  <!-- Original tags: {'brand': 'AVIA', 'amenity': 'fuel'} -->
  <node action="modify" changeset="1" id="4855752833" lat="47.775872" lon="19.947977" timestamp="2017-05-15T13:3327Z" uid="4579407" user="KAMI" version="1">
    <tag k="brand" v="Avia"/>
    <tag k="source" v="website"/>
    <tag k="phone" v="+3637300528"/>
    <tag k="addr:housenumber" v="78"/>
    <tag k="email" v="avia@avia.hu"/>
    <tag k="youtube" v="https://www.youtube.com/channel/UCjvjkjf2RgmKBuTnKSXk-Rg"/>
    <tag k="addr:city" v="Gyöngyös"/>
    <tag k="fuel:octane_95" v="yes"/>
    <tag k="payment:mastercard" v="yes"/>
    <tag k="addr:street" v="Szurdokpart út"/>
    <tag k="fuel:diesel" v="yes"/>
    <tag k="amenity" v="fuel"/>
    <tag k="name" v="Avia"/>
    <tag k="facebook" v="https://www.facebook.com/AVIAHungary"/>
    <tag k="payment:visa" v="yes"/>
    <tag k="addr:postcode" v="3200"/>
    <tag k="website" v="https://www.avia.hu/toltoallomas/?id=35"/>
    <tag k="operator" v="AVIA Hungária Kft."/>
  </node>
  <!-- Original coordinates: POINT (47.67494572942535 17.67264604568481) -->
  <!-- Original tags: None -->
  <node action="modify" changeset="99999" id="-24" lat="47.67494572942535" lon="17.672646045684814" timestamp="" uid="4579407" user="KAMI" version="99999">
    <tag k="brand" v="Avia"/>
    <tag k="source" v="website"/>
    <tag k="phone" v="+3696410327"/>
    <tag k="addr:housenumber" v="75"/>
    <tag k="email" v="avia@avia.hu"/>
    <tag k="youtube" v="https://www.youtube.com/channel/UCjvjkjf2RgmKBuTnKSXk-Rg"/>
    <tag k="addr:city" v="Győr"/>
    <tag k="fuel:octane_95" v="yes"/>
    <tag k="payment:mastercard" v="yes"/>
    <tag k="addr:street" v="Fehérvári út"/>
    <tag k="fuel:diesel" v="yes"/>
    <tag k="amenity" v="fuel"/>
    <tag k="name" v="Avia"/>
    <tag k="facebook" v="https://www.facebook.com/AVIAHungary"/>
    <tag k="payment:visa" v="yes"/>
    <tag k="addr:postcode" v="9028"/>
    <tag k="website" v="https://www.avia.hu/toltoallomas/?id=76"/>
    <tag k="operator" v="AVIA Hungária Kft."/>
  </node>
  <!-- OSM link: https://osm.org/node/2688867841 -->
  <!-- Original coordinates: POINT (47.69199 21.67209) -->
  <!-- Original tags: {'addr:city': 'Hajdúhadház', 'brand': 'AVIA', 'amenity': 'fuel', 'name': 'AVIA', 'phone': '+3652583048', 'addr:housenumber': '56', 'addr:postcode': '4242', 'website': 'http://www.avia.hu', 'addr:street': 'Dr. Földi János utca'} -->
  <node action="modify" changeset="1" id="2688867841" lat="47.69199" lon="21.67209" timestamp="2015-03-15T10:5000Z" uid="4579407" user="KAMI" version="3">
    <tag k="brand" v="Avia"/>
    <tag k="source" v="website"/>
    <tag k="phone" v="+3652583048"/>
    <tag k="addr:housenumber" v="56"/>
    <tag k="email" v="avia@avia.hu"/>
    <tag k="youtube" v="https://www.youtube.com/channel/UCjvjkjf2RgmKBuTnKSXk-Rg"/>
    <tag k="addr:city" v="Hajdúhadház"/>
    <tag k="fuel:octane_95" v="yes"/>
    <tag k="payment:mastercard" v="yes"/>
    <tag k="addr:street" v="Földi János utca"/>
    <tag k="fuel:diesel" v="yes"/>
    <tag k="amenity" v="fuel"/>
    <tag k="name" v="Avia"/>
    <tag k="facebook" v="https://www.facebook.com/AVIAHungary"/>
    <tag k="payment:visa" v="yes"/>
    <tag k="addr:postcode" v="4242"/>
    <tag k="website" v="https://www.avia.hu/toltoallomas/?id=29"/>
    <tag k="operator" v="AVIA Hungária Kft."/>
  </node>
  <!-- OSM link: https://osm.org/way/470409859 -->
  <!-- Original coordinates: POINT (45.94474164603746 18.94551515579224) -->
  <!-- Original tags: {'addr:city': 'Hercegszántó', 'name': 'Avia', 'brand': 'Avia', 'fuel:lpg': 'yes', 'amenity': 'fuel', 'fuel:octane_98': 'yes', 'website': 'http://www.avia.hu/', 'fuel:octane_95': 'yes', 'building': 'retail', 'opening_hours': 'Mo-Su 06:00-21:00', 'fuel:diesel': 'yes'} -->
  <way action="modify" changeset="1" id="470409859" timestamp="2017-01-30T22:4850Z" uid="4579407" user="KAMI" version="2">
    <nd ref="4645843524"/>
    <nd ref="4645843525"/>
    <nd ref="4645843526"/>
    <nd ref="4645843527"/>
    <nd ref="4645843524"/>
    <tag k="brand" v="Avia"/>
    <tag k="addr:conscriptionnumber" v="1216/2"/>
    <tag k="phone" v="+3679522730"/>
    <tag k="email" v="avia@avia.hu"/>
    <tag k="youtube" v="https://www.youtube.com/channel/UCjvjkjf2RgmKBuTnKSXk-Rg"/>
    <tag k="addr:city" v="Hercegszántó"/>
    <tag k="fuel:octane_95" v="yes"/>
    <tag k="payment:mastercard" v="yes"/>
    <tag k="source" v="website"/>
    <tag k="fuel:diesel" v="yes"/>
    <tag k="fuel:lpg" v="yes"/>
    <tag k="amenity" v="fuel"/>
    <tag k="name" v="Avia"/>
    <tag k="facebook" v="https://www.facebook.com/AVIAHungary"/>
    <tag k="payment:visa" v="yes"/>
    <tag k="opening_hours" v="Mo-Su 06:00-21:00"/>
    <tag k="building" v="retail"/>
    <tag k="fuel:octane_98" v="yes"/>
    <tag k="addr:postcode" v="6525"/>
    <tag k="website" v="https://www.avia.hu/toltoallomas/?id=64"/>
    <tag k="operator" v="AVIA Hungária Kft."/>
  </way>
  <!-- OSM link: https://osm.org/node/1498877205 -->
  <!-- Original coordinates: POINT (48.094175 20.96659) -->
  <!-- Original tags: {'website': 'http://www.avia.hu', 'brand': 'AVIA', 'amenity': 'fuel', 'name': 'AVIA'} -->
  <node action="modify" changeset="1" id="1498877205" lat="48.094175" lon="20.96659" timestamp="2015-03-15T10:5001Z" uid="4579407" user="KAMI" version="3">
    <tag k="brand" v="Avia"/>
    <tag k="source" v="website"/>
    <tag k="phone" v="+36209823188"/>
    <tag k="addr:housenumber" v="1/a"/>
    <tag k="email" v="avia@avia.hu"/>
    <tag k="youtube" v="https://www.youtube.com/channel/UCjvjkjf2RgmKBuTnKSXk-Rg"/>
    <tag k="addr:city" v="Hernádkak"/>
    <tag k="fuel:octane_95" v="yes"/>
    <tag k="payment:mastercard" v="yes"/>
    <tag k="addr:street" v="Széchenyi utca"/>
    <tag k="fuel:diesel" v="yes"/>
    <tag k="amenity" v="fuel"/>
    <tag k="name" v="Avia"/>
    <tag k="facebook" v="https://www.facebook.com/AVIAHungary"/>
    <tag k="payment:visa" v="yes"/>
    <tag k="addr:postcode" v="3563"/>
    <tag k="website" v="https://www.avia.hu/toltoallomas/?id=41"/>
    <tag k="operator" v="AVIA Hungária Kft."/>
  </node>
  <!-- OSM link: https://osm.org/node/3440814440 -->
  <!-- Original coordinates: POINT (46.1470901828 18.3530044556) -->
  <!-- Original tags: {'url': 'http://turistautak.hu/poi.php?id=11245', 'amenity': 'fuel', 'toilets:wheelchair': 'yes', 'wheelchair': 'yes', 'source:date': '2015-01-12', 'source': 'turistautak.hu'} -->
  <node action="modify" changeset="1" id="3440814440" lat="46.1470901828" lon="18.3530044556" timestamp="2017-08-18T08:5445Z" uid="4579407" user="KAMI" version="2">
    <tag k="source:date" v="2015-01-12"/>
    <tag k="source" v="website"/>
    <tag k="phone" v="+36303750795"/>
    <tag k="addr:housenumber" v="40"/>
    <tag k="email" v="avia@avia.hu"/>
    <tag k="youtube" v="https://www.youtube.com/channel/UCjvjkjf2RgmKBuTnKSXk-Rg"/>
    <tag k="addr:city" v="Hosszúhetény"/>
    <tag k="brand" v="Avia"/>
    <tag k="toilets:wheelchair" v="yes"/>
    <tag k="wheelchair" v="yes"/>
    <tag k="fuel:octane_95" v="yes"/>
    <tag k="payment:mastercard" v="yes"/>
    <tag k="addr:street" v="Széchenyi utca"/>
    <tag k="fuel:diesel" v="yes"/>
    <tag k="url" v="http://turistautak.hu/poi.php?id=11245"/>
    <tag k="amenity" v="fuel"/>
    <tag k="name" v="Avia"/>
    <tag k="facebook" v="https://www.facebook.com/AVIAHungary"/>
    <tag k="payment:visa" v="yes"/>
    <tag k="addr:postcode" v="7694"/>
    <tag k="website" v="https://www.avia.hu/toltoallomas/?id=107"/>
    <tag k="operator" v="AVIA Hungária Kft."/>
  </node>
  <!-- Original coordinates: POINT (47.6695339 19.4266194) -->
  <!-- Original tags: None -->
  <node action="modify" changeset="99999" id="-29" lat="47.6695339" lon="19.4266194" timestamp="" uid="4579407" user="KAMI" version="99999">
    <tag k="brand" v="Avia"/>
    <tag k="source" v="website"/>
    <tag k="phone" v="+36202769846"/>
    <tag k="email" v="avia@avia.hu"/>
    <tag k="youtube" v="https://www.youtube.com/channel/UCjvjkjf2RgmKBuTnKSXk-Rg"/>
    <tag k="addr:city" v="Iklad"/>
    <tag k="fuel:octane_95" v="yes"/>
    <tag k="payment:mastercard" v="yes"/>
    <tag k="fuel:diesel" v="yes"/>
    <tag k="amenity" v="fuel"/>
    <tag k="name" v="Avia"/>
    <tag k="facebook" v="https://www.facebook.com/AVIAHungary"/>
    <tag k="payment:visa" v="yes"/>
    <tag k="addr:postcode" v="2181"/>
    <tag k="website" v="https://www.avia.hu/toltoallomas/?id=130"/>
    <tag k="operator" v="AVIA Hungária Kft."/>
  </node>
  <!-- Original coordinates: POINT (47.358585 20.094) -->
  <!-- Original tags: None -->
  <node action="modify" changeset="99999" id="-30" lat="47.358585" lon="20.094" timestamp="" uid="4579407" user="KAMI" version="99999">
    <tag k="brand" v="Avia"/>
    <tag k="source" v="website"/>
    <tag k="phone" v="+36303731046"/>
    <tag k="addr:housenumber" v="1/c"/>
    <tag k="email" v="avia@avia.hu"/>
    <tag k="youtube" v="https://www.youtube.com/channel/UCjvjkjf2RgmKBuTnKSXk-Rg"/>
    <tag k="addr:city" v="Jászalsószentgyörgy"/>
    <tag k="fuel:octane_95" v="yes"/>
    <tag k="payment:mastercard" v="yes"/>
    <tag k="addr:street" v="Béke út"/>
    <tag k="fuel:diesel" v="yes"/>
    <tag k="amenity" v="fuel"/>
    <tag k="name" v="Avia"/>
    <tag k="facebook" v="https://www.facebook.com/AVIAHungary"/>
    <tag k="payment:visa" v="yes"/>
    <tag k="addr:postcode" v="5054"/>
    <tag k="website" v="https://www.avia.hu/toltoallomas/?id=129"/>
    <tag k="operator" v="AVIA Hungária Kft."/>
  </node>
  <!-- OSM link: https://osm.org/node/2314425456 -->
  <!-- Original coordinates: POINT (47.49033 19.89146) -->
  <!-- Original tags: {'website': 'http://www.avia.hu', 'brand': 'AVIA', 'amenity': 'fuel', 'name': 'AVIA'} -->
  <node action="modify" changeset="1" id="2314425456" lat="47.49033" lon="19.89146" timestamp="2016-02-29T09:2336Z" uid="4579407" user="KAMI" version="3">
    <tag k="brand" v="Avia"/>
    <tag k="source" v="website"/>
    <tag k="phone" v="+3657515022"/>
    <tag k="addr:housenumber" v="3"/>
    <tag k="email" v="avia@avia.hu"/>
    <tag k="youtube" v="https://www.youtube.com/channel/UCjvjkjf2RgmKBuTnKSXk-Rg"/>
    <tag k="addr:city" v="Jászberény"/>
    <tag k="fuel:octane_95" v="yes"/>
    <tag k="payment:mastercard" v="yes"/>
    <tag k="addr:street" v="Nagykátai út"/>
    <tag k="fuel:diesel" v="yes"/>
    <tag k="amenity" v="fuel"/>
    <tag k="name" v="Avia"/>
    <tag k="facebook" v="https://www.facebook.com/AVIAHungary"/>
    <tag k="payment:visa" v="yes"/>
    <tag k="addr:postcode" v="5100"/>
    <tag k="website" v="https://www.avia.hu/toltoallomas/?id=87"/>
    <tag k="operator" v="AVIA Hungária Kft."/>
  </node>
  <!-- Original coordinates: POINT (47.578773 19.736515) -->
  <!-- Original tags: None -->
  <node action="modify" changeset="99999" id="-32" lat="47.578773" lon="19.736515" timestamp="" uid="4579407" user="KAMI" version="99999">
    <tag k="brand" v="Avia"/>
    <tag k="addr:conscriptionnumber" v="05/150"/>
    <tag k="email" v="avia@avia.hu"/>
    <tag k="youtube" v="https://www.youtube.com/channel/UCjvjkjf2RgmKBuTnKSXk-Rg"/>
    <tag k="addr:city" v="Jászfényszaru"/>
    <tag k="fuel:octane_95" v="yes"/>
    <tag k="payment:mastercard" v="yes"/>
    <tag k="source" v="website"/>
    <tag k="fuel:diesel" v="yes"/>
    <tag k="amenity" v="fuel"/>
    <tag k="name" v="Avia"/>
    <tag k="facebook" v="https://www.facebook.com/AVIAHungary"/>
    <tag k="payment:visa" v="yes"/>
    <tag k="addr:postcode" v="5126"/>
    <tag k="website" v="https://www.avia.hu/toltoallomas/?id=43"/>
    <tag k="operator" v="AVIA Hungária Kft."/>
  </node>
  <!-- OSM link: https://osm.org/way/455398698 -->
  <!-- Original coordinates: POINT (47.245595 18.69539) -->
  <!-- Original tags: {'building': 'retail', 'website': 'http://www.eni.com/', 'brand': 'Agip', 'amenity': 'fuel', 'name': 'Agip'} -->
  <way action="modify" changeset="1" id="455398698" timestamp="2016-11-23T22:2908Z" uid="4579407" user="KAMI" version="1">
    <nd ref="4518054216"/>
    <nd ref="4518054217"/>
    <nd ref="4518054218"/>
    <nd ref="4518054219"/>
    <nd ref="4518054230"/>
    <nd ref="4518054231"/>
    <nd ref="4518054220"/>
    <nd ref="4518054221"/>
    <nd ref="4518054216"/>
    <tag k="brand" v="Avia"/>
    <tag k="source" v="website"/>
    <tag k="phone" v="+3622574011"/>
    <tag k="email" v="avia@avia.hu"/>
    <tag k="youtube" v="https://www.youtube.com/channel/UCjvjkjf2RgmKBuTnKSXk-Rg"/>
    <tag k="addr:city" v="Kápolnásnyék"/>
    <tag k="fuel:octane_95" v="yes"/>
    <tag k="payment:mastercard" v="yes"/>
    <tag k="addr:street" v="7 főút"/>
    <tag k="fuel:diesel" v="yes"/>
    <tag k="amenity" v="fuel"/>
    <tag k="name" v="Avia"/>
    <tag k="facebook" v="https://www.facebook.com/AVIAHungary"/>
    <tag k="payment:visa" v="yes"/>
    <tag k="building" v="retail"/>
    <tag k="addr:postcode" v="2475"/>
    <tag k="website" v="https://www.avia.hu/toltoallomas/?id=119"/>
    <tag k="operator" v="AVIA Hungária Kft."/>
  </way>
  <!-- OSM link: https://osm.org/node/348038162 -->
  <!-- Original coordinates: POINT (46.35311127799832 17.68734455108643) -->
  <!-- Original tags: {'amenity': 'fuel', 'name': 'AVIA benzinkút'} -->
  <node action="modify" changeset="1" id="348038162" lat="46.353111277998316" lon="17.687344551086426" timestamp="2017-12-02T18:0259Z" uid="4579407" user="KAMI" version="2">
    <tag k="brand" v="Avia"/>
    <tag k="source" v="website"/>
    <tag k="phone" v="+36307566687"/>
    <tag k="email" v="avia@avia.hu"/>
    <tag k="youtube" v="https://www.youtube.com/channel/UCjvjkjf2RgmKBuTnKSXk-Rg"/>
    <tag k="addr:city" v="Kaposfő"/>
    <tag k="fuel:octane_95" v="yes"/>
    <tag k="payment:mastercard" v="yes"/>
    <tag k="addr:conscriptionnumber" v="643/5"/>
    <tag k="fuel:diesel" v="yes"/>
    <tag k="amenity" v="fuel"/>
    <tag k="name" v="Avia"/>
    <tag k="facebook" v="https://www.facebook.com/AVIAHungary"/>
    <tag k="payment:visa" v="yes"/>
    <tag k="addr:postcode" v="7523"/>
    <tag k="website" v="https://www.avia.hu/toltoallomas/?id=20"/>
    <tag k="operator" v="AVIA Hungária Kft."/>
  </node>
  <!-- Original coordinates: POINT (46.7053452 19.8499916) -->
  <!-- Original tags: None -->
  <node action="modify" changeset="99999" id="-35" lat="46.7053452" lon="19.8499916" timestamp="" uid="4579407" user="KAMI" version="99999">
    <tag k="brand" v="Avia"/>
    <tag k="source" v="website"/>
    <tag k="phone" v="+36302168639"/>
    <tag k="addr:housenumber" v="89"/>
    <tag k="email" v="avia@avia.hu"/>
    <tag k="youtube" v="https://www.youtube.com/channel/UCjvjkjf2RgmKBuTnKSXk-Rg"/>
    <tag k="addr:city" v="Kiskunfélegyháza"/>
    <tag k="fuel:octane_95" v="yes"/>
    <tag k="payment:mastercard" v="yes"/>
    <tag k="addr:street" v="Szegedi út"/>
    <tag k="fuel:diesel" v="yes"/>
    <tag k="amenity" v="fuel"/>
    <tag k="name" v="Avia"/>
    <tag k="facebook" v="https://www.facebook.com/AVIAHungary"/>
    <tag k="payment:visa" v="yes"/>
    <tag k="addr:postcode" v="6100"/>
    <tag k="website" v="https://www.avia.hu/toltoallomas/?id=60"/>
    <tag k="operator" v="AVIA Hungária Kft."/>
  </node>
  <!-- OSM link: https://osm.org/node/4872047436 -->
  <!-- Original coordinates: POINT (46.41984 19.47833) -->
  <!-- Original tags: {'amenity': 'fuel'} -->
  <node action="modify" changeset="1" id="4872047436" lat="46.41984" lon="19.47833" timestamp="2017-05-23T12:2453Z" uid="4579407" user="KAMI" version="1">
    <tag k="brand" v="Avia"/>
    <tag k="source" v="website"/>
    <tag k="phone" v="+36305752027"/>
    <tag k="addr:housenumber" v="21"/>
    <tag k="email" v="avia@avia.hu"/>
    <tag k="youtube" v="https://www.youtube.com/channel/UCjvjkjf2RgmKBuTnKSXk-Rg"/>
    <tag k="addr:city" v="Kiskunhalas"/>
    <tag k="fuel:octane_95" v="yes"/>
    <tag k="payment:mastercard" v="yes"/>
    <tag k="addr:street" v="Tinódi utca"/>
    <tag k="fuel:diesel" v="yes"/>
    <tag k="amenity" v="fuel"/>
    <tag k="name" v="Avia"/>
    <tag k="facebook" v="https://www.facebook.com/AVIAHungary"/>
    <tag k="payment:visa" v="yes"/>
    <tag k="addr:postcode" v="6400"/>
    <tag k="website" v="https://www.avia.hu/toltoallomas/?id=62"/>
    <tag k="operator" v="AVIA Hungária Kft."/>
  </node>
  <!-- OSM link: https://osm.org/node/3295037725 -->
  <!-- Original coordinates: POINT (47.1728 18.9927) -->
  <!-- Original tags: {'website': 'http://www.avia.hu', 'brand': 'AVIA', 'amenity': 'fuel', 'name': 'AVIA'} -->
  <node action="modify" changeset="1" id="3295037725" lat="47.1728" lon="18.9927" timestamp="2015-03-15T10:4959Z" uid="4579407" user="KAMI" version="2">
    <tag k="brand" v="Avia"/>
    <tag k="source" v="website"/>
    <tag k="phone" v="+3624511690"/>
    <tag k="email" v="avia@avia.hu"/>
    <tag k="youtube" v="https://www.youtube.com/channel/UCjvjkjf2RgmKBuTnKSXk-Rg"/>
    <tag k="addr:city" v="Kiskunlacháza"/>
    <tag k="fuel:octane_95" v="yes"/>
    <tag k="payment:mastercard" v="yes"/>
    <tag k="addr:street" v="Ráckevei út"/>
    <tag k="addr:conscriptionnumber" v="090/1"/>
    <tag k="fuel:diesel" v="yes"/>
    <tag k="amenity" v="fuel"/>
    <tag k="name" v="Avia"/>
    <tag k="facebook" v="https://www.facebook.com/AVIAHungary"/>
    <tag k="payment:visa" v="yes"/>
    <tag k="addr:postcode" v="2340"/>
    <tag k="website" v="https://www.avia.hu/toltoallomas/?id=16"/>
    <tag k="operator" v="AVIA Hungária Kft."/>
  </node>
  <!-- Original coordinates: POINT (47.540445 18.337543) -->
  <!-- Original tags: None -->
  <node action="modify" changeset="99999" id="-38" lat="47.540445" lon="18.337543" timestamp="" uid="4579407" user="KAMI" version="99999">
    <tag k="brand" v="Avia"/>
    <tag k="addr:conscriptionnumber" v="0633/21"/>
    <tag k="phone" v="+36209176840"/>
    <tag k="email" v="avia@avia.hu"/>
    <tag k="youtube" v="https://www.youtube.com/channel/UCjvjkjf2RgmKBuTnKSXk-Rg"/>
    <tag k="addr:city" v="Környe"/>
    <tag k="fuel:octane_95" v="yes"/>
    <tag k="payment:mastercard" v="yes"/>
    <tag k="source" v="website"/>
    <tag k="fuel:diesel" v="yes"/>
    <tag k="amenity" v="fuel"/>
    <tag k="name" v="Avia"/>
    <tag k="facebook" v="https://www.facebook.com/AVIAHungary"/>
    <tag k="payment:visa" v="yes"/>
    <tag k="addr:postcode" v="2851"/>
    <tag k="website" v="https://www.avia.hu/toltoallomas/?id=126"/>
    <tag k="operator" v="AVIA Hungária Kft."/>
  </node>
  <!-- Original coordinates: POINT (47.390675 16.551771) -->
  <!-- Original tags: None -->
  <node action="modify" changeset="99999" id="-39" lat="47.390675" lon="16.551771" timestamp="" uid="4579407" user="KAMI" version="99999">
    <tag k="brand" v="Avia"/>
    <tag k="source" v="website"/>
    <tag k="phone" v="+3694505391"/>
    <tag k="addr:housenumber" v="42"/>
    <tag k="email" v="avia@avia.hu"/>
    <tag k="youtube" v="https://www.youtube.com/channel/UCjvjkjf2RgmKBuTnKSXk-Rg"/>
    <tag k="addr:city" v="Kőszeg"/>
    <tag k="fuel:octane_95" v="yes"/>
    <tag k="payment:mastercard" v="yes"/>
    <tag k="addr:street" v="Alsó körút"/>
    <tag k="fuel:diesel" v="yes"/>
    <tag k="amenity" v="fuel"/>
    <tag k="name" v="Avia"/>
    <tag k="facebook" v="https://www.facebook.com/AVIAHungary"/>
    <tag k="payment:visa" v="yes"/>
    <tag k="addr:postcode" v="9730"/>
    <tag k="website" v="https://www.avia.hu/toltoallomas/?id=10"/>
    <tag k="operator" v="AVIA Hungária Kft."/>
  </node>
  <!-- OSM link: https://osm.org/node/2007066505 -->
  <!-- Original coordinates: POINT (47.032826 19.542944) -->
  <!-- Original tags: {'amenity': 'fuel'} -->
  <node action="modify" changeset="1" id="2007066505" lat="47.032826" lon="19.542944" timestamp="2012-11-10T19:4432Z" uid="4579407" user="KAMI" version="1">
    <tag k="brand" v="Avia"/>
    <tag k="source" v="website"/>
    <tag k="phone" v="+3676356200"/>
    <tag k="email" v="avia@avia.hu"/>
    <tag k="youtube" v="https://www.youtube.com/channel/UCjvjkjf2RgmKBuTnKSXk-Rg"/>
    <tag k="addr:city" v="Lajosmizse"/>
    <tag k="fuel:octane_95" v="yes"/>
    <tag k="payment:mastercard" v="yes"/>
    <tag k="fuel:diesel" v="yes"/>
    <tag k="amenity" v="fuel"/>
    <tag k="name" v="Avia"/>
    <tag k="facebook" v="https://www.facebook.com/AVIAHungary"/>
    <tag k="payment:visa" v="yes"/>
    <tag k="addr:postcode" v="6050"/>
    <tag k="website" v="https://www.avia.hu/toltoallomas/?id=48"/>
    <tag k="operator" v="AVIA Hungária Kft."/>
  </node>
  <!-- OSM link: https://osm.org/way/192450011 -->
  <!-- Original coordinates: POINT (47.899722 17.201486) -->
  <!-- Original tags: {'building': 'yes', 'amenity': 'fuel', 'operator': 'Avia'} -->
  <way action="modify" changeset="1" id="192450011" timestamp="2012-11-24T14:0440Z" uid="4579407" user="KAMI" version="1">
    <nd ref="2030038998"/>
    <nd ref="2030038991"/>
    <nd ref="2030038973"/>
    <nd ref="2030038969"/>
    <nd ref="2030038967"/>
    <nd ref="2030038975"/>
    <nd ref="2030038998"/>
    <tag k="fuel:diesel" v="yes"/>
    <tag k="brand" v="Avia"/>
    <tag k="amenity" v="fuel"/>
    <tag k="name" v="Avia"/>
    <tag k="phone" v="+3696229393"/>
    <tag k="facebook" v="https://www.facebook.com/AVIAHungary"/>
    <tag k="addr:housenumber" v="8"/>
    <tag k="payment:visa" v="yes"/>
    <tag k="email" v="avia@avia.hu"/>
    <tag k="youtube" v="https://www.youtube.com/channel/UCjvjkjf2RgmKBuTnKSXk-Rg"/>
    <tag k="addr:city" v="Levél"/>
    <tag k="building" v="yes"/>
    <tag k="operator" v="AVIA Hungária Kft."/>
    <tag k="fuel:octane_95" v="yes"/>
    <tag k="payment:mastercard" v="yes"/>
    <tag k="addr:postcode" v="9221"/>
    <tag k="website" v="https://www.avia.hu/toltoallomas/?id=17"/>
    <tag k="addr:street" v="Szerviz utca"/>
    <tag k="source" v="website"/>
  </way>
  <!-- Original coordinates: POINT (46.59135470715854 17.40480065345764) -->
  <!-- Original tags: None -->
  <node action="modify" changeset="99999" id="-42" lat="46.59135470715854" lon="17.40480065345764" timestamp="" uid="4579407" user="KAMI" version="99999">
    <tag k="brand" v="Avia"/>
    <tag k="source" v="website"/>
    <tag k="phone" v="+3685510005"/>
    <tag k="addr:housenumber" v="97"/>
    <tag k="email" v="avia@avia.hu"/>
    <tag k="youtube" v="https://www.youtube.com/channel/UCjvjkjf2RgmKBuTnKSXk-Rg"/>
    <tag k="addr:city" v="Marcali"/>
    <tag k="fuel:octane_95" v="yes"/>
    <tag k="payment:mastercard" v="yes"/>
    <tag k="addr:street" v="Berzsenyi út"/>
    <tag k="fuel:diesel" v="yes"/>
    <tag k="amenity" v="fuel"/>
    <tag k="name" v="Avia"/>
    <tag k="facebook" v="https://www.facebook.com/AVIAHungary"/>
    <tag k="payment:visa" v="yes"/>
    <tag k="addr:postcode" v="8700"/>
    <tag k="website" v="https://www.avia.hu/toltoallomas/?id=33"/>
    <tag k="operator" v="AVIA Hungária Kft."/>
  </node>
  <!-- OSM link: https://osm.org/node/320586750 -->
  <!-- Original coordinates: POINT (47.321874 18.784955) -->
  <!-- Original tags: {'wheelchair': 'yes', 'brand': 'Avia', 'amenity': 'fuel'} -->
  <node action="modify" changeset="1" id="320586750" lat="47.321874" lon="18.784955" timestamp="2018-03-31T09:2329Z" uid="4579407" user="KAMI" version="4">
    <tag k="fuel:diesel" v="yes"/>
    <tag k="brand" v="Avia"/>
    <tag k="amenity" v="fuel"/>
    <tag k="name" v="Avia"/>
    <tag k="phone" v="+36306803815"/>
    <tag k="facebook" v="https://www.facebook.com/AVIAHungary"/>
    <tag k="addr:housenumber" v="31"/>
    <tag k="payment:visa" v="yes"/>
    <tag k="email" v="avia@avia.hu"/>
    <tag k="youtube" v="https://www.youtube.com/channel/UCjvjkjf2RgmKBuTnKSXk-Rg"/>
    <tag k="addr:city" v="Martonvásár"/>
    <tag k="operator" v="AVIA Hungária Kft."/>
    <tag k="wheelchair" v="yes"/>
    <tag k="fuel:octane_95" v="yes"/>
    <tag k="payment:mastercard" v="yes"/>
    <tag k="addr:postcode" v="2462"/>
    <tag k="website" v="https://www.avia.hu/toltoallomas/?id=120"/>
    <tag k="addr:street" v="Bajcsy-Zsilinszky Endre utca"/>
    <tag k="source" v="website"/>
  </node>
  <!-- Original coordinates: POINT (47.9540454 20.0696581) -->
  <!-- Original tags: None -->
  <node action="modify" changeset="99999" id="-44" lat="47.9540454" lon="20.0696581" timestamp="" uid="4579407" user="KAMI" version="99999">
    <tag k="brand" v="Avia"/>
    <tag k="addr:conscriptionnumber" v="0183/3"/>
    <tag k="phone" v="+36304192544"/>
    <tag k="email" v="avia@avia.hu"/>
    <tag k="youtube" v="https://www.youtube.com/channel/UCjvjkjf2RgmKBuTnKSXk-Rg"/>
    <tag k="addr:city" v="Mátraderecske"/>
    <tag k="fuel:octane_95" v="yes"/>
    <tag k="payment:mastercard" v="yes"/>
    <tag k="addr:street" v="Kossuth út"/>
    <tag k="source" v="website"/>
    <tag k="fuel:diesel" v="yes"/>
    <tag k="amenity" v="fuel"/>
    <tag k="name" v="Avia"/>
    <tag k="facebook" v="https://www.facebook.com/AVIAHungary"/>
    <tag k="payment:visa" v="yes"/>
    <tag k="addr:postcode" v="3246"/>
    <tag k="website" v="https://www.avia.hu/toltoallomas/?id=122"/>
    <tag k="operator" v="AVIA Hungária Kft."/>
  </node>
  <!-- Original coordinates: POINT (46.753976 21.430879) -->
  <!-- Original tags: None -->
  <node action="modify" changeset="99999" id="-45" lat="46.753976" lon="21.430879" timestamp="" uid="4579407" user="KAMI" version="99999">
    <tag k="brand" v="Avia"/>
    <tag k="source" v="website"/>
    <tag k="phone" v="+36302992873"/>
    <tag k="email" v="avia@avia.hu"/>
    <tag k="youtube" v="https://www.youtube.com/channel/UCjvjkjf2RgmKBuTnKSXk-Rg"/>
    <tag k="addr:city" v="Méhkerék"/>
    <tag k="fuel:octane_95" v="yes"/>
    <tag k="payment:mastercard" v="yes"/>
    <tag k="fuel:diesel" v="yes"/>
    <tag k="amenity" v="fuel"/>
    <tag k="name" v="Avia"/>
    <tag k="facebook" v="https://www.facebook.com/AVIAHungary"/>
    <tag k="payment:visa" v="yes"/>
    <tag k="addr:postcode" v="5726"/>
    <tag k="website" v="https://www.avia.hu/toltoallomas/?id=125"/>
    <tag k="operator" v="AVIA Hungária Kft."/>
  </node>
  <!-- Original coordinates: POINT (47.432239 19.460342) -->
  <!-- Original tags: None -->
  <node action="modify" changeset="99999" id="-46" lat="47.432239" lon="19.460342" timestamp="" uid="4579407" user="KAMI" version="99999">
    <tag k="brand" v="Avia"/>
    <tag k="source" v="website"/>
    <tag k="phone" v="+36205504776"/>
    <tag k="addr:housenumber" v="24"/>
    <tag k="email" v="avia@avia.hu"/>
    <tag k="youtube" v="https://www.youtube.com/channel/UCjvjkjf2RgmKBuTnKSXk-Rg"/>
    <tag k="addr:city" v="Mende"/>
    <tag k="fuel:octane_95" v="yes"/>
    <tag k="payment:mastercard" v="yes"/>
    <tag k="addr:street" v="Ország út"/>
    <tag k="fuel:diesel" v="yes"/>
    <tag k="amenity" v="fuel"/>
    <tag k="name" v="Avia"/>
    <tag k="facebook" v="https://www.facebook.com/AVIAHungary"/>
    <tag k="payment:visa" v="yes"/>
    <tag k="addr:postcode" v="2235"/>
    <tag k="website" v="https://www.avia.hu/toltoallomas/?id=108"/>
    <tag k="operator" v="AVIA Hungária Kft."/>
  </node>
  <!-- Original coordinates: POINT (46.5134420418 20.1938541234) -->
  <!-- Original tags: None -->
  <node action="modify" changeset="99999" id="-47" lat="46.5134420418" lon="20.1938541234" timestamp="" uid="4579407" user="KAMI" version="99999">
    <tag k="brand" v="Avia"/>
    <tag k="source" v="website"/>
    <tag k="phone" v="+3662225465"/>
    <tag k="addr:housenumber" v="016"/>
    <tag k="email" v="avia@avia.hu"/>
    <tag k="youtube" v="https://www.youtube.com/channel/UCjvjkjf2RgmKBuTnKSXk-Rg"/>
    <tag k="addr:city" v="Mindszent"/>
    <tag k="fuel:octane_95" v="yes"/>
    <tag k="payment:mastercard" v="yes"/>
    <tag k="addr:street" v="Vásárhelyi út"/>
    <tag k="fuel:diesel" v="yes"/>
    <tag k="amenity" v="fuel"/>
    <tag k="name" v="Avia"/>
    <tag k="facebook" v="https://www.facebook.com/AVIAHungary"/>
    <tag k="payment:visa" v="yes"/>
    <tag k="addr:postcode" v="6630"/>
    <tag k="website" v="https://www.avia.hu/toltoallomas/?id=22"/>
    <tag k="operator" v="AVIA Hungária Kft."/>
  </node>
  <!-- Original coordinates: POINT (48.0875546 20.8140621) -->
  <!-- Original tags: None -->
  <node action="modify" changeset="99999" id="-48" lat="48.0875546" lon="20.8140621" timestamp="" uid="4579407" user="KAMI" version="99999">
    <tag k="brand" v="Avia"/>
    <tag k="addr:conscriptionnumber" v="0235/72"/>
    <tag k="phone" v="+3646505572"/>
    <tag k="email" v="avia@avia.hu"/>
    <tag k="youtube" v="https://www.youtube.com/channel/UCjvjkjf2RgmKBuTnKSXk-Rg"/>
    <tag k="addr:city" v="Miskolc"/>
    <tag k="fuel:octane_95" v="yes"/>
    <tag k="payment:mastercard" v="yes"/>
    <tag k="source" v="website"/>
    <tag k="fuel:diesel" v="yes"/>
    <tag k="amenity" v="fuel"/>
    <tag k="name" v="Avia"/>
    <tag k="facebook" v="https://www.facebook.com/AVIAHungary"/>
    <tag k="payment:visa" v="yes"/>
    <tag k="addr:postcode" v="3528"/>
    <tag k="website" v="https://www.avia.hu/toltoallomas/?id=37"/>
    <tag k="operator" v="AVIA Hungária Kft."/>
  </node>
  <!-- Original coordinates: POINT (47.995547 19.343189) -->
  <!-- Original tags: None -->
  <node action="modify" changeset="99999" id="-49" lat="47.995547" lon="19.343189" timestamp="" uid="4579407" user="KAMI" version="99999">
    <tag k="brand" v="Avia"/>
    <tag k="source" v="website"/>
    <tag k="phone" v="+3635372387"/>
    <tag k="addr:housenumber" v="47/c"/>
    <tag k="email" v="avia@avia.hu"/>
    <tag k="youtube" v="https://www.youtube.com/channel/UCjvjkjf2RgmKBuTnKSXk-Rg"/>
    <tag k="addr:city" v="Mohora"/>
    <tag k="fuel:octane_95" v="yes"/>
    <tag k="payment:mastercard" v="yes"/>
    <tag k="addr:street" v="Rákóczi út"/>
    <tag k="fuel:diesel" v="yes"/>
    <tag k="amenity" v="fuel"/>
    <tag k="name" v="Avia"/>
    <tag k="facebook" v="https://www.facebook.com/AVIAHungary"/>
    <tag k="payment:visa" v="yes"/>
    <tag k="addr:postcode" v="2698"/>
    <tag k="website" v="https://www.avia.hu/toltoallomas/?id=89"/>
    <tag k="operator" v="AVIA Hungária Kft."/>
  </node>
  <!-- Original coordinates: POINT (47.035365 16.641687) -->
  <!-- Original tags: None -->
  <node action="modify" changeset="99999" id="-50" lat="47.035365" lon="16.641687" timestamp="" uid="4579407" user="KAMI" version="99999">
    <tag k="brand" v="Avia"/>
    <tag k="source" v="website"/>
    <tag k="phone" v="+36302500841"/>
    <tag k="addr:housenumber" v="96"/>
    <tag k="email" v="avia@avia.hu"/>
    <tag k="youtube" v="https://www.youtube.com/channel/UCjvjkjf2RgmKBuTnKSXk-Rg"/>
    <tag k="addr:city" v="Molnaszecsőd"/>
    <tag k="fuel:octane_95" v="yes"/>
    <tag k="payment:mastercard" v="yes"/>
    <tag k="addr:street" v="Petőfi Sándor utca"/>
    <tag k="fuel:diesel" v="yes"/>
    <tag k="amenity" v="fuel"/>
    <tag k="name" v="Avia"/>
    <tag k="facebook" v="https://www.facebook.com/AVIAHungary"/>
    <tag k="payment:visa" v="yes"/>
    <tag k="addr:postcode" v="9912"/>
    <tag k="website" v="https://www.avia.hu/toltoallomas/?id=21"/>
    <tag k="operator" v="AVIA Hungária Kft."/>
  </node>
  <!-- OSM link: https://osm.org/node/5169788747 -->
  <!-- Original coordinates: POINT (47.75607 17.42327) -->
  <!-- Original tags: {'opening_hours': 'Mo-Fr 08:00-17:00; Sa 08:00-12:00; Su, PH off', 'brand': 'Avia', 'amenity': 'fuel', 'operator': 'AVIA Hungária Kft.', 'name': 'Avia'} -->
  <node action="modify" changeset="1" id="5169788747" lat="47.75607" lon="17.42327" timestamp="2017-10-15T19:0612Z" uid="4579407" user="KAMI" version="1">
    <tag k="payment:mastercard" v="yes"/>
    <tag k="brand" v="Avia"/>
    <tag k="amenity" v="fuel"/>
    <tag k="fuel:diesel" v="yes"/>
    <tag k="name" v="Avia"/>
    <tag k="phone" v="+3696360021"/>
    <tag k="facebook" v="https://www.facebook.com/AVIAHungary"/>
    <tag k="addr:housenumber" v="15"/>
    <tag k="payment:visa" v="yes"/>
    <tag k="opening_hours" v="Mo-Fr 08:00-17:00; Sa 08:00-12:00; Su, PH off"/>
    <tag k="email" v="avia@avia.hu"/>
    <tag k="addr:city" v="Mosonszentmiklós"/>
    <tag k="operator" v="AVIA Hungária Kft."/>
    <tag k="fuel:octane_95" v="yes"/>
    <tag k="youtube" v="https://www.youtube.com/channel/UCjvjkjf2RgmKBuTnKSXk-Rg"/>
    <tag k="addr:postcode" v="9183"/>
    <tag k="website" v="https://www.avia.hu/toltoallomas/?id=32"/>
    <tag k="addr:street" v="Béke út"/>
    <tag k="source" v="website"/>
  </node>
  <!-- OSM link: https://osm.org/node/1718424656 -->
  <!-- Original coordinates: POINT (47.407917 19.743029) -->
  <!-- Original tags: {'brand': 'AVIA', 'amenity': 'fuel', 'name': 'AVIA', 'addr:housenumber': '61/a', 'opening_hours': 'Mo-Su 04:30-22:00', 'addr:city': 'Nagykáta', 'operator': 'AVIA - Zsonikó Kft', 'fuel:octane_95': 'yes', 'fuel:octane_98': 'yes', 'addr:postcode': '2760', 'website': 'http://www.avia.hu', 'addr:street': 'Jászberényi út', 'fuel:diesel': 'yes'} -->
  <node action="modify" changeset="1" id="1718424656" lat="47.407917" lon="19.743029" timestamp="2016-03-03T12:2340Z" uid="4579407" user="KAMI" version="5">
    <tag k="brand" v="Avia"/>
    <tag k="source" v="website"/>
    <tag k="phone" v="+36205504776"/>
    <tag k="addr:housenumber" v="61/a"/>
    <tag k="email" v="avia@avia.hu"/>
    <tag k="youtube" v="https://www.youtube.com/channel/UCjvjkjf2RgmKBuTnKSXk-Rg"/>
    <tag k="addr:city" v="Nagykáta"/>
    <tag k="fuel:octane_95" v="yes"/>
    <tag k="payment:mastercard" v="yes"/>
    <tag k="addr:street" v="Jászberényi út"/>
    <tag k="fuel:diesel" v="yes"/>
    <tag k="amenity" v="fuel"/>
    <tag k="name" v="Avia"/>
    <tag k="facebook" v="https://www.facebook.com/AVIAHungary"/>
    <tag k="payment:visa" v="yes"/>
    <tag k="opening_hours" v="Mo-Su 04:30-22:00"/>
    <tag k="fuel:octane_98" v="yes"/>
    <tag k="addr:postcode" v="2760"/>
    <tag k="website" v="https://www.avia.hu/toltoallomas/?id=110"/>
    <tag k="operator" v="AVIA Hungária Kft."/>
  </node>
  <!-- Original coordinates: POINT (47.52120029409542 19.26353931427002) -->
  <!-- Original tags: None -->
  <node action="modify" changeset="99999" id="-53" lat="47.521200294095415" lon="19.26353931427002" timestamp="" uid="4579407" user="KAMI" version="99999">
    <tag k="brand" v="Avia"/>
    <tag k="source" v="website"/>
    <tag k="phone" v="+36205089009"/>
    <tag k="email" v="avia@avia.hu"/>
    <tag k="youtube" v="https://www.youtube.com/channel/UCjvjkjf2RgmKBuTnKSXk-Rg"/>
    <tag k="addr:city" v="Nagytarcsa"/>
    <tag k="fuel:octane_95" v="yes"/>
    <tag k="payment:mastercard" v="yes"/>
    <tag k="fuel:diesel" v="yes"/>
    <tag k="amenity" v="fuel"/>
    <tag k="name" v="Avia"/>
    <tag k="facebook" v="https://www.facebook.com/AVIAHungary"/>
    <tag k="payment:visa" v="yes"/>
    <tag k="addr:postcode" v="2142"/>
    <tag k="website" v="https://www.avia.hu/toltoallomas/?id=68"/>
    <tag k="operator" v="AVIA Hungária Kft."/>
  </node>
  <!-- Original coordinates: POINT (47.6846628 21.8911262) -->
  <!-- Original tags: None -->
  <node action="modify" changeset="99999" id="-54" lat="47.6846628" lon="21.8911262" timestamp="" uid="4579407" user="KAMI" version="99999">
    <tag k="brand" v="Avia"/>
    <tag k="source" v="website"/>
    <tag k="phone" v="+3652203470"/>
    <tag k="email" v="avia@avia.hu"/>
    <tag k="youtube" v="https://www.youtube.com/channel/UCjvjkjf2RgmKBuTnKSXk-Rg"/>
    <tag k="addr:city" v="Nyíradony"/>
    <tag k="fuel:octane_95" v="yes"/>
    <tag k="payment:mastercard" v="yes"/>
    <tag k="fuel:diesel" v="yes"/>
    <tag k="amenity" v="fuel"/>
    <tag k="name" v="Avia"/>
    <tag k="facebook" v="https://www.facebook.com/AVIAHungary"/>
    <tag k="payment:visa" v="yes"/>
    <tag k="addr:postcode" v="4254"/>
    <tag k="website" v="https://www.avia.hu/toltoallomas/?id=131"/>
    <tag k="operator" v="AVIA Hungária Kft."/>
  </node>
  <!-- OSM link: https://osm.org/node/4940558609 -->
  <!-- Original coordinates: POINT (46.9003214 20.398521) -->
  <!-- Original tags: {'source': 'route4u', 'name': 'Benzinkút', 'amenity': 'fuel', 'fixme': 'verify'} -->
  <node action="modify" changeset="1" id="4940558609" lat="46.9003214" lon="20.398521" timestamp="2017-08-09T18:5941Z" uid="4579407" user="KAMI" version="2">
    <tag k="brand" v="Avia"/>
    <tag k="source" v="website"/>
    <tag k="phone" v="+36703105584"/>
    <tag k="addr:housenumber" v="1"/>
    <tag k="email" v="avia@avia.hu"/>
    <tag k="youtube" v="https://www.youtube.com/channel/UCjvjkjf2RgmKBuTnKSXk-Rg"/>
    <tag k="addr:city" v="Öcsöd"/>
    <tag k="fixme" v="verify"/>
    <tag k="fuel:octane_95" v="yes"/>
    <tag k="payment:mastercard" v="yes"/>
    <tag k="addr:street" v="Bem út"/>
    <tag k="fuel:diesel" v="yes"/>
    <tag k="amenity" v="fuel"/>
    <tag k="name" v="Avia"/>
    <tag k="facebook" v="https://www.facebook.com/AVIAHungary"/>
    <tag k="payment:visa" v="yes"/>
    <tag k="addr:postcode" v="5451"/>
    <tag k="website" v="https://www.avia.hu/toltoallomas/?id=127"/>
    <tag k="operator" v="AVIA Hungária Kft."/>
  </node>
  <!-- OSM link: https://osm.org/node/895788164 -->
  <!-- Original coordinates: POINT (47.6907 19.2559) -->
  <!-- Original tags: {'brand': 'AVIA', 'fuel:e85': 'yes', 'fuel:lpg': 'yes', 'fuel:diesel': 'yes', 'name': 'AVIA', 'wheelchair': 'limited', 'fuel:95': 'yes', 'website': 'http://www.avia.hu', 'amenity': 'fuel'} -->
  <node action="modify" changeset="1" id="895788164" lat="47.6907" lon="19.2559" timestamp="2017-04-10T15:3645Z" uid="4579407" user="KAMI" version="4">
    <tag k="brand" v="Avia"/>
    <tag k="addr:conscriptionnumber" v="9733/2"/>
    <tag k="phone" v="+36209792560"/>
    <tag k="source" v="website"/>
    <tag k="email" v="avia@avia.hu"/>
    <tag k="youtube" v="https://www.youtube.com/channel/UCjvjkjf2RgmKBuTnKSXk-Rg"/>
    <tag k="addr:city" v="Őrbottyán"/>
    <tag k="wheelchair" v="limited"/>
    <tag k="fuel:octane_95" v="yes"/>
    <tag k="payment:mastercard" v="yes"/>
    <tag k="addr:street" v="Fő út"/>
    <tag k="fuel:diesel" v="yes"/>
    <tag k="fuel:e85" v="yes"/>
    <tag k="fuel:lpg" v="yes"/>
    <tag k="amenity" v="fuel"/>
    <tag k="name" v="Avia"/>
    <tag k="facebook" v="https://www.facebook.com/AVIAHungary"/>
    <tag k="payment:visa" v="yes"/>
    <tag k="addr:postcode" v="2162"/>
    <tag k="website" v="https://www.avia.hu/toltoallomas/?id=113"/>
    <tag k="operator" v="AVIA Hungária Kft."/>
    <tag k="fuel:95" v="yes"/>
  </node>
  <!-- OSM link: https://osm.org/node/2472557724 -->
  <!-- Original coordinates: POINT (46.83793139 16.41830027) -->
  <!-- Original tags: {'building': 'yes', 'amenity': 'fuel', 'name': 'AVIA'} -->
  <node action="modify" changeset="1" id="2472557724" lat="46.83793139" lon="16.41830027" timestamp="2016-07-08T09:0639Z" uid="4579407" user="KAMI" version="3">
    <tag k="brand" v="Avia"/>
    <tag k="source" v="website"/>
    <tag k="phone" v="+3694428390"/>
    <tag k="email" v="avia@avia.hu"/>
    <tag k="youtube" v="https://www.youtube.com/channel/UCjvjkjf2RgmKBuTnKSXk-Rg"/>
    <tag k="addr:city" v="Őriszentpéter"/>
    <tag k="fuel:octane_95" v="yes"/>
    <tag k="payment:mastercard" v="yes"/>
    <tag k="fuel:diesel" v="yes"/>
    <tag k="amenity" v="fuel"/>
    <tag k="name" v="Avia"/>
    <tag k="facebook" v="https://www.facebook.com/AVIAHungary"/>
    <tag k="payment:visa" v="yes"/>
    <tag k="building" v="yes"/>
    <tag k="addr:postcode" v="9941"/>
    <tag k="website" v="https://www.avia.hu/toltoallomas/?id=55"/>
    <tag k="operator" v="AVIA Hungária Kft."/>
  </node>
  <!-- Original coordinates: POINT (47.32863 17.03829) -->
  <!-- Original tags: None -->
  <node action="modify" changeset="99999" id="-58" lat="47.32863" lon="17.03829" timestamp="" uid="4579407" user="KAMI" version="99999">
    <tag k="brand" v="Avia"/>
    <tag k="source" v="website"/>
    <tag k="phone" v="+3695394305"/>
    <tag k="addr:housenumber" v="24"/>
    <tag k="email" v="avia@avia.hu"/>
    <tag k="youtube" v="https://www.youtube.com/channel/UCjvjkjf2RgmKBuTnKSXk-Rg"/>
    <tag k="addr:city" v="Ostffyasszonyfa"/>
    <tag k="fuel:octane_95" v="yes"/>
    <tag k="payment:mastercard" v="yes"/>
    <tag k="addr:street" v="Bajcsy-Zsilinszky Endre utca"/>
    <tag k="fuel:diesel" v="yes"/>
    <tag k="amenity" v="fuel"/>
    <tag k="name" v="Avia"/>
    <tag k="facebook" v="https://www.facebook.com/AVIAHungary"/>
    <tag k="payment:visa" v="yes"/>
    <tag k="addr:postcode" v="9512"/>
    <tag k="website" v="https://www.avia.hu/toltoallomas/?id=8"/>
    <tag k="operator" v="AVIA Hungária Kft."/>
  </node>
  <!-- OSM link: https://osm.org/way/529234987 -->
  <!-- Original coordinates: POINT (47.32798 17.49718) -->
  <!-- Original tags: {'building': 'yes', 'amenity': 'fuel', 'operator': 'Avia'} -->
  <way action="modify" changeset="1" id="529234987" timestamp="2017-10-01T17:1135Z" uid="4579407" user="KAMI" version="1">
    <nd ref="5141529712"/>
    <nd ref="5141529713"/>
    <nd ref="5141529714"/>
    <nd ref="5141529715"/>
    <nd ref="5141529716"/>
    <nd ref="5141529717"/>
    <nd ref="5141529718"/>
    <nd ref="5141529719"/>
    <nd ref="5141529712"/>
    <tag k="fuel:diesel" v="yes"/>
    <tag k="brand" v="Avia"/>
    <tag k="amenity" v="fuel"/>
    <tag k="name" v="Avia"/>
    <tag k="phone" v="+36209530066"/>
    <tag k="facebook" v="https://www.facebook.com/AVIAHungary"/>
    <tag k="source" v="website"/>
    <tag k="payment:visa" v="yes"/>
    <tag k="email" v="avia@avia.hu"/>
    <tag k="youtube" v="https://www.youtube.com/channel/UCjvjkjf2RgmKBuTnKSXk-Rg"/>
    <tag k="addr:city" v="Pápa"/>
    <tag k="building" v="yes"/>
    <tag k="operator" v="AVIA Hungária Kft."/>
    <tag k="fuel:octane_95" v="yes"/>
    <tag k="payment:mastercard" v="yes"/>
    <tag k="addr:postcode" v="8500"/>
    <tag k="website" v="https://www.avia.hu/toltoallomas/?id=19"/>
    <tag k="addr:street" v="Hódoska major"/>
    <tag k="addr:conscriptionnumber" v="661"/>
  </way>
  <!-- Original coordinates: POINT (47.886078 21.101965) -->
  <!-- Original tags: None -->
  <node action="modify" changeset="99999" id="-60" lat="47.886078" lon="21.101965" timestamp="" uid="4579407" user="KAMI" version="99999">
    <tag k="brand" v="Avia"/>
    <tag k="source" v="website"/>
    <tag k="phone" v="+36702577359"/>
    <tag k="addr:housenumber" v="7/a"/>
    <tag k="email" v="avia@avia.hu"/>
    <tag k="youtube" v="https://www.youtube.com/channel/UCjvjkjf2RgmKBuTnKSXk-Rg"/>
    <tag k="addr:city" v="Polgár"/>
    <tag k="fuel:octane_95" v="yes"/>
    <tag k="payment:mastercard" v="yes"/>
    <tag k="addr:street" v="Tiszaiúti tanya"/>
    <tag k="fuel:diesel" v="yes"/>
    <tag k="amenity" v="fuel"/>
    <tag k="name" v="Avia"/>
    <tag k="facebook" v="https://www.facebook.com/AVIAHungary"/>
    <tag k="payment:visa" v="yes"/>
    <tag k="addr:postcode" v="4090"/>
    <tag k="website" v="https://www.avia.hu/toltoallomas/?id=128"/>
    <tag k="operator" v="AVIA Hungária Kft."/>
  </node>
  <!-- OSM link: https://osm.org/node/368193160 -->
  <!-- Original coordinates: POINT (47.067773 18.309969) -->
  <!-- Original tags: {'amenity': 'fuel', 'operator': 'PJ', 'name': 'PJ'} -->
  <node action="modify" changeset="1" id="368193160" lat="47.067773" lon="18.309969" timestamp="2013-06-04T19:0047Z" uid="4579407" user="KAMI" version="2">
    <tag k="brand" v="Avia"/>
    <tag k="source" v="website"/>
    <tag k="phone" v="+3622576196"/>
    <tag k="email" v="avia@avia.hu"/>
    <tag k="youtube" v="https://www.youtube.com/channel/UCjvjkjf2RgmKBuTnKSXk-Rg"/>
    <tag k="addr:city" v="Polgárdi"/>
    <tag k="fuel:octane_95" v="yes"/>
    <tag k="payment:mastercard" v="yes"/>
    <tag k="fuel:diesel" v="yes"/>
    <tag k="amenity" v="fuel"/>
    <tag k="name" v="Avia"/>
    <tag k="facebook" v="https://www.facebook.com/AVIAHungary"/>
    <tag k="payment:visa" v="yes"/>
    <tag k="addr:postcode" v="8154"/>
    <tag k="website" v="https://www.avia.hu/toltoallomas/?id=46"/>
    <tag k="operator" v="AVIA Hungária Kft."/>
  </node>
  <!-- Original coordinates: POINT (46.201125 18.8198371) -->
  <!-- Original tags: None -->
  <node action="modify" changeset="99999" id="-62" lat="46.201125" lon="18.8198371" timestamp="" uid="4579407" user="KAMI" version="99999">
    <tag k="brand" v="Avia"/>
    <tag k="source" v="website"/>
    <tag k="phone" v="+36307776343"/>
    <tag k="addr:housenumber" v="1"/>
    <tag k="email" v="avia@avia.hu"/>
    <tag k="youtube" v="https://www.youtube.com/channel/UCjvjkjf2RgmKBuTnKSXk-Rg"/>
    <tag k="addr:city" v="Pörböly"/>
    <tag k="fuel:octane_95" v="yes"/>
    <tag k="payment:mastercard" v="yes"/>
    <tag k="addr:street" v="Vadász utca"/>
    <tag k="fuel:diesel" v="yes"/>
    <tag k="amenity" v="fuel"/>
    <tag k="name" v="Avia"/>
    <tag k="facebook" v="https://www.facebook.com/AVIAHungary"/>
    <tag k="payment:visa" v="yes"/>
    <tag k="addr:postcode" v="7142"/>
    <tag k="website" v="https://www.avia.hu/toltoallomas/?id=63"/>
    <tag k="operator" v="AVIA Hungária Kft."/>
  </node>
  <!-- OSM link: https://osm.org/node/3355562587 -->
  <!-- Original coordinates: POINT (47.41338 17.00303) -->
  <!-- Original tags: {'source': 'turistautak.hu', 'name': 'Start', 'url': 'http://turistautak.hu/poi.php?id=22542', 'amenity': 'fuel', 'fixme': 'resurvey, turistautak.hu source was old'} -->
  <node action="modify" changeset="1" id="3355562587" lat="47.41338" lon="17.00303" timestamp="2015-02-17T10:0614Z" uid="4579407" user="KAMI" version="1">
    <tag k="payment:mastercard" v="yes"/>
    <tag k="brand" v="Avia"/>
    <tag k="url" v="http://turistautak.hu/poi.php?id=22542"/>
    <tag k="source" v="website"/>
    <tag k="fuel:diesel" v="yes"/>
    <tag k="name" v="Avia"/>
    <tag k="phone" v="+3695370580"/>
    <tag k="facebook" v="https://www.facebook.com/AVIAHungary"/>
    <tag k="payment:visa" v="yes"/>
    <tag k="email" v="avia@avia.hu"/>
    <tag k="youtube" v="https://www.youtube.com/channel/UCjvjkjf2RgmKBuTnKSXk-Rg"/>
    <tag k="addr:city" v="Répcelak"/>
    <tag k="operator" v="AVIA Hungária Kft."/>
    <tag k="fixme" v="resurvey, turistautak.hu source was old"/>
    <tag k="fuel:octane_95" v="yes"/>
    <tag k="amenity" v="fuel"/>
    <tag k="addr:postcode" v="9653"/>
    <tag k="website" v="https://www.avia.hu/toltoallomas/?id=6"/>
    <tag k="addr:street" v="076/15. hrsz 86. számú főút"/>
    <tag k="addr:conscriptionnumber" v="86"/>
  </node>
  <!-- OSM link: https://osm.org/node/2510920571 -->
  <!-- Original coordinates: POINT (47.25158 16.91036) -->
  <!-- Original tags: {'amenity': 'fuel', 'name': 'Avia'} -->
  <node action="modify" changeset="1" id="2510920571" lat="47.25158" lon="16.91036" timestamp="2015-03-19T19:0358Z" uid="4579407" user="KAMI" version="4">
    <tag k="brand" v="Avia"/>
    <tag k="source" v="website"/>
    <tag k="phone" v="+3695326373"/>
    <tag k="addr:housenumber" v="18"/>
    <tag k="email" v="avia@avia.hu"/>
    <tag k="youtube" v="https://www.youtube.com/channel/UCjvjkjf2RgmKBuTnKSXk-Rg"/>
    <tag k="addr:city" v="Sárvár"/>
    <tag k="fuel:octane_95" v="yes"/>
    <tag k="payment:mastercard" v="yes"/>
    <tag k="addr:street" v="Ikervári út"/>
    <tag k="fuel:diesel" v="yes"/>
    <tag k="amenity" v="fuel"/>
    <tag k="name" v="Avia"/>
    <tag k="facebook" v="https://www.facebook.com/AVIAHungary"/>
    <tag k="payment:visa" v="yes"/>
    <tag k="addr:postcode" v="9600"/>
    <tag k="website" v="https://www.avia.hu/toltoallomas/?id=4"/>
    <tag k="operator" v="AVIA Hungária Kft."/>
  </node>
  <!-- OSM link: https://osm.org/node/1259612355 -->
  <!-- Original coordinates: POINT (45.8579775257 18.2783961296) -->
  <!-- Original tags: {'fuel:octane_95': 'yes', 'fuel:octane_98': 'yes', 'amenity': 'fuel', 'fuel:diesel': 'yes'} -->
  <node action="modify" changeset="1" id="1259612355" lat="45.8579775257" lon="18.2783961296" timestamp="2012-01-22T16:5602Z" uid="4579407" user="KAMI" version="3">
    <tag k="brand" v="Avia"/>
    <tag k="amenity" v="fuel"/>
    <tag k="name" v="Avia"/>
    <tag k="phone" v="+3672579008"/>
    <tag k="facebook" v="https://www.facebook.com/AVIAHungary"/>
    <tag k="source" v="website"/>
    <tag k="addr:housenumber" v="55"/>
    <tag k="payment:visa" v="yes"/>
    <tag k="email" v="avia@avia.hu"/>
    <tag k="youtube" v="https://www.youtube.com/channel/UCjvjkjf2RgmKBuTnKSXk-Rg"/>
    <tag k="addr:city" v="Siklós"/>
    <tag k="operator" v="AVIA Hungária Kft."/>
    <tag k="fuel:octane_95" v="yes"/>
    <tag k="fuel:octane_98" v="yes"/>
    <tag k="payment:mastercard" v="yes"/>
    <tag k="addr:postcode" v="7800"/>
    <tag k="website" v="https://www.avia.hu/toltoallomas/?id=106"/>
    <tag k="addr:street" v="Harkányi utca"/>
    <tag k="fuel:diesel" v="yes"/>
  </node>
  <!-- Original coordinates: POINT (46.891059 18.061753) -->
  <!-- Original tags: None -->
  <node action="modify" changeset="99999" id="-66" lat="46.891059" lon="18.061753" timestamp="" uid="4579407" user="KAMI" version="99999">
    <tag k="brand" v="Avia"/>
    <tag k="source" v="website"/>
    <tag k="phone" v="+36205037943"/>
    <tag k="addr:housenumber" v="45"/>
    <tag k="email" v="avia@avia.hu"/>
    <tag k="youtube" v="https://www.youtube.com/channel/UCjvjkjf2RgmKBuTnKSXk-Rg"/>
    <tag k="addr:city" v="Siófok"/>
    <tag k="fuel:octane_95" v="yes"/>
    <tag k="payment:mastercard" v="yes"/>
    <tag k="addr:street" v="Vak Bottyán utca"/>
    <tag k="fuel:diesel" v="yes"/>
    <tag k="amenity" v="fuel"/>
    <tag k="name" v="Avia"/>
    <tag k="facebook" v="https://www.facebook.com/AVIAHungary"/>
    <tag k="payment:visa" v="yes"/>
    <tag k="addr:postcode" v="8611"/>
    <tag k="website" v="https://www.avia.hu/toltoallomas/?id=99"/>
    <tag k="operator" v="AVIA Hungária Kft."/>
  </node>
  <!-- OSM link: https://osm.org/node/2427047950 -->
  <!-- Original coordinates: POINT (46.6834 17.772239) -->
  <!-- Original tags: {'building': 'yes', 'amenity': 'fuel'} -->
  <node action="modify" changeset="1" id="2427047950" lat="46.6834" lon="17.772239" timestamp="2013-08-21T18:4515Z" uid="4579407" user="KAMI" version="1">
    <tag k="brand" v="Avia"/>
    <tag k="source" v="website"/>
    <tag k="phone" v="+36205730768"/>
    <tag k="email" v="avia@avia.hu"/>
    <tag k="youtube" v="https://www.youtube.com/channel/UCjvjkjf2RgmKBuTnKSXk-Rg"/>
    <tag k="addr:city" v="Somogytúr"/>
    <tag k="fuel:octane_95" v="yes"/>
    <tag k="payment:mastercard" v="yes"/>
    <tag k="addr:conscriptionnumber" v="09/4"/>
    <tag k="fuel:diesel" v="yes"/>
    <tag k="amenity" v="fuel"/>
    <tag k="name" v="Avia"/>
    <tag k="facebook" v="https://www.facebook.com/AVIAHungary"/>
    <tag k="payment:visa" v="yes"/>
    <tag k="building" v="yes"/>
    <tag k="addr:postcode" v="8683"/>
    <tag k="website" v="https://www.avia.hu/toltoallomas/?id=112"/>
    <tag k="operator" v="AVIA Hungária Kft."/>
  </node>
  <!-- Original coordinates: POINT (47.08034 18.22582) -->
  <!-- Original tags: None -->
  <node action="modify" changeset="99999" id="-68" lat="47.08034" lon="18.22582" timestamp="" uid="4579407" user="KAMI" version="99999">
    <tag k="brand" v="Avia"/>
    <tag k="addr:conscriptionnumber" v="09/5"/>
    <tag k="phone" v="+3622363415"/>
    <tag k="email" v="avia@avia.hu"/>
    <tag k="youtube" v="https://www.youtube.com/channel/UCjvjkjf2RgmKBuTnKSXk-Rg"/>
    <tag k="addr:city" v="Szabadbattyán"/>
    <tag k="fuel:octane_95" v="yes"/>
    <tag k="payment:mastercard" v="yes"/>
    <tag k="source" v="website"/>
    <tag k="fuel:diesel" v="yes"/>
    <tag k="amenity" v="fuel"/>
    <tag k="name" v="Avia"/>
    <tag k="facebook" v="https://www.facebook.com/AVIAHungary"/>
    <tag k="payment:visa" v="yes"/>
    <tag k="addr:postcode" v="8157"/>
    <tag k="website" v="https://www.avia.hu/toltoallomas/?id=103"/>
    <tag k="operator" v="AVIA Hungária Kft."/>
  </node>
  <!-- OSM link: https://osm.org/node/281002225 -->
  <!-- Original coordinates: POINT (46.27441 18.36981) -->
  <!-- Original tags: {'website': 'http://www.eni.com', 'brand': 'Agip', 'amenity': 'fuel', 'name': 'Agip'} -->
  <node action="modify" changeset="1" id="281002225" lat="46.27441" lon="18.36981" timestamp="2015-03-15T09:1213Z" uid="4579407" user="KAMI" version="2">
    <tag k="brand" v="Avia"/>
    <tag k="source" v="website"/>
    <tag k="phone" v="+36306309667"/>
    <tag k="email" v="avia@avia.hu"/>
    <tag k="youtube" v="https://www.youtube.com/channel/UCjvjkjf2RgmKBuTnKSXk-Rg"/>
    <tag k="addr:city" v="Szászvár"/>
    <tag k="fuel:octane_95" v="yes"/>
    <tag k="payment:mastercard" v="yes"/>
    <tag k="addr:street" v="Vásártér utca"/>
    <tag k="addr:conscriptionnumber" v="1171/2"/>
    <tag k="fuel:diesel" v="yes"/>
    <tag k="amenity" v="fuel"/>
    <tag k="name" v="Avia"/>
    <tag k="facebook" v="https://www.facebook.com/AVIAHungary"/>
    <tag k="payment:visa" v="yes"/>
    <tag k="addr:postcode" v="7349"/>
    <tag k="website" v="https://www.avia.hu/toltoallomas/?id=26"/>
    <tag k="operator" v="AVIA Hungária Kft."/>
  </node>
  <!-- Original coordinates: POINT (46.3498314 20.0424348) -->
  <!-- Original tags: None -->
  <node action="modify" changeset="99999" id="-70" lat="46.3498314" lon="20.0424348" timestamp="" uid="4579407" user="KAMI" version="99999">
    <tag k="brand" v="Avia"/>
    <tag k="addr:conscriptionnumber" v="0261/4"/>
    <tag k="phone" v="+306558730"/>
    <tag k="addr:housenumber" v="130"/>
    <tag k="email" v="avia@avia.hu"/>
    <tag k="youtube" v="https://www.youtube.com/channel/UCjvjkjf2RgmKBuTnKSXk-Rg"/>
    <tag k="addr:city" v="Szatymaz"/>
    <tag k="fuel:octane_95" v="yes"/>
    <tag k="payment:mastercard" v="yes"/>
    <tag k="addr:street" v="IV. kerület"/>
    <tag k="source" v="website"/>
    <tag k="fuel:diesel" v="yes"/>
    <tag k="amenity" v="fuel"/>
    <tag k="name" v="Avia"/>
    <tag k="facebook" v="https://www.facebook.com/AVIAHungary"/>
    <tag k="payment:visa" v="yes"/>
    <tag k="addr:postcode" v="6763"/>
    <tag k="website" v="https://www.avia.hu/toltoallomas/?id=91"/>
    <tag k="operator" v="AVIA Hungária Kft."/>
  </node>
  <!-- OSM link: https://osm.org/node/4933469751 -->
  <!-- Original coordinates: POINT (46.260339 20.1075037) -->
  <!-- Original tags: {'source': 'route4u', 'name': 'Oil Töltőállomás Shop', 'amenity': 'fuel', 'fixme': 'verify'} -->
  <node action="modify" changeset="1" id="4933469751" lat="46.260339" lon="20.1075037" timestamp="2017-08-09T18:5251Z" uid="4579407" user="KAMI" version="2">
    <tag k="brand" v="Avia"/>
    <tag k="source" v="website"/>
    <tag k="phone" v="+36302164349"/>
    <tag k="addr:housenumber" v="14"/>
    <tag k="email" v="avia@avia.hu"/>
    <tag k="youtube" v="https://www.youtube.com/channel/UCjvjkjf2RgmKBuTnKSXk-Rg"/>
    <tag k="addr:city" v="Szeged"/>
    <tag k="fixme" v="verify"/>
    <tag k="fuel:octane_95" v="yes"/>
    <tag k="payment:mastercard" v="yes"/>
    <tag k="addr:street" v="Fonógyári út"/>
    <tag k="fuel:diesel" v="yes"/>
    <tag k="amenity" v="fuel"/>
    <tag k="name" v="Avia"/>
    <tag k="facebook" v="https://www.facebook.com/AVIAHungary"/>
    <tag k="payment:visa" v="yes"/>
    <tag k="addr:postcode" v="6728"/>
    <tag k="website" v="https://www.avia.hu/toltoallomas/?id=59"/>
    <tag k="operator" v="AVIA Hungária Kft."/>
  </node>
  <!-- Original coordinates: POINT (47.67836984531385 19.06017422676086) -->
  <!-- Original tags: None -->
  <node action="modify" changeset="99999" id="-72" lat="47.67836984531385" lon="19.060174226760864" timestamp="" uid="4579407" user="KAMI" version="99999">
    <tag k="brand" v="Avia"/>
    <tag k="source" v="website"/>
    <tag k="phone" v="+3626302097"/>
    <tag k="email" v="avia@avia.hu"/>
    <tag k="youtube" v="https://www.youtube.com/channel/UCjvjkjf2RgmKBuTnKSXk-Rg"/>
    <tag k="addr:city" v="Szentendre"/>
    <tag k="fuel:octane_95" v="yes"/>
    <tag k="payment:mastercard" v="yes"/>
    <tag k="fuel:diesel" v="yes"/>
    <tag k="amenity" v="fuel"/>
    <tag k="name" v="Avia"/>
    <tag k="facebook" v="https://www.facebook.com/AVIAHungary"/>
    <tag k="payment:visa" v="yes"/>
    <tag k="addr:postcode" v="2000"/>
    <tag k="website" v="https://www.avia.hu/toltoallomas/?id=90"/>
    <tag k="operator" v="AVIA Hungária Kft."/>
  </node>
  <!-- Original coordinates: POINT (47.2137944444 16.6197305556) -->
  <!-- Original tags: None -->
  <node action="modify" changeset="99999" id="-73" lat="47.2137944444" lon="16.6197305556" timestamp="" uid="4579407" user="KAMI" version="99999">
    <tag k="brand" v="Avia"/>
    <tag k="source" v="website"/>
    <tag k="phone" v="+36209961603"/>
    <tag k="addr:housenumber" v="92"/>
    <tag k="email" v="avia@avia.hu"/>
    <tag k="youtube" v="https://www.youtube.com/channel/UCjvjkjf2RgmKBuTnKSXk-Rg"/>
    <tag k="addr:city" v="Szombathely"/>
    <tag k="fuel:octane_95" v="yes"/>
    <tag k="payment:mastercard" v="yes"/>
    <tag k="addr:street" v="Körmendi út"/>
    <tag k="fuel:diesel" v="yes"/>
    <tag k="amenity" v="fuel"/>
    <tag k="name" v="Avia"/>
    <tag k="facebook" v="https://www.facebook.com/AVIAHungary"/>
    <tag k="payment:visa" v="yes"/>
    <tag k="addr:postcode" v="9700"/>
    <tag k="website" v="https://www.avia.hu/toltoallomas/?id=23"/>
    <tag k="operator" v="AVIA Hungária Kft."/>
  </node>
  <!-- Original coordinates: POINT (48.0838203 21.1304792) -->
  <!-- Original tags: None -->
  <node action="modify" changeset="99999" id="-74" lat="48.0838203" lon="21.1304792" timestamp="" uid="4579407" user="KAMI" version="99999">
    <tag k="brand" v="Avia"/>
    <tag k="source" v="website"/>
    <tag k="phone" v="+3647378054"/>
    <tag k="addr:housenumber" v="10"/>
    <tag k="email" v="avia@avia.hu"/>
    <tag k="youtube" v="https://www.youtube.com/channel/UCjvjkjf2RgmKBuTnKSXk-Rg"/>
    <tag k="addr:city" v="Taktaharkány"/>
    <tag k="fuel:octane_95" v="yes"/>
    <tag k="payment:mastercard" v="yes"/>
    <tag k="addr:street" v="Vörösmarty utca"/>
    <tag k="fuel:diesel" v="yes"/>
    <tag k="amenity" v="fuel"/>
    <tag k="name" v="Avia"/>
    <tag k="facebook" v="https://www.facebook.com/AVIAHungary"/>
    <tag k="payment:visa" v="yes"/>
    <tag k="addr:postcode" v="3922"/>
    <tag k="website" v="https://www.avia.hu/toltoallomas/?id=134"/>
    <tag k="operator" v="AVIA Hungária Kft."/>
  </node>
  <!-- Original coordinates: POINT (48.1395876 21.3350751) -->
  <!-- Original tags: None -->
  <node action="modify" changeset="99999" id="-75" lat="48.1395876" lon="21.3350751" timestamp="" uid="4579407" user="KAMI" version="99999">
    <tag k="brand" v="Avia"/>
    <tag k="addr:conscriptionnumber" v="12/24"/>
    <tag k="phone" v="+3647580029"/>
    <tag k="addr:housenumber" v="35"/>
    <tag k="email" v="avia@avia.hu"/>
    <tag k="youtube" v="https://www.youtube.com/channel/UCjvjkjf2RgmKBuTnKSXk-Rg"/>
    <tag k="addr:city" v="Tarcal"/>
    <tag k="fuel:octane_95" v="yes"/>
    <tag k="payment:mastercard" v="yes"/>
    <tag k="addr:street" v="Sport tér"/>
    <tag k="source" v="website"/>
    <tag k="fuel:diesel" v="yes"/>
    <tag k="amenity" v="fuel"/>
    <tag k="name" v="Avia"/>
    <tag k="facebook" v="https://www.facebook.com/AVIAHungary"/>
    <tag k="payment:visa" v="yes"/>
    <tag k="addr:postcode" v="3915"/>
    <tag k="website" v="https://www.avia.hu/toltoallomas/?id=65"/>
    <tag k="operator" v="AVIA Hungária Kft."/>
  </node>
  <!-- Original coordinates: POINT (46.436111 18.769444) -->
  <!-- Original tags: None -->
  <node action="modify" changeset="99999" id="-76" lat="46.436111" lon="18.769444" timestamp="" uid="4579407" user="KAMI" version="99999">
    <tag k="brand" v="Avia"/>
    <tag k="addr:conscriptionnumber" v="077/4"/>
    <tag k="phone" v="+36704230066"/>
    <tag k="email" v="avia@avia.hu"/>
    <tag k="youtube" v="https://www.youtube.com/channel/UCjvjkjf2RgmKBuTnKSXk-Rg"/>
    <tag k="addr:city" v="Tolna"/>
    <tag k="fuel:octane_95" v="yes"/>
    <tag k="payment:mastercard" v="yes"/>
    <tag k="source" v="website"/>
    <tag k="fuel:diesel" v="yes"/>
    <tag k="amenity" v="fuel"/>
    <tag k="name" v="Avia"/>
    <tag k="facebook" v="https://www.facebook.com/AVIAHungary"/>
    <tag k="payment:visa" v="yes"/>
    <tag k="addr:postcode" v="7130"/>
    <tag k="website" v="https://www.avia.hu/toltoallomas/?id=104"/>
    <tag k="operator" v="AVIA Hungária Kft."/>
  </node>
  <!-- Original coordinates: POINT (47.3427698 18.7448036) -->
  <!-- Original tags: None -->
  <node action="modify" changeset="99999" id="-77" lat="47.3427698" lon="18.7448036" timestamp="" uid="4579407" user="KAMI" version="99999">
    <tag k="brand" v="Avia"/>
    <tag k="source" v="website"/>
    <tag k="phone" v="+36306803817"/>
    <tag k="email" v="avia@avia.hu"/>
    <tag k="youtube" v="https://www.youtube.com/channel/UCjvjkjf2RgmKBuTnKSXk-Rg"/>
    <tag k="addr:city" v="Tordas"/>
    <tag k="fuel:octane_95" v="yes"/>
    <tag k="payment:mastercard" v="yes"/>
    <tag k="fuel:diesel" v="yes"/>
    <tag k="amenity" v="fuel"/>
    <tag k="name" v="Avia"/>
    <tag k="facebook" v="https://www.facebook.com/AVIAHungary"/>
    <tag k="payment:visa" v="yes"/>
    <tag k="addr:postcode" v="2463"/>
    <tag k="website" v="https://www.avia.hu/toltoallomas/?id=133"/>
    <tag k="operator" v="AVIA Hungária Kft."/>
  </node>
  <!-- Original coordinates: POINT (48.006944 22.156944) -->
  <!-- Original tags: None -->
  <node action="modify" changeset="99999" id="-78" lat="48.006944" lon="22.156944" timestamp="" uid="4579407" user="KAMI" version="99999">
    <tag k="brand" v="Avia"/>
    <tag k="source" v="website"/>
    <tag k="phone" v="+3644385320"/>
    <tag k="addr:housenumber" v="2"/>
    <tag k="email" v="avia@avia.hu"/>
    <tag k="youtube" v="https://www.youtube.com/channel/UCjvjkjf2RgmKBuTnKSXk-Rg"/>
    <tag k="addr:city" v="Vaja"/>
    <tag k="fuel:octane_95" v="yes"/>
    <tag k="payment:mastercard" v="yes"/>
    <tag k="addr:street" v="Rohodi utca"/>
    <tag k="fuel:diesel" v="yes"/>
    <tag k="amenity" v="fuel"/>
    <tag k="name" v="Avia"/>
    <tag k="facebook" v="https://www.facebook.com/AVIAHungary"/>
    <tag k="payment:visa" v="yes"/>
    <tag k="addr:postcode" v="4562"/>
    <tag k="website" v="https://www.avia.hu/toltoallomas/?id=45"/>
    <tag k="operator" v="AVIA Hungária Kft."/>
  </node>
  <!-- Original coordinates: POINT (47.0359776 16.8110368) -->
  <!-- Original tags: None -->
  <node action="modify" changeset="99999" id="-79" lat="47.0359776" lon="16.8110368" timestamp="" uid="4579407" user="KAMI" version="99999">
    <tag k="brand" v="Avia"/>
    <tag k="source" v="website"/>
    <tag k="phone" v="+3694505391"/>
    <tag k="addr:housenumber" v="113"/>
    <tag k="email" v="avia@avia.hu"/>
    <tag k="youtube" v="https://www.youtube.com/channel/UCjvjkjf2RgmKBuTnKSXk-Rg"/>
    <tag k="addr:city" v="Vasvár"/>
    <tag k="fuel:octane_95" v="yes"/>
    <tag k="payment:mastercard" v="yes"/>
    <tag k="addr:street" v="Győrvári út"/>
    <tag k="fuel:diesel" v="yes"/>
    <tag k="amenity" v="fuel"/>
    <tag k="name" v="Avia"/>
    <tag k="facebook" v="https://www.facebook.com/AVIAHungary"/>
    <tag k="payment:visa" v="yes"/>
    <tag k="addr:postcode" v="9800"/>
    <tag k="website" v="https://www.avia.hu/toltoallomas/?id=56"/>
    <tag k="operator" v="AVIA Hungária Kft."/>
  </node>
  <!-- OSM link: https://osm.org/node/703392678 -->
  <!-- Original coordinates: POINT (47.4229 19.2372) -->
  <!-- Original tags: {'amenity': 'fuel', 'operator': 'Avia'} -->
  <node action="modify" changeset="1" id="703392678" lat="47.4229" lon="19.2372" timestamp="2010-04-21T18:4742Z" uid="4579407" user="KAMI" version="1">
    <tag k="brand" v="Avia"/>
    <tag k="source" v="website"/>
    <tag k="phone" v="+3629552530"/>
    <tag k="addr:housenumber" v="812"/>
    <tag k="email" v="avia@avia.hu"/>
    <tag k="youtube" v="https://www.youtube.com/channel/UCjvjkjf2RgmKBuTnKSXk-Rg"/>
    <tag k="addr:city" v="Vecsés"/>
    <tag k="fuel:octane_95" v="yes"/>
    <tag k="payment:mastercard" v="yes"/>
    <tag k="addr:street" v="Üllői út"/>
    <tag k="fuel:diesel" v="yes"/>
    <tag k="amenity" v="fuel"/>
    <tag k="name" v="Avia"/>
    <tag k="facebook" v="https://www.facebook.com/AVIAHungary"/>
    <tag k="payment:visa" v="yes"/>
    <tag k="addr:postcode" v="2220"/>
    <tag k="website" v="https://www.avia.hu/toltoallomas/?id=13"/>
    <tag k="operator" v="AVIA Hungária Kft."/>
  </node>
  <!-- OSM link: https://osm.org/node/603883200 -->
  <!-- Original coordinates: POINT (46.97375 17.01521) -->
  <!-- Original tags: {'amenity': 'fuel', 'opening_hours': 'Mo-Su 06:00-20:00'} -->
  <node action="modify" changeset="1" id="603883200" lat="46.97375" lon="17.01521" timestamp="2010-01-03T19:5336Z" uid="4579407" user="KAMI" version="1">
    <tag k="brand" v="Avia"/>
    <tag k="source" v="website"/>
    <tag k="phone" v="+3683376087"/>
    <tag k="email" v="avia@avia.hu"/>
    <tag k="youtube" v="https://www.youtube.com/channel/UCjvjkjf2RgmKBuTnKSXk-Rg"/>
    <tag k="addr:city" v="Zalabér"/>
    <tag k="fuel:octane_95" v="yes"/>
    <tag k="payment:mastercard" v="yes"/>
    <tag k="addr:conscriptionnumber" v="03155/2"/>
    <tag k="fuel:diesel" v="yes"/>
    <tag k="amenity" v="fuel"/>
    <tag k="name" v="Avia"/>
    <tag k="facebook" v="https://www.facebook.com/AVIAHungary"/>
    <tag k="payment:visa" v="yes"/>
    <tag k="opening_hours" v="Mo-Su 06:00-20:00"/>
    <tag k="addr:postcode" v="8798"/>
    <tag k="website" v="https://www.avia.hu/toltoallomas/?id=5"/>
    <tag k="operator" v="AVIA Hungária Kft."/>
  </node>
  <!-- OSM link: https://osm.org/way/176564006 -->
  <!-- Original coordinates: POINT (47.01919 17.23416) -->
  <!-- Original tags: {'brand': 'Avia', 'amenity': 'fuel', 'name': 'Avia', 'payment:cash': 'yes', 'addr:housenumber': '184', 'payment:debit_cards': 'yes', 'email': 'szigno@euroweb.hu', 'addr:city': 'Zalagyömörő', 'phone': '+3687457509', 'addr:street': 'Rákóczi utca', 'fuel:octane_95': 'yes', 'addr:postcode': '8349', 'website': 'https://www.avia.hu', 'operator': 'AVIA Hungária Kft.', 'fuel:diesel': 'yes'} -->
  <way action="modify" changeset="1" id="176564006" timestamp="2018-06-18T10:1908Z" uid="4579407" user="KAMI" version="3">
    <nd ref="1870600866"/>
    <nd ref="1870600861"/>
    <nd ref="1870600893"/>
    <nd ref="1870600858"/>
    <nd ref="1870600866"/>
    <tag k="brand" v="Avia"/>
    <tag k="source" v="website"/>
    <tag k="payment:cash" v="yes"/>
    <tag k="payment:visa" v="yes"/>
    <tag k="addr:housenumber" v="184"/>
    <tag k="email" v="avia@avia.hu"/>
    <tag k="youtube" v="https://www.youtube.com/channel/UCjvjkjf2RgmKBuTnKSXk-Rg"/>
    <tag k="addr:city" v="Zalagyömörő"/>
    <tag k="fuel:octane_95" v="yes"/>
    <tag k="payment:mastercard" v="yes"/>
    <tag k="addr:street" v="Rákóczi utca"/>
    <tag k="fuel:diesel" v="yes"/>
    <tag k="amenity" v="fuel"/>
    <tag k="name" v="Avia"/>
    <tag k="facebook" v="https://www.facebook.com/AVIAHungary"/>
    <tag k="payment:debit_cards" v="yes"/>
    <tag k="phone" v="+3687457509"/>
    <tag k="addr:postcode" v="8349"/>
    <tag k="website" v="https://www.avia.hu/toltoallomas/?id=25"/>
    <tag k="operator" v="AVIA Hungária Kft."/>
  </way>
</osm>
