<?xml version='1.0' encoding='UTF-8'?>
<osm generator="JOSM" version="0.6">
  <node action="modify" id="-1" lat="47.954101" lon="22.318145">
    <tag k="name" v="Kulcs patika"/>
    <tag k="addr:city" v="Mátészalka"/>
    <tag k="addr:postcode" v="4700"/>
    <tag k="addr:street" v="Eötvös utca"/>
    <tag k="addr:housenumber" v="1"/>
    <tag k="website" v="https://www.kulcspatika.hupatikak/salvare-gyogyszertar-p92"/>
    <tag k="amenity" v="pharmacy"/>
    <tag k="dispensing" v="yes"/>
    <tag k="payment:debit_cards" v="yes"/>
    <tag k="payment:cash" v="yes"/>
  </node>
  <node action="modify" id="-2" lat="47.952850792488" lon="22.316923141479">
    <tag k="name" v="Kulcs patika"/>
    <tag k="addr:city" v="Mátészalka"/>
    <tag k="addr:postcode" v="4700"/>
    <tag k="addr:street" v="Kölcsey utca"/>
    <tag k="addr:housenumber" v="19"/>
    <tag k="website" v="https://www.kulcspatika.hupatikak/kigyo-gyogyszertar-p130"/>
    <tag k="amenity" v="pharmacy"/>
    <tag k="dispensing" v="yes"/>
    <tag k="payment:debit_cards" v="yes"/>
    <tag k="payment:cash" v="yes"/>
  </node>
  <node action="modify" id="-3" lat="47.876215499597" lon="21.8469196558">
    <tag k="name" v="Kulcs patika"/>
    <tag k="addr:city" v="Nagykálló"/>
    <tag k="addr:postcode" v="4320"/>
    <tag k="addr:street" v="Petőfi utca"/>
    <tag k="addr:housenumber" v="1"/>
    <tag k="website" v="https://www.kulcspatika.hupatikak/igazgyongy-patika-p163"/>
    <tag k="amenity" v="pharmacy"/>
    <tag k="dispensing" v="yes"/>
    <tag k="payment:debit_cards" v="yes"/>
    <tag k="payment:cash" v="yes"/>
  </node>
  <node action="modify" id="-4" lat="46.4333" lon="21.2333">
    <tag k="name" v="Kulcs patika"/>
    <tag k="addr:city" v="Lőkösháza"/>
    <tag k="addr:postcode" v="5743"/>
    <tag k="addr:street" v="Alapítók utca"/>
    <tag k="addr:housenumber" v="23"/>
    <tag k="website" v="https://www.kulcspatika.hupatikak/kigyo-fiok-patika-p141"/>
    <tag k="amenity" v="pharmacy"/>
    <tag k="dispensing" v="yes"/>
    <tag k="payment:debit_cards" v="yes"/>
    <tag k="payment:cash" v="yes"/>
  </node>
  <node action="modify" id="-5" lat="47.600134942836" lon="21.75393753373">
    <tag k="name" v="Kulcs patika"/>
    <tag k="addr:city" v="Hajdúsámson"/>
    <tag k="addr:postcode" v="4251"/>
    <tag k="addr:street" v="Petőfi út"/>
    <tag k="addr:housenumber" v="6"/>
    <tag k="website" v="https://www.kulcspatika.hupatikak/samson-patika-p93"/>
    <tag k="amenity" v="pharmacy"/>
    <tag k="dispensing" v="yes"/>
    <tag k="payment:debit_cards" v="yes"/>
    <tag k="payment:cash" v="yes"/>
  </node>
  <node action="modify" id="-6" lat="47.71177888515" lon="21.677178067459">
    <tag k="name" v="Kulcs patika"/>
    <tag k="addr:city" v="Téglás"/>
    <tag k="addr:postcode" v="4243"/>
    <tag k="addr:street" v="Kossuth Lajos utca"/>
    <tag k="addr:housenumber" v="59"/>
    <tag k="website" v="https://www.kulcspatika.hupatikak/harsfavirag-gyogyszertar-es-gyogynovenybolt-p47"/>
    <tag k="amenity" v="pharmacy"/>
    <tag k="dispensing" v="yes"/>
    <tag k="payment:debit_cards" v="yes"/>
    <tag k="payment:cash" v="yes"/>
  </node>
  <node action="modify" id="-7" lat="47.53458127337" lon="21.633242328758">
    <tag k="name" v="Kulcs patika"/>
    <tag k="addr:city" v="Debrecen"/>
    <tag k="addr:postcode" v="4029"/>
    <tag k="addr:street" v="Csapó utca"/>
    <tag k="addr:housenumber" v="66"/>
    <tag k="website" v="https://www.kulcspatika.hupatikak/arany-oroszlan-gyogyszertar-p6"/>
    <tag k="amenity" v="pharmacy"/>
    <tag k="dispensing" v="yes"/>
    <tag k="payment:debit_cards" v="yes"/>
    <tag k="payment:cash" v="yes"/>
  </node>
  <node action="modify" id="-8" lat="47.546466926898" lon="21.628528833389">
    <tag k="name" v="Kulcs patika"/>
    <tag k="addr:city" v="Debrecen"/>
    <tag k="addr:postcode" v="4028"/>
    <tag k="addr:street" v="Géresi utca"/>
    <tag k="addr:housenumber" v="4/a"/>
    <tag k="website" v="https://www.kulcspatika.hupatikak/nagyerdei-patika-p76"/>
    <tag k="amenity" v="pharmacy"/>
    <tag k="dispensing" v="yes"/>
    <tag k="payment:debit_cards" v="yes"/>
    <tag k="payment:cash" v="yes"/>
  </node>
  <node action="modify" id="-9" lat="46.642999821858" lon="21.272529959679">
    <tag k="name" v="Kulcs patika"/>
    <tag k="addr:city" v="Gyula"/>
    <tag k="addr:postcode" v="5700"/>
    <tag k="addr:street" v="Vásárhelyi Pál utca"/>
    <tag k="addr:housenumber" v="4"/>
    <tag k="website" v="https://www.kulcspatika.hupatikak/aranykereszt-gyogyszertar-p9"/>
    <tag k="amenity" v="pharmacy"/>
    <tag k="dispensing" v="yes"/>
    <tag k="payment:debit_cards" v="yes"/>
    <tag k="payment:cash" v="yes"/>
  </node>
  <node action="modify" id="-10" lat="46.425087006674" lon="21.051338911057">
    <tag k="name" v="Kulcs patika"/>
    <tag k="addr:city" v="Kunágota"/>
    <tag k="addr:postcode" v="5746"/>
    <tag k="addr:street" v="Rákóczi utca"/>
    <tag k="addr:housenumber" v="28/b"/>
    <tag k="website" v="https://www.kulcspatika.hupatikak/ametiszt-gyogyszertar-p152"/>
    <tag k="amenity" v="pharmacy"/>
    <tag k="dispensing" v="yes"/>
    <tag k="payment:debit_cards" v="yes"/>
    <tag k="payment:cash" v="yes"/>
  </node>
  <node action="modify" id="-11" lat="46.650342" lon="21.26511">
    <tag k="name" v="Kulcs patika"/>
    <tag k="addr:city" v="Gyula"/>
    <tag k="addr:postcode" v="5700"/>
    <tag k="addr:street" v="Nürnbergi utca"/>
    <tag k="addr:housenumber" v="1/b"/>
    <tag k="website" v="https://www.kulcspatika.hupatikak/coronella-patika-p23"/>
    <tag k="amenity" v="pharmacy"/>
    <tag k="dispensing" v="yes"/>
    <tag k="payment:debit_cards" v="yes"/>
    <tag k="payment:cash" v="yes"/>
  </node>
  <node action="modify" id="-12" lat="45.850841550594" lon="18.298678347221">
    <tag k="name" v="Kulcs patika"/>
    <tag k="addr:city" v="Siklós"/>
    <tag k="addr:postcode" v="7800"/>
    <tag k="addr:street" v="Baross Gábor utca"/>
    <tag k="addr:housenumber" v="7"/>
    <tag k="website" v="https://www.kulcspatika.hupatikak/hollos-patika-p49"/>
    <tag k="amenity" v="pharmacy"/>
    <tag k="dispensing" v="yes"/>
    <tag k="payment:debit_cards" v="yes"/>
    <tag k="payment:cash" v="yes"/>
  </node>
  <node action="modify" id="-13" lat="46.735147" lon="21.242569">
    <tag k="name" v="Kulcs patika"/>
    <tag k="addr:city" v="Doboz"/>
    <tag k="addr:postcode" v="5624"/>
    <tag k="addr:street" v="Marx utca"/>
    <tag k="addr:housenumber" v="2"/>
    <tag k="website" v="https://www.kulcspatika.hupatikak/kazay-endre-gyogyszertar-p54"/>
    <tag k="amenity" v="pharmacy"/>
    <tag k="dispensing" v="yes"/>
    <tag k="payment:debit_cards" v="yes"/>
    <tag k="payment:cash" v="yes"/>
  </node>
  <node action="modify" id="-14" lat="46.05339911054" lon="17.788975682556">
    <tag k="name" v="Kulcs patika"/>
    <tag k="addr:city" v="Szigetvár"/>
    <tag k="addr:postcode" v="7900"/>
    <tag k="addr:street" v="Szent István lakótelep"/>
    <tag k="addr:housenumber" v="5"/>
    <tag k="website" v="https://www.kulcspatika.hupatikak/boroka-patika-p20"/>
    <tag k="amenity" v="pharmacy"/>
    <tag k="dispensing" v="yes"/>
    <tag k="payment:debit_cards" v="yes"/>
    <tag k="payment:cash" v="yes"/>
  </node>
  <node action="modify" id="-15" lat="47.680664631562" lon="16.587772796295">
    <tag k="name" v="Kulcs patika"/>
    <tag k="addr:city" v="Sopron"/>
    <tag k="addr:postcode" v="9400"/>
    <tag k="addr:street" v="Deák tér"/>
    <tag k="addr:housenumber" v="35"/>
    <tag k="website" v="https://www.kulcspatika.hupatikak/szebelledy-gyogyszertar-p98"/>
    <tag k="amenity" v="pharmacy"/>
    <tag k="dispensing" v="yes"/>
    <tag k="payment:debit_cards" v="yes"/>
    <tag k="payment:cash" v="yes"/>
  </node>
  <node action="modify" id="-16" lat="46.699671458577" lon="21.184275980186">
    <tag k="name" v="Kulcs patika"/>
    <tag k="addr:city" v="Békéscsaba"/>
    <tag k="addr:postcode" v="5623"/>
    <tag k="addr:street" v="Weinckheim Károly tér"/>
    <tag k="addr:housenumber" v="11"/>
    <tag k="website" v="https://www.kulcspatika.hupatikak/kazay-endre-fiokgyogyszertar-p140"/>
    <tag k="amenity" v="pharmacy"/>
    <tag k="dispensing" v="yes"/>
    <tag k="payment:debit_cards" v="yes"/>
    <tag k="payment:cash" v="yes"/>
  </node>
  <node action="modify" id="-17" lat="46.4667" lon="20.9">
    <tag k="name" v="Kulcs patika"/>
    <tag k="addr:city" v="Mezőmegyer"/>
    <tag k="addr:postcode" v="5668"/>
    <tag k="addr:street" v="Október 23 tér"/>
    <tag k="addr:housenumber" v="1"/>
    <tag k="website" v="https://www.kulcspatika.hupatikak/isteni-gondviseles-fiokgyogyszertara-mezomegyer-p139"/>
    <tag k="amenity" v="pharmacy"/>
    <tag k="dispensing" v="yes"/>
    <tag k="payment:debit_cards" v="yes"/>
    <tag k="payment:cash" v="yes"/>
  </node>
  <node action="modify" id="-18" lat="46.038541034382" lon="17.992145348549">
    <tag k="name" v="Kulcs patika"/>
    <tag k="addr:city" v="Szentlőrinc"/>
    <tag k="addr:postcode" v="7940"/>
    <tag k="addr:street" v="Pécsi utca"/>
    <tag k="addr:housenumber" v="10"/>
    <tag k="website" v="https://www.kulcspatika.hupatikak/harmonia-patika-p45"/>
    <tag k="amenity" v="pharmacy"/>
    <tag k="dispensing" v="yes"/>
    <tag k="payment:debit_cards" v="yes"/>
    <tag k="payment:cash" v="yes"/>
  </node>
  <node action="modify" id="-19" lat="46.042204886539" lon="17.985536139881">
    <tag k="name" v="Kulcs patika"/>
    <tag k="addr:city" v="Szentlőrinc"/>
    <tag k="addr:postcode" v="7940"/>
    <tag k="addr:street" v="Kossuth Lajos utca"/>
    <tag k="addr:housenumber" v="1"/>
    <tag k="website" v="https://www.kulcspatika.hupatikak/feher-kereszt-patika-p33"/>
    <tag k="amenity" v="pharmacy"/>
    <tag k="dispensing" v="yes"/>
    <tag k="payment:debit_cards" v="yes"/>
    <tag k="payment:cash" v="yes"/>
  </node>
  <node action="modify" id="-20" lat="46.680124228275" lon="21.102411364418">
    <tag k="name" v="Kulcs patika"/>
    <tag k="addr:city" v="Békéscsaba"/>
    <tag k="addr:postcode" v="5600"/>
    <tag k="addr:street" v="Deák utca"/>
    <tag k="addr:housenumber" v="5"/>
    <tag k="website" v="https://www.kulcspatika.hupatikak/isteni-gondviseles-gyogyszertara-p1"/>
    <tag k="amenity" v="pharmacy"/>
    <tag k="dispensing" v="yes"/>
    <tag k="payment:debit_cards" v="yes"/>
    <tag k="payment:cash" v="yes"/>
  </node>
  <node action="modify" id="-21" lat="46.678175498277" lon="21.092687834324">
    <tag k="name" v="Kulcs patika"/>
    <tag k="addr:city" v="Békéscsaba"/>
    <tag k="addr:postcode" v="5600"/>
    <tag k="addr:street" v="Mednyánszky utca"/>
    <tag k="addr:housenumber" v="2"/>
    <tag k="website" v="https://www.kulcspatika.hupatikak/kigyo-gyogyszertar-p55"/>
    <tag k="amenity" v="pharmacy"/>
    <tag k="dispensing" v="yes"/>
    <tag k="payment:debit_cards" v="yes"/>
    <tag k="payment:cash" v="yes"/>
  </node>
  <node action="modify" id="-22" lat="46.926302476764" lon="21.264256303076">
    <tag k="name" v="Kulcs patika"/>
    <tag k="addr:city" v="Vésztő"/>
    <tag k="addr:postcode" v="5530"/>
    <tag k="addr:street" v="Kossuth Lajos utca"/>
    <tag k="addr:housenumber" v="64"/>
    <tag k="website" v="https://www.kulcspatika.hupatikak/kristaly-patika-p65"/>
    <tag k="amenity" v="pharmacy"/>
    <tag k="dispensing" v="yes"/>
    <tag k="payment:debit_cards" v="yes"/>
    <tag k="payment:cash" v="yes"/>
  </node>
  <node action="modify" id="-23" lat="46.215271909319" lon="20.474449246697">
    <tag k="name" v="Kulcs patika"/>
    <tag k="addr:city" v="Makó"/>
    <tag k="addr:postcode" v="6900"/>
    <tag k="addr:street" v="Széchenyi tér"/>
    <tag k="addr:housenumber" v="8"/>
    <tag k="website" v="https://www.kulcspatika.hupatikak/kigyo-gyogyszertar-p56"/>
    <tag k="amenity" v="pharmacy"/>
    <tag k="dispensing" v="yes"/>
    <tag k="payment:debit_cards" v="yes"/>
    <tag k="payment:cash" v="yes"/>
  </node>
  <node action="modify" id="-24" lat="46.065876" lon="18.16902">
    <tag k="name" v="Kulcs patika"/>
    <tag k="addr:city" v="Pécs"/>
    <tag k="addr:postcode" v="7634"/>
    <tag k="addr:street" v="Pellérdi út"/>
    <tag k="addr:housenumber" v="52"/>
    <tag k="website" v="https://www.kulcspatika.hupatikak/zsongorko-gyogyszertar-p116"/>
    <tag k="amenity" v="pharmacy"/>
    <tag k="dispensing" v="yes"/>
    <tag k="payment:debit_cards" v="yes"/>
    <tag k="payment:cash" v="yes"/>
  </node>
  <node action="modify" id="-25" lat="46.657012709991" lon="20.951911561673">
    <tag k="name" v="Kulcs patika"/>
    <tag k="addr:city" v="Telekgerendás"/>
    <tag k="addr:postcode" v="5675"/>
    <tag k="addr:street" v="Dózsa György utca"/>
    <tag k="addr:housenumber" v="13"/>
    <tag k="website" v="https://www.kulcspatika.hupatikak/isteni-gondviseles-fiokgyogyszertara-telekgerendas-p138"/>
    <tag k="amenity" v="pharmacy"/>
    <tag k="dispensing" v="yes"/>
    <tag k="payment:debit_cards" v="yes"/>
    <tag k="payment:cash" v="yes"/>
  </node>
  <node action="modify" id="-26" lat="46.071057443299" lon="18.229826279762">
    <tag k="name" v="Kulcs patika"/>
    <tag k="addr:city" v="Pécs"/>
    <tag k="addr:postcode" v="7622"/>
    <tag k="addr:street" v="Bajcsy-Zsilinszky utca"/>
    <tag k="addr:housenumber" v="6"/>
    <tag k="website" v="https://www.kulcspatika.hupatikak/mozsonyi-gyogyszertar-p73"/>
    <tag k="amenity" v="pharmacy"/>
    <tag k="dispensing" v="yes"/>
    <tag k="payment:debit_cards" v="yes"/>
    <tag k="payment:cash" v="yes"/>
  </node>
  <node action="modify" id="-27" lat="46.073684028838" lon="18.2317667">
    <tag k="name" v="Kulcs patika"/>
    <tag k="addr:city" v="Pécs"/>
    <tag k="addr:postcode" v="7621"/>
    <tag k="addr:street" v="Rákóczi út"/>
    <tag k="addr:housenumber" v="49"/>
    <tag k="website" v="https://www.kulcspatika.hupatikak/belvarosi-gyogyszertar-p178"/>
    <tag k="amenity" v="pharmacy"/>
    <tag k="dispensing" v="yes"/>
    <tag k="payment:debit_cards" v="yes"/>
    <tag k="payment:cash" v="yes"/>
  </node>
  <node action="modify" id="-28" lat="46.217982" lon="20.244144">
    <tag k="name" v="Kulcs patika"/>
    <tag k="addr:city" v="Deszk"/>
    <tag k="addr:postcode" v="6772"/>
    <tag k="addr:street" v="Felszabadulás utca"/>
    <tag k="addr:housenumber" v="29"/>
    <tag k="website" v="https://www.kulcspatika.hupatikak/cedrus-patika-p22"/>
    <tag k="amenity" v="pharmacy"/>
    <tag k="dispensing" v="yes"/>
    <tag k="payment:debit_cards" v="yes"/>
    <tag k="payment:cash" v="yes"/>
  </node>
  <node action="modify" id="-29" lat="46.248094420038" lon="20.145320321426">
    <tag k="name" v="Kulcs patika"/>
    <tag k="addr:city" v="Szeged"/>
    <tag k="addr:postcode" v="6722"/>
    <tag k="addr:street" v="Tisza Lajos körút"/>
    <tag k="addr:housenumber" v="95"/>
    <tag k="website" v="https://www.kulcspatika.hupatikak/kabay-patika-p53"/>
    <tag k="amenity" v="pharmacy"/>
    <tag k="dispensing" v="yes"/>
    <tag k="payment:debit_cards" v="yes"/>
    <tag k="payment:cash" v="yes"/>
  </node>
  <node action="modify" id="-30" lat="46.247344309733" lon="20.138343796134">
    <tag k="name" v="Kulcs patika"/>
    <tag k="addr:city" v="Szeged"/>
    <tag k="addr:postcode" v="6722"/>
    <tag k="addr:street" v="Petőfi Sándor sugárút"/>
    <tag k="addr:housenumber" v="41"/>
    <tag k="website" v="https://www.kulcspatika.hupatikak/arany-oroszlan-gyogyszertar-p162"/>
    <tag k="amenity" v="pharmacy"/>
    <tag k="dispensing" v="yes"/>
    <tag k="payment:debit_cards" v="yes"/>
    <tag k="payment:cash" v="yes"/>
  </node>
  <node action="modify" id="-31" lat="46.369126" lon="17.787932">
    <tag k="name" v="Kulcs patika"/>
    <tag k="addr:city" v="Kaposvár"/>
    <tag k="addr:postcode" v="7400"/>
    <tag k="addr:street" v="Kisfaludy utca"/>
    <tag k="addr:housenumber" v="21"/>
    <tag k="website" v="https://www.kulcspatika.hupatikak/orangyal-patika-p79"/>
    <tag k="amenity" v="pharmacy"/>
    <tag k="dispensing" v="yes"/>
    <tag k="payment:debit_cards" v="yes"/>
    <tag k="payment:cash" v="yes"/>
  </node>
  <node action="modify" id="-32" lat="47.318279481784" lon="21.115019917488">
    <tag k="name" v="Kulcs patika"/>
    <tag k="addr:city" v="Püspökladány"/>
    <tag k="addr:postcode" v="4150"/>
    <tag k="addr:street" v="Petőfi utca"/>
    <tag k="addr:housenumber" v="5"/>
    <tag k="website" v="https://www.kulcspatika.hupatikak/remeny-gyogyszertar-p90"/>
    <tag k="amenity" v="pharmacy"/>
    <tag k="dispensing" v="yes"/>
    <tag k="payment:debit_cards" v="yes"/>
    <tag k="payment:cash" v="yes"/>
  </node>
  <node action="modify" id="-33" lat="46.331532" lon="20.205621">
    <tag k="name" v="Kulcs patika"/>
    <tag k="addr:city" v="Algyő"/>
    <tag k="addr:postcode" v="6750"/>
    <tag k="addr:street" v="Egészségház utca"/>
    <tag k="addr:housenumber" v="42"/>
    <tag k="website" v="https://www.kulcspatika.hupatikak/gyevi-gyogyszertar-p40"/>
    <tag k="amenity" v="pharmacy"/>
    <tag k="dispensing" v="yes"/>
    <tag k="payment:debit_cards" v="yes"/>
    <tag k="payment:cash" v="yes"/>
  </node>
  <node action="modify" id="-34" lat="46.190594995072" lon="18.264003233135">
    <tag k="name" v="Kulcs patika"/>
    <tag k="addr:city" v="Komló"/>
    <tag k="addr:postcode" v="7300"/>
    <tag k="addr:street" v="Kossuth Lajos utca"/>
    <tag k="addr:housenumber" v="101"/>
    <tag k="website" v="https://www.kulcspatika.hupatikak/vital-plusz-gyogyszertar-p176"/>
    <tag k="amenity" v="pharmacy"/>
    <tag k="dispensing" v="yes"/>
    <tag k="payment:debit_cards" v="yes"/>
    <tag k="payment:cash" v="yes"/>
  </node>
  <node action="modify" id="-35" lat="46.275558283521" lon="20.062189699355">
    <tag k="name" v="Kulcs patika"/>
    <tag k="addr:city" v="Szeged"/>
    <tag k="addr:postcode" v="6791"/>
    <tag k="addr:street" v="Negyvennyolcas utca"/>
    <tag k="addr:housenumber" v="10"/>
    <tag k="website" v="https://www.kulcspatika.hupatikak/szent-istvan-gyogyszertar-p104"/>
    <tag k="amenity" v="pharmacy"/>
    <tag k="dispensing" v="yes"/>
    <tag k="payment:debit_cards" v="yes"/>
    <tag k="payment:cash" v="yes"/>
  </node>
  <node action="modify" id="-36" lat="46.109037" lon="18.988092">
    <tag k="name" v="Kulcs patika"/>
    <tag k="addr:city" v="Vaskút"/>
    <tag k="addr:postcode" v="6521"/>
    <tag k="addr:street" v="Kossuth Lajos utca"/>
    <tag k="addr:housenumber" v="93"/>
    <tag k="website" v="https://www.kulcspatika.hupatikak/szent-gyorgy-patika-p102"/>
    <tag k="amenity" v="pharmacy"/>
    <tag k="dispensing" v="yes"/>
    <tag k="payment:debit_cards" v="yes"/>
    <tag k="payment:cash" v="yes"/>
  </node>
  <node action="modify" id="-37" lat="47.027362" lon="20.96135">
    <tag k="name" v="Kulcs patika"/>
    <tag k="addr:city" v="Dévaványa"/>
    <tag k="addr:postcode" v="5510"/>
    <tag k="addr:street" v="Hősök tere"/>
    <tag k="addr:housenumber" v="3"/>
    <tag k="website" v="https://www.kulcspatika.hupatikak/deva-patika-p26"/>
    <tag k="amenity" v="pharmacy"/>
    <tag k="dispensing" v="yes"/>
    <tag k="payment:debit_cards" v="yes"/>
    <tag k="payment:cash" v="yes"/>
  </node>
  <node action="modify" id="-38" lat="46.671022" lon="20.670733">
    <tag k="name" v="Kulcs patika"/>
    <tag k="addr:city" v="Nagyszénás"/>
    <tag k="addr:postcode" v="5931"/>
    <tag k="addr:street" v="Március 15. tér"/>
    <tag k="addr:housenumber" v="6"/>
    <tag k="website" v="https://www.kulcspatika.hupatikak/korona-gyogyszertar-p59"/>
    <tag k="amenity" v="pharmacy"/>
    <tag k="dispensing" v="yes"/>
    <tag k="payment:debit_cards" v="yes"/>
    <tag k="payment:cash" v="yes"/>
  </node>
  <node action="modify" id="-39" lat="46.361546967733" lon="20.098366141319">
    <tag k="name" v="Kulcs patika"/>
    <tag k="addr:city" v="Sándorfalva"/>
    <tag k="addr:postcode" v="6762"/>
    <tag k="addr:street" v="Széchenyi utca"/>
    <tag k="addr:housenumber" v="13"/>
    <tag k="website" v="https://www.kulcspatika.hupatikak/fagyongy-patika-p32"/>
    <tag k="amenity" v="pharmacy"/>
    <tag k="dispensing" v="yes"/>
    <tag k="payment:debit_cards" v="yes"/>
    <tag k="payment:cash" v="yes"/>
  </node>
  <node action="modify" id="-40" lat="46.794463483604" lon="20.716844683456">
    <tag k="name" v="Kulcs patika"/>
    <tag k="addr:city" v="Kardos"/>
    <tag k="addr:postcode" v="5552"/>
    <tag k="addr:street" v="Gyomai út"/>
    <tag k="addr:housenumber" v="22"/>
    <tag k="website" v="https://www.kulcspatika.hupatikak/kardosi-fiokgyogyszertar-p126"/>
    <tag k="amenity" v="pharmacy"/>
    <tag k="dispensing" v="yes"/>
    <tag k="payment:debit_cards" v="yes"/>
    <tag k="payment:cash" v="yes"/>
  </node>
  <node action="modify" id="-41" lat="46.165537857637" lon="18.955113588955">
    <tag k="name" v="Kulcs patika"/>
    <tag k="addr:city" v="Baja"/>
    <tag k="addr:postcode" v="6500"/>
    <tag k="addr:street" v="Lőkert sor"/>
    <tag k="addr:housenumber" v="1/i"/>
    <tag k="website" v="https://www.kulcspatika.hupatikak/forras-patika-p37"/>
    <tag k="amenity" v="pharmacy"/>
    <tag k="dispensing" v="yes"/>
    <tag k="payment:debit_cards" v="yes"/>
    <tag k="payment:cash" v="yes"/>
  </node>
  <node action="modify" id="-42" lat="46.20851" lon="19.536371">
    <tag k="name" v="Kulcs patika"/>
    <tag k="addr:city" v="Tompa"/>
    <tag k="addr:postcode" v="6422"/>
    <tag k="addr:street" v="Kossuth utca"/>
    <tag k="addr:housenumber" v="22"/>
    <tag k="website" v="https://www.kulcspatika.hupatikak/hovirag-gyogyszertar-p50"/>
    <tag k="amenity" v="pharmacy"/>
    <tag k="dispensing" v="yes"/>
    <tag k="payment:debit_cards" v="yes"/>
    <tag k="payment:cash" v="yes"/>
  </node>
  <node action="modify" id="-43" lat="46.273698415925" lon="18.377264542328">
    <tag k="name" v="Kulcs patika"/>
    <tag k="addr:city" v="Szászvár"/>
    <tag k="addr:postcode" v="7349"/>
    <tag k="addr:street" v="Május 1. tér"/>
    <tag k="addr:housenumber" v="3"/>
    <tag k="website" v="https://www.kulcspatika.hupatikak/szentharomsag-gyogyszertar-p110"/>
    <tag k="amenity" v="pharmacy"/>
    <tag k="dispensing" v="yes"/>
    <tag k="payment:debit_cards" v="yes"/>
    <tag k="payment:cash" v="yes"/>
  </node>
  <node action="modify" id="-44" lat="46.288989452273" lon="19.745244474869">
    <tag k="name" v="Kulcs patika"/>
    <tag k="addr:city" v="Ruzsa"/>
    <tag k="addr:postcode" v="6786"/>
    <tag k="addr:street" v="Tömörkény tér"/>
    <tag k="addr:housenumber" v="8-9"/>
    <tag k="website" v="https://www.kulcspatika.hupatikak/hars-gyogyszertar-p46"/>
    <tag k="amenity" v="pharmacy"/>
    <tag k="dispensing" v="yes"/>
    <tag k="payment:debit_cards" v="yes"/>
    <tag k="payment:cash" v="yes"/>
  </node>
  <node action="modify" id="-45" lat="47.821687874538" lon="20.903302766383">
    <tag k="name" v="Kulcs patika"/>
    <tag k="addr:city" v="Mezőcsát"/>
    <tag k="addr:postcode" v="3450"/>
    <tag k="addr:street" v="Hősök tere"/>
    <tag k="addr:housenumber" v="33"/>
    <tag k="website" v="https://www.kulcspatika.hupatikak/primus-patika-p185"/>
    <tag k="amenity" v="pharmacy"/>
    <tag k="dispensing" v="yes"/>
    <tag k="payment:debit_cards" v="yes"/>
    <tag k="payment:cash" v="yes"/>
  </node>
  <node action="modify" id="-46" lat="47.316143005047" lon="20.924649813492">
    <tag k="name" v="Kulcs patika"/>
    <tag k="addr:city" v="Karcag"/>
    <tag k="addr:postcode" v="5300"/>
    <tag k="addr:street" v="Kiss Antal utca"/>
    <tag k="addr:housenumber" v="3"/>
    <tag k="website" v="https://www.kulcspatika.hupatikak/berek-patika-p18"/>
    <tag k="amenity" v="pharmacy"/>
    <tag k="dispensing" v="yes"/>
    <tag k="payment:debit_cards" v="yes"/>
    <tag k="payment:cash" v="yes"/>
  </node>
  <node action="modify" id="-47" lat="46.82746450491" lon="20.648433589935">
    <tag k="name" v="Kulcs patika"/>
    <tag k="addr:city" v="Csabacsűd"/>
    <tag k="addr:postcode" v="5551"/>
    <tag k="addr:street" v="Szabadság utca"/>
    <tag k="addr:housenumber" v="46"/>
    <tag k="website" v="https://www.kulcspatika.hupatikak/korall-fiokgyogyszertar-p127"/>
    <tag k="amenity" v="pharmacy"/>
    <tag k="dispensing" v="yes"/>
    <tag k="payment:debit_cards" v="yes"/>
    <tag k="payment:cash" v="yes"/>
  </node>
  <node action="modify" id="-48" lat="47.308713021608" lon="20.910308104324">
    <tag k="name" v="Kulcs patika"/>
    <tag k="addr:city" v="Karcag"/>
    <tag k="addr:postcode" v="5300"/>
    <tag k="addr:street" v="Kisújszállási út"/>
    <tag k="addr:housenumber" v="34"/>
    <tag k="website" v="https://www.kulcspatika.hupatikak/kulcs-gyogyszertar-tesco-p171"/>
    <tag k="amenity" v="pharmacy"/>
    <tag k="dispensing" v="yes"/>
    <tag k="payment:debit_cards" v="yes"/>
    <tag k="payment:cash" v="yes"/>
  </node>
  <node action="modify" id="-49" lat="46.280835974357" lon="19.489727071381">
    <tag k="name" v="Kulcs patika"/>
    <tag k="addr:city" v="Kisszállás"/>
    <tag k="addr:postcode" v="6421"/>
    <tag k="addr:street" v="Felszabadulás utca"/>
    <tag k="addr:housenumber" v="40"/>
    <tag k="website" v="https://www.kulcspatika.hupatikak/aranykehely-hovirag-fiokgyogyszertara-p146"/>
    <tag k="amenity" v="pharmacy"/>
    <tag k="dispensing" v="yes"/>
    <tag k="payment:debit_cards" v="yes"/>
    <tag k="payment:cash" v="yes"/>
  </node>
  <node action="modify" id="-50" lat="47.876339432121" lon="17.268787808529">
    <tag k="name" v="Kulcs patika"/>
    <tag k="addr:city" v="Mosonmagyaróvár"/>
    <tag k="addr:postcode" v="9200"/>
    <tag k="addr:street" v="Honvéd utca"/>
    <tag k="addr:housenumber" v="9"/>
    <tag k="website" v="https://www.kulcspatika.hupatikak/belvarosi-patika-p17"/>
    <tag k="amenity" v="pharmacy"/>
    <tag k="dispensing" v="yes"/>
    <tag k="payment:debit_cards" v="yes"/>
    <tag k="payment:cash" v="yes"/>
  </node>
  <node action="modify" id="-51" lat="46.288777293058" lon="18.992964364418">
    <tag k="name" v="Kulcs patika"/>
    <tag k="addr:city" v="Sükösd"/>
    <tag k="addr:postcode" v="6346"/>
    <tag k="addr:street" v="Dózsa György út"/>
    <tag k="addr:housenumber" v="162"/>
    <tag k="website" v="https://www.kulcspatika.hupatikak/borostyan-gyogyszertar-p187"/>
    <tag k="amenity" v="pharmacy"/>
    <tag k="dispensing" v="yes"/>
    <tag k="payment:debit_cards" v="yes"/>
    <tag k="payment:cash" v="yes"/>
  </node>
  <node action="modify" id="-52" lat="46.491895433706" lon="19.737307280302">
    <tag k="name" v="Kulcs patika"/>
    <tag k="addr:city" v="Kiskunmajsa"/>
    <tag k="addr:postcode" v="6120"/>
    <tag k="addr:street" v="Hősök tere"/>
    <tag k="addr:housenumber" v="3"/>
    <tag k="website" v="https://www.kulcspatika.hupatikak/balzsam-patika-p14"/>
    <tag k="amenity" v="pharmacy"/>
    <tag k="dispensing" v="yes"/>
    <tag k="payment:debit_cards" v="yes"/>
    <tag k="payment:cash" v="yes"/>
  </node>
  <node action="modify" id="-53" lat="46.431443" lon="19.479856">
    <tag k="name" v="Kulcs patika"/>
    <tag k="addr:city" v="Kiskunhalas"/>
    <tag k="addr:postcode" v="6400"/>
    <tag k="addr:street" v="Eötvös utca"/>
    <tag k="addr:housenumber" v="3"/>
    <tag k="website" v="https://www.kulcspatika.hupatikak/prima-patika-p88"/>
    <tag k="amenity" v="pharmacy"/>
    <tag k="dispensing" v="yes"/>
    <tag k="payment:debit_cards" v="yes"/>
    <tag k="payment:cash" v="yes"/>
  </node>
  <node action="modify" id="-54" lat="47.330035540733" lon="17.46218919754">
    <tag k="name" v="Kulcs patika"/>
    <tag k="addr:city" v="Pápa"/>
    <tag k="addr:postcode" v="8500"/>
    <tag k="addr:street" v="Szentilonay József utca"/>
    <tag k="addr:housenumber" v="6"/>
    <tag k="website" v="https://www.kulcspatika.hupatikak/orangyal-piatsek-vagy-kis-teri-gyogyszertar-p78"/>
    <tag k="amenity" v="pharmacy"/>
    <tag k="dispensing" v="yes"/>
    <tag k="payment:debit_cards" v="yes"/>
    <tag k="payment:cash" v="yes"/>
  </node>
  <node action="modify" id="-55" lat="47.806871" lon="20.565354">
    <tag k="name" v="Kulcs patika"/>
    <tag k="addr:city" v="Mezőkövesd"/>
    <tag k="addr:postcode" v="3400"/>
    <tag k="addr:street" v="Mátyás király út"/>
    <tag k="addr:housenumber" v="75"/>
    <tag k="website" v="https://www.kulcspatika.hupatikak/forras-gyogyszertar-p36"/>
    <tag k="amenity" v="pharmacy"/>
    <tag k="dispensing" v="yes"/>
    <tag k="payment:debit_cards" v="yes"/>
    <tag k="payment:cash" v="yes"/>
  </node>
  <node action="modify" id="-56" lat="47.105375862721" lon="17.570617496967">
    <tag k="name" v="Kulcs patika"/>
    <tag k="addr:city" v="Ajka"/>
    <tag k="addr:postcode" v="8400"/>
    <tag k="addr:street" v="Alkotmány utca"/>
    <tag k="addr:housenumber" v="20"/>
    <tag k="website" v="https://www.kulcspatika.hupatikak/gyorgy-gyogyszertar-p164"/>
    <tag k="amenity" v="pharmacy"/>
    <tag k="dispensing" v="yes"/>
    <tag k="payment:debit_cards" v="yes"/>
    <tag k="payment:cash" v="yes"/>
  </node>
  <node action="modify" id="-57" lat="47.919279" lon="20.372364">
    <tag k="name" v="Kulcs patika"/>
    <tag k="addr:city" v="Eger"/>
    <tag k="addr:postcode" v="3300"/>
    <tag k="addr:street" v="Vallon utca"/>
    <tag k="addr:housenumber" v="4"/>
    <tag k="website" v="https://www.kulcspatika.hupatikak/platan-patika-p87"/>
    <tag k="amenity" v="pharmacy"/>
    <tag k="dispensing" v="yes"/>
    <tag k="payment:debit_cards" v="yes"/>
    <tag k="payment:cash" v="yes"/>
  </node>
  <node action="modify" id="-58" lat="47.179869" lon="20.412993">
    <tag k="name" v="Kulcs patika"/>
    <tag k="addr:city" v="Törökszentmiklós"/>
    <tag k="addr:postcode" v="5200"/>
    <tag k="addr:street" v="Kossuth Lajos utca"/>
    <tag k="addr:housenumber" v="125"/>
    <tag k="website" v="https://www.kulcspatika.hupatikak/fontana-gyogyszertar-p35"/>
    <tag k="amenity" v="pharmacy"/>
    <tag k="dispensing" v="yes"/>
    <tag k="payment:debit_cards" v="yes"/>
    <tag k="payment:cash" v="yes"/>
  </node>
  <node action="modify" id="-59" lat="46.52535971381" lon="18.985364346067">
    <tag k="name" v="Kulcs patika"/>
    <tag k="addr:city" v="Kalocsa"/>
    <tag k="addr:postcode" v="6300"/>
    <tag k="addr:street" v="Széchenyi út"/>
    <tag k="addr:housenumber" v="8"/>
    <tag k="website" v="https://www.kulcspatika.hupatikak/arany-kigyo-gyogyszertar-p5"/>
    <tag k="amenity" v="pharmacy"/>
    <tag k="dispensing" v="yes"/>
    <tag k="payment:debit_cards" v="yes"/>
    <tag k="payment:cash" v="yes"/>
  </node>
  <node action="modify" id="-60" lat="47.68937" lon="17.632839">
    <tag k="name" v="Kulcs patika"/>
    <tag k="addr:city" v="Győr"/>
    <tag k="addr:postcode" v="9021"/>
    <tag k="addr:street" v="Jedlik Ányos utca"/>
    <tag k="addr:housenumber" v="16"/>
    <tag k="website" v="https://www.kulcspatika.hupatikak/aranyhajo-patika-p7"/>
    <tag k="amenity" v="pharmacy"/>
    <tag k="dispensing" v="yes"/>
    <tag k="payment:debit_cards" v="yes"/>
    <tag k="payment:cash" v="yes"/>
  </node>
  <node action="modify" id="-61" lat="46.532119" lon="18.98099">
    <tag k="name" v="Kulcs patika"/>
    <tag k="addr:city" v="Kalocsa"/>
    <tag k="addr:postcode" v="6300"/>
    <tag k="addr:street" v="Kossuth Lajos utca"/>
    <tag k="addr:housenumber" v="23"/>
    <tag k="website" v="https://www.kulcspatika.hupatikak/fonix-gyogyszertar-p38"/>
    <tag k="amenity" v="pharmacy"/>
    <tag k="dispensing" v="yes"/>
    <tag k="payment:debit_cards" v="yes"/>
    <tag k="payment:cash" v="yes"/>
  </node>
  <node action="modify" id="-62" lat="47.116096893771" lon="17.730792313814">
    <tag k="name" v="Kulcs patika"/>
    <tag k="addr:city" v="Szentgál"/>
    <tag k="addr:postcode" v="8444"/>
    <tag k="addr:street" v="Fő utca"/>
    <tag k="addr:housenumber" v="5"/>
    <tag k="website" v="https://www.kulcspatika.hupatikak/szentgali-patika-p155"/>
    <tag k="amenity" v="pharmacy"/>
    <tag k="dispensing" v="yes"/>
    <tag k="payment:debit_cards" v="yes"/>
    <tag k="payment:cash" v="yes"/>
  </node>
  <node action="modify" id="-63" lat="46.710339209653" lon="19.843642067459">
    <tag k="name" v="Kulcs patika"/>
    <tag k="addr:city" v="Kiskunfélegyháza"/>
    <tag k="addr:postcode" v="6100"/>
    <tag k="addr:street" v="Attila utca"/>
    <tag k="addr:housenumber" v="1"/>
    <tag k="website" v="https://www.kulcspatika.hupatikak/korpatika-felegyhaza-p62"/>
    <tag k="amenity" v="pharmacy"/>
    <tag k="dispensing" v="yes"/>
    <tag k="payment:debit_cards" v="yes"/>
    <tag k="payment:cash" v="yes"/>
  </node>
  <node action="modify" id="-64" lat="46.711576928294" lon="19.838165044785">
    <tag k="name" v="Kulcs patika"/>
    <tag k="addr:city" v="Kiskunfélegyháza"/>
    <tag k="addr:postcode" v="6100"/>
    <tag k="addr:street" v="Fadrusz János utca"/>
    <tag k="addr:housenumber" v="4"/>
    <tag k="website" v="https://www.kulcspatika.hupatikak/korhazi-patika-p58"/>
    <tag k="amenity" v="pharmacy"/>
    <tag k="dispensing" v="yes"/>
    <tag k="payment:debit_cards" v="yes"/>
    <tag k="payment:cash" v="yes"/>
  </node>
  <node action="modify" id="-65" lat="46.721795862778" lon="19.849913519014">
    <tag k="name" v="Kulcs patika"/>
    <tag k="addr:city" v="Kiskunfélegyháza"/>
    <tag k="addr:postcode" v="6100"/>
    <tag k="addr:street" v="Darvas József tér"/>
    <tag k="addr:housenumber" v="2"/>
    <tag k="website" v="https://www.kulcspatika.hupatikak/petofi-patika-p85"/>
    <tag k="amenity" v="pharmacy"/>
    <tag k="dispensing" v="yes"/>
    <tag k="payment:debit_cards" v="yes"/>
    <tag k="payment:cash" v="yes"/>
  </node>
  <node action="modify" id="-66" lat="47.087700624736" lon="17.907945513725">
    <tag k="name" v="Kulcs patika"/>
    <tag k="addr:city" v="Veszprém"/>
    <tag k="addr:postcode" v="8200"/>
    <tag k="addr:street" v="Egyetem utca"/>
    <tag k="addr:housenumber" v="7"/>
    <tag k="website" v="https://www.kulcspatika.hupatikak/egyetem-gyogyszertar-p148"/>
    <tag k="amenity" v="pharmacy"/>
    <tag k="dispensing" v="yes"/>
    <tag k="payment:debit_cards" v="yes"/>
    <tag k="payment:cash" v="yes"/>
  </node>
  <node action="modify" id="-67" lat="47.175176" lon="20.196191">
    <tag k="name" v="Kulcs patika"/>
    <tag k="addr:city" v="Szolnok"/>
    <tag k="addr:postcode" v="5000"/>
    <tag k="addr:street" v="Kossuth tér"/>
    <tag k="addr:housenumber" v="7-8"/>
    <tag k="website" v="https://www.kulcspatika.hupatikak/kossuth-gyogyszertar-p61"/>
    <tag k="amenity" v="pharmacy"/>
    <tag k="dispensing" v="yes"/>
    <tag k="payment:debit_cards" v="yes"/>
    <tag k="payment:cash" v="yes"/>
  </node>
  <node action="modify" id="-68" lat="47.03049" lon="18.011578">
    <tag k="name" v="Kulcs patika"/>
    <tag k="addr:city" v="Balatonalmádi"/>
    <tag k="addr:postcode" v="8220"/>
    <tag k="addr:street" v="Baross Gábor utca"/>
    <tag k="addr:housenumber" v="25"/>
    <tag k="website" v="https://www.kulcspatika.hupatikak/dr-gyorgy-gyogyszertar-p28"/>
    <tag k="amenity" v="pharmacy"/>
    <tag k="dispensing" v="yes"/>
    <tag k="payment:debit_cards" v="yes"/>
    <tag k="payment:cash" v="yes"/>
  </node>
  <node action="modify" id="-69" lat="47.078057112909" lon="18.027448654175">
    <tag k="name" v="Kulcs patika"/>
    <tag k="addr:city" v="Balatonfűzfő"/>
    <tag k="addr:postcode" v="8184"/>
    <tag k="addr:street" v="Bugyogóforrás utca"/>
    <tag k="addr:housenumber" v="20"/>
    <tag k="website" v="https://www.kulcspatika.hupatikak/balaton-gyogyszertar-p13"/>
    <tag k="amenity" v="pharmacy"/>
    <tag k="dispensing" v="yes"/>
    <tag k="payment:debit_cards" v="yes"/>
    <tag k="payment:cash" v="yes"/>
  </node>
  <node action="modify" id="-70" lat="46.895994" lon="19.721676">
    <tag k="name" v="Kulcs patika"/>
    <tag k="addr:city" v="Kecskemét"/>
    <tag k="addr:postcode" v="6000"/>
    <tag k="addr:street" v="Irányi István utca"/>
    <tag k="addr:housenumber" v="5"/>
    <tag k="website" v="https://www.kulcspatika.hupatikak/mukerti-patika-p75"/>
    <tag k="amenity" v="pharmacy"/>
    <tag k="dispensing" v="yes"/>
    <tag k="payment:debit_cards" v="yes"/>
    <tag k="payment:cash" v="yes"/>
  </node>
  <node action="modify" id="-71" lat="46.902834" lon="19.69597">
    <tag k="name" v="Kulcs patika"/>
    <tag k="addr:city" v="Kecskemét"/>
    <tag k="addr:postcode" v="6000"/>
    <tag k="addr:street" v="Czollner tér"/>
    <tag k="addr:housenumber" v="5"/>
    <tag k="website" v="https://www.kulcspatika.hupatikak/muemlek-patika-p74"/>
    <tag k="amenity" v="pharmacy"/>
    <tag k="dispensing" v="yes"/>
    <tag k="payment:debit_cards" v="yes"/>
    <tag k="payment:cash" v="yes"/>
  </node>
  <node action="modify" id="-72" lat="46.903908" lon="19.684563">
    <tag k="name" v="Kulcs patika"/>
    <tag k="addr:city" v="Kecskemét"/>
    <tag k="addr:postcode" v="6000"/>
    <tag k="addr:street" v="Vágó utca"/>
    <tag k="addr:housenumber" v="2"/>
    <tag k="website" v="https://www.kulcspatika.hupatikak/szalaghazi-irisz-gyogyszertar-p97"/>
    <tag k="amenity" v="pharmacy"/>
    <tag k="dispensing" v="yes"/>
    <tag k="payment:debit_cards" v="yes"/>
    <tag k="payment:cash" v="yes"/>
  </node>
  <node action="modify" id="-73" lat="46.913781" lon="19.689548">
    <tag k="name" v="Kulcs patika"/>
    <tag k="addr:city" v="Kecskemét"/>
    <tag k="addr:postcode" v="6000"/>
    <tag k="addr:street" v="Jókai utca"/>
    <tag k="addr:housenumber" v="27"/>
    <tag k="website" v="https://www.kulcspatika.hupatikak/szent-istvan-kiraly-gyogyszertar-p105"/>
    <tag k="amenity" v="pharmacy"/>
    <tag k="dispensing" v="yes"/>
    <tag k="payment:debit_cards" v="yes"/>
    <tag k="payment:cash" v="yes"/>
  </node>
  <node action="modify" id="-74" lat="47.29486" lon="20.074068">
    <tag k="name" v="Kulcs patika"/>
    <tag k="addr:city" v="Újszász"/>
    <tag k="addr:postcode" v="5052"/>
    <tag k="addr:street" v="Damjanich út"/>
    <tag k="addr:housenumber" v="14"/>
    <tag k="website" v="https://www.kulcspatika.hupatikak/szent-istvan-kiraly-gyogyszertar-p106"/>
    <tag k="amenity" v="pharmacy"/>
    <tag k="dispensing" v="yes"/>
    <tag k="payment:debit_cards" v="yes"/>
    <tag k="payment:cash" v="yes"/>
  </node>
  <node action="modify" id="-75" lat="46.910538" lon="19.674458">
    <tag k="name" v="Kulcs patika"/>
    <tag k="addr:city" v="Kecskemét"/>
    <tag k="addr:postcode" v="6000"/>
    <tag k="addr:street" v="Nyíri út"/>
    <tag k="addr:housenumber" v="38/a"/>
    <tag k="website" v="https://www.kulcspatika.hupatikak/korona-patika-p60"/>
    <tag k="amenity" v="pharmacy"/>
    <tag k="dispensing" v="yes"/>
    <tag k="payment:debit_cards" v="yes"/>
    <tag k="payment:cash" v="yes"/>
  </node>
  <node action="modify" id="-76" lat="46.927024" lon="19.689248">
    <tag k="name" v="Kulcs patika"/>
    <tag k="addr:city" v="Kecskemét"/>
    <tag k="addr:postcode" v="6000"/>
    <tag k="addr:street" v="Rózsavölgyi tér"/>
    <tag k="addr:housenumber" v="27"/>
    <tag k="website" v="https://www.kulcspatika.hupatikak/korpatika-kecskemet-p63"/>
    <tag k="amenity" v="pharmacy"/>
    <tag k="dispensing" v="yes"/>
    <tag k="payment:debit_cards" v="yes"/>
    <tag k="payment:cash" v="yes"/>
  </node>
  <node action="modify" id="-77" lat="47.118924" lon="19.92966">
    <tag k="name" v="Kulcs patika"/>
    <tag k="addr:city" v="Törtel"/>
    <tag k="addr:postcode" v="2747"/>
    <tag k="addr:street" v="Szent István út"/>
    <tag k="addr:housenumber" v="7/a"/>
    <tag k="website" v="https://www.kulcspatika.hupatikak/szent-margit-gyogyszertar-p108"/>
    <tag k="amenity" v="pharmacy"/>
    <tag k="dispensing" v="yes"/>
    <tag k="payment:debit_cards" v="yes"/>
    <tag k="payment:cash" v="yes"/>
  </node>
  <node action="modify" id="-78" lat="46.800477768414" lon="19.000821863754">
    <tag k="name" v="Kulcs patika"/>
    <tag k="addr:city" v="Solt"/>
    <tag k="addr:postcode" v="6320"/>
    <tag k="addr:street" v="Béke tér"/>
    <tag k="addr:housenumber" v="6"/>
    <tag k="website" v="https://www.kulcspatika.hupatikak/beke-patika-p15"/>
    <tag k="amenity" v="pharmacy"/>
    <tag k="dispensing" v="yes"/>
    <tag k="payment:debit_cards" v="yes"/>
    <tag k="payment:cash" v="yes"/>
  </node>
  <node action="modify" id="-79" lat="47.037122236854" lon="19.784978181124">
    <tag k="name" v="Kulcs patika"/>
    <tag k="addr:city" v="Nagykőrös"/>
    <tag k="addr:postcode" v="2750"/>
    <tag k="addr:street" v="Ceglédi út"/>
    <tag k="addr:housenumber" v="7/a"/>
    <tag k="website" v="https://www.kulcspatika.hupatikak/korisfa-gyogyszertar-p150"/>
    <tag k="amenity" v="pharmacy"/>
    <tag k="dispensing" v="yes"/>
    <tag k="payment:debit_cards" v="yes"/>
    <tag k="payment:cash" v="yes"/>
  </node>
  <node action="modify" id="-80" lat="47.199984528304" lon="18.139924407005">
    <tag k="name" v="Kulcs patika"/>
    <tag k="addr:city" v="Várpalota"/>
    <tag k="addr:postcode" v="8100"/>
    <tag k="addr:street" v="Szabadság tér"/>
    <tag k="addr:housenumber" v="4"/>
    <tag k="website" v="https://www.kulcspatika.hupatikak/szent-gyorgy-patika-p101"/>
    <tag k="amenity" v="pharmacy"/>
    <tag k="dispensing" v="yes"/>
    <tag k="payment:debit_cards" v="yes"/>
    <tag k="payment:cash" v="yes"/>
  </node>
  <node action="modify" id="-81" lat="47.201100283496" lon="18.14099997282">
    <tag k="name" v="Kulcs patika"/>
    <tag k="addr:city" v="Várpalota"/>
    <tag k="addr:postcode" v="8100"/>
    <tag k="addr:street" v="Szent István utca"/>
    <tag k="addr:housenumber" v="2"/>
    <tag k="website" v="https://www.kulcspatika.hupatikak/belvarosi-gyogyszertar-p177"/>
    <tag k="amenity" v="pharmacy"/>
    <tag k="dispensing" v="yes"/>
    <tag k="payment:debit_cards" v="yes"/>
    <tag k="payment:cash" v="yes"/>
  </node>
  <node action="modify" id="-82" lat="47.642467" lon="19.98151">
    <tag k="name" v="Kulcs patika"/>
    <tag k="addr:city" v="Jászárokszállás"/>
    <tag k="addr:postcode" v="5123"/>
    <tag k="addr:street" v="Rákóczi Ferenc utca"/>
    <tag k="addr:housenumber" v="9"/>
    <tag k="website" v="https://www.kulcspatika.hupatikak/szent-margit-gyogyszertar-p109"/>
    <tag k="amenity" v="pharmacy"/>
    <tag k="dispensing" v="yes"/>
    <tag k="payment:debit_cards" v="yes"/>
    <tag k="payment:cash" v="yes"/>
  </node>
  <node action="modify" id="-83" lat="47.736076391387" lon="18.156644513878">
    <tag k="name" v="Kulcs patika"/>
    <tag k="addr:city" v="Komárom"/>
    <tag k="addr:postcode" v="2921"/>
    <tag k="addr:street" v="Széchenyi utca"/>
    <tag k="addr:housenumber" v="81"/>
    <tag k="website" v="https://www.kulcspatika.hupatikak/vasarter-patika-p113"/>
    <tag k="amenity" v="pharmacy"/>
    <tag k="dispensing" v="yes"/>
    <tag k="payment:debit_cards" v="yes"/>
    <tag k="payment:cash" v="yes"/>
  </node>
  <node action="modify" id="-84" lat="46.937164667558" lon="19.478809386492">
    <tag k="name" v="Kulcs patika"/>
    <tag k="addr:city" v="Kerekegyháza"/>
    <tag k="addr:postcode" v="6041"/>
    <tag k="addr:street" v="Szent István tér"/>
    <tag k="addr:housenumber" v="15"/>
    <tag k="website" v="https://www.kulcspatika.hupatikak/szent-istvan-gyogyszertar-p103"/>
    <tag k="amenity" v="pharmacy"/>
    <tag k="dispensing" v="yes"/>
    <tag k="payment:debit_cards" v="yes"/>
    <tag k="payment:cash" v="yes"/>
  </node>
  <node action="modify" id="-85" lat="47.919047092816" lon="19.692880364418">
    <tag k="name" v="Kulcs patika"/>
    <tag k="addr:city" v="Pásztó"/>
    <tag k="addr:postcode" v="3060"/>
    <tag k="addr:street" v="Semmelweis utca"/>
    <tag k="addr:housenumber" v="9"/>
    <tag k="website" v="https://www.kulcspatika.hupatikak/gyogyir-patika-p43"/>
    <tag k="amenity" v="pharmacy"/>
    <tag k="dispensing" v="yes"/>
    <tag k="payment:debit_cards" v="yes"/>
    <tag k="payment:cash" v="yes"/>
  </node>
  <node action="modify" id="-86" lat="46.931941631832" lon="18.780484171164">
    <tag k="name" v="Kulcs patika"/>
    <tag k="addr:city" v="Mezőfalva"/>
    <tag k="addr:postcode" v="2422"/>
    <tag k="addr:street" v="Semmelweis I utca"/>
    <tag k="addr:housenumber" v="5"/>
    <tag k="website" v="https://www.kulcspatika.hupatikak/nador-gogyszertar-p179"/>
    <tag k="amenity" v="pharmacy"/>
    <tag k="dispensing" v="yes"/>
    <tag k="payment:debit_cards" v="yes"/>
    <tag k="payment:cash" v="yes"/>
  </node>
  <node action="modify" id="-87" lat="47.331359057749" lon="19.873796042328">
    <tag k="name" v="Kulcs patika"/>
    <tag k="addr:city" v="Tápiószele"/>
    <tag k="addr:postcode" v="2766"/>
    <tag k="addr:street" v="Kossuth Lajos út"/>
    <tag k="addr:housenumber" v="8"/>
    <tag k="website" v="https://www.kulcspatika.hupatikak/segito-maria-gyogyszertar-p186"/>
    <tag k="amenity" v="pharmacy"/>
    <tag k="dispensing" v="yes"/>
    <tag k="payment:debit_cards" v="yes"/>
    <tag k="payment:cash" v="yes"/>
  </node>
  <node action="modify" id="-88" lat="47.168469177256" lon="18.407403898148">
    <tag k="name" v="Kulcs patika"/>
    <tag k="addr:city" v="Székesfehérvár"/>
    <tag k="addr:postcode" v="8000"/>
    <tag k="addr:street" v="Batthyányi utca"/>
    <tag k="addr:housenumber" v="12"/>
    <tag k="website" v="https://www.kulcspatika.hupatikak/sosto-gyogyszertar-p96"/>
    <tag k="amenity" v="pharmacy"/>
    <tag k="dispensing" v="yes"/>
    <tag k="payment:debit_cards" v="yes"/>
    <tag k="payment:cash" v="yes"/>
  </node>
  <node action="modify" id="-89" lat="47.205375" lon="18.459766">
    <tag k="name" v="Kulcs patika"/>
    <tag k="addr:city" v="Székesfehérvár"/>
    <tag k="addr:postcode" v="8000"/>
    <tag k="addr:street" v="Pozsonyi út"/>
    <tag k="addr:housenumber" v="99/a"/>
    <tag k="website" v="https://www.kulcspatika.hupatikak/oreghegyi-patika-p80"/>
    <tag k="amenity" v="pharmacy"/>
    <tag k="dispensing" v="yes"/>
    <tag k="payment:debit_cards" v="yes"/>
    <tag k="payment:cash" v="yes"/>
  </node>
  <node action="modify" id="-90" lat="47.414273" lon="19.737764">
    <tag k="name" v="Kulcs patika"/>
    <tag k="addr:city" v="Nagykáta"/>
    <tag k="addr:postcode" v="2760"/>
    <tag k="addr:street" v="Dózsa György utca"/>
    <tag k="addr:housenumber" v="27"/>
    <tag k="website" v="https://www.kulcspatika.hupatikak/bonsu-patika-p19"/>
    <tag k="amenity" v="pharmacy"/>
    <tag k="dispensing" v="yes"/>
    <tag k="payment:debit_cards" v="yes"/>
    <tag k="payment:cash" v="yes"/>
  </node>
  <node action="modify" id="-91" lat="47.138746" lon="18.760136">
    <tag k="name" v="Kulcs patika"/>
    <tag k="addr:city" v="Pusztaszabolcs"/>
    <tag k="addr:postcode" v="2490"/>
    <tag k="addr:street" v="Sport utca"/>
    <tag k="addr:housenumber" v="6"/>
    <tag k="website" v="https://www.kulcspatika.hupatikak/irisz-gyogyszertar-p51"/>
    <tag k="amenity" v="pharmacy"/>
    <tag k="dispensing" v="yes"/>
    <tag k="payment:debit_cards" v="yes"/>
    <tag k="payment:cash" v="yes"/>
  </node>
  <node action="modify" id="-92" lat="47.259412107478" lon="19.502666115761">
    <tag k="name" v="Kulcs patika"/>
    <tag k="addr:city" v="Nyáregyháza"/>
    <tag k="addr:postcode" v="2723"/>
    <tag k="addr:street" v="Diófasor út"/>
    <tag k="addr:housenumber" v="11"/>
    <tag k="website" v="https://www.kulcspatika.hupatikak/diofa-gyogyszertar-p154"/>
    <tag k="amenity" v="pharmacy"/>
    <tag k="dispensing" v="yes"/>
    <tag k="payment:debit_cards" v="yes"/>
    <tag k="payment:cash" v="yes"/>
  </node>
  <node action="modify" id="-93" lat="47.794119366143" lon="18.740285933018">
    <tag k="name" v="Kulcs patika"/>
    <tag k="addr:city" v="Esztergom"/>
    <tag k="addr:postcode" v="2500"/>
    <tag k="addr:street" v="Aradi tér"/>
    <tag k="addr:housenumber" v="2/c"/>
    <tag k="website" v="https://www.kulcspatika.hupatikak/kis-duna-patika-p166"/>
    <tag k="amenity" v="pharmacy"/>
    <tag k="dispensing" v="yes"/>
    <tag k="payment:debit_cards" v="yes"/>
    <tag k="payment:cash" v="yes"/>
  </node>
  <node action="modify" id="-94" lat="47.788748998269" lon="18.740789294243">
    <tag k="name" v="Kulcs patika"/>
    <tag k="addr:city" v="Esztergom"/>
    <tag k="addr:postcode" v="2500"/>
    <tag k="addr:street" v="Kossuth Lajos utca"/>
    <tag k="addr:housenumber" v="41"/>
    <tag k="website" v="https://www.kulcspatika.hupatikak/kersi-patika-p165"/>
    <tag k="amenity" v="pharmacy"/>
    <tag k="dispensing" v="yes"/>
    <tag k="payment:debit_cards" v="yes"/>
    <tag k="payment:cash" v="yes"/>
  </node>
  <node action="modify" id="-95" lat="47.452389627434" lon="19.524404626984">
    <tag k="name" v="Kulcs patika"/>
    <tag k="addr:city" v="Sülysáp"/>
    <tag k="addr:postcode" v="2242"/>
    <tag k="addr:street" v="Vasút utca"/>
    <tag k="addr:housenumber" v="26"/>
    <tag k="website" v="https://www.kulcspatika.hupatikak/levendula-patika-p69"/>
    <tag k="amenity" v="pharmacy"/>
    <tag k="dispensing" v="yes"/>
    <tag k="payment:debit_cards" v="yes"/>
    <tag k="payment:cash" v="yes"/>
  </node>
  <node action="modify" id="-96" lat="47.213278712211" lon="19.278215589302">
    <tag k="name" v="Kulcs patika"/>
    <tag k="addr:city" v="Dabas"/>
    <tag k="addr:postcode" v="2371"/>
    <tag k="addr:street" v="Szent János út"/>
    <tag k="addr:housenumber" v="154"/>
    <tag k="website" v="https://www.kulcspatika.hupatikak/szent-janos-gyogyszertar-p107"/>
    <tag k="amenity" v="pharmacy"/>
    <tag k="dispensing" v="yes"/>
    <tag k="payment:debit_cards" v="yes"/>
    <tag k="payment:cash" v="yes"/>
  </node>
  <node action="modify" id="-97" lat="47.822613761911" lon="19.03510093689">
    <tag k="name" v="Kulcs patika"/>
    <tag k="addr:city" v="Verőce"/>
    <tag k="addr:postcode" v="2621"/>
    <tag k="addr:street" v="Rákóczi út"/>
    <tag k="addr:housenumber" v="3"/>
    <tag k="website" v="https://www.kulcspatika.hupatikak/dunakanyar-gyogyszertar-p160"/>
    <tag k="amenity" v="pharmacy"/>
    <tag k="dispensing" v="yes"/>
    <tag k="payment:debit_cards" v="yes"/>
    <tag k="payment:cash" v="yes"/>
  </node>
  <node action="modify" id="-98" lat="47.539020874759" lon="19.394731521606">
    <tag k="name" v="Kulcs patika"/>
    <tag k="addr:city" v="Isaszeg"/>
    <tag k="addr:postcode" v="2117"/>
    <tag k="addr:street" v="Kossuth Lajos utca"/>
    <tag k="addr:housenumber" v="87"/>
    <tag k="website" v="https://www.kulcspatika.hupatikak/ezustkehely-patika-p159"/>
    <tag k="amenity" v="pharmacy"/>
    <tag k="dispensing" v="yes"/>
    <tag k="payment:debit_cards" v="yes"/>
    <tag k="payment:cash" v="yes"/>
  </node>
  <node action="modify" id="-99" lat="47.610557" lon="19.338002">
    <tag k="name" v="Kulcs patika"/>
    <tag k="addr:city" v="Gödöllő"/>
    <tag k="addr:postcode" v="2100"/>
    <tag k="addr:street" v="Thegze Lajos utca"/>
    <tag k="addr:housenumber" v="2"/>
    <tag k="website" v="https://www.kulcspatika.hupatikak/sanitas-tescopatika-p112"/>
    <tag k="amenity" v="pharmacy"/>
    <tag k="dispensing" v="yes"/>
    <tag k="payment:debit_cards" v="yes"/>
    <tag k="payment:cash" v="yes"/>
  </node>
  <node action="modify" id="-100" lat="47.4692" lon="19.294599">
    <tag k="name" v="Kulcs patika"/>
    <tag k="addr:city" v="Budapest"/>
    <tag k="addr:postcode" v="1171"/>
    <tag k="addr:street" v="Pesti út"/>
    <tag k="addr:housenumber" v="368"/>
    <tag k="website" v="https://www.kulcspatika.hupatikak/szent-gyorgy-gyogyszertar-p99"/>
    <tag k="amenity" v="pharmacy"/>
    <tag k="dispensing" v="yes"/>
    <tag k="payment:debit_cards" v="yes"/>
    <tag k="payment:cash" v="yes"/>
  </node>
  <node action="modify" id="-101" lat="47.32643954805" lon="19.002023935318">
    <tag k="name" v="Kulcs patika"/>
    <tag k="addr:city" v="Szigethalom"/>
    <tag k="addr:postcode" v="2315"/>
    <tag k="website" v="https://www.kulcspatika.hupatikak/csillag-patika-p153"/>
    <tag k="amenity" v="pharmacy"/>
    <tag k="dispensing" v="yes"/>
    <tag k="payment:debit_cards" v="yes"/>
    <tag k="payment:cash" v="yes"/>
  </node>
  <node action="modify" id="-102" lat="47.616311" lon="19.193243">
    <tag k="name" v="Kulcs patika"/>
    <tag k="addr:city" v="Fót"/>
    <tag k="addr:postcode" v="2151"/>
    <tag k="addr:street" v="Szent Benedek utca"/>
    <tag k="addr:housenumber" v="15"/>
    <tag k="website" v="https://www.kulcspatika.hupatikak/pandulia-gyogyszertar-p82"/>
    <tag k="amenity" v="pharmacy"/>
    <tag k="dispensing" v="yes"/>
    <tag k="payment:debit_cards" v="yes"/>
    <tag k="payment:cash" v="yes"/>
  </node>
  <node action="modify" id="-103" lat="47.60706" lon="19.197127">
    <tag k="name" v="Kulcs patika"/>
    <tag k="addr:city" v="Fót"/>
    <tag k="addr:postcode" v="2151"/>
    <tag k="addr:street" v="Vörösmarty Mihály tér"/>
    <tag k="addr:housenumber" v="4"/>
    <tag k="website" v="https://www.kulcspatika.hupatikak/somlyo-gyogyszertar-p95"/>
    <tag k="amenity" v="pharmacy"/>
    <tag k="dispensing" v="yes"/>
    <tag k="payment:debit_cards" v="yes"/>
    <tag k="payment:cash" v="yes"/>
  </node>
  <node action="modify" id="-104" lat="47.621799808646" lon="19.159212112427">
    <tag k="name" v="Kulcs patika"/>
    <tag k="addr:city" v="Dunakeszi"/>
    <tag k="addr:postcode" v="2120"/>
    <tag k="addr:street" v="Fóti út"/>
    <tag k="addr:housenumber" v="77"/>
    <tag k="website" v="https://www.kulcspatika.hupatikak/agnes-gyogyszertar-p142"/>
    <tag k="amenity" v="pharmacy"/>
    <tag k="dispensing" v="yes"/>
    <tag k="payment:debit_cards" v="yes"/>
    <tag k="payment:cash" v="yes"/>
  </node>
  <node action="modify" id="-105" lat="47.378474901543" lon="18.925935029984">
    <tag k="name" v="Kulcs patika"/>
    <tag k="addr:city" v="Érd"/>
    <tag k="addr:postcode" v="2030"/>
    <tag k="addr:street" v="Budai út"/>
    <tag k="addr:housenumber" v="13"/>
    <tag k="website" v="https://www.kulcspatika.hupatikak/szent-gyorgy-gyogyszertar-p168"/>
    <tag k="amenity" v="pharmacy"/>
    <tag k="dispensing" v="yes"/>
    <tag k="payment:debit_cards" v="yes"/>
    <tag k="payment:cash" v="yes"/>
  </node>
  <node action="modify" id="-106" lat="47.406548" lon="19.188909">
    <tag k="name" v="Kulcs patika"/>
    <tag k="addr:city" v="Budapest"/>
    <tag k="addr:postcode" v="1188"/>
    <tag k="addr:street" v="Ady Endre utca"/>
    <tag k="addr:housenumber" v="86"/>
    <tag k="website" v="https://www.kulcspatika.hupatikak/pestszentimrei-gizella-gyogyszertar-p84"/>
    <tag k="amenity" v="pharmacy"/>
    <tag k="dispensing" v="yes"/>
    <tag k="payment:debit_cards" v="yes"/>
    <tag k="payment:cash" v="yes"/>
  </node>
  <node action="modify" id="-107" lat="47.576062403269" lon="18.879890396959">
    <tag k="name" v="Kulcs patika"/>
    <tag k="addr:city" v="Nagykovácsi"/>
    <tag k="addr:postcode" v="2094"/>
    <tag k="addr:street" v="Kossuth Lajos utca"/>
    <tag k="addr:housenumber" v="105"/>
    <tag k="website" v="https://www.kulcspatika.hupatikak/cedrus-gyogyszertar-p172"/>
    <tag k="amenity" v="pharmacy"/>
    <tag k="dispensing" v="yes"/>
    <tag k="payment:debit_cards" v="yes"/>
    <tag k="payment:cash" v="yes"/>
  </node>
  <node action="modify" id="-108" lat="47.483292907705" lon="19.227433779099">
    <tag k="name" v="Kulcs patika"/>
    <tag k="addr:city" v="Budapest"/>
    <tag k="addr:postcode" v="1173"/>
    <tag k="addr:street" v="Pesti út"/>
    <tag k="addr:housenumber" v="5-7"/>
    <tag k="website" v="https://www.kulcspatika.hupatikak/akademia-patika-p2"/>
    <tag k="amenity" v="pharmacy"/>
    <tag k="dispensing" v="yes"/>
    <tag k="payment:debit_cards" v="yes"/>
    <tag k="payment:cash" v="yes"/>
  </node>
  <node action="modify" id="-109" lat="47.40861711385" lon="18.949314281615">
    <tag k="name" v="Kulcs patika"/>
    <tag k="addr:city" v="Diósd"/>
    <tag k="addr:postcode" v="2049"/>
    <tag k="addr:street" v="Szent István tér"/>
    <tag k="addr:housenumber" v="7"/>
    <tag k="website" v="https://www.kulcspatika.hupatikak/szent-gellert-gyogyszertar-p183"/>
    <tag k="amenity" v="pharmacy"/>
    <tag k="dispensing" v="yes"/>
    <tag k="payment:debit_cards" v="yes"/>
    <tag k="payment:cash" v="yes"/>
  </node>
  <node action="modify" id="-110" lat="47.51696506644" lon="19.184552067459">
    <tag k="name" v="Kulcs patika"/>
    <tag k="addr:city" v="Budapest"/>
    <tag k="addr:postcode" v="1165"/>
    <tag k="addr:street" v="Centenáriumi sétány"/>
    <tag k="addr:housenumber" v="16-18"/>
    <tag k="website" v="https://www.kulcspatika.hupatikak/gyemant-patika-p39"/>
    <tag k="amenity" v="pharmacy"/>
    <tag k="dispensing" v="yes"/>
    <tag k="payment:debit_cards" v="yes"/>
    <tag k="payment:cash" v="yes"/>
  </node>
  <node action="modify" id="-111" lat="47.549076687692" lon="19.148097038269">
    <tag k="name" v="Kulcs patika"/>
    <tag k="addr:city" v="Budapest"/>
    <tag k="addr:postcode" v="1152"/>
    <tag k="addr:street" v="Szentmihályi út"/>
    <tag k="addr:housenumber" v="167-169"/>
    <tag k="website" v="https://www.kulcspatika.hupatikak/kulcs-gyogyszertar-asiacenter-p184"/>
    <tag k="amenity" v="pharmacy"/>
    <tag k="dispensing" v="yes"/>
    <tag k="payment:debit_cards" v="yes"/>
    <tag k="payment:cash" v="yes"/>
  </node>
  <node action="modify" id="-112" lat="47.466369823981" lon="19.158057188559">
    <tag k="name" v="Kulcs patika"/>
    <tag k="addr:city" v="Budapest"/>
    <tag k="addr:postcode" v="1103"/>
    <tag k="addr:street" v="Gyömrői út"/>
    <tag k="addr:housenumber" v="99"/>
    <tag k="website" v="https://www.kulcspatika.hupatikak/prima-gyogyszertar-cba-ujhegy-bevasarloudvar-p144"/>
    <tag k="amenity" v="pharmacy"/>
    <tag k="dispensing" v="yes"/>
    <tag k="payment:debit_cards" v="yes"/>
    <tag k="payment:cash" v="yes"/>
  </node>
  <node action="modify" id="-113" lat="47.561954202561" lon="19.106427580118">
    <tag k="name" v="Kulcs patika"/>
    <tag k="addr:city" v="Budapest"/>
    <tag k="addr:postcode" v="1042"/>
    <tag k="addr:street" v="Árpád út"/>
    <tag k="addr:housenumber" v="183-185"/>
    <tag k="website" v="https://www.kulcspatika.hupatikak/szent-andras-gyogyszertar-p167"/>
    <tag k="amenity" v="pharmacy"/>
    <tag k="dispensing" v="yes"/>
    <tag k="payment:debit_cards" v="yes"/>
    <tag k="payment:cash" v="yes"/>
  </node>
  <node action="modify" id="-114" lat="47.440524771748" lon="19.107687275463">
    <tag k="name" v="Kulcs patika"/>
    <tag k="addr:city" v="Budapest"/>
    <tag k="addr:postcode" v="1203"/>
    <tag k="addr:street" v="Kossuth Lajos utca"/>
    <tag k="addr:housenumber" v="55"/>
    <tag k="website" v="https://www.kulcspatika.hupatikak/albatros-patika-p182"/>
    <tag k="amenity" v="pharmacy"/>
    <tag k="dispensing" v="yes"/>
    <tag k="payment:debit_cards" v="yes"/>
    <tag k="payment:cash" v="yes"/>
  </node>
  <node action="modify" id="-115" lat="47.557370497567" lon="19.100082971828">
    <tag k="name" v="Kulcs patika"/>
    <tag k="addr:city" v="Budapest"/>
    <tag k="addr:postcode" v="1045"/>
    <tag k="addr:street" v="Rózsa utca"/>
    <tag k="addr:housenumber" v="16-18"/>
    <tag k="website" v="https://www.kulcspatika.hupatikak/szent-borbala-gyogyszertar-p175"/>
    <tag k="amenity" v="pharmacy"/>
    <tag k="dispensing" v="yes"/>
    <tag k="payment:debit_cards" v="yes"/>
    <tag k="payment:cash" v="yes"/>
  </node>
  <node action="modify" id="-116" lat="47.541537724795" lon="19.123747944832">
    <tag k="name" v="Kulcs patika"/>
    <tag k="addr:city" v="Budapest"/>
    <tag k="addr:postcode" v="1155"/>
    <tag k="addr:street" v="Szent Korona út"/>
    <tag k="addr:housenumber" v="25/b"/>
    <tag k="website" v="https://www.kulcspatika.hupatikak/diana-gyogyszertar-p189"/>
    <tag k="amenity" v="pharmacy"/>
    <tag k="dispensing" v="yes"/>
    <tag k="payment:debit_cards" v="yes"/>
    <tag k="payment:cash" v="yes"/>
  </node>
  <node action="modify" id="-117" lat="47.511394856793" lon="19.143211941139">
    <tag k="name" v="Kulcs patika"/>
    <tag k="addr:city" v="Budapest"/>
    <tag k="addr:postcode" v="1144"/>
    <tag k="addr:street" v="Csertő park"/>
    <tag k="addr:housenumber" v="3/a"/>
    <tag k="website" v="https://www.kulcspatika.hupatikak/cserto-patika-p25"/>
    <tag k="amenity" v="pharmacy"/>
    <tag k="dispensing" v="yes"/>
    <tag k="payment:debit_cards" v="yes"/>
    <tag k="payment:cash" v="yes"/>
  </node>
  <node action="modify" id="-118" lat="47.501754" lon="19.138827">
    <tag k="name" v="Kulcs patika"/>
    <tag k="addr:city" v="Budapest"/>
    <tag k="addr:postcode" v="1106"/>
    <tag k="addr:street" v="Gyakorló utca"/>
    <tag k="addr:housenumber" v="4/c"/>
    <tag k="website" v="https://www.kulcspatika.hupatikak/europa-gyogyszertar-p31"/>
    <tag k="amenity" v="pharmacy"/>
    <tag k="dispensing" v="yes"/>
    <tag k="payment:debit_cards" v="yes"/>
    <tag k="payment:cash" v="yes"/>
  </node>
  <node action="modify" id="-119" lat="47.4662" lon="19.1135">
    <tag k="name" v="Kulcs patika"/>
    <tag k="addr:city" v="Budapest"/>
    <tag k="addr:postcode" v="1098"/>
    <tag k="addr:street" v="Dési Huber utca"/>
    <tag k="addr:housenumber" v="20"/>
    <tag k="website" v="https://www.kulcspatika.hupatikak/pirula-gyogyszertar-p86"/>
    <tag k="amenity" v="pharmacy"/>
    <tag k="dispensing" v="yes"/>
    <tag k="payment:debit_cards" v="yes"/>
    <tag k="payment:cash" v="yes"/>
  </node>
  <node action="modify" id="-120" lat="47.536402739607" lon="19.089152812958">
    <tag k="name" v="Kulcs patika"/>
    <tag k="addr:city" v="Budapest"/>
    <tag k="addr:postcode" v="1135"/>
    <tag k="addr:street" v="Reitter Ferenc utca"/>
    <tag k="addr:housenumber" v="99"/>
    <tag k="website" v="https://www.kulcspatika.hupatikak/arany-korona-gyogyszertar-p170"/>
    <tag k="amenity" v="pharmacy"/>
    <tag k="dispensing" v="yes"/>
    <tag k="payment:debit_cards" v="yes"/>
    <tag k="payment:cash" v="yes"/>
  </node>
  <node action="modify" id="-121" lat="47.524211" lon="19.098679">
    <tag k="name" v="Kulcs patika"/>
    <tag k="addr:city" v="Budapest"/>
    <tag k="addr:postcode" v="1142"/>
    <tag k="addr:street" v="Kassai tér"/>
    <tag k="addr:housenumber" v="12"/>
    <tag k="website" v="https://www.kulcspatika.hupatikak/vital-patika-p114"/>
    <tag k="amenity" v="pharmacy"/>
    <tag k="dispensing" v="yes"/>
    <tag k="payment:debit_cards" v="yes"/>
    <tag k="payment:cash" v="yes"/>
  </node>
  <node action="modify" id="-122" lat="47.523718198893" lon="18.993040420624">
    <tag k="name" v="Kulcs patika"/>
    <tag k="addr:city" v="Budapest"/>
    <tag k="addr:postcode" v="1026"/>
    <tag k="addr:street" v="Pasaréti út"/>
    <tag k="addr:housenumber" v="100"/>
    <tag k="website" v="https://www.kulcspatika.hupatikak/pasaret-gyogyszertar-p83"/>
    <tag k="amenity" v="pharmacy"/>
    <tag k="dispensing" v="yes"/>
    <tag k="payment:debit_cards" v="yes"/>
    <tag k="payment:cash" v="yes"/>
  </node>
  <node action="modify" id="-123" lat="47.536783730482" lon="19.041267335415">
    <tag k="name" v="Kulcs patika"/>
    <tag k="addr:city" v="Budapest"/>
    <tag k="addr:postcode" v="1036"/>
    <tag k="addr:street" v="Pacsirtamező utca"/>
    <tag k="addr:housenumber" v="49"/>
    <tag k="website" v="https://www.kulcspatika.hupatikak/pacsirta-patika-p180"/>
    <tag k="amenity" v="pharmacy"/>
    <tag k="dispensing" v="yes"/>
    <tag k="payment:debit_cards" v="yes"/>
    <tag k="payment:cash" v="yes"/>
  </node>
  <node action="modify" id="-124" lat="47.531786811619" lon="19.064694163195">
    <tag k="name" v="Kulcs patika"/>
    <tag k="addr:city" v="Budapest"/>
    <tag k="addr:postcode" v="1133"/>
    <tag k="addr:street" v="Árbóc utca"/>
    <tag k="addr:housenumber" v="6"/>
    <tag k="website" v="https://www.kulcspatika.hupatikak/alfa-gyogyszertar-p3"/>
    <tag k="amenity" v="pharmacy"/>
    <tag k="dispensing" v="yes"/>
    <tag k="payment:debit_cards" v="yes"/>
    <tag k="payment:cash" v="yes"/>
  </node>
  <node action="modify" id="-125" lat="47.467985075381" lon="19.016655385494">
    <tag k="name" v="Kulcs patika"/>
    <tag k="addr:city" v="Budapest"/>
    <tag k="addr:postcode" v="1118"/>
    <tag k="addr:street" v="Bozókvár utca"/>
    <tag k="addr:housenumber" v="6"/>
    <tag k="website" v="https://www.kulcspatika.hupatikak/bozokvar-patika-p188"/>
    <tag k="amenity" v="pharmacy"/>
    <tag k="dispensing" v="yes"/>
    <tag k="payment:debit_cards" v="yes"/>
    <tag k="payment:cash" v="yes"/>
  </node>
  <node action="modify" id="-126" lat="47.492772369736" lon="19.08296146627">
    <tag k="name" v="Kulcs patika"/>
    <tag k="addr:city" v="Budapest"/>
    <tag k="addr:postcode" v="1086"/>
    <tag k="addr:street" v="Teleki László tér"/>
    <tag k="addr:housenumber" v="5"/>
    <tag k="website" v="https://www.kulcspatika.hupatikak/gyogyhir-patika-p41"/>
    <tag k="amenity" v="pharmacy"/>
    <tag k="dispensing" v="yes"/>
    <tag k="payment:debit_cards" v="yes"/>
    <tag k="payment:cash" v="yes"/>
  </node>
  <node action="modify" id="-127" lat="47.488956" lon="19.079399">
    <tag k="name" v="Kulcs patika"/>
    <tag k="addr:city" v="Budapest"/>
    <tag k="addr:postcode" v="1083"/>
    <tag k="addr:street" v="Szigony utca"/>
    <tag k="addr:housenumber" v="2"/>
    <tag k="website" v="https://www.kulcspatika.hupatikak/szigony-gyogyszertar-p111"/>
    <tag k="amenity" v="pharmacy"/>
    <tag k="dispensing" v="yes"/>
    <tag k="payment:debit_cards" v="yes"/>
    <tag k="payment:cash" v="yes"/>
  </node>
  <node action="modify" id="-128" lat="47.51087740493" lon="19.072305858135">
    <tag k="name" v="Kulcs patika"/>
    <tag k="addr:city" v="Budapest"/>
    <tag k="addr:postcode" v="1062"/>
    <tag k="addr:street" v="Andrássy út"/>
    <tag k="addr:housenumber" v="99"/>
    <tag k="website" v="https://www.kulcspatika.hupatikak/andrassy-gyogyszertar-p158"/>
    <tag k="amenity" v="pharmacy"/>
    <tag k="dispensing" v="yes"/>
    <tag k="payment:debit_cards" v="yes"/>
    <tag k="payment:cash" v="yes"/>
  </node>
  <node action="modify" id="-129" lat="47.477583" lon="19.053554">
    <tag k="name" v="Kulcs patika"/>
    <tag k="addr:city" v="Budapest"/>
    <tag k="addr:postcode" v="1111"/>
    <tag k="addr:street" v="Budafoki út"/>
    <tag k="addr:housenumber" v="47"/>
    <tag k="website" v="https://www.kulcspatika.hupatikak/lagymanyos-patika-es-webaruhaz-p67"/>
    <tag k="amenity" v="pharmacy"/>
    <tag k="dispensing" v="yes"/>
    <tag k="payment:debit_cards" v="yes"/>
    <tag k="payment:cash" v="yes"/>
  </node>
  <node action="modify" id="-130" lat="47.518683617268" lon="19.051989531877">
    <tag k="name" v="Kulcs patika"/>
    <tag k="addr:city" v="Budapest"/>
    <tag k="addr:postcode" v="1137"/>
    <tag k="addr:street" v="Szent István park"/>
    <tag k="addr:housenumber" v="26"/>
    <tag k="website" v="https://www.kulcspatika.hupatikak/szent-istvan-park-gyogyszertar-p181"/>
    <tag k="amenity" v="pharmacy"/>
    <tag k="dispensing" v="yes"/>
    <tag k="payment:debit_cards" v="yes"/>
    <tag k="payment:cash" v="yes"/>
  </node>
  <node action="modify" id="-131" lat="47.49233223887" lon="19.071502536535">
    <tag k="name" v="Kulcs patika"/>
    <tag k="addr:city" v="Budapest"/>
    <tag k="addr:postcode" v="1085"/>
    <tag k="addr:street" v="József körút"/>
    <tag k="addr:housenumber" v="34"/>
    <tag k="website" v="https://www.kulcspatika.hupatikak/rakoczi-gyogyszertar-p161"/>
    <tag k="amenity" v="pharmacy"/>
    <tag k="dispensing" v="yes"/>
    <tag k="payment:debit_cards" v="yes"/>
    <tag k="payment:cash" v="yes"/>
  </node>
  <node action="modify" id="-132" lat="47.485265892586" lon="19.06018935582">
    <tag k="name" v="Kulcs patika"/>
    <tag k="addr:city" v="Budapest"/>
    <tag k="addr:postcode" v="1093"/>
    <tag k="addr:street" v="Közraktár utca"/>
    <tag k="addr:housenumber" v="2/a"/>
    <tag k="website" v="https://www.kulcspatika.hupatikak/corvinus-gyogyszertar-p24"/>
    <tag k="amenity" v="pharmacy"/>
    <tag k="dispensing" v="yes"/>
    <tag k="payment:debit_cards" v="yes"/>
    <tag k="payment:cash" v="yes"/>
  </node>
  <node action="modify" id="-133" lat="47.503248079257" lon="19.065609461594">
    <tag k="name" v="Kulcs patika"/>
    <tag k="addr:city" v="Budapest"/>
    <tag k="addr:postcode" v="1073"/>
    <tag k="addr:street" v="Erzsébet körút"/>
    <tag k="addr:housenumber" v="58"/>
    <tag k="website" v="https://www.kulcspatika.hupatikak/royal-gyogyszertar-p145"/>
    <tag k="amenity" v="pharmacy"/>
    <tag k="dispensing" v="yes"/>
    <tag k="payment:debit_cards" v="yes"/>
    <tag k="payment:cash" v="yes"/>
  </node>
  <node action="modify" id="-134" lat="47.506758" lon="19.022815">
    <tag k="name" v="Kulcs patika"/>
    <tag k="addr:city" v="Budapest"/>
    <tag k="addr:postcode" v="1122"/>
    <tag k="addr:street" v="Krisztina körút"/>
    <tag k="addr:housenumber" v="2-4"/>
    <tag k="website" v="https://www.kulcspatika.hupatikak/krisztina-patika-p66"/>
    <tag k="amenity" v="pharmacy"/>
    <tag k="dispensing" v="yes"/>
    <tag k="payment:debit_cards" v="yes"/>
    <tag k="payment:cash" v="yes"/>
  </node>
  <node action="modify" id="-135" lat="47.497348673787" lon="19.020600914955">
    <tag k="name" v="Kulcs patika"/>
    <tag k="addr:city" v="Budapest"/>
    <tag k="addr:postcode" v="1126"/>
    <tag k="addr:street" v="Böszörményi utca"/>
    <tag k="addr:housenumber" v="3/a"/>
    <tag k="website" v="https://www.kulcspatika.hupatikak/szent-bernat-gyogyszertar-p151"/>
    <tag k="amenity" v="pharmacy"/>
    <tag k="dispensing" v="yes"/>
    <tag k="payment:debit_cards" v="yes"/>
    <tag k="payment:cash" v="yes"/>
  </node>
  <node action="modify" id="-136" lat="47.509338" lon="19.033722">
    <tag k="name" v="Kulcs patika"/>
    <tag k="addr:city" v="Budapest"/>
    <tag k="addr:postcode" v="1027"/>
    <tag k="addr:street" v="Kapás utca"/>
    <tag k="addr:housenumber" v="31"/>
    <tag k="website" v="https://www.kulcspatika.hupatikak/budai-korona-patika-p21"/>
    <tag k="amenity" v="pharmacy"/>
    <tag k="dispensing" v="yes"/>
    <tag k="payment:debit_cards" v="yes"/>
    <tag k="payment:cash" v="yes"/>
  </node>
</osm>
