<?xml version='1.0' encoding='UTF-8'?>
<osm generator="JOSM" version="0.6">
  <!-- Original coordinates: POINT (47.5348 19.10271) -->
  <!-- Original tags: None -->
  <node action="modify" changeset="99999" id="-1" lat="47.5348" lon="19.10271" timestamp="" uid="4579407" user="KAMI" version="99999">
    <tag k="addr:postcode" v="1142"/>
    <tag k="payment:debit_cards" v="yes"/>
    <tag k="brand" v="OMV"/>
    <tag k="opening_hours" v="24/7"/>
    <tag k="fuel:diesel" v="yes"/>
    <tag k="addr:street" v="Tengerszem utca"/>
    <tag k="amenity" v="fuel"/>
    <tag k="source" v="website"/>
    <tag k="payment:cash" v="yes"/>
    <tag k="name" v="OMV"/>
    <tag k="addr:housenumber" v="61-67"/>
    <tag k="operator" v="OMV Hungária Kft."/>
    <tag k="addr:city" v="Budapest"/>
    <tag k="phone" v="+36"/>
    <tag k="fuel:octane_95" v="yes"/>
    <tag k="website" v="https://www.omv.hu"/>
  </node>
  <!-- Original coordinates: POINT (47.51569 21.6054) -->
  <!-- Original tags: None -->
  <node action="modify" changeset="99999" id="-2" lat="47.51569" lon="21.6054" timestamp="" uid="4579407" user="KAMI" version="99999">
    <tag k="addr:postcode" v="4031"/>
    <tag k="payment:debit_cards" v="yes"/>
    <tag k="brand" v="OMV"/>
    <tag k="opening_hours" v="24/7"/>
    <tag k="fuel:diesel" v="yes"/>
    <tag k="addr:street" v="István út"/>
    <tag k="amenity" v="fuel"/>
    <tag k="source" v="website"/>
    <tag k="payment:cash" v="yes"/>
    <tag k="name" v="OMV"/>
    <tag k="addr:housenumber" v="137"/>
    <tag k="operator" v="OMV Hungária Kft."/>
    <tag k="addr:city" v="Debrecen"/>
    <tag k="phone" v="+3652531136"/>
    <tag k="fuel:octane_95" v="yes"/>
    <tag k="website" v="https://www.omv.hu"/>
  </node>
  <!-- Original coordinates: POINT (47.9359 21.7184) -->
  <!-- Original tags: None -->
  <node action="modify" changeset="99999" id="-3" lat="47.9359" lon="21.7184" timestamp="" uid="4579407" user="KAMI" version="99999">
    <tag k="addr:postcode" v="4405"/>
    <tag k="payment:debit_cards" v="yes"/>
    <tag k="brand" v="OMV"/>
    <tag k="opening_hours" v="24/7"/>
    <tag k="fuel:diesel" v="yes"/>
    <tag k="addr:street" v="Debreceni út"/>
    <tag k="amenity" v="fuel"/>
    <tag k="source" v="website"/>
    <tag k="payment:cash" v="yes"/>
    <tag k="name" v="OMV"/>
    <tag k="addr:housenumber" v="99"/>
    <tag k="operator" v="OMV Hungária Kft."/>
    <tag k="addr:city" v="Nyíregyháza"/>
    <tag k="phone" v="+3642460724"/>
    <tag k="fuel:octane_95" v="yes"/>
    <tag k="website" v="https://www.omv.hu"/>
  </node>
  <!-- Original coordinates: POINT (47.4688 19.0832) -->
  <!-- Original tags: None -->
  <node action="modify" changeset="99999" id="-4" lat="47.4688" lon="19.0832" timestamp="" uid="4579407" user="KAMI" version="99999">
    <tag k="addr:postcode" v="1097"/>
    <tag k="payment:debit_cards" v="yes"/>
    <tag k="brand" v="OMV"/>
    <tag k="opening_hours" v="Fr,Mo,Sa,Su,Th,Tu,We 06:00-22:00"/>
    <tag k="fuel:diesel" v="yes"/>
    <tag k="addr:street" v="Mester utca"/>
    <tag k="amenity" v="fuel"/>
    <tag k="source" v="website"/>
    <tag k="payment:cash" v="yes"/>
    <tag k="name" v="OMV"/>
    <tag k="addr:housenumber" v="89"/>
    <tag k="operator" v="OMV Hungária Kft."/>
    <tag k="addr:city" v="Budapest"/>
    <tag k="phone" v="+36"/>
    <tag k="fuel:octane_95" v="yes"/>
    <tag k="website" v="https://www.omv.hu"/>
  </node>
  <!-- Original coordinates: POINT (47.883 17.2436) -->
  <!-- Original tags: None -->
  <node action="modify" changeset="99999" id="-5" lat="47.883" lon="17.2436" timestamp="" uid="4579407" user="KAMI" version="99999">
    <tag k="addr:postcode" v="9200"/>
    <tag k="amenity" v="fuel"/>
    <tag k="payment:debit_cards" v="yes"/>
    <tag k="source" v="website"/>
    <tag k="payment:cash" v="yes"/>
    <tag k="name" v="OMV"/>
    <tag k="operator" v="OMV Hungária Kft."/>
    <tag k="brand" v="OMV"/>
    <tag k="addr:city" v="Mosonmagyaróvár"/>
    <tag k="opening_hours" v="24/7"/>
    <tag k="fuel:diesel" v="yes"/>
    <tag k="phone" v="+3696216610"/>
    <tag k="fuel:octane_95" v="yes"/>
    <tag k="addr:street" v="1-es út"/>
    <tag k="website" v="https://www.omv.hu"/>
  </node>
  <!-- Original coordinates: POINT (47.5033 18.5502) -->
  <!-- Original tags: None -->
  <node action="modify" changeset="99999" id="-6" lat="47.5033" lon="18.5502" timestamp="" uid="4579407" user="KAMI" version="99999">
    <tag k="addr:postcode" v="2063"/>
    <tag k="amenity" v="fuel"/>
    <tag k="payment:debit_cards" v="yes"/>
    <tag k="source" v="website"/>
    <tag k="payment:cash" v="yes"/>
    <tag k="name" v="OMV"/>
    <tag k="brand" v="OMV"/>
    <tag k="addr:city" v="Óbarok"/>
    <tag k="opening_hours" v="24/7"/>
    <tag k="fuel:diesel" v="yes"/>
    <tag k="phone" v="+3622704474"/>
    <tag k="fuel:octane_95" v="yes"/>
    <tag k="operator" v="OMV Hungária Kft."/>
    <tag k="website" v="https://www.omv.hu"/>
  </node>
  <!-- Original coordinates: POINT (47.44249 19.09408) -->
  <!-- Original tags: None -->
  <node action="modify" changeset="99999" id="-7" lat="47.44249" lon="19.09408" timestamp="" uid="4579407" user="KAMI" version="99999">
    <tag k="addr:postcode" v="1097"/>
    <tag k="amenity" v="fuel"/>
    <tag k="payment:debit_cards" v="yes"/>
    <tag k="source" v="website"/>
    <tag k="payment:cash" v="yes"/>
    <tag k="name" v="OMV"/>
    <tag k="operator" v="OMV Hungária Kft."/>
    <tag k="brand" v="OMV"/>
    <tag k="addr:city" v="Budapest"/>
    <tag k="opening_hours" v="24/7"/>
    <tag k="fuel:diesel" v="yes"/>
    <tag k="phone" v="+36"/>
    <tag k="fuel:octane_95" v="yes"/>
    <tag k="addr:street" v="Határ utca"/>
    <tag k="website" v="https://www.omv.hu"/>
  </node>
  <!-- Original coordinates: POINT (47.51012 19.01121) -->
  <!-- Original tags: None -->
  <node action="modify" changeset="99999" id="-8" lat="47.51012" lon="19.01121" timestamp="" uid="4579407" user="KAMI" version="99999">
    <tag k="addr:postcode" v="1026"/>
    <tag k="payment:debit_cards" v="yes"/>
    <tag k="brand" v="OMV"/>
    <tag k="opening_hours" v="24/7"/>
    <tag k="fuel:diesel" v="yes"/>
    <tag k="addr:street" v="Szilágyi Erzsébet fasor"/>
    <tag k="amenity" v="fuel"/>
    <tag k="source" v="website"/>
    <tag k="payment:cash" v="yes"/>
    <tag k="name" v="OMV"/>
    <tag k="addr:housenumber" v="51"/>
    <tag k="operator" v="OMV Hungária Kft."/>
    <tag k="addr:city" v="Budapest"/>
    <tag k="phone" v="+36"/>
    <tag k="fuel:octane_95" v="yes"/>
    <tag k="website" v="https://www.omv.hu"/>
  </node>
  <!-- Original coordinates: POINT (47.5743 19.0816) -->
  <!-- Original tags: None -->
  <node action="modify" changeset="99999" id="-9" lat="47.5743" lon="19.0816" timestamp="" uid="4579407" user="KAMI" version="99999">
    <tag k="addr:postcode" v="1044"/>
    <tag k="payment:debit_cards" v="yes"/>
    <tag k="brand" v="OMV"/>
    <tag k="opening_hours" v="24/7"/>
    <tag k="fuel:diesel" v="yes"/>
    <tag k="addr:street" v="Váci út"/>
    <tag k="amenity" v="fuel"/>
    <tag k="source" v="website"/>
    <tag k="payment:cash" v="yes"/>
    <tag k="name" v="OMV"/>
    <tag k="addr:housenumber" v="77"/>
    <tag k="operator" v="OMV Hungária Kft."/>
    <tag k="addr:city" v="Budapest"/>
    <tag k="phone" v="+36"/>
    <tag k="fuel:octane_95" v="yes"/>
    <tag k="website" v="https://www.omv.hu"/>
  </node>
  <!-- Original coordinates: POINT (47.4891 19.0638) -->
  <!-- Original tags: None -->
  <node action="modify" changeset="99999" id="-10" lat="47.4891" lon="19.0638" timestamp="" uid="4579407" user="KAMI" version="99999">
    <tag k="addr:postcode" v="1085"/>
    <tag k="amenity" v="fuel"/>
    <tag k="payment:debit_cards" v="yes"/>
    <tag k="source" v="website"/>
    <tag k="payment:cash" v="yes"/>
    <tag k="name" v="OMV"/>
    <tag k="operator" v="OMV Hungária Kft."/>
    <tag k="brand" v="OMV"/>
    <tag k="addr:city" v="Budapest"/>
    <tag k="opening_hours" v="24/7"/>
    <tag k="fuel:diesel" v="yes"/>
    <tag k="phone" v="+36"/>
    <tag k="fuel:octane_95" v="yes"/>
    <tag k="addr:street" v="Baross utca"/>
    <tag k="website" v="https://www.omv.hu"/>
  </node>
  <!-- Original coordinates: POINT (47.3465 19.118) -->
  <!-- Original tags: None -->
  <node action="modify" changeset="99999" id="-11" lat="47.3465" lon="19.118" timestamp="" uid="4579407" user="KAMI" version="99999">
    <tag k="addr:postcode" v="2330"/>
    <tag k="amenity" v="fuel"/>
    <tag k="payment:debit_cards" v="yes"/>
    <tag k="source" v="website"/>
    <tag k="payment:cash" v="yes"/>
    <tag k="name" v="OMV"/>
    <tag k="operator" v="OMV Hungária Kft."/>
    <tag k="brand" v="OMV"/>
    <tag k="addr:city" v="Dunaharaszti"/>
    <tag k="opening_hours" v="24/7"/>
    <tag k="fuel:diesel" v="yes"/>
    <tag k="phone" v="+3624491774"/>
    <tag k="fuel:octane_95" v="yes"/>
    <tag k="addr:street" v="51. sz. főút"/>
    <tag k="website" v="https://www.omv.hu"/>
  </node>
  <!-- Original coordinates: POINT (47.63314 17.66185) -->
  <!-- Original tags: None -->
  <node action="modify" changeset="99999" id="-12" lat="47.63314" lon="17.66185" timestamp="" uid="4579407" user="KAMI" version="99999">
    <tag k="addr:postcode" v="9081"/>
    <tag k="payment:debit_cards" v="yes"/>
    <tag k="brand" v="OMV"/>
    <tag k="opening_hours" v="24/7"/>
    <tag k="fuel:diesel" v="yes"/>
    <tag k="addr:street" v="M1 autópálya"/>
    <tag k="amenity" v="fuel"/>
    <tag k="source" v="website"/>
    <tag k="payment:cash" v="yes"/>
    <tag k="name" v="OMV"/>
    <tag k="addr:housenumber" v="119"/>
    <tag k="operator" v="OMV Hungária Kft."/>
    <tag k="addr:city" v="Győr"/>
    <tag k="phone" v="+3696432700"/>
    <tag k="fuel:octane_95" v="yes"/>
    <tag k="website" v="https://www.omv.hu"/>
  </node>
  <!-- Original coordinates: POINT (47.18441 18.41003) -->
  <!-- Original tags: None -->
  <node action="modify" changeset="99999" id="-13" lat="47.18441" lon="18.41003" timestamp="" uid="4579407" user="KAMI" version="99999">
    <tag k="addr:postcode" v="8000"/>
    <tag k="payment:debit_cards" v="yes"/>
    <tag k="brand" v="OMV"/>
    <tag k="opening_hours" v="24/7"/>
    <tag k="fuel:diesel" v="yes"/>
    <tag k="addr:street" v="Balatoni út"/>
    <tag k="amenity" v="fuel"/>
    <tag k="source" v="website"/>
    <tag k="payment:cash" v="yes"/>
    <tag k="addr:conscriptionnumber" v="6111"/>
    <tag k="name" v="OMV"/>
    <tag k="operator" v="OMV Hungária Kft."/>
    <tag k="addr:city" v="Székesfehérvár"/>
    <tag k="phone" v="+3622328858"/>
    <tag k="fuel:octane_95" v="yes"/>
    <tag k="website" v="https://www.omv.hu"/>
  </node>
  <!-- Original coordinates: POINT (47.11227 17.92447) -->
  <!-- Original tags: None -->
  <node action="modify" changeset="99999" id="-14" lat="47.11227" lon="17.92447" timestamp="" uid="4579407" user="KAMI" version="99999">
    <tag k="addr:postcode" v="8200"/>
    <tag k="payment:debit_cards" v="yes"/>
    <tag k="brand" v="OMV"/>
    <tag k="opening_hours" v="24/7"/>
    <tag k="fuel:diesel" v="yes"/>
    <tag k="addr:street" v="Aradi Vértanúk út"/>
    <tag k="amenity" v="fuel"/>
    <tag k="source" v="website"/>
    <tag k="payment:cash" v="yes"/>
    <tag k="name" v="OMV"/>
    <tag k="addr:housenumber" v="11"/>
    <tag k="operator" v="OMV Hungária Kft."/>
    <tag k="addr:city" v="Veszprém"/>
    <tag k="phone" v="+3688404544"/>
    <tag k="fuel:octane_95" v="yes"/>
    <tag k="website" v="https://www.omv.hu"/>
  </node>
  <!-- Original coordinates: POINT (47.51265 19.03766) -->
  <!-- Original tags: None -->
  <node action="modify" changeset="99999" id="-15" lat="47.51265" lon="19.03766" timestamp="" uid="4579407" user="KAMI" version="99999">
    <tag k="addr:postcode" v="1027"/>
    <tag k="amenity" v="fuel"/>
    <tag k="payment:debit_cards" v="yes"/>
    <tag k="source" v="website"/>
    <tag k="payment:cash" v="yes"/>
    <tag k="name" v="OMV"/>
    <tag k="addr:housenumber" v="1-3"/>
    <tag k="operator" v="OMV Hungária Kft."/>
    <tag k="brand" v="OMV"/>
    <tag k="addr:city" v="Budapest"/>
    <tag k="opening_hours" v="24/7"/>
    <tag k="fuel:diesel" v="yes"/>
    <tag k="fuel:octane_95" v="yes"/>
    <tag k="addr:street" v="Tölgyfa utca"/>
    <tag k="website" v="https://www.omv.hu"/>
  </node>
  <!-- Original coordinates: POINT (47.3793 19.0528) -->
  <!-- Original tags: None -->
  <node action="modify" changeset="99999" id="-16" lat="47.3793" lon="19.0528" timestamp="" uid="4579407" user="KAMI" version="99999">
    <tag k="addr:postcode" v="2310"/>
    <tag k="amenity" v="fuel"/>
    <tag k="payment:debit_cards" v="yes"/>
    <tag k="source" v="website"/>
    <tag k="payment:cash" v="yes"/>
    <tag k="name" v="OMV"/>
    <tag k="brand" v="OMV"/>
    <tag k="addr:city" v="Szigetszentmiklós"/>
    <tag k="opening_hours" v="24/7"/>
    <tag k="fuel:diesel" v="yes"/>
    <tag k="phone" v="+3624539560"/>
    <tag k="fuel:octane_95" v="yes"/>
    <tag k="operator" v="OMV Hungária Kft."/>
    <tag k="website" v="https://www.omv.hu"/>
  </node>
  <!-- Original coordinates: POINT (46.2653 20.1185) -->
  <!-- Original tags: None -->
  <node action="modify" changeset="99999" id="-17" lat="46.2653" lon="20.1185" timestamp="" uid="4579407" user="KAMI" version="99999">
    <tag k="addr:postcode" v="6728"/>
    <tag k="payment:debit_cards" v="yes"/>
    <tag k="brand" v="OMV"/>
    <tag k="opening_hours" v="24/7"/>
    <tag k="fuel:diesel" v="yes"/>
    <tag k="addr:street" v="Dorozsmai út"/>
    <tag k="amenity" v="fuel"/>
    <tag k="source" v="website"/>
    <tag k="payment:cash" v="yes"/>
    <tag k="name" v="OMV"/>
    <tag k="addr:housenumber" v="1"/>
    <tag k="operator" v="OMV Hungária Kft."/>
    <tag k="addr:city" v="Szeged"/>
    <tag k="phone" v="+3662488426"/>
    <tag k="fuel:octane_95" v="yes"/>
    <tag k="website" v="https://www.omv.hu"/>
  </node>
  <!-- Original coordinates: POINT (47.6765 16.5966) -->
  <!-- Original tags: None -->
  <node action="modify" changeset="99999" id="-18" lat="47.6765" lon="16.5966" timestamp="" uid="4579407" user="KAMI" version="99999">
    <tag k="addr:postcode" v="9400"/>
    <tag k="payment:debit_cards" v="yes"/>
    <tag k="brand" v="OMV"/>
    <tag k="opening_hours" v="24/7"/>
    <tag k="fuel:diesel" v="yes"/>
    <tag k="addr:street" v="Csengeri út"/>
    <tag k="amenity" v="fuel"/>
    <tag k="source" v="website"/>
    <tag k="payment:cash" v="yes"/>
    <tag k="name" v="OMV"/>
    <tag k="addr:housenumber" v="93"/>
    <tag k="operator" v="OMV Hungária Kft."/>
    <tag k="addr:city" v="Sopron"/>
    <tag k="phone" v="+3699508937"/>
    <tag k="fuel:octane_95" v="yes"/>
    <tag k="website" v="https://www.omv.hu"/>
  </node>
  <!-- Original coordinates: POINT (47.5605 19.1211) -->
  <!-- Original tags: None -->
  <node action="modify" changeset="99999" id="-19" lat="47.5605" lon="19.1211" timestamp="" uid="4579407" user="KAMI" version="99999">
    <tag k="addr:postcode" v="1152"/>
    <tag k="payment:debit_cards" v="yes"/>
    <tag k="brand" v="OMV"/>
    <tag k="opening_hours" v="24/7"/>
    <tag k="fuel:diesel" v="yes"/>
    <tag k="addr:street" v="Széchenyi tér"/>
    <tag k="amenity" v="fuel"/>
    <tag k="source" v="website"/>
    <tag k="payment:cash" v="yes"/>
    <tag k="name" v="OMV"/>
    <tag k="addr:housenumber" v="1"/>
    <tag k="operator" v="OMV Hungária Kft."/>
    <tag k="addr:city" v="Budapest"/>
    <tag k="phone" v="+36"/>
    <tag k="fuel:octane_95" v="yes"/>
    <tag k="website" v="https://www.omv.hu"/>
  </node>
  <!-- Original coordinates: POINT (47.06859 18.03728) -->
  <!-- Original tags: None -->
  <node action="modify" changeset="99999" id="-20" lat="47.06859" lon="18.03728" timestamp="" uid="4579407" user="KAMI" version="99999">
    <tag k="addr:postcode" v="8175"/>
    <tag k="payment:debit_cards" v="yes"/>
    <tag k="brand" v="OMV"/>
    <tag k="opening_hours" v="Fr,Mo,Sa,Su,Th,Tu,We 06:00-22:00"/>
    <tag k="fuel:diesel" v="yes"/>
    <tag k="addr:street" v="Árpád út"/>
    <tag k="amenity" v="fuel"/>
    <tag k="source" v="website"/>
    <tag k="payment:cash" v="yes"/>
    <tag k="name" v="OMV"/>
    <tag k="addr:housenumber" v="1"/>
    <tag k="operator" v="OMV Hungária Kft."/>
    <tag k="addr:city" v="Balatonfűzfő"/>
    <tag k="phone" v="+3688586041"/>
    <tag k="fuel:octane_95" v="yes"/>
    <tag k="website" v="https://www.omv.hu"/>
  </node>
  <!-- Original coordinates: POINT (46.77333 21.12472) -->
  <!-- Original tags: None -->
  <node action="modify" changeset="99999" id="-21" lat="46.77333" lon="21.12472" timestamp="" uid="4579407" user="KAMI" version="99999">
    <tag k="addr:postcode" v="5630"/>
    <tag k="payment:debit_cards" v="yes"/>
    <tag k="brand" v="OMV"/>
    <tag k="opening_hours" v="Fr,Mo,Sa,Su,Th,Tu,We 06:00-22:00"/>
    <tag k="fuel:diesel" v="yes"/>
    <tag k="addr:street" v="Kossuth Lajos út"/>
    <tag k="amenity" v="fuel"/>
    <tag k="source" v="website"/>
    <tag k="payment:cash" v="yes"/>
    <tag k="name" v="OMV"/>
    <tag k="addr:housenumber" v="4"/>
    <tag k="operator" v="OMV Hungária Kft."/>
    <tag k="addr:city" v="Békés"/>
    <tag k="phone" v="+3666411849"/>
    <tag k="fuel:octane_95" v="yes"/>
    <tag k="website" v="https://www.omv.hu"/>
  </node>
  <!-- Original coordinates: POINT (47.49362 19.08559) -->
  <!-- Original tags: None -->
  <node action="modify" changeset="99999" id="-22" lat="47.49362" lon="19.08559" timestamp="" uid="4579407" user="KAMI" version="99999">
    <tag k="addr:postcode" v="1086"/>
    <tag k="amenity" v="fuel"/>
    <tag k="payment:debit_cards" v="yes"/>
    <tag k="source" v="website"/>
    <tag k="payment:cash" v="yes"/>
    <tag k="name" v="OMV"/>
    <tag k="operator" v="OMV Hungária Kft."/>
    <tag k="brand" v="OMV"/>
    <tag k="addr:city" v="Budapest"/>
    <tag k="opening_hours" v="24/7"/>
    <tag k="fuel:diesel" v="yes"/>
    <tag k="phone" v="+36"/>
    <tag k="fuel:octane_95" v="yes"/>
    <tag k="addr:street" v="Teleki tér"/>
    <tag k="website" v="https://www.omv.hu"/>
  </node>
  <!-- Original coordinates: POINT (47.4722 19.10921) -->
  <!-- Original tags: None -->
  <node action="modify" changeset="99999" id="-23" lat="47.4722" lon="19.10921" timestamp="" uid="4579407" user="KAMI" version="99999">
    <tag k="addr:postcode" v="1107"/>
    <tag k="payment:debit_cards" v="yes"/>
    <tag k="brand" v="OMV"/>
    <tag k="opening_hours" v="24/7"/>
    <tag k="fuel:diesel" v="yes"/>
    <tag k="addr:street" v="Üllői utca"/>
    <tag k="amenity" v="fuel"/>
    <tag k="source" v="website"/>
    <tag k="payment:cash" v="yes"/>
    <tag k="name" v="OMV"/>
    <tag k="addr:housenumber" v="110"/>
    <tag k="operator" v="OMV Hungária Kft."/>
    <tag k="addr:city" v="Budapest"/>
    <tag k="phone" v="+36"/>
    <tag k="fuel:octane_95" v="yes"/>
    <tag k="website" v="https://www.omv.hu"/>
  </node>
  <!-- Original coordinates: POINT (46.96694 18.93633) -->
  <!-- Original tags: None -->
  <node action="modify" changeset="99999" id="-24" lat="46.96694" lon="18.93633" timestamp="" uid="4579407" user="KAMI" version="99999">
    <tag k="addr:postcode" v="2400"/>
    <tag k="amenity" v="fuel"/>
    <tag k="payment:debit_cards" v="yes"/>
    <tag k="source" v="website"/>
    <tag k="payment:cash" v="yes"/>
    <tag k="name" v="OMV"/>
    <tag k="operator" v="OMV Hungária Kft."/>
    <tag k="brand" v="OMV"/>
    <tag k="addr:city" v="Dunaújváros"/>
    <tag k="opening_hours" v="Fr,Mo,Sa,Su,Th,Tu,We 05:00-22:00"/>
    <tag k="fuel:diesel" v="yes"/>
    <tag k="phone" v="+3625410534"/>
    <tag k="fuel:octane_95" v="yes"/>
    <tag k="addr:street" v="Aranyvölgyi út"/>
    <tag k="website" v="https://www.omv.hu"/>
  </node>
  <!-- Original coordinates: POINT (47.02049 16.61703) -->
  <!-- Original tags: None -->
  <node action="modify" changeset="99999" id="-25" lat="47.02049" lon="16.61703" timestamp="" uid="4579407" user="KAMI" version="99999">
    <tag k="addr:postcode" v="9900"/>
    <tag k="payment:debit_cards" v="yes"/>
    <tag k="brand" v="OMV"/>
    <tag k="opening_hours" v="24/7"/>
    <tag k="fuel:diesel" v="yes"/>
    <tag k="addr:street" v="Rákóczi utca"/>
    <tag k="amenity" v="fuel"/>
    <tag k="source" v="website"/>
    <tag k="payment:cash" v="yes"/>
    <tag k="addr:conscriptionnumber" v="307/1"/>
    <tag k="name" v="OMV"/>
    <tag k="operator" v="OMV Hungária Kft."/>
    <tag k="addr:city" v="Körmend"/>
    <tag k="phone" v="+3694410629"/>
    <tag k="fuel:octane_95" v="yes"/>
    <tag k="website" v="https://www.omv.hu"/>
  </node>
  <!-- Original coordinates: POINT (47.50213 18.04522) -->
  <!-- Original tags: None -->
  <node action="modify" changeset="99999" id="-26" lat="47.50213" lon="18.04522" timestamp="" uid="4579407" user="KAMI" version="99999">
    <tag k="addr:postcode" v="2870"/>
    <tag k="amenity" v="fuel"/>
    <tag k="payment:debit_cards" v="yes"/>
    <tag k="source" v="website"/>
    <tag k="payment:cash" v="yes"/>
    <tag k="name" v="OMV"/>
    <tag k="brand" v="OMV"/>
    <tag k="addr:city" v="Kisbér"/>
    <tag k="opening_hours" v="24/7"/>
    <tag k="fuel:diesel" v="yes"/>
    <tag k="phone" v="+3634352513"/>
    <tag k="fuel:octane_95" v="yes"/>
    <tag k="operator" v="OMV Hungária Kft."/>
    <tag k="website" v="https://www.omv.hu"/>
  </node>
  <!-- Original coordinates: POINT (47.19274 20.17372) -->
  <!-- Original tags: None -->
  <node action="modify" changeset="99999" id="-27" lat="47.19274" lon="20.17372" timestamp="" uid="4579407" user="KAMI" version="99999">
    <tag k="addr:postcode" v="5000"/>
    <tag k="payment:debit_cards" v="yes"/>
    <tag k="brand" v="OMV"/>
    <tag k="opening_hours" v="Fr,Mo,Sa,Su,Th,Tu,We 05:00-23:00"/>
    <tag k="fuel:diesel" v="yes"/>
    <tag k="addr:street" v="Thököly út"/>
    <tag k="amenity" v="fuel"/>
    <tag k="source" v="website"/>
    <tag k="payment:cash" v="yes"/>
    <tag k="name" v="OMV"/>
    <tag k="addr:housenumber" v="91"/>
    <tag k="operator" v="OMV Hungária Kft."/>
    <tag k="addr:city" v="Szolnok"/>
    <tag k="phone" v="+3656422040"/>
    <tag k="fuel:octane_95" v="yes"/>
    <tag k="website" v="https://www.omv.hu"/>
  </node>
  <!-- Original coordinates: POINT (47.3567 18.9064) -->
  <!-- Original tags: None -->
  <node action="modify" changeset="99999" id="-28" lat="47.3567" lon="18.9064" timestamp="" uid="4579407" user="KAMI" version="99999">
    <tag k="addr:postcode" v="2030"/>
    <tag k="amenity" v="fuel"/>
    <tag k="payment:debit_cards" v="yes"/>
    <tag k="source" v="website"/>
    <tag k="payment:cash" v="yes"/>
    <tag k="name" v="OMV"/>
    <tag k="operator" v="OMV Hungária Kft."/>
    <tag k="brand" v="OMV"/>
    <tag k="addr:city" v="Érd"/>
    <tag k="opening_hours" v="Fr,Mo,Sa,Su,Th,Tu,We 05:00-23:00"/>
    <tag k="fuel:diesel" v="yes"/>
    <tag k="phone" v="+3623368811"/>
    <tag k="fuel:octane_95" v="yes"/>
    <tag k="addr:street" v="6. sz. főút"/>
    <tag k="website" v="https://www.omv.hu"/>
  </node>
  <!-- Original coordinates: POINT (47.5639 18.4076) -->
  <!-- Original tags: None -->
  <node action="modify" changeset="99999" id="-29" lat="47.5639" lon="18.4076" timestamp="" uid="4579407" user="KAMI" version="99999">
    <tag k="addr:postcode" v="2800"/>
    <tag k="payment:debit_cards" v="yes"/>
    <tag k="brand" v="OMV"/>
    <tag k="opening_hours" v="24/7"/>
    <tag k="fuel:diesel" v="yes"/>
    <tag k="addr:street" v="Károlyi út - Ságvári út"/>
    <tag k="amenity" v="fuel"/>
    <tag k="source" v="website"/>
    <tag k="payment:cash" v="yes"/>
    <tag k="name" v="OMV"/>
    <tag k="addr:housenumber" v="4"/>
    <tag k="operator" v="OMV Hungária Kft."/>
    <tag k="addr:city" v="Tatabánya"/>
    <tag k="phone" v="+3634317959"/>
    <tag k="fuel:octane_95" v="yes"/>
    <tag k="website" v="https://www.omv.hu"/>
  </node>
  <!-- Original coordinates: POINT (46.6841 21.05876) -->
  <!-- Original tags: None -->
  <node action="modify" changeset="99999" id="-30" lat="46.6841" lon="21.05876" timestamp="" uid="4579407" user="KAMI" version="99999">
    <tag k="addr:postcode" v="5600"/>
    <tag k="payment:debit_cards" v="yes"/>
    <tag k="brand" v="OMV"/>
    <tag k="opening_hours" v="24/7"/>
    <tag k="fuel:diesel" v="yes"/>
    <tag k="addr:street" v="Szarvasi út"/>
    <tag k="amenity" v="fuel"/>
    <tag k="source" v="website"/>
    <tag k="payment:cash" v="yes"/>
    <tag k="name" v="OMV"/>
    <tag k="addr:housenumber" v="103"/>
    <tag k="operator" v="OMV Hungária Kft."/>
    <tag k="addr:city" v="Békéscsaba"/>
    <tag k="phone" v="+3666451045"/>
    <tag k="fuel:octane_95" v="yes"/>
    <tag k="website" v="https://www.omv.hu"/>
  </node>
  <!-- Original coordinates: POINT (47.44103 19.13421) -->
  <!-- Original tags: None -->
  <node action="modify" changeset="99999" id="-31" lat="47.44103" lon="19.13421" timestamp="" uid="4579407" user="KAMI" version="99999">
    <tag k="addr:postcode" v="1202"/>
    <tag k="payment:debit_cards" v="yes"/>
    <tag k="brand" v="OMV"/>
    <tag k="opening_hours" v="24/7"/>
    <tag k="fuel:diesel" v="yes"/>
    <tag k="addr:street" v="Nagykőrösi út"/>
    <tag k="amenity" v="fuel"/>
    <tag k="source" v="website"/>
    <tag k="payment:cash" v="yes"/>
    <tag k="name" v="OMV"/>
    <tag k="addr:housenumber" v="185"/>
    <tag k="operator" v="OMV Hungária Kft."/>
    <tag k="addr:city" v="Budapest"/>
    <tag k="phone" v="+36"/>
    <tag k="fuel:octane_95" v="yes"/>
    <tag k="website" v="https://www.omv.hu"/>
  </node>
  <!-- Original coordinates: POINT (47.89033 20.37957) -->
  <!-- Original tags: None -->
  <node action="modify" changeset="99999" id="-32" lat="47.89033" lon="20.37957" timestamp="" uid="4579407" user="KAMI" version="99999">
    <tag k="addr:postcode" v="3300"/>
    <tag k="payment:debit_cards" v="yes"/>
    <tag k="brand" v="OMV"/>
    <tag k="opening_hours" v="24/7"/>
    <tag k="fuel:diesel" v="yes"/>
    <tag k="addr:street" v="Mátyás király utca"/>
    <tag k="amenity" v="fuel"/>
    <tag k="source" v="website"/>
    <tag k="payment:cash" v="yes"/>
    <tag k="name" v="OMV"/>
    <tag k="addr:housenumber" v="2"/>
    <tag k="operator" v="OMV Hungária Kft."/>
    <tag k="addr:city" v="Eger"/>
    <tag k="phone" v="+3636411544"/>
    <tag k="fuel:octane_95" v="yes"/>
    <tag k="website" v="https://www.omv.hu"/>
  </node>
  <!-- Original coordinates: POINT (47.37859 16.55787) -->
  <!-- Original tags: None -->
  <node action="modify" changeset="99999" id="-33" lat="47.37859" lon="16.55787" timestamp="" uid="4579407" user="KAMI" version="99999">
    <tag k="addr:postcode" v="9730"/>
    <tag k="payment:debit_cards" v="yes"/>
    <tag k="brand" v="OMV"/>
    <tag k="opening_hours" v="Fr,Mo,Sa,Su,Th,Tu,We 06:00-22:00"/>
    <tag k="fuel:diesel" v="yes"/>
    <tag k="addr:street" v="Szombathelyi út"/>
    <tag k="amenity" v="fuel"/>
    <tag k="source" v="website"/>
    <tag k="payment:cash" v="yes"/>
    <tag k="name" v="OMV"/>
    <tag k="addr:housenumber" v="2"/>
    <tag k="operator" v="OMV Hungária Kft."/>
    <tag k="addr:city" v="Kőszeg"/>
    <tag k="phone" v="+3694563116"/>
    <tag k="fuel:octane_95" v="yes"/>
    <tag k="website" v="https://www.omv.hu"/>
  </node>
  <!-- Original coordinates: POINT (46.6838 21.0864) -->
  <!-- Original tags: None -->
  <node action="modify" changeset="99999" id="-34" lat="46.6838" lon="21.0864" timestamp="" uid="4579407" user="KAMI" version="99999">
    <tag k="addr:postcode" v="5600"/>
    <tag k="payment:debit_cards" v="yes"/>
    <tag k="brand" v="OMV"/>
    <tag k="opening_hours" v="Fr,Mo,Sa,Su,Th,Tu,We 06:00-22:00"/>
    <tag k="fuel:diesel" v="yes"/>
    <tag k="addr:street" v="Szarvasi út"/>
    <tag k="amenity" v="fuel"/>
    <tag k="source" v="website"/>
    <tag k="payment:cash" v="yes"/>
    <tag k="name" v="OMV"/>
    <tag k="addr:housenumber" v="16-18"/>
    <tag k="operator" v="OMV Hungária Kft."/>
    <tag k="addr:city" v="Békéscsaba"/>
    <tag k="phone" v="+3666440455"/>
    <tag k="fuel:octane_95" v="yes"/>
    <tag k="website" v="https://www.omv.hu"/>
  </node>
  <!-- Original coordinates: POINT (47.585 18.99843) -->
  <!-- Original tags: None -->
  <node action="modify" changeset="99999" id="-35" lat="47.585" lon="18.99843" timestamp="" uid="4579407" user="KAMI" version="99999">
    <tag k="addr:postcode" v="2096"/>
    <tag k="payment:debit_cards" v="yes"/>
    <tag k="brand" v="OMV"/>
    <tag k="opening_hours" v="Fr,Mo,Sa,Su,Th,Tu,We 05:00-22:00"/>
    <tag k="fuel:diesel" v="yes"/>
    <tag k="addr:street" v="Bécsi utca"/>
    <tag k="amenity" v="fuel"/>
    <tag k="source" v="website"/>
    <tag k="payment:cash" v="yes"/>
    <tag k="name" v="OMV"/>
    <tag k="addr:housenumber" v="2"/>
    <tag k="operator" v="OMV Hungária Kft."/>
    <tag k="addr:city" v="Üröm"/>
    <tag k="phone" v="+3626550080"/>
    <tag k="fuel:octane_95" v="yes"/>
    <tag k="website" v="https://www.omv.hu"/>
  </node>
  <!-- Original coordinates: POINT (47.657 17.634) -->
  <!-- Original tags: None -->
  <node action="modify" changeset="99999" id="-36" lat="47.657" lon="17.634" timestamp="" uid="4579407" user="KAMI" version="99999">
    <tag k="addr:postcode" v="9024"/>
    <tag k="payment:debit_cards" v="yes"/>
    <tag k="brand" v="OMV"/>
    <tag k="opening_hours" v="24/7"/>
    <tag k="fuel:diesel" v="yes"/>
    <tag k="addr:street" v="Pápai út"/>
    <tag k="amenity" v="fuel"/>
    <tag k="source" v="website"/>
    <tag k="payment:cash" v="yes"/>
    <tag k="name" v="OMV"/>
    <tag k="addr:housenumber" v="771"/>
    <tag k="operator" v="OMV Hungária Kft."/>
    <tag k="addr:city" v="Győr"/>
    <tag k="phone" v="+3696519575"/>
    <tag k="fuel:octane_95" v="yes"/>
    <tag k="website" v="https://www.omv.hu"/>
  </node>
  <!-- Original coordinates: POINT (47.4653 19.01381) -->
  <!-- Original tags: None -->
  <node action="modify" changeset="99999" id="-37" lat="47.4653" lon="19.01381" timestamp="" uid="4579407" user="KAMI" version="99999">
    <tag k="addr:postcode" v="1118"/>
    <tag k="payment:debit_cards" v="yes"/>
    <tag k="brand" v="OMV"/>
    <tag k="opening_hours" v="24/7"/>
    <tag k="fuel:diesel" v="yes"/>
    <tag k="addr:street" v="Budaőrsi út"/>
    <tag k="amenity" v="fuel"/>
    <tag k="source" v="website"/>
    <tag k="payment:cash" v="yes"/>
    <tag k="name" v="OMV"/>
    <tag k="addr:housenumber" v="112"/>
    <tag k="operator" v="OMV Hungária Kft."/>
    <tag k="addr:city" v="Budapest"/>
    <tag k="phone" v="+36"/>
    <tag k="fuel:octane_95" v="yes"/>
    <tag k="website" v="https://www.omv.hu"/>
  </node>
  <!-- Original coordinates: POINT (47.61617 19.19758) -->
  <!-- Original tags: None -->
  <node action="modify" changeset="99999" id="-38" lat="47.61617" lon="19.19758" timestamp="" uid="4579407" user="KAMI" version="99999">
    <tag k="addr:postcode" v="2151"/>
    <tag k="payment:debit_cards" v="yes"/>
    <tag k="brand" v="OMV"/>
    <tag k="opening_hours" v="24/7"/>
    <tag k="fuel:diesel" v="yes"/>
    <tag k="addr:street" v="Szabó Dezső utca"/>
    <tag k="amenity" v="fuel"/>
    <tag k="source" v="website"/>
    <tag k="payment:cash" v="yes"/>
    <tag k="name" v="OMV"/>
    <tag k="addr:housenumber" v="2/b"/>
    <tag k="operator" v="OMV Hungária Kft."/>
    <tag k="addr:city" v="Fót"/>
    <tag k="phone" v="+3627358184"/>
    <tag k="fuel:octane_95" v="yes"/>
    <tag k="website" v="https://www.omv.hu"/>
  </node>
  <!-- Original coordinates: POINT (47.4519 21.41262) -->
  <!-- Original tags: None -->
  <node action="modify" changeset="99999" id="-39" lat="47.4519" lon="21.41262" timestamp="" uid="4579407" user="KAMI" version="99999">
    <tag k="addr:postcode" v="4200"/>
    <tag k="payment:debit_cards" v="yes"/>
    <tag k="brand" v="OMV"/>
    <tag k="opening_hours" v="Fr,Mo,Sa,Su,Th,Tu,We 05:00-22:00"/>
    <tag k="fuel:diesel" v="yes"/>
    <tag k="addr:street" v="Hóvirág utca"/>
    <tag k="amenity" v="fuel"/>
    <tag k="source" v="website"/>
    <tag k="payment:cash" v="yes"/>
    <tag k="name" v="OMV"/>
    <tag k="addr:housenumber" v="2"/>
    <tag k="operator" v="OMV Hungária Kft."/>
    <tag k="addr:city" v="Hajdúszoboszló"/>
    <tag k="phone" v="+3652360954"/>
    <tag k="fuel:octane_95" v="yes"/>
    <tag k="website" v="https://www.omv.hu"/>
  </node>
  <!-- Original coordinates: POINT (46.4251 20.338) -->
  <!-- Original tags: None -->
  <node action="modify" changeset="99999" id="-40" lat="46.4251" lon="20.338" timestamp="" uid="4579407" user="KAMI" version="99999">
    <tag k="addr:postcode" v="6800"/>
    <tag k="payment:debit_cards" v="yes"/>
    <tag k="brand" v="OMV"/>
    <tag k="opening_hours" v="Fr,Mo,Sa,Su,Th,Tu,We 06:00-22:00"/>
    <tag k="fuel:diesel" v="yes"/>
    <tag k="addr:street" v="Kutasi út"/>
    <tag k="amenity" v="fuel"/>
    <tag k="source" v="website"/>
    <tag k="payment:cash" v="yes"/>
    <tag k="name" v="OMV"/>
    <tag k="addr:housenumber" v="17"/>
    <tag k="operator" v="OMV Hungária Kft."/>
    <tag k="addr:city" v="Hódmezővásárhely"/>
    <tag k="phone" v="+3662246710"/>
    <tag k="fuel:octane_95" v="yes"/>
    <tag k="website" v="https://www.omv.hu"/>
  </node>
  <!-- Original coordinates: POINT (47.10474 17.93062) -->
  <!-- Original tags: None -->
  <node action="modify" changeset="99999" id="-41" lat="47.10474" lon="17.93062" timestamp="" uid="4579407" user="KAMI" version="99999">
    <tag k="addr:postcode" v="8200"/>
    <tag k="payment:debit_cards" v="yes"/>
    <tag k="brand" v="OMV"/>
    <tag k="opening_hours" v="Fr,Mo,Sa,Su,Th,Tu,We 06:00-22:00"/>
    <tag k="fuel:diesel" v="yes"/>
    <tag k="addr:street" v="Külső - Kádártai utca"/>
    <tag k="amenity" v="fuel"/>
    <tag k="source" v="website"/>
    <tag k="payment:cash" v="yes"/>
    <tag k="name" v="OMV"/>
    <tag k="addr:housenumber" v="2"/>
    <tag k="operator" v="OMV Hungária Kft."/>
    <tag k="addr:city" v="Veszprém"/>
    <tag k="phone" v="+3688428900"/>
    <tag k="fuel:octane_95" v="yes"/>
    <tag k="website" v="https://www.omv.hu"/>
  </node>
  <!-- Original coordinates: POINT (46.83493 16.83081) -->
  <!-- Original tags: None -->
  <node action="modify" changeset="99999" id="-42" lat="46.83493" lon="16.83081" timestamp="" uid="4579407" user="KAMI" version="99999">
    <tag k="addr:postcode" v="8900"/>
    <tag k="payment:debit_cards" v="yes"/>
    <tag k="brand" v="OMV"/>
    <tag k="opening_hours" v="24/7"/>
    <tag k="fuel:diesel" v="yes"/>
    <tag k="addr:street" v="Göcseji utca"/>
    <tag k="amenity" v="fuel"/>
    <tag k="source" v="website"/>
    <tag k="payment:cash" v="yes"/>
    <tag k="name" v="OMV"/>
    <tag k="addr:housenumber" v="26"/>
    <tag k="operator" v="OMV Hungária Kft."/>
    <tag k="addr:city" v="Zalaegerszeg"/>
    <tag k="phone" v="+3692510160"/>
    <tag k="fuel:octane_95" v="yes"/>
    <tag k="website" v="https://www.omv.hu"/>
  </node>
  <!-- Original coordinates: POINT (47.68203 17.97982) -->
  <!-- Original tags: None -->
  <node action="modify" changeset="99999" id="-43" lat="47.68203" lon="17.97982" timestamp="" uid="4579407" user="KAMI" version="99999">
    <tag k="addr:postcode" v="2941"/>
    <tag k="payment:debit_cards" v="yes"/>
    <tag k="brand" v="OMV"/>
    <tag k="opening_hours" v="24/7"/>
    <tag k="fuel:diesel" v="yes"/>
    <tag k="addr:street" v="M1 autópálya"/>
    <tag k="amenity" v="fuel"/>
    <tag k="source" v="website"/>
    <tag k="payment:cash" v="yes"/>
    <tag k="name" v="OMV"/>
    <tag k="addr:housenumber" v="93"/>
    <tag k="operator" v="OMV Hungária Kft."/>
    <tag k="addr:city" v="Bábolna"/>
    <tag k="phone" v="+3634385992"/>
    <tag k="fuel:octane_95" v="yes"/>
    <tag k="website" v="https://www.omv.hu"/>
  </node>
  <!-- Original coordinates: POINT (47.53493 19.18064) -->
  <!-- Original tags: None -->
  <node action="modify" changeset="99999" id="-44" lat="47.53493" lon="19.18064" timestamp="" uid="4579407" user="KAMI" version="99999">
    <tag k="addr:postcode" v="1162"/>
    <tag k="amenity" v="fuel"/>
    <tag k="payment:debit_cards" v="yes"/>
    <tag k="source" v="website"/>
    <tag k="payment:cash" v="yes"/>
    <tag k="name" v="OMV"/>
    <tag k="operator" v="OMV Hungária Kft."/>
    <tag k="brand" v="OMV"/>
    <tag k="addr:city" v="Budapest"/>
    <tag k="opening_hours" v="Fr,Mo,Sa,Su,Th,Tu,We 06:00-22:00"/>
    <tag k="fuel:diesel" v="yes"/>
    <tag k="phone" v="+36"/>
    <tag k="fuel:octane_95" v="yes"/>
    <tag k="addr:street" v="Szlovák út - Csömöri út sarok"/>
    <tag k="website" v="https://www.omv.hu"/>
  </node>
  <!-- Original coordinates: POINT (47.49 19.1506) -->
  <!-- Original tags: None -->
  <node action="modify" changeset="99999" id="-45" lat="47.49" lon="19.1506" timestamp="" uid="4579407" user="KAMI" version="99999">
    <tag k="addr:postcode" v="1106"/>
    <tag k="amenity" v="fuel"/>
    <tag k="payment:debit_cards" v="yes"/>
    <tag k="source" v="website"/>
    <tag k="payment:cash" v="yes"/>
    <tag k="name" v="OMV"/>
    <tag k="operator" v="OMV Hungária Kft."/>
    <tag k="brand" v="OMV"/>
    <tag k="addr:city" v="Budapest"/>
    <tag k="opening_hours" v="Fr,Mo,Sa,Su,Th,Tu,We 05:00-22:00"/>
    <tag k="fuel:diesel" v="yes"/>
    <tag k="phone" v="+36"/>
    <tag k="fuel:octane_95" v="yes"/>
    <tag k="addr:street" v="Maglódi út - Jászberényi út sarok"/>
    <tag k="website" v="https://www.omv.hu"/>
  </node>
  <!-- Original coordinates: POINT (47.4741 19.05421) -->
  <!-- Original tags: None -->
  <node action="modify" changeset="99999" id="-46" lat="47.4741" lon="19.05421" timestamp="" uid="4579407" user="KAMI" version="99999">
    <tag k="addr:postcode" v="1117"/>
    <tag k="payment:debit_cards" v="yes"/>
    <tag k="brand" v="OMV"/>
    <tag k="opening_hours" v="24/7"/>
    <tag k="fuel:diesel" v="yes"/>
    <tag k="addr:street" v="Irinyi utca"/>
    <tag k="amenity" v="fuel"/>
    <tag k="source" v="website"/>
    <tag k="payment:cash" v="yes"/>
    <tag k="name" v="OMV"/>
    <tag k="addr:housenumber" v="34-36"/>
    <tag k="operator" v="OMV Hungária Kft."/>
    <tag k="addr:city" v="Budapest"/>
    <tag k="phone" v="+3613610354"/>
    <tag k="fuel:octane_95" v="yes"/>
    <tag k="website" v="https://www.omv.hu"/>
  </node>
  <!-- Original coordinates: POINT (46.62573 19.27422) -->
  <!-- Original tags: None -->
  <node action="modify" changeset="99999" id="-47" lat="46.62573" lon="19.27422" timestamp="" uid="4579407" user="KAMI" version="99999">
    <tag k="addr:postcode" v="6200"/>
    <tag k="payment:debit_cards" v="yes"/>
    <tag k="brand" v="OMV"/>
    <tag k="opening_hours" v="24/7"/>
    <tag k="fuel:diesel" v="yes"/>
    <tag k="addr:street" v="Dózsa György utca"/>
    <tag k="amenity" v="fuel"/>
    <tag k="source" v="website"/>
    <tag k="payment:cash" v="yes"/>
    <tag k="name" v="OMV"/>
    <tag k="addr:housenumber" v="99"/>
    <tag k="operator" v="OMV Hungária Kft."/>
    <tag k="addr:city" v="Kiskőrös"/>
    <tag k="phone" v="+3678413100"/>
    <tag k="fuel:octane_95" v="yes"/>
    <tag k="website" v="https://www.omv.hu"/>
  </node>
  <!-- Original coordinates: POINT (47.44773 19.3627) -->
  <!-- Original tags: None -->
  <node action="modify" changeset="99999" id="-48" lat="47.44773" lon="19.3627" timestamp="" uid="4579407" user="KAMI" version="99999">
    <tag k="addr:postcode" v="2234"/>
    <tag k="amenity" v="fuel"/>
    <tag k="payment:debit_cards" v="yes"/>
    <tag k="source" v="website"/>
    <tag k="payment:cash" v="yes"/>
    <tag k="name" v="OMV"/>
    <tag k="operator" v="OMV Hungária Kft."/>
    <tag k="brand" v="OMV"/>
    <tag k="addr:city" v="Maglód"/>
    <tag k="opening_hours" v="24/7"/>
    <tag k="fuel:diesel" v="yes"/>
    <tag k="phone" v="+3629325704"/>
    <tag k="fuel:octane_95" v="yes"/>
    <tag k="addr:street" v="Jászberényi utca"/>
    <tag k="website" v="https://www.omv.hu"/>
  </node>
  <!-- Original coordinates: POINT (47.86613 17.26723) -->
  <!-- Original tags: None -->
  <node action="modify" changeset="99999" id="-49" lat="47.86613" lon="17.26723" timestamp="" uid="4579407" user="KAMI" version="99999">
    <tag k="addr:postcode" v="9200"/>
    <tag k="payment:debit_cards" v="yes"/>
    <tag k="brand" v="OMV"/>
    <tag k="opening_hours" v="24/7"/>
    <tag k="fuel:diesel" v="yes"/>
    <tag k="addr:street" v="Kossuth utca"/>
    <tag k="amenity" v="fuel"/>
    <tag k="source" v="website"/>
    <tag k="payment:cash" v="yes"/>
    <tag k="name" v="OMV"/>
    <tag k="addr:housenumber" v="69"/>
    <tag k="operator" v="OMV Hungária Kft."/>
    <tag k="addr:city" v="Mosonmagyaróvár"/>
    <tag k="phone" v="+3696216878"/>
    <tag k="fuel:octane_95" v="yes"/>
    <tag k="website" v="https://www.omv.hu"/>
  </node>
  <!-- Original coordinates: POINT (47.56446 19.07854) -->
  <!-- Original tags: None -->
  <node action="modify" changeset="99999" id="-50" lat="47.56446" lon="19.07854" timestamp="" uid="4579407" user="KAMI" version="99999">
    <tag k="addr:postcode" v="1044"/>
    <tag k="payment:debit_cards" v="yes"/>
    <tag k="brand" v="OMV"/>
    <tag k="opening_hours" v="Fr,Mo,Sa,Su,Th,Tu,We 06:00-23:00"/>
    <tag k="fuel:diesel" v="yes"/>
    <tag k="addr:street" v="Váci út"/>
    <tag k="amenity" v="fuel"/>
    <tag k="source" v="website"/>
    <tag k="payment:cash" v="yes"/>
    <tag k="name" v="OMV"/>
    <tag k="addr:housenumber" v="16"/>
    <tag k="operator" v="OMV Hungária Kft."/>
    <tag k="addr:city" v="Budapest"/>
    <tag k="phone" v="+36"/>
    <tag k="fuel:octane_95" v="yes"/>
    <tag k="website" v="https://www.omv.hu"/>
  </node>
  <!-- Original coordinates: POINT (47.4236 19.1594) -->
  <!-- Original tags: None -->
  <node action="modify" changeset="99999" id="-51" lat="47.4236" lon="19.1594" timestamp="" uid="4579407" user="KAMI" version="99999">
    <tag k="addr:postcode" v="1238"/>
    <tag k="payment:debit_cards" v="yes"/>
    <tag k="brand" v="OMV"/>
    <tag k="opening_hours" v="24/7"/>
    <tag k="fuel:diesel" v="yes"/>
    <tag k="addr:street" v="Nagykörösi út"/>
    <tag k="amenity" v="fuel"/>
    <tag k="source" v="website"/>
    <tag k="payment:cash" v="yes"/>
    <tag k="name" v="OMV"/>
    <tag k="addr:housenumber" v="349"/>
    <tag k="operator" v="OMV Hungária Kft."/>
    <tag k="addr:city" v="Budapest"/>
    <tag k="phone" v="+36"/>
    <tag k="fuel:octane_95" v="yes"/>
    <tag k="website" v="https://www.omv.hu"/>
  </node>
  <!-- Original coordinates: POINT (46.45592 17.01004) -->
  <!-- Original tags: None -->
  <node action="modify" changeset="99999" id="-52" lat="46.45592" lon="17.01004" timestamp="" uid="4579407" user="KAMI" version="99999">
    <tag k="addr:postcode" v="8800"/>
    <tag k="payment:debit_cards" v="yes"/>
    <tag k="brand" v="OMV"/>
    <tag k="opening_hours" v="Fr,Mo,Sa,Su,Th,Tu,We 06:00-22:00"/>
    <tag k="fuel:diesel" v="yes"/>
    <tag k="addr:street" v="Hevesi S. utca"/>
    <tag k="amenity" v="fuel"/>
    <tag k="source" v="website"/>
    <tag k="payment:cash" v="yes"/>
    <tag k="name" v="OMV"/>
    <tag k="addr:housenumber" v="5"/>
    <tag k="operator" v="OMV Hungária Kft."/>
    <tag k="addr:city" v="Nagykanizsa"/>
    <tag k="phone" v="+3693536187"/>
    <tag k="fuel:octane_95" v="yes"/>
    <tag k="website" v="https://www.omv.hu"/>
  </node>
  <!-- Original coordinates: POINT (47.541 18.72369) -->
  <!-- Original tags: None -->
  <node action="modify" changeset="99999" id="-53" lat="47.541" lon="18.72369" timestamp="" uid="4579407" user="KAMI" version="99999">
    <tag k="addr:postcode" v="2072"/>
    <tag k="payment:debit_cards" v="yes"/>
    <tag k="brand" v="OMV"/>
    <tag k="opening_hours" v="24/7"/>
    <tag k="fuel:diesel" v="yes"/>
    <tag k="addr:street" v="Herceghalmi út"/>
    <tag k="amenity" v="fuel"/>
    <tag k="source" v="website"/>
    <tag k="payment:cash" v="yes"/>
    <tag k="name" v="OMV"/>
    <tag k="addr:housenumber" v="578/a"/>
    <tag k="operator" v="OMV Hungária Kft."/>
    <tag k="addr:city" v="Zsámbék"/>
    <tag k="phone" v="+3623565070"/>
    <tag k="fuel:octane_95" v="yes"/>
    <tag k="website" v="https://www.omv.hu"/>
  </node>
  <!-- Original coordinates: POINT (46.9021 18.0473) -->
  <!-- Original tags: None -->
  <node action="modify" changeset="99999" id="-54" lat="46.9021" lon="18.0473" timestamp="" uid="4579407" user="KAMI" version="99999">
    <tag k="addr:postcode" v="8600"/>
    <tag k="payment:debit_cards" v="yes"/>
    <tag k="brand" v="OMV"/>
    <tag k="opening_hours" v="24/7"/>
    <tag k="fuel:diesel" v="yes"/>
    <tag k="addr:street" v="Vak Bottyán út"/>
    <tag k="amenity" v="fuel"/>
    <tag k="source" v="website"/>
    <tag k="payment:cash" v="yes"/>
    <tag k="name" v="OMV"/>
    <tag k="addr:housenumber" v="1"/>
    <tag k="operator" v="OMV Hungária Kft."/>
    <tag k="addr:city" v="Siófok"/>
    <tag k="phone" v="+3684510715"/>
    <tag k="fuel:octane_95" v="yes"/>
    <tag k="website" v="https://www.omv.hu"/>
  </node>
  <!-- Original coordinates: POINT (47.8762 20.382) -->
  <!-- Original tags: None -->
  <node action="modify" changeset="99999" id="-55" lat="47.8762" lon="20.382" timestamp="" uid="4579407" user="KAMI" version="99999">
    <tag k="addr:postcode" v="3300"/>
    <tag k="payment:debit_cards" v="yes"/>
    <tag k="brand" v="OMV"/>
    <tag k="opening_hours" v="Fr,Mo,Sa,Su,Th,Tu,We 06:00-22:00"/>
    <tag k="fuel:diesel" v="yes"/>
    <tag k="addr:street" v="Mátyás Király út"/>
    <tag k="amenity" v="fuel"/>
    <tag k="source" v="website"/>
    <tag k="payment:cash" v="yes"/>
    <tag k="name" v="OMV"/>
    <tag k="addr:housenumber" v="134"/>
    <tag k="operator" v="OMV Hungária Kft."/>
    <tag k="addr:city" v="Eger"/>
    <tag k="phone" v="+3636517181"/>
    <tag k="fuel:octane_95" v="yes"/>
    <tag k="website" v="https://www.omv.hu"/>
  </node>
  <!-- Original coordinates: POINT (47.0945 17.9165) -->
  <!-- Original tags: None -->
  <node action="modify" changeset="99999" id="-56" lat="47.0945" lon="17.9165" timestamp="" uid="4579407" user="KAMI" version="99999">
    <tag k="addr:postcode" v="8200"/>
    <tag k="payment:debit_cards" v="yes"/>
    <tag k="brand" v="OMV"/>
    <tag k="opening_hours" v="24/7"/>
    <tag k="fuel:diesel" v="yes"/>
    <tag k="addr:street" v="Budapesti út"/>
    <tag k="amenity" v="fuel"/>
    <tag k="source" v="website"/>
    <tag k="payment:cash" v="yes"/>
    <tag k="name" v="OMV"/>
    <tag k="addr:housenumber" v="12"/>
    <tag k="operator" v="OMV Hungária Kft."/>
    <tag k="addr:city" v="Veszprém"/>
    <tag k="phone" v="+3688563400"/>
    <tag k="fuel:octane_95" v="yes"/>
    <tag k="website" v="https://www.omv.hu"/>
  </node>
  <!-- Original coordinates: POINT (47.4718 19.1077) -->
  <!-- Original tags: None -->
  <node action="modify" changeset="99999" id="-57" lat="47.4718" lon="19.1077" timestamp="" uid="4579407" user="KAMI" version="99999">
    <tag k="addr:postcode" v="1098"/>
    <tag k="payment:debit_cards" v="yes"/>
    <tag k="brand" v="OMV"/>
    <tag k="opening_hours" v="24/7"/>
    <tag k="fuel:diesel" v="yes"/>
    <tag k="addr:street" v="Üllői út"/>
    <tag k="amenity" v="fuel"/>
    <tag k="source" v="website"/>
    <tag k="payment:cash" v="yes"/>
    <tag k="name" v="OMV"/>
    <tag k="addr:housenumber" v="137"/>
    <tag k="operator" v="OMV Hungária Kft."/>
    <tag k="addr:city" v="Budapest"/>
    <tag k="phone" v="+36"/>
    <tag k="fuel:octane_95" v="yes"/>
    <tag k="website" v="https://www.omv.hu"/>
  </node>
  <!-- Original coordinates: POINT (47.48497 19.10577) -->
  <!-- Original tags: None -->
  <node action="modify" changeset="99999" id="-58" lat="47.48497" lon="19.10577" timestamp="" uid="4579407" user="KAMI" version="99999">
    <tag k="addr:postcode" v="1087"/>
    <tag k="payment:debit_cards" v="yes"/>
    <tag k="brand" v="OMV"/>
    <tag k="opening_hours" v="24/7"/>
    <tag k="fuel:diesel" v="yes"/>
    <tag k="addr:street" v="Könyves Kálmán körút"/>
    <tag k="amenity" v="fuel"/>
    <tag k="source" v="website"/>
    <tag k="payment:cash" v="yes"/>
    <tag k="name" v="OMV"/>
    <tag k="addr:housenumber" v="76"/>
    <tag k="operator" v="OMV Hungária Kft."/>
    <tag k="addr:city" v="Budapest"/>
    <tag k="phone" v="+36"/>
    <tag k="fuel:octane_95" v="yes"/>
    <tag k="website" v="https://www.omv.hu"/>
  </node>
  <!-- Original coordinates: POINT (47.4512 19.0388) -->
  <!-- Original tags: None -->
  <node action="modify" changeset="99999" id="-59" lat="47.4512" lon="19.0388" timestamp="" uid="4579407" user="KAMI" version="99999">
    <tag k="addr:postcode" v="1116"/>
    <tag k="payment:debit_cards" v="yes"/>
    <tag k="brand" v="OMV"/>
    <tag k="opening_hours" v="24/7"/>
    <tag k="fuel:diesel" v="yes"/>
    <tag k="addr:street" v="Fehérvári út"/>
    <tag k="amenity" v="fuel"/>
    <tag k="source" v="website"/>
    <tag k="payment:cash" v="yes"/>
    <tag k="name" v="OMV"/>
    <tag k="addr:housenumber" v="166"/>
    <tag k="operator" v="OMV Hungária Kft."/>
    <tag k="addr:city" v="Budapest"/>
    <tag k="phone" v="+36"/>
    <tag k="fuel:octane_95" v="yes"/>
    <tag k="website" v="https://www.omv.hu"/>
  </node>
  <!-- Original coordinates: POINT (46.46662 16.9955) -->
  <!-- Original tags: None -->
  <node action="modify" changeset="99999" id="-60" lat="46.46662" lon="16.9955" timestamp="" uid="4579407" user="KAMI" version="99999">
    <tag k="addr:postcode" v="8800"/>
    <tag k="payment:debit_cards" v="yes"/>
    <tag k="brand" v="OMV"/>
    <tag k="opening_hours" v="24/7"/>
    <tag k="fuel:diesel" v="yes"/>
    <tag k="addr:street" v="Virág Benedek utca"/>
    <tag k="amenity" v="fuel"/>
    <tag k="source" v="website"/>
    <tag k="payment:cash" v="yes"/>
    <tag k="name" v="OMV"/>
    <tag k="addr:housenumber" v="4"/>
    <tag k="operator" v="OMV Hungária Kft."/>
    <tag k="addr:city" v="Nagykanizsa"/>
    <tag k="phone" v="+3693314247"/>
    <tag k="fuel:octane_95" v="yes"/>
    <tag k="website" v="https://www.omv.hu"/>
  </node>
  <!-- Original coordinates: POINT (46.04466 18.23238) -->
  <!-- Original tags: None -->
  <node action="modify" changeset="99999" id="-61" lat="46.04466" lon="18.23238" timestamp="" uid="4579407" user="KAMI" version="99999">
    <tag k="addr:postcode" v="7631"/>
    <tag k="payment:debit_cards" v="yes"/>
    <tag k="brand" v="OMV"/>
    <tag k="opening_hours" v="24/7"/>
    <tag k="fuel:diesel" v="yes"/>
    <tag k="addr:street" v="Siklósi út"/>
    <tag k="amenity" v="fuel"/>
    <tag k="source" v="website"/>
    <tag k="payment:cash" v="yes"/>
    <tag k="name" v="OMV"/>
    <tag k="addr:housenumber" v="45"/>
    <tag k="operator" v="OMV Hungária Kft."/>
    <tag k="addr:city" v="Pécs"/>
    <tag k="phone" v="+3672440459"/>
    <tag k="fuel:octane_95" v="yes"/>
    <tag k="website" v="https://www.omv.hu"/>
  </node>
  <!-- Original coordinates: POINT (47.71398 20.00333) -->
  <!-- Original tags: None -->
  <node action="modify" changeset="99999" id="-62" lat="47.71398" lon="20.00333" timestamp="" uid="4579407" user="KAMI" version="99999">
    <tag k="addr:postcode" v="3281"/>
    <tag k="payment:debit_cards" v="yes"/>
    <tag k="brand" v="OMV"/>
    <tag k="opening_hours" v="24/7"/>
    <tag k="fuel:diesel" v="yes"/>
    <tag k="addr:street" v="M3 autópálya"/>
    <tag k="amenity" v="fuel"/>
    <tag k="source" v="website"/>
    <tag k="payment:cash" v="yes"/>
    <tag k="name" v="OMV"/>
    <tag k="addr:housenumber" v="82"/>
    <tag k="operator" v="OMV Hungária Kft."/>
    <tag k="addr:city" v="Karácsond"/>
    <tag k="phone" v="+3637701200"/>
    <tag k="fuel:octane_95" v="yes"/>
    <tag k="website" v="https://www.omv.hu"/>
  </node>
  <!-- Original coordinates: POINT (46.96425 18.89028) -->
  <!-- Original tags: None -->
  <node action="modify" changeset="99999" id="-63" lat="46.96425" lon="18.89028" timestamp="" uid="4579407" user="KAMI" version="99999">
    <tag k="addr:postcode" v="2400"/>
    <tag k="payment:debit_cards" v="yes"/>
    <tag k="brand" v="OMV"/>
    <tag k="opening_hours" v="24/7"/>
    <tag k="fuel:diesel" v="yes"/>
    <tag k="addr:street" v="TS M6 autópálya"/>
    <tag k="amenity" v="fuel"/>
    <tag k="source" v="website"/>
    <tag k="payment:cash" v="yes"/>
    <tag k="name" v="OMV"/>
    <tag k="addr:housenumber" v="70"/>
    <tag k="operator" v="OMV Hungária Kft."/>
    <tag k="addr:city" v="Dunaújváros"/>
    <tag k="phone" v="+3625281442"/>
    <tag k="fuel:octane_95" v="yes"/>
    <tag k="website" v="https://www.omv.hu"/>
  </node>
  <!-- Original coordinates: POINT (47.6418 19.0674) -->
  <!-- Original tags: None -->
  <node action="modify" changeset="99999" id="-64" lat="47.6418" lon="19.0674" timestamp="" uid="4579407" user="KAMI" version="99999">
    <tag k="addr:postcode" v="2000"/>
    <tag k="payment:debit_cards" v="yes"/>
    <tag k="brand" v="OMV"/>
    <tag k="opening_hours" v="24/7"/>
    <tag k="fuel:diesel" v="yes"/>
    <tag k="addr:street" v="11-es út"/>
    <tag k="amenity" v="fuel"/>
    <tag k="source" v="website"/>
    <tag k="payment:cash" v="yes"/>
    <tag k="name" v="OMV"/>
    <tag k="addr:housenumber" v="17"/>
    <tag k="operator" v="OMV Hungária Kft."/>
    <tag k="addr:city" v="Szentendre"/>
    <tag k="phone" v="+3626315459"/>
    <tag k="fuel:octane_95" v="yes"/>
    <tag k="website" v="https://www.omv.hu"/>
  </node>
  <!-- Original coordinates: POINT (47.2149 16.6195) -->
  <!-- Original tags: None -->
  <node action="modify" changeset="99999" id="-65" lat="47.2149" lon="16.6195" timestamp="" uid="4579407" user="KAMI" version="99999">
    <tag k="addr:postcode" v="9700"/>
    <tag k="payment:debit_cards" v="yes"/>
    <tag k="brand" v="OMV"/>
    <tag k="opening_hours" v="24/7"/>
    <tag k="fuel:diesel" v="yes"/>
    <tag k="addr:street" v="Körmendi út"/>
    <tag k="amenity" v="fuel"/>
    <tag k="source" v="website"/>
    <tag k="payment:cash" v="yes"/>
    <tag k="name" v="OMV"/>
    <tag k="addr:housenumber" v="92"/>
    <tag k="operator" v="OMV Hungária Kft."/>
    <tag k="addr:city" v="Szombathely"/>
    <tag k="phone" v="+3694510080"/>
    <tag k="fuel:octane_95" v="yes"/>
    <tag k="website" v="https://www.omv.hu"/>
  </node>
  <!-- Original coordinates: POINT (47.5509 19.0445) -->
  <!-- Original tags: None -->
  <node action="modify" changeset="99999" id="-66" lat="47.5509" lon="19.0445" timestamp="" uid="4579407" user="KAMI" version="99999">
    <tag k="addr:postcode" v="1033"/>
    <tag k="payment:debit_cards" v="yes"/>
    <tag k="brand" v="OMV"/>
    <tag k="opening_hours" v="24/7"/>
    <tag k="fuel:diesel" v="yes"/>
    <tag k="addr:street" v="Ladik utca"/>
    <tag k="amenity" v="fuel"/>
    <tag k="source" v="website"/>
    <tag k="payment:cash" v="yes"/>
    <tag k="name" v="OMV"/>
    <tag k="addr:housenumber" v="1"/>
    <tag k="operator" v="OMV Hungária Kft."/>
    <tag k="addr:city" v="Budapest"/>
    <tag k="phone" v="+36"/>
    <tag k="fuel:octane_95" v="yes"/>
    <tag k="website" v="https://www.omv.hu"/>
  </node>
  <!-- Original coordinates: POINT (47.4138 19.058) -->
  <!-- Original tags: None -->
  <node action="modify" changeset="99999" id="-67" lat="47.4138" lon="19.058" timestamp="" uid="4579407" user="KAMI" version="99999">
    <tag k="addr:postcode" v="1214"/>
    <tag k="payment:debit_cards" v="yes"/>
    <tag k="brand" v="OMV"/>
    <tag k="opening_hours" v="24/7"/>
    <tag k="fuel:diesel" v="yes"/>
    <tag k="addr:street" v="Rákóczi F. utca"/>
    <tag k="amenity" v="fuel"/>
    <tag k="source" v="website"/>
    <tag k="payment:cash" v="yes"/>
    <tag k="name" v="OMV"/>
    <tag k="addr:housenumber" v="189"/>
    <tag k="operator" v="OMV Hungária Kft."/>
    <tag k="addr:city" v="Budapest"/>
    <tag k="phone" v="+36"/>
    <tag k="fuel:octane_95" v="yes"/>
    <tag k="website" v="https://www.omv.hu"/>
  </node>
  <!-- Original coordinates: POINT (47.53494 18.97457) -->
  <!-- Original tags: None -->
  <node action="modify" changeset="99999" id="-68" lat="47.53494" lon="18.97457" timestamp="" uid="4579407" user="KAMI" version="99999">
    <tag k="addr:postcode" v="1021"/>
    <tag k="payment:debit_cards" v="yes"/>
    <tag k="brand" v="OMV"/>
    <tag k="opening_hours" v="24/7"/>
    <tag k="fuel:diesel" v="yes"/>
    <tag k="addr:street" v="Hűvösvölgyi út"/>
    <tag k="amenity" v="fuel"/>
    <tag k="source" v="website"/>
    <tag k="payment:cash" v="yes"/>
    <tag k="name" v="OMV"/>
    <tag k="addr:housenumber" v="118"/>
    <tag k="operator" v="OMV Hungária Kft."/>
    <tag k="addr:city" v="Budapest"/>
    <tag k="phone" v="+36"/>
    <tag k="fuel:octane_95" v="yes"/>
    <tag k="website" v="https://www.omv.hu"/>
  </node>
  <!-- Original coordinates: POINT (47.4842 19.2354) -->
  <!-- Original tags: None -->
  <node action="modify" changeset="99999" id="-69" lat="47.4842" lon="19.2354" timestamp="" uid="4579407" user="KAMI" version="99999">
    <tag k="addr:postcode" v="1173"/>
    <tag k="payment:debit_cards" v="yes"/>
    <tag k="brand" v="OMV"/>
    <tag k="opening_hours" v="24/7"/>
    <tag k="fuel:diesel" v="yes"/>
    <tag k="addr:street" v="Pesti út"/>
    <tag k="amenity" v="fuel"/>
    <tag k="source" v="website"/>
    <tag k="payment:cash" v="yes"/>
    <tag k="name" v="OMV"/>
    <tag k="addr:housenumber" v="18"/>
    <tag k="operator" v="OMV Hungária Kft."/>
    <tag k="addr:city" v="Budapest"/>
    <tag k="phone" v="+36"/>
    <tag k="fuel:octane_95" v="yes"/>
    <tag k="website" v="https://www.omv.hu"/>
  </node>
  <!-- Original coordinates: POINT (46.93951 17.06767) -->
  <!-- Original tags: None -->
  <node action="modify" changeset="99999" id="-70" lat="46.93951" lon="17.06767" timestamp="" uid="4579407" user="KAMI" version="99999">
    <tag k="addr:postcode" v="8790"/>
    <tag k="payment:debit_cards" v="yes"/>
    <tag k="brand" v="OMV"/>
    <tag k="opening_hours" v="Fr,Mo,Sa,Su,Th,Tu,We 06:00-22:00"/>
    <tag k="fuel:diesel" v="yes"/>
    <tag k="addr:street" v="Erzsébet liget utca"/>
    <tag k="amenity" v="fuel"/>
    <tag k="source" v="website"/>
    <tag k="payment:cash" v="yes"/>
    <tag k="name" v="OMV"/>
    <tag k="addr:housenumber" v="5"/>
    <tag k="operator" v="OMV Hungária Kft."/>
    <tag k="addr:city" v="Zalaszentgrót"/>
    <tag k="phone" v="+3683360052"/>
    <tag k="fuel:octane_95" v="yes"/>
    <tag k="website" v="https://www.omv.hu"/>
  </node>
  <!-- Original coordinates: POINT (47.4459 19.1905) -->
  <!-- Original tags: None -->
  <node action="modify" changeset="99999" id="-71" lat="47.4459" lon="19.1905" timestamp="" uid="4579407" user="KAMI" version="99999">
    <tag k="addr:postcode" v="1183"/>
    <tag k="payment:debit_cards" v="yes"/>
    <tag k="brand" v="OMV"/>
    <tag k="opening_hours" v="24/7"/>
    <tag k="fuel:diesel" v="yes"/>
    <tag k="addr:street" v="Haladás utca"/>
    <tag k="amenity" v="fuel"/>
    <tag k="source" v="website"/>
    <tag k="payment:cash" v="yes"/>
    <tag k="name" v="OMV"/>
    <tag k="addr:housenumber" v="39"/>
    <tag k="operator" v="OMV Hungária Kft."/>
    <tag k="addr:city" v="Budapest"/>
    <tag k="phone" v="+36"/>
    <tag k="fuel:octane_95" v="yes"/>
    <tag k="website" v="https://www.omv.hu"/>
  </node>
  <!-- Original coordinates: POINT (47.57906 19.04974) -->
  <!-- Original tags: None -->
  <node action="modify" changeset="99999" id="-72" lat="47.57906" lon="19.04974" timestamp="" uid="4579407" user="KAMI" version="99999">
    <tag k="addr:postcode" v="1039"/>
    <tag k="amenity" v="fuel"/>
    <tag k="payment:debit_cards" v="yes"/>
    <tag k="source" v="website"/>
    <tag k="payment:cash" v="yes"/>
    <tag k="name" v="OMV"/>
    <tag k="operator" v="OMV Hungária Kft."/>
    <tag k="brand" v="OMV"/>
    <tag k="addr:city" v="Budapest"/>
    <tag k="opening_hours" v="24/7"/>
    <tag k="fuel:diesel" v="yes"/>
    <tag k="phone" v="+36"/>
    <tag k="fuel:octane_95" v="yes"/>
    <tag k="addr:street" v="Szentendrei utca"/>
    <tag k="website" v="https://www.omv.hu"/>
  </node>
  <!-- Original coordinates: POINT (47.51758 19.21431) -->
  <!-- Original tags: None -->
  <node action="modify" changeset="99999" id="-73" lat="47.51758" lon="19.21431" timestamp="" uid="4579407" user="KAMI" version="99999">
    <tag k="addr:postcode" v="1164"/>
    <tag k="payment:debit_cards" v="yes"/>
    <tag k="brand" v="OMV"/>
    <tag k="opening_hours" v="24/7"/>
    <tag k="fuel:diesel" v="yes"/>
    <tag k="addr:street" v="Szabadföldi utca"/>
    <tag k="amenity" v="fuel"/>
    <tag k="source" v="website"/>
    <tag k="payment:cash" v="yes"/>
    <tag k="name" v="OMV"/>
    <tag k="addr:housenumber" v="1"/>
    <tag k="operator" v="OMV Hungária Kft."/>
    <tag k="addr:city" v="Budapest"/>
    <tag k="phone" v="+36"/>
    <tag k="fuel:octane_95" v="yes"/>
    <tag k="website" v="https://www.omv.hu"/>
  </node>
  <!-- Original coordinates: POINT (47.2155 16.63591) -->
  <!-- Original tags: None -->
  <node action="modify" changeset="99999" id="-74" lat="47.2155" lon="16.63591" timestamp="" uid="4579407" user="KAMI" version="99999">
    <tag k="addr:postcode" v="9700"/>
    <tag k="amenity" v="fuel"/>
    <tag k="payment:debit_cards" v="yes"/>
    <tag k="source" v="website"/>
    <tag k="payment:cash" v="yes"/>
    <tag k="name" v="OMV"/>
    <tag k="operator" v="OMV Hungária Kft."/>
    <tag k="brand" v="OMV"/>
    <tag k="addr:city" v="Szombathely"/>
    <tag k="opening_hours" v="Fr,Mo,Sa,Su,Th,Tu,We 06:00-22:00"/>
    <tag k="fuel:diesel" v="yes"/>
    <tag k="phone" v="+3694312160"/>
    <tag k="fuel:octane_95" v="yes"/>
    <tag k="addr:street" v="Rumi utca"/>
    <tag k="website" v="https://www.omv.hu"/>
  </node>
  <!-- Original coordinates: POINT (48.08344 20.78474) -->
  <!-- Original tags: None -->
  <node action="modify" changeset="99999" id="-75" lat="48.08344" lon="20.78474" timestamp="" uid="4579407" user="KAMI" version="99999">
    <tag k="addr:postcode" v="3529"/>
    <tag k="payment:debit_cards" v="yes"/>
    <tag k="brand" v="OMV"/>
    <tag k="opening_hours" v="24/7"/>
    <tag k="fuel:diesel" v="yes"/>
    <tag k="addr:street" v="Testvérvárosok út"/>
    <tag k="amenity" v="fuel"/>
    <tag k="source" v="website"/>
    <tag k="payment:cash" v="yes"/>
    <tag k="name" v="OMV"/>
    <tag k="addr:housenumber" v="2/a"/>
    <tag k="operator" v="OMV Hungária Kft."/>
    <tag k="addr:city" v="Miskolc"/>
    <tag k="phone" v="+3646365365"/>
    <tag k="fuel:octane_95" v="yes"/>
    <tag k="website" v="https://www.omv.hu"/>
  </node>
  <!-- Original coordinates: POINT (47.4359 19.0843) -->
  <!-- Original tags: None -->
  <node action="modify" changeset="99999" id="-76" lat="47.4359" lon="19.0843" timestamp="" uid="4579407" user="KAMI" version="99999">
    <tag k="addr:postcode" v="1215"/>
    <tag k="payment:debit_cards" v="yes"/>
    <tag k="brand" v="OMV"/>
    <tag k="opening_hours" v="24/7"/>
    <tag k="fuel:diesel" v="yes"/>
    <tag k="addr:street" v="Védgát utca"/>
    <tag k="amenity" v="fuel"/>
    <tag k="source" v="website"/>
    <tag k="payment:cash" v="yes"/>
    <tag k="name" v="OMV"/>
    <tag k="addr:housenumber" v="47"/>
    <tag k="operator" v="OMV Hungária Kft."/>
    <tag k="addr:city" v="Budapest"/>
    <tag k="phone" v="+36"/>
    <tag k="fuel:octane_95" v="yes"/>
    <tag k="website" v="https://www.omv.hu"/>
  </node>
  <!-- Original coordinates: POINT (47.68052 17.66152) -->
  <!-- Original tags: None -->
  <node action="modify" changeset="99999" id="-77" lat="47.68052" lon="17.66152" timestamp="" uid="4579407" user="KAMI" version="99999">
    <tag k="addr:postcode" v="9023"/>
    <tag k="payment:debit_cards" v="yes"/>
    <tag k="brand" v="OMV"/>
    <tag k="opening_hours" v="Fr,Mo,Sa,Su,Th,Tu,We 05:00-22:00"/>
    <tag k="fuel:diesel" v="yes"/>
    <tag k="addr:street" v="Ipar út"/>
    <tag k="amenity" v="fuel"/>
    <tag k="source" v="website"/>
    <tag k="payment:cash" v="yes"/>
    <tag k="name" v="OMV"/>
    <tag k="addr:housenumber" v="99"/>
    <tag k="operator" v="OMV Hungária Kft."/>
    <tag k="addr:city" v="Győr"/>
    <tag k="phone" v="+3696422095"/>
    <tag k="fuel:octane_95" v="yes"/>
    <tag k="website" v="https://www.omv.hu"/>
  </node>
  <!-- Original coordinates: POINT (46.34017 18.71092) -->
  <!-- Original tags: None -->
  <node action="modify" changeset="99999" id="-78" lat="46.34017" lon="18.71092" timestamp="" uid="4579407" user="KAMI" version="99999">
    <tag k="addr:postcode" v="7100"/>
    <tag k="payment:debit_cards" v="yes"/>
    <tag k="brand" v="OMV"/>
    <tag k="opening_hours" v="Fr,Mo,Sa,Su,Th,Tu,We 05:00-22:00"/>
    <tag k="fuel:diesel" v="yes"/>
    <tag k="addr:street" v="Tartsay út"/>
    <tag k="amenity" v="fuel"/>
    <tag k="source" v="website"/>
    <tag k="payment:cash" v="yes"/>
    <tag k="name" v="OMV"/>
    <tag k="addr:housenumber" v="8"/>
    <tag k="operator" v="OMV Hungária Kft."/>
    <tag k="addr:city" v="Szekszárd"/>
    <tag k="phone" v="+3674510537"/>
    <tag k="fuel:octane_95" v="yes"/>
    <tag k="website" v="https://www.omv.hu"/>
  </node>
  <!-- Original coordinates: POINT (47.41687 19.20684) -->
  <!-- Original tags: None -->
  <node action="modify" changeset="99999" id="-79" lat="47.41687" lon="19.20684" timestamp="" uid="4579407" user="KAMI" version="99999">
    <tag k="addr:postcode" v="1188"/>
    <tag k="payment:debit_cards" v="yes"/>
    <tag k="brand" v="OMV"/>
    <tag k="opening_hours" v="24/7"/>
    <tag k="fuel:diesel" v="yes"/>
    <tag k="addr:street" v="Alacskai utca"/>
    <tag k="amenity" v="fuel"/>
    <tag k="source" v="website"/>
    <tag k="payment:cash" v="yes"/>
    <tag k="name" v="OMV"/>
    <tag k="addr:housenumber" v="1"/>
    <tag k="operator" v="OMV Hungária Kft."/>
    <tag k="addr:city" v="Budapest"/>
    <tag k="phone" v="+36"/>
    <tag k="fuel:octane_95" v="yes"/>
    <tag k="website" v="https://www.omv.hu"/>
  </node>
  <!-- Original coordinates: POINT (47.50501 19.12059) -->
  <!-- Original tags: None -->
  <node action="modify" changeset="99999" id="-80" lat="47.50501" lon="19.12059" timestamp="" uid="4579407" user="KAMI" version="99999">
    <tag k="addr:postcode" v="1149"/>
    <tag k="payment:debit_cards" v="yes"/>
    <tag k="brand" v="OMV"/>
    <tag k="opening_hours" v="24/7"/>
    <tag k="fuel:diesel" v="yes"/>
    <tag k="addr:street" v="Fogarasi út"/>
    <tag k="amenity" v="fuel"/>
    <tag k="source" v="website"/>
    <tag k="payment:cash" v="yes"/>
    <tag k="name" v="OMV"/>
    <tag k="addr:housenumber" v="56/a"/>
    <tag k="operator" v="OMV Hungária Kft."/>
    <tag k="addr:city" v="Budapest"/>
    <tag k="phone" v="+36"/>
    <tag k="fuel:octane_95" v="yes"/>
    <tag k="website" v="https://www.omv.hu"/>
  </node>
  <!-- Original coordinates: POINT (47.45339 19.01819) -->
  <!-- Original tags: None -->
  <node action="modify" changeset="99999" id="-81" lat="47.45339" lon="19.01819" timestamp="" uid="4579407" user="KAMI" version="99999">
    <tag k="addr:postcode" v="1112"/>
    <tag k="payment:debit_cards" v="yes"/>
    <tag k="brand" v="OMV"/>
    <tag k="opening_hours" v="24/7"/>
    <tag k="fuel:diesel" v="yes"/>
    <tag k="addr:street" v="Péterhegyi út"/>
    <tag k="amenity" v="fuel"/>
    <tag k="source" v="website"/>
    <tag k="payment:cash" v="yes"/>
    <tag k="name" v="OMV"/>
    <tag k="addr:housenumber" v="66-68"/>
    <tag k="operator" v="OMV Hungária Kft."/>
    <tag k="addr:city" v="Budapest"/>
    <tag k="phone" v="+36"/>
    <tag k="fuel:octane_95" v="yes"/>
    <tag k="website" v="https://www.omv.hu"/>
  </node>
  <!-- Original coordinates: POINT (47.42741 19.04227) -->
  <!-- Original tags: None -->
  <node action="modify" changeset="99999" id="-82" lat="47.42741" lon="19.04227" timestamp="" uid="4579407" user="KAMI" version="99999">
    <tag k="addr:postcode" v="1221"/>
    <tag k="payment:debit_cards" v="yes"/>
    <tag k="brand" v="OMV"/>
    <tag k="opening_hours" v="24/7"/>
    <tag k="fuel:diesel" v="yes"/>
    <tag k="addr:street" v="Hajó út"/>
    <tag k="amenity" v="fuel"/>
    <tag k="source" v="website"/>
    <tag k="payment:cash" v="yes"/>
    <tag k="name" v="OMV"/>
    <tag k="addr:housenumber" v="2"/>
    <tag k="operator" v="OMV Hungária Kft."/>
    <tag k="addr:city" v="Budapest"/>
    <tag k="phone" v="+36"/>
    <tag k="fuel:octane_95" v="yes"/>
    <tag k="website" v="https://www.omv.hu"/>
  </node>
  <!-- Original coordinates: POINT (47.55119 21.64779) -->
  <!-- Original tags: None -->
  <node action="modify" changeset="99999" id="-83" lat="47.55119" lon="21.64779" timestamp="" uid="4579407" user="KAMI" version="99999">
    <tag k="addr:postcode" v="4028"/>
    <tag k="payment:debit_cards" v="yes"/>
    <tag k="brand" v="OMV"/>
    <tag k="opening_hours" v="24/7"/>
    <tag k="fuel:diesel" v="yes"/>
    <tag k="addr:street" v="Kassai utca"/>
    <tag k="amenity" v="fuel"/>
    <tag k="source" v="website"/>
    <tag k="payment:cash" v="yes"/>
    <tag k="name" v="OMV"/>
    <tag k="addr:housenumber" v="92"/>
    <tag k="operator" v="OMV Hungária Kft."/>
    <tag k="addr:city" v="Debrecen"/>
    <tag k="phone" v="+3652448635"/>
    <tag k="fuel:octane_95" v="yes"/>
    <tag k="website" v="https://www.omv.hu"/>
  </node>
  <!-- Original coordinates: POINT (47.53359 19.10263) -->
  <!-- Original tags: None -->
  <node action="modify" changeset="99999" id="-84" lat="47.53359" lon="19.10263" timestamp="" uid="4579407" user="KAMI" version="99999">
    <tag k="addr:postcode" v="1142"/>
    <tag k="payment:debit_cards" v="yes"/>
    <tag k="brand" v="OMV"/>
    <tag k="opening_hours" v="24/7"/>
    <tag k="fuel:diesel" v="yes"/>
    <tag k="addr:street" v="Kacsóh Pongrácz út"/>
    <tag k="amenity" v="fuel"/>
    <tag k="source" v="website"/>
    <tag k="payment:cash" v="yes"/>
    <tag k="name" v="OMV"/>
    <tag k="addr:housenumber" v="131"/>
    <tag k="operator" v="OMV Hungária Kft."/>
    <tag k="addr:city" v="Budapest"/>
    <tag k="phone" v="+36"/>
    <tag k="fuel:octane_95" v="yes"/>
    <tag k="website" v="https://www.omv.hu"/>
  </node>
  <!-- Original coordinates: POINT (46.194 18.6941) -->
  <!-- Original tags: None -->
  <node action="modify" changeset="99999" id="-85" lat="46.194" lon="18.6941" timestamp="" uid="4579407" user="KAMI" version="99999">
    <tag k="addr:postcode" v="7140"/>
    <tag k="payment:debit_cards" v="yes"/>
    <tag k="brand" v="OMV"/>
    <tag k="opening_hours" v="24/7"/>
    <tag k="fuel:diesel" v="yes"/>
    <tag k="addr:street" v="M6 autópálya"/>
    <tag k="amenity" v="fuel"/>
    <tag k="source" v="website"/>
    <tag k="payment:cash" v="yes"/>
    <tag k="addr:conscriptionnumber" v="120/180"/>
    <tag k="name" v="OMV"/>
    <tag k="addr:housenumber" v="166"/>
    <tag k="operator" v="OMV Hungária Kft."/>
    <tag k="addr:city" v="Bátaszék"/>
    <tag k="phone" v="+3674712066"/>
    <tag k="fuel:octane_95" v="yes"/>
    <tag k="website" v="https://www.omv.hu"/>
  </node>
  <!-- Original coordinates: POINT (46.1893 18.6914) -->
  <!-- Original tags: None -->
  <node action="modify" changeset="99999" id="-86" lat="46.1893" lon="18.6914" timestamp="" uid="4579407" user="KAMI" version="99999">
    <tag k="addr:postcode" v="7140"/>
    <tag k="payment:debit_cards" v="yes"/>
    <tag k="brand" v="OMV"/>
    <tag k="opening_hours" v="24/7"/>
    <tag k="fuel:diesel" v="yes"/>
    <tag k="addr:street" v="M6 autópálya"/>
    <tag k="amenity" v="fuel"/>
    <tag k="source" v="website"/>
    <tag k="payment:cash" v="yes"/>
    <tag k="addr:conscriptionnumber" v="120/118"/>
    <tag k="name" v="OMV"/>
    <tag k="addr:housenumber" v="166"/>
    <tag k="operator" v="OMV Hungária Kft."/>
    <tag k="addr:city" v="Bátaszék"/>
    <tag k="phone" v="+3674712063"/>
    <tag k="fuel:octane_95" v="yes"/>
    <tag k="website" v="https://www.omv.hu"/>
  </node>
  <!-- Original coordinates: POINT (47.4867 19.0239) -->
  <!-- Original tags: None -->
  <node action="modify" changeset="99999" id="-87" lat="47.4867" lon="19.0239" timestamp="" uid="4579407" user="KAMI" version="99999">
    <tag k="addr:postcode" v="1118"/>
    <tag k="payment:debit_cards" v="yes"/>
    <tag k="brand" v="OMV"/>
    <tag k="opening_hours" v="24/7"/>
    <tag k="fuel:diesel" v="yes"/>
    <tag k="addr:street" v="Budaörsi út"/>
    <tag k="amenity" v="fuel"/>
    <tag k="source" v="website"/>
    <tag k="payment:cash" v="yes"/>
    <tag k="name" v="OMV"/>
    <tag k="addr:housenumber" v="1"/>
    <tag k="operator" v="OMV Hungária Kft."/>
    <tag k="addr:city" v="Budapest"/>
    <tag k="phone" v="+36"/>
    <tag k="fuel:octane_95" v="yes"/>
    <tag k="website" v="https://www.omv.hu"/>
  </node>
  <!-- Original coordinates: POINT (47.78333 17.15) -->
  <!-- Original tags: None -->
  <node action="modify" changeset="99999" id="-88" lat="47.78333" lon="17.15" timestamp="" uid="4579407" user="KAMI" version="99999">
    <tag k="addr:postcode" v="9241"/>
    <tag k="payment:debit_cards" v="yes"/>
    <tag k="brand" v="OMV"/>
    <tag k="opening_hours" v="Fr,Mo,Sa,Su,Th,Tu,We 05:00-22:00"/>
    <tag k="fuel:diesel" v="yes"/>
    <tag k="addr:street" v="86. sz. főút"/>
    <tag k="amenity" v="fuel"/>
    <tag k="source" v="website"/>
    <tag k="payment:cash" v="yes"/>
    <tag k="addr:conscriptionnumber" v="0168/36"/>
    <tag k="name" v="OMV"/>
    <tag k="operator" v="OMV Hungária Kft."/>
    <tag k="addr:city" v="Jánossomorja"/>
    <tag k="phone" v="+3696702028"/>
    <tag k="fuel:octane_95" v="yes"/>
    <tag k="website" v="https://www.omv.hu"/>
  </node>
  <!-- Original coordinates: POINT (47.7466 18.736) -->
  <!-- Original tags: None -->
  <node action="modify" changeset="99999" id="-89" lat="47.7466" lon="18.736" timestamp="" uid="4579407" user="KAMI" version="99999">
    <tag k="addr:postcode" v="2509"/>
    <tag k="amenity" v="fuel"/>
    <tag k="payment:debit_cards" v="yes"/>
    <tag k="source" v="website"/>
    <tag k="payment:cash" v="yes"/>
    <tag k="name" v="OMV"/>
    <tag k="operator" v="OMV Hungária Kft."/>
    <tag k="brand" v="OMV"/>
    <tag k="addr:city" v="Esztergom"/>
    <tag k="opening_hours" v="24/7"/>
    <tag k="fuel:diesel" v="yes"/>
    <tag k="phone" v="+3633435430"/>
    <tag k="fuel:octane_95" v="yes"/>
    <tag k="addr:street" v="Dobogókői út- Kesztölci út sarok"/>
    <tag k="website" v="https://www.omv.hu"/>
  </node>
  <!-- Original coordinates: POINT (47.64767 19.29452) -->
  <!-- Original tags: None -->
  <node action="modify" changeset="99999" id="-90" lat="47.64767" lon="19.29452" timestamp="" uid="4579407" user="KAMI" version="99999">
    <tag k="addr:postcode" v="2112"/>
    <tag k="payment:debit_cards" v="yes"/>
    <tag k="brand" v="OMV"/>
    <tag k="opening_hours" v="24/7"/>
    <tag k="fuel:diesel" v="yes"/>
    <tag k="addr:street" v="Fő utca"/>
    <tag k="amenity" v="fuel"/>
    <tag k="source" v="website"/>
    <tag k="payment:cash" v="yes"/>
    <tag k="name" v="OMV"/>
    <tag k="addr:housenumber" v="2"/>
    <tag k="operator" v="OMV Hungária Kft."/>
    <tag k="addr:city" v="Veresegyház"/>
    <tag k="phone" v="+3628586971"/>
    <tag k="fuel:octane_95" v="yes"/>
    <tag k="website" v="https://www.omv.hu"/>
  </node>
  <!-- Original coordinates: POINT (46.666 17.2333) -->
  <!-- Original tags: None -->
  <node action="modify" changeset="99999" id="-91" lat="46.666" lon="17.2333" timestamp="" uid="4579407" user="KAMI" version="99999">
    <tag k="addr:postcode" v="8711"/>
    <tag k="payment:debit_cards" v="yes"/>
    <tag k="brand" v="OMV"/>
    <tag k="opening_hours" v="Fr,Mo,Sa,Su,Th,Tu,We 06:00-22:00"/>
    <tag k="fuel:diesel" v="yes"/>
    <tag k="addr:street" v="Csapás utca"/>
    <tag k="amenity" v="fuel"/>
    <tag k="source" v="website"/>
    <tag k="payment:cash" v="yes"/>
    <tag k="addr:conscriptionnumber" v="2505/3"/>
    <tag k="name" v="OMV"/>
    <tag k="operator" v="OMV Hungária Kft."/>
    <tag k="addr:city" v="Keszthely"/>
    <tag k="phone" v="+3683705015"/>
    <tag k="fuel:octane_95" v="yes"/>
    <tag k="website" v="https://www.omv.hu"/>
  </node>
  <!-- Original coordinates: POINT (47.33733 19.02873) -->
  <!-- Original tags: None -->
  <node action="modify" changeset="99999" id="-92" lat="47.33733" lon="19.02873" timestamp="" uid="4579407" user="KAMI" version="99999">
    <tag k="addr:postcode" v="2310"/>
    <tag k="payment:debit_cards" v="yes"/>
    <tag k="brand" v="OMV"/>
    <tag k="opening_hours" v="24/7"/>
    <tag k="fuel:diesel" v="yes"/>
    <tag k="addr:street" v="Gyári út"/>
    <tag k="amenity" v="fuel"/>
    <tag k="source" v="website"/>
    <tag k="payment:cash" v="yes"/>
    <tag k="addr:conscriptionnumber" v="3237"/>
    <tag k="name" v="OMV"/>
    <tag k="operator" v="OMV Hungária Kft."/>
    <tag k="addr:city" v="Szigetszentmiklós"/>
    <tag k="phone" v="+3624468577"/>
    <tag k="fuel:octane_95" v="yes"/>
    <tag k="website" v="https://www.omv.hu"/>
  </node>
  <!-- Original coordinates: POINT (48.09976 20.70295) -->
  <!-- Original tags: None -->
  <node action="modify" changeset="99999" id="-93" lat="48.09976" lon="20.70295" timestamp="" uid="4579407" user="KAMI" version="99999">
    <tag k="addr:postcode" v="3534"/>
    <tag k="amenity" v="fuel"/>
    <tag k="payment:debit_cards" v="yes"/>
    <tag k="source" v="website"/>
    <tag k="payment:cash" v="yes"/>
    <tag k="name" v="OMV"/>
    <tag k="operator" v="OMV Hungária Kft."/>
    <tag k="brand" v="OMV"/>
    <tag k="addr:city" v="Miskolc"/>
    <tag k="opening_hours" v="Fr,Mo,Sa,Su,Th,Tu,We 06:00-22:00"/>
    <tag k="fuel:diesel" v="yes"/>
    <tag k="phone" v="+3646401680"/>
    <tag k="fuel:octane_95" v="yes"/>
    <tag k="addr:street" v="Kiss tábornok utca"/>
    <tag k="website" v="https://www.omv.hu"/>
  </node>
  <!-- Original coordinates: POINT (48.1056 20.79011) -->
  <!-- Original tags: None -->
  <node action="modify" changeset="99999" id="-94" lat="48.1056" lon="20.79011" timestamp="" uid="4579407" user="KAMI" version="99999">
    <tag k="addr:postcode" v="3525"/>
    <tag k="payment:debit_cards" v="yes"/>
    <tag k="brand" v="OMV"/>
    <tag k="opening_hours" v="24/7"/>
    <tag k="fuel:diesel" v="yes"/>
    <tag k="addr:street" v="Búza tér"/>
    <tag k="amenity" v="fuel"/>
    <tag k="source" v="website"/>
    <tag k="payment:cash" v="yes"/>
    <tag k="name" v="OMV"/>
    <tag k="addr:housenumber" v="16"/>
    <tag k="operator" v="OMV Hungária Kft."/>
    <tag k="addr:city" v="Miskolc"/>
    <tag k="phone" v="+3646359816"/>
    <tag k="fuel:octane_95" v="yes"/>
    <tag k="website" v="https://www.omv.hu"/>
  </node>
  <!-- Original coordinates: POINT (47.54172 21.62032) -->
  <!-- Original tags: None -->
  <node action="modify" changeset="99999" id="-95" lat="47.54172" lon="21.62032" timestamp="" uid="4579407" user="KAMI" version="99999">
    <tag k="addr:postcode" v="4027"/>
    <tag k="payment:debit_cards" v="yes"/>
    <tag k="brand" v="OMV"/>
    <tag k="opening_hours" v="24/7"/>
    <tag k="fuel:diesel" v="yes"/>
    <tag k="addr:street" v="Füredi út"/>
    <tag k="amenity" v="fuel"/>
    <tag k="source" v="website"/>
    <tag k="payment:cash" v="yes"/>
    <tag k="name" v="OMV"/>
    <tag k="addr:housenumber" v="27"/>
    <tag k="operator" v="OMV Hungária Kft."/>
    <tag k="addr:city" v="Debrecen"/>
    <tag k="phone" v="+3652531134"/>
    <tag k="fuel:octane_95" v="yes"/>
    <tag k="website" v="https://www.omv.hu"/>
  </node>
  <!-- Original coordinates: POINT (46.07996 18.25613) -->
  <!-- Original tags: None -->
  <node action="modify" changeset="99999" id="-96" lat="46.07996" lon="18.25613" timestamp="" uid="4579407" user="KAMI" version="99999">
    <tag k="addr:postcode" v="7630"/>
    <tag k="payment:debit_cards" v="yes"/>
    <tag k="brand" v="OMV"/>
    <tag k="opening_hours" v="24/7"/>
    <tag k="fuel:diesel" v="yes"/>
    <tag k="addr:street" v="Zsolnay út"/>
    <tag k="amenity" v="fuel"/>
    <tag k="source" v="website"/>
    <tag k="payment:cash" v="yes"/>
    <tag k="name" v="OMV"/>
    <tag k="addr:housenumber" v="50"/>
    <tag k="operator" v="OMV Hungária Kft."/>
    <tag k="addr:city" v="Pécs"/>
    <tag k="phone" v="+3672212880"/>
    <tag k="fuel:octane_95" v="yes"/>
    <tag k="website" v="https://www.omv.hu"/>
  </node>
  <!-- Original coordinates: POINT (46.61892 18.85815) -->
  <!-- Original tags: None -->
  <node action="modify" changeset="99999" id="-97" lat="46.61892" lon="18.85815" timestamp="" uid="4579407" user="KAMI" version="99999">
    <tag k="addr:postcode" v="7030"/>
    <tag k="amenity" v="fuel"/>
    <tag k="payment:debit_cards" v="yes"/>
    <tag k="source" v="website"/>
    <tag k="payment:cash" v="yes"/>
    <tag k="name" v="OMV"/>
    <tag k="operator" v="OMV Hungária Kft."/>
    <tag k="brand" v="OMV"/>
    <tag k="addr:city" v="Paks"/>
    <tag k="opening_hours" v="Fr,Mo,Sa,Su,Th,Tu,We 05:00-22:00"/>
    <tag k="fuel:diesel" v="yes"/>
    <tag k="phone" v="+3675310578"/>
    <tag k="fuel:octane_95" v="yes"/>
    <tag k="addr:street" v="6. sz. főút"/>
    <tag k="website" v="https://www.omv.hu"/>
  </node>
  <!-- Original coordinates: POINT (47.1968 18.44401) -->
  <!-- Original tags: None -->
  <node action="modify" changeset="99999" id="-98" lat="47.1968" lon="18.44401" timestamp="" uid="4579407" user="KAMI" version="99999">
    <tag k="addr:postcode" v="8000"/>
    <tag k="payment:debit_cards" v="yes"/>
    <tag k="brand" v="OMV"/>
    <tag k="opening_hours" v="Fr,Mo,Sa,Su,Th,Tu,We 06:00-22:00"/>
    <tag k="fuel:diesel" v="yes"/>
    <tag k="addr:street" v="Kadocsa út"/>
    <tag k="amenity" v="fuel"/>
    <tag k="source" v="website"/>
    <tag k="payment:cash" v="yes"/>
    <tag k="name" v="OMV"/>
    <tag k="addr:housenumber" v="86"/>
    <tag k="operator" v="OMV Hungária Kft."/>
    <tag k="addr:city" v="Székesfehérvár"/>
    <tag k="phone" v="+3622500775"/>
    <tag k="fuel:octane_95" v="yes"/>
    <tag k="website" v="https://www.omv.hu"/>
  </node>
  <!-- Original coordinates: POINT (46.921 19.67905) -->
  <!-- Original tags: None -->
  <node action="modify" changeset="99999" id="-99" lat="46.921" lon="19.67905" timestamp="" uid="4579407" user="KAMI" version="99999">
    <tag k="addr:postcode" v="6000"/>
    <tag k="amenity" v="fuel"/>
    <tag k="payment:debit_cards" v="yes"/>
    <tag k="source" v="website"/>
    <tag k="payment:cash" v="yes"/>
    <tag k="name" v="OMV"/>
    <tag k="operator" v="OMV Hungária Kft."/>
    <tag k="brand" v="OMV"/>
    <tag k="addr:city" v="Kecskemét"/>
    <tag k="opening_hours" v="24/7"/>
    <tag k="fuel:diesel" v="yes"/>
    <tag k="phone" v="+3676482243"/>
    <tag k="fuel:octane_95" v="yes"/>
    <tag k="addr:street" v="Budai út"/>
    <tag k="website" v="https://www.omv.hu"/>
  </node>
  <!-- Original coordinates: POINT (46.22034 20.47701) -->
  <!-- Original tags: None -->
  <node action="modify" changeset="99999" id="-100" lat="46.22034" lon="20.47701" timestamp="" uid="4579407" user="KAMI" version="99999">
    <tag k="addr:postcode" v="6900"/>
    <tag k="amenity" v="fuel"/>
    <tag k="payment:debit_cards" v="yes"/>
    <tag k="source" v="website"/>
    <tag k="payment:cash" v="yes"/>
    <tag k="name" v="OMV"/>
    <tag k="brand" v="OMV"/>
    <tag k="addr:city" v="Makó"/>
    <tag k="opening_hours" v="24/7"/>
    <tag k="fuel:diesel" v="yes"/>
    <tag k="phone" v="+3662213382"/>
    <tag k="fuel:octane_95" v="yes"/>
    <tag k="operator" v="OMV Hungária Kft."/>
    <tag k="website" v="https://www.omv.hu"/>
  </node>
  <!-- Original coordinates: POINT (46.5122 18.9723) -->
  <!-- Original tags: None -->
  <node action="modify" changeset="99999" id="-101" lat="46.5122" lon="18.9723" timestamp="" uid="4579407" user="KAMI" version="99999">
    <tag k="addr:postcode" v="6300"/>
    <tag k="payment:debit_cards" v="yes"/>
    <tag k="brand" v="OMV"/>
    <tag k="opening_hours" v="Fr,Mo,Sa,Su,Th,Tu,We 05:00-22:00"/>
    <tag k="fuel:diesel" v="yes"/>
    <tag k="addr:street" v="Bátyai út"/>
    <tag k="amenity" v="fuel"/>
    <tag k="source" v="website"/>
    <tag k="payment:cash" v="yes"/>
    <tag k="name" v="OMV"/>
    <tag k="addr:housenumber" v="83"/>
    <tag k="operator" v="OMV Hungária Kft."/>
    <tag k="addr:city" v="Kalocsa"/>
    <tag k="phone" v="+3678561100"/>
    <tag k="fuel:octane_95" v="yes"/>
    <tag k="website" v="https://www.omv.hu"/>
  </node>
  <!-- Original coordinates: POINT (47.5045 19.1509) -->
  <!-- Original tags: None -->
  <node action="modify" changeset="99999" id="-102" lat="47.5045" lon="19.1509" timestamp="" uid="4579407" user="KAMI" version="99999">
    <tag k="addr:postcode" v="1106"/>
    <tag k="payment:debit_cards" v="yes"/>
    <tag k="brand" v="OMV"/>
    <tag k="opening_hours" v="24/7"/>
    <tag k="fuel:diesel" v="yes"/>
    <tag k="addr:street" v="Kerepesi út"/>
    <tag k="amenity" v="fuel"/>
    <tag k="source" v="website"/>
    <tag k="payment:cash" v="yes"/>
    <tag k="name" v="OMV"/>
    <tag k="addr:housenumber" v="73"/>
    <tag k="operator" v="OMV Hungária Kft."/>
    <tag k="addr:city" v="Budapest"/>
    <tag k="phone" v="+36"/>
    <tag k="fuel:octane_95" v="yes"/>
    <tag k="website" v="https://www.omv.hu"/>
  </node>
  <!-- Original coordinates: POINT (47.64669 18.33074) -->
  <!-- Original tags: None -->
  <node action="modify" changeset="99999" id="-103" lat="47.64669" lon="18.33074" timestamp="" uid="4579407" user="KAMI" version="99999">
    <tag k="addr:postcode" v="2890"/>
    <tag k="amenity" v="fuel"/>
    <tag k="payment:debit_cards" v="yes"/>
    <tag k="source" v="website"/>
    <tag k="payment:cash" v="yes"/>
    <tag k="addr:conscriptionnumber" v="0419/8"/>
    <tag k="name" v="OMV"/>
    <tag k="brand" v="OMV"/>
    <tag k="addr:city" v="Tata"/>
    <tag k="opening_hours" v="Fr,Mo,Sa,Su,Th,Tu,We 06:00-22:00"/>
    <tag k="fuel:diesel" v="yes"/>
    <tag k="phone" v="+3634568082"/>
    <tag k="fuel:octane_95" v="yes"/>
    <tag k="operator" v="OMV Hungária Kft."/>
    <tag k="website" v="https://www.omv.hu"/>
  </node>
  <!-- Original coordinates: POINT (46.7835 17.6745) -->
  <!-- Original tags: None -->
  <node action="modify" changeset="99999" id="-104" lat="46.7835" lon="17.6745" timestamp="" uid="4579407" user="KAMI" version="99999">
    <tag k="addr:postcode" v="8638"/>
    <tag k="amenity" v="fuel"/>
    <tag k="payment:debit_cards" v="yes"/>
    <tag k="source" v="website"/>
    <tag k="payment:cash" v="yes"/>
    <tag k="name" v="OMV"/>
    <tag k="brand" v="OMV"/>
    <tag k="addr:city" v="Balatonlelle"/>
    <tag k="opening_hours" v="24/7"/>
    <tag k="fuel:diesel" v="yes"/>
    <tag k="phone" v="+3685554262"/>
    <tag k="fuel:octane_95" v="yes"/>
    <tag k="operator" v="OMV Hungária Kft."/>
    <tag k="website" v="https://www.omv.hu"/>
  </node>
  <!-- Original coordinates: POINT (47.764 19.1408) -->
  <!-- Original tags: None -->
  <node action="modify" changeset="99999" id="-105" lat="47.764" lon="19.1408" timestamp="" uid="4579407" user="KAMI" version="99999">
    <tag k="addr:postcode" v="2600"/>
    <tag k="payment:debit_cards" v="yes"/>
    <tag k="brand" v="OMV"/>
    <tag k="opening_hours" v="24/7"/>
    <tag k="fuel:diesel" v="yes"/>
    <tag k="addr:street" v="Gödöllői út"/>
    <tag k="amenity" v="fuel"/>
    <tag k="source" v="website"/>
    <tag k="payment:cash" v="yes"/>
    <tag k="name" v="OMV"/>
    <tag k="addr:housenumber" v="1"/>
    <tag k="operator" v="OMV Hungária Kft."/>
    <tag k="addr:city" v="Vác"/>
    <tag k="phone" v="+3627510665"/>
    <tag k="fuel:octane_95" v="yes"/>
    <tag k="website" v="https://www.omv.hu"/>
  </node>
  <!-- Original coordinates: POINT (47.5173 19.0914) -->
  <!-- Original tags: None -->
  <node action="modify" changeset="99999" id="-106" lat="47.5173" lon="19.0914" timestamp="" uid="4579407" user="KAMI" version="99999">
    <tag k="addr:postcode" v="1146"/>
    <tag k="payment:debit_cards" v="yes"/>
    <tag k="brand" v="OMV"/>
    <tag k="opening_hours" v="24/7"/>
    <tag k="fuel:diesel" v="yes"/>
    <tag k="addr:street" v="Hungária körút"/>
    <tag k="amenity" v="fuel"/>
    <tag k="source" v="website"/>
    <tag k="payment:cash" v="yes"/>
    <tag k="name" v="OMV"/>
    <tag k="addr:housenumber" v="175-177"/>
    <tag k="operator" v="OMV Hungária Kft."/>
    <tag k="addr:city" v="Budapest"/>
    <tag k="phone" v="+36"/>
    <tag k="fuel:octane_95" v="yes"/>
    <tag k="website" v="https://www.omv.hu"/>
  </node>
  <!-- Original coordinates: POINT (47.4679 19.1033) -->
  <!-- Original tags: None -->
  <node action="modify" changeset="99999" id="-107" lat="47.4679" lon="19.1033" timestamp="" uid="4579407" user="KAMI" version="99999">
    <tag k="addr:postcode" v="1097"/>
    <tag k="payment:debit_cards" v="yes"/>
    <tag k="brand" v="OMV"/>
    <tag k="opening_hours" v="Fr,Mo,Sa,Su,Th,Tu,We 06:00-22:00"/>
    <tag k="fuel:diesel" v="yes"/>
    <tag k="addr:street" v="Gyáli út"/>
    <tag k="amenity" v="fuel"/>
    <tag k="source" v="website"/>
    <tag k="payment:cash" v="yes"/>
    <tag k="name" v="OMV"/>
    <tag k="addr:housenumber" v="30"/>
    <tag k="operator" v="OMV Hungária Kft."/>
    <tag k="addr:city" v="Budapest"/>
    <tag k="phone" v="+3613480144"/>
    <tag k="fuel:octane_95" v="yes"/>
    <tag k="website" v="https://www.omv.hu"/>
  </node>
  <!-- Original coordinates: POINT (46.95807 18.91977) -->
  <!-- Original tags: None -->
  <node action="modify" changeset="99999" id="-108" lat="46.95807" lon="18.91977" timestamp="" uid="4579407" user="KAMI" version="99999">
    <tag k="addr:postcode" v="2400"/>
    <tag k="amenity" v="fuel"/>
    <tag k="payment:debit_cards" v="yes"/>
    <tag k="source" v="website"/>
    <tag k="payment:cash" v="yes"/>
    <tag k="name" v="OMV"/>
    <tag k="operator" v="OMV Hungária Kft."/>
    <tag k="brand" v="OMV"/>
    <tag k="addr:city" v="Dunaújváros"/>
    <tag k="opening_hours" v="Fr,Mo,Sa,Su,Th,Tu,We 05:00-23:00"/>
    <tag k="fuel:diesel" v="yes"/>
    <tag k="phone" v="+3625522410"/>
    <tag k="fuel:octane_95" v="yes"/>
    <tag k="addr:street" v="Dózsa György út"/>
    <tag k="website" v="https://www.omv.hu"/>
  </node>
  <!-- Original coordinates: POINT (47.59015 19.06528) -->
  <!-- Original tags: None -->
  <node action="modify" changeset="99999" id="-109" lat="47.59015" lon="19.06528" timestamp="" uid="4579407" user="KAMI" version="99999">
    <tag k="addr:postcode" v="1039"/>
    <tag k="payment:debit_cards" v="yes"/>
    <tag k="brand" v="OMV"/>
    <tag k="opening_hours" v="Fr,Mo,Sa,Su,Th,Tu,We 06:00-22:00"/>
    <tag k="fuel:diesel" v="yes"/>
    <tag k="addr:street" v="Királyok út"/>
    <tag k="amenity" v="fuel"/>
    <tag k="source" v="website"/>
    <tag k="payment:cash" v="yes"/>
    <tag k="name" v="OMV"/>
    <tag k="addr:housenumber" v="178"/>
    <tag k="operator" v="OMV Hungária Kft."/>
    <tag k="addr:city" v="Budapest"/>
    <tag k="phone" v="+3612405031"/>
    <tag k="fuel:octane_95" v="yes"/>
    <tag k="website" v="https://www.omv.hu"/>
  </node>
  <!-- Original coordinates: POINT (47.19578 18.45872) -->
  <!-- Original tags: None -->
  <node action="modify" changeset="99999" id="-110" lat="47.19578" lon="18.45872" timestamp="" uid="4579407" user="KAMI" version="99999">
    <tag k="addr:postcode" v="8000"/>
    <tag k="amenity" v="fuel"/>
    <tag k="payment:debit_cards" v="yes"/>
    <tag k="source" v="website"/>
    <tag k="payment:cash" v="yes"/>
    <tag k="name" v="OMV"/>
    <tag k="operator" v="OMV Hungária Kft."/>
    <tag k="brand" v="OMV"/>
    <tag k="addr:city" v="Székesfehérvár"/>
    <tag k="opening_hours" v="Fr,Mo,Sa,Su,Th,Tu,We 06:00-22:00"/>
    <tag k="fuel:diesel" v="yes"/>
    <tag k="phone" v="+3622308633"/>
    <tag k="fuel:octane_95" v="yes"/>
    <tag k="addr:street" v="Donáth utca"/>
    <tag k="website" v="https://www.omv.hu"/>
  </node>
  <!-- Original coordinates: POINT (47.84101 21.44221) -->
  <!-- Original tags: None -->
  <node action="modify" changeset="99999" id="-111" lat="47.84101" lon="21.44221" timestamp="" uid="4579407" user="KAMI" version="99999">
    <tag k="addr:postcode" v="4080"/>
    <tag k="amenity" v="fuel"/>
    <tag k="payment:debit_cards" v="yes"/>
    <tag k="source" v="website"/>
    <tag k="payment:cash" v="yes"/>
    <tag k="name" v="OMV"/>
    <tag k="operator" v="OMV Hungária Kft."/>
    <tag k="brand" v="OMV"/>
    <tag k="addr:city" v="Hajdúnánás"/>
    <tag k="opening_hours" v="Fr,Mo,Sa,Su,Th,Tu,We 06:00-22:00"/>
    <tag k="fuel:diesel" v="yes"/>
    <tag k="phone" v="+3652381018"/>
    <tag k="fuel:octane_95" v="yes"/>
    <tag k="addr:street" v="Dorogi út"/>
    <tag k="website" v="https://www.omv.hu"/>
  </node>
  <!-- Original coordinates: POINT (48.08054 19.79379) -->
  <!-- Original tags: None -->
  <node action="modify" changeset="99999" id="-112" lat="48.08054" lon="19.79379" timestamp="" uid="4579407" user="KAMI" version="99999">
    <tag k="addr:postcode" v="3104"/>
    <tag k="payment:debit_cards" v="yes"/>
    <tag k="brand" v="OMV"/>
    <tag k="opening_hours" v="Fr,Mo,Sa,Su,Th,Tu,We 06:00-22:00"/>
    <tag k="fuel:diesel" v="yes"/>
    <tag k="addr:street" v="Rákóczi utca"/>
    <tag k="amenity" v="fuel"/>
    <tag k="source" v="website"/>
    <tag k="payment:cash" v="yes"/>
    <tag k="name" v="OMV"/>
    <tag k="addr:housenumber" v="182"/>
    <tag k="operator" v="OMV Hungária Kft."/>
    <tag k="addr:city" v="Salgótarján"/>
    <tag k="phone" v="+3632440754"/>
    <tag k="fuel:octane_95" v="yes"/>
    <tag k="website" v="https://www.omv.hu"/>
  </node>
  <!-- Original coordinates: POINT (47.5445 19.1161) -->
  <!-- Original tags: None -->
  <node action="modify" changeset="99999" id="-113" lat="47.5445" lon="19.1161" timestamp="" uid="4579407" user="KAMI" version="99999">
    <tag k="addr:postcode" v="1155"/>
    <tag k="payment:debit_cards" v="yes"/>
    <tag k="brand" v="OMV"/>
    <tag k="opening_hours" v="Fr,Mo,Sa,Su,Th,Tu,We 06:00-23:00"/>
    <tag k="fuel:diesel" v="yes"/>
    <tag k="addr:street" v="Alkotmány utca"/>
    <tag k="amenity" v="fuel"/>
    <tag k="source" v="website"/>
    <tag k="payment:cash" v="yes"/>
    <tag k="name" v="OMV"/>
    <tag k="addr:housenumber" v="14-20"/>
    <tag k="operator" v="OMV Hungária Kft."/>
    <tag k="addr:city" v="Budapest"/>
    <tag k="phone" v="+36"/>
    <tag k="fuel:octane_95" v="yes"/>
    <tag k="website" v="https://www.omv.hu"/>
  </node>
  <!-- Original coordinates: POINT (47.94584 21.72526) -->
  <!-- Original tags: None -->
  <node action="modify" changeset="99999" id="-114" lat="47.94584" lon="21.72526" timestamp="" uid="4579407" user="KAMI" version="99999">
    <tag k="addr:postcode" v="4400"/>
    <tag k="payment:debit_cards" v="yes"/>
    <tag k="brand" v="OMV"/>
    <tag k="opening_hours" v="Fr,Mo,Sa,Su,Th,Tu,We 06:00-22:00"/>
    <tag k="fuel:diesel" v="yes"/>
    <tag k="addr:street" v="Kert utca"/>
    <tag k="amenity" v="fuel"/>
    <tag k="source" v="website"/>
    <tag k="payment:cash" v="yes"/>
    <tag k="name" v="OMV"/>
    <tag k="addr:housenumber" v="47"/>
    <tag k="operator" v="OMV Hungária Kft."/>
    <tag k="addr:city" v="Nyíregyháza"/>
    <tag k="phone" v="+3642461301"/>
    <tag k="fuel:octane_95" v="yes"/>
    <tag k="website" v="https://www.omv.hu"/>
  </node>
  <!-- Original coordinates: POINT (47.4914 19.13779) -->
  <!-- Original tags: None -->
  <node action="modify" changeset="99999" id="-115" lat="47.4914" lon="19.13779" timestamp="" uid="4579407" user="KAMI" version="99999">
    <tag k="addr:postcode" v="1102"/>
    <tag k="amenity" v="fuel"/>
    <tag k="payment:debit_cards" v="yes"/>
    <tag k="source" v="website"/>
    <tag k="payment:cash" v="yes"/>
    <tag k="name" v="OMV"/>
    <tag k="operator" v="OMV Hungária Kft."/>
    <tag k="brand" v="OMV"/>
    <tag k="addr:city" v="Budapest"/>
    <tag k="opening_hours" v="Fr,Mo,Sa,Su,Th,Tu,We 06:00-22:00"/>
    <tag k="fuel:diesel" v="yes"/>
    <tag k="phone" v="+36"/>
    <tag k="fuel:octane_95" v="yes"/>
    <tag k="addr:street" v="Kőrösi Csoma S. út"/>
    <tag k="website" v="https://www.omv.hu"/>
  </node>
  <!-- Original coordinates: POINT (46.6594 20.2434) -->
  <!-- Original tags: None -->
  <node action="modify" changeset="99999" id="-116" lat="46.6594" lon="20.2434" timestamp="" uid="4579407" user="KAMI" version="99999">
    <tag k="addr:postcode" v="6600"/>
    <tag k="amenity" v="fuel"/>
    <tag k="payment:debit_cards" v="yes"/>
    <tag k="source" v="website"/>
    <tag k="payment:cash" v="yes"/>
    <tag k="name" v="OMV"/>
    <tag k="operator" v="OMV Hungária Kft."/>
    <tag k="brand" v="OMV"/>
    <tag k="addr:city" v="Szentes"/>
    <tag k="opening_hours" v="Fr,Mo,Sa,Su,Th,Tu,We 05:00-22:00"/>
    <tag k="fuel:diesel" v="yes"/>
    <tag k="phone" v="+3663311649"/>
    <tag k="fuel:octane_95" v="yes"/>
    <tag k="addr:street" v="Csongrádi út"/>
    <tag k="website" v="https://www.omv.hu"/>
  </node>
  <!-- Original coordinates: POINT (46.18981 19.99419) -->
  <!-- Original tags: None -->
  <node action="modify" changeset="99999" id="-117" lat="46.18981" lon="19.99419" timestamp="" uid="4579407" user="KAMI" version="99999">
    <tag k="addr:postcode" v="6758"/>
    <tag k="payment:debit_cards" v="yes"/>
    <tag k="brand" v="OMV"/>
    <tag k="opening_hours" v="24/7"/>
    <tag k="fuel:diesel" v="yes"/>
    <tag k="addr:street" v="M5 autópálya"/>
    <tag k="amenity" v="fuel"/>
    <tag k="source" v="website"/>
    <tag k="payment:cash" v="yes"/>
    <tag k="addr:conscriptionnumber" v="0112/60"/>
    <tag k="name" v="OMV"/>
    <tag k="addr:housenumber" v="172"/>
    <tag k="operator" v="OMV Hungária Kft."/>
    <tag k="addr:city" v="Röszke"/>
    <tag k="phone" v="+3662273980"/>
    <tag k="fuel:octane_95" v="yes"/>
    <tag k="website" v="https://www.omv.hu"/>
  </node>
  <!-- Original coordinates: POINT (47.95731 21.68556) -->
  <!-- Original tags: None -->
  <node action="modify" changeset="99999" id="-118" lat="47.95731" lon="21.68556" timestamp="" uid="4579407" user="KAMI" version="99999">
    <tag k="addr:postcode" v="4400"/>
    <tag k="amenity" v="fuel"/>
    <tag k="payment:debit_cards" v="yes"/>
    <tag k="source" v="website"/>
    <tag k="payment:cash" v="yes"/>
    <tag k="name" v="OMV"/>
    <tag k="operator" v="OMV Hungária Kft."/>
    <tag k="brand" v="OMV"/>
    <tag k="addr:city" v="Nyíregyháza"/>
    <tag k="opening_hours" v="Fr,Mo,Sa,Su,Th,Tu,We 06:00-22:00"/>
    <tag k="fuel:diesel" v="yes"/>
    <tag k="phone" v="+3642417854"/>
    <tag k="fuel:octane_95" v="yes"/>
    <tag k="addr:street" v="Tiszavasvári út - Alkotás utca"/>
    <tag k="website" v="https://www.omv.hu"/>
  </node>
  <!-- Original coordinates: POINT (46.35493 17.78571) -->
  <!-- Original tags: None -->
  <node action="modify" changeset="99999" id="-119" lat="46.35493" lon="17.78571" timestamp="" uid="4579407" user="KAMI" version="99999">
    <tag k="addr:postcode" v="7400"/>
    <tag k="payment:debit_cards" v="yes"/>
    <tag k="brand" v="OMV"/>
    <tag k="opening_hours" v="24/7"/>
    <tag k="fuel:diesel" v="yes"/>
    <tag k="addr:street" v="Áchim A. utca"/>
    <tag k="amenity" v="fuel"/>
    <tag k="source" v="website"/>
    <tag k="payment:cash" v="yes"/>
    <tag k="addr:conscriptionnumber" v="113/14"/>
    <tag k="name" v="OMV"/>
    <tag k="operator" v="OMV Hungária Kft."/>
    <tag k="addr:city" v="Kaposvár"/>
    <tag k="phone" v="+3682510715"/>
    <tag k="fuel:octane_95" v="yes"/>
    <tag k="website" v="https://www.omv.hu"/>
  </node>
  <!-- Original coordinates: POINT (48.22266 20.27437) -->
  <!-- Original tags: None -->
  <node action="modify" changeset="99999" id="-120" lat="48.22266" lon="20.27437" timestamp="" uid="4579407" user="KAMI" version="99999">
    <tag k="addr:postcode" v="3600"/>
    <tag k="payment:debit_cards" v="yes"/>
    <tag k="brand" v="OMV"/>
    <tag k="opening_hours" v="24/7"/>
    <tag k="fuel:diesel" v="yes"/>
    <tag k="addr:street" v="Brassói út"/>
    <tag k="amenity" v="fuel"/>
    <tag k="source" v="website"/>
    <tag k="payment:cash" v="yes"/>
    <tag k="name" v="OMV"/>
    <tag k="addr:housenumber" v="5"/>
    <tag k="operator" v="OMV Hungária Kft."/>
    <tag k="addr:city" v="Ózd"/>
    <tag k="phone" v="+3648572018"/>
    <tag k="fuel:octane_95" v="yes"/>
    <tag k="website" v="https://www.omv.hu"/>
  </node>
  <!-- Original coordinates: POINT (47.63756 19.47392) -->
  <!-- Original tags: None -->
  <node action="modify" changeset="99999" id="-121" lat="47.63756" lon="19.47392" timestamp="" uid="4579407" user="KAMI" version="99999">
    <tag k="addr:postcode" v="2191"/>
    <tag k="payment:debit_cards" v="yes"/>
    <tag k="brand" v="OMV"/>
    <tag k="opening_hours" v="24/7"/>
    <tag k="fuel:diesel" v="yes"/>
    <tag k="addr:street" v="Dózsa György utca"/>
    <tag k="amenity" v="fuel"/>
    <tag k="source" v="website"/>
    <tag k="payment:cash" v="yes"/>
    <tag k="name" v="OMV"/>
    <tag k="addr:housenumber" v="2"/>
    <tag k="operator" v="OMV Hungária Kft."/>
    <tag k="addr:city" v="Bag"/>
    <tag k="phone" v="+3628408048"/>
    <tag k="fuel:octane_95" v="yes"/>
    <tag k="website" v="https://www.omv.hu"/>
  </node>
  <!-- Original coordinates: POINT (46.53333 18.1833) -->
  <!-- Original tags: None -->
  <node action="modify" changeset="99999" id="-122" lat="46.53333" lon="18.1833" timestamp="" uid="4579407" user="KAMI" version="99999">
    <tag k="addr:postcode" v="7212"/>
    <tag k="amenity" v="fuel"/>
    <tag k="payment:debit_cards" v="yes"/>
    <tag k="source" v="website"/>
    <tag k="payment:cash" v="yes"/>
    <tag k="name" v="OMV"/>
    <tag k="brand" v="OMV"/>
    <tag k="addr:city" v="Kocsola"/>
    <tag k="opening_hours" v="Fr,Mo,Sa,Su,Th,Tu,We 06:00-22:00"/>
    <tag k="fuel:diesel" v="yes"/>
    <tag k="phone" v="+3674484716"/>
    <tag k="fuel:octane_95" v="yes"/>
    <tag k="operator" v="OMV Hungária Kft."/>
    <tag k="website" v="https://www.omv.hu"/>
  </node>
  <!-- Original coordinates: POINT (46.27303 20.15693) -->
  <!-- Original tags: None -->
  <node action="modify" changeset="99999" id="-123" lat="46.27303" lon="20.15693" timestamp="" uid="4579407" user="KAMI" version="99999">
    <tag k="addr:postcode" v="6723"/>
    <tag k="payment:debit_cards" v="yes"/>
    <tag k="brand" v="OMV"/>
    <tag k="opening_hours" v="24/7"/>
    <tag k="fuel:diesel" v="yes"/>
    <tag k="addr:street" v="Makkosházi körút"/>
    <tag k="amenity" v="fuel"/>
    <tag k="source" v="website"/>
    <tag k="payment:cash" v="yes"/>
    <tag k="name" v="OMV"/>
    <tag k="addr:housenumber" v="1"/>
    <tag k="operator" v="OMV Hungária Kft."/>
    <tag k="addr:city" v="Szeged"/>
    <tag k="phone" v="+3662484734"/>
    <tag k="fuel:octane_95" v="yes"/>
    <tag k="website" v="https://www.omv.hu"/>
  </node>
  <!-- Original coordinates: POINT (46.5171 19.96793) -->
  <!-- Original tags: None -->
  <node action="modify" changeset="99999" id="-124" lat="46.5171" lon="19.96793" timestamp="" uid="4579407" user="KAMI" version="99999">
    <tag k="addr:postcode" v="6760"/>
    <tag k="amenity" v="fuel"/>
    <tag k="payment:debit_cards" v="yes"/>
    <tag k="source" v="website"/>
    <tag k="payment:cash" v="yes"/>
    <tag k="name" v="OMV"/>
    <tag k="addr:housenumber" v="175"/>
    <tag k="operator" v="OMV Hungária Kft."/>
    <tag k="brand" v="OMV"/>
    <tag k="addr:city" v="Kistelek"/>
    <tag k="opening_hours" v="Fr,Mo,Sa,Su,Th,Tu,We 06:00-22:00"/>
    <tag k="fuel:diesel" v="yes"/>
    <tag k="fuel:octane_95" v="yes"/>
    <tag k="addr:street" v="Kossuth utca"/>
    <tag k="website" v="https://www.omv.hu"/>
  </node>
  <!-- Original coordinates: POINT (46.89754 18.61419) -->
  <!-- Original tags: None -->
  <node action="modify" changeset="99999" id="-125" lat="46.89754" lon="18.61419" timestamp="" uid="4579407" user="KAMI" version="99999">
    <tag k="addr:postcode" v="7000"/>
    <tag k="payment:debit_cards" v="yes"/>
    <tag k="brand" v="OMV"/>
    <tag k="opening_hours" v="Fr,Mo,Sa,Su,Th,Tu,We 05:00-23:00"/>
    <tag k="fuel:diesel" v="yes"/>
    <tag k="addr:street" v="Ady Endre utca"/>
    <tag k="amenity" v="fuel"/>
    <tag k="source" v="website"/>
    <tag k="payment:cash" v="yes"/>
    <tag k="name" v="OMV"/>
    <tag k="addr:housenumber" v="3"/>
    <tag k="operator" v="OMV Hungária Kft."/>
    <tag k="addr:city" v="Sárbogárd"/>
    <tag k="phone" v="+3625460016"/>
    <tag k="fuel:octane_95" v="yes"/>
    <tag k="website" v="https://www.omv.hu"/>
  </node>
  <!-- Original coordinates: POINT (47.7382 18.1181) -->
  <!-- Original tags: None -->
  <node action="modify" changeset="99999" id="-126" lat="47.7382" lon="18.1181" timestamp="" uid="4579407" user="KAMI" version="99999">
    <tag k="addr:postcode" v="2900"/>
    <tag k="payment:debit_cards" v="yes"/>
    <tag k="brand" v="OMV"/>
    <tag k="opening_hours" v="Fr,Mo,Sa,Su,Th,Tu,We 05:00-23:00"/>
    <tag k="fuel:diesel" v="yes"/>
    <tag k="addr:street" v="Igmándi út"/>
    <tag k="amenity" v="fuel"/>
    <tag k="source" v="website"/>
    <tag k="payment:cash" v="yes"/>
    <tag k="name" v="OMV"/>
    <tag k="addr:housenumber" v="49"/>
    <tag k="operator" v="OMV Hungária Kft."/>
    <tag k="addr:city" v="Komárom"/>
    <tag k="phone" v="+3634340159"/>
    <tag k="fuel:octane_95" v="yes"/>
    <tag k="website" v="https://www.omv.hu"/>
  </node>
  <!-- Original coordinates: POINT (47.98665 20.83172) -->
  <!-- Original tags: None -->
  <node action="modify" changeset="99999" id="-127" lat="47.98665" lon="20.83172" timestamp="" uid="4579407" user="KAMI" version="99999">
    <tag k="addr:postcode" v="3433"/>
    <tag k="payment:debit_cards" v="yes"/>
    <tag k="brand" v="OMV"/>
    <tag k="opening_hours" v="24/7"/>
    <tag k="fuel:diesel" v="yes"/>
    <tag k="addr:street" v="Viola utca"/>
    <tag k="amenity" v="fuel"/>
    <tag k="source" v="website"/>
    <tag k="payment:cash" v="yes"/>
    <tag k="name" v="OMV"/>
    <tag k="addr:housenumber" v="182"/>
    <tag k="operator" v="OMV Hungária Kft."/>
    <tag k="addr:city" v="Nyékládháza"/>
    <tag k="phone" v="+3646391800"/>
    <tag k="fuel:octane_95" v="yes"/>
    <tag k="website" v="https://www.omv.hu"/>
  </node>
  <!-- Original coordinates: POINT (46.67554 19.82037) -->
  <!-- Original tags: None -->
  <node action="modify" changeset="99999" id="-128" lat="46.67554" lon="19.82037" timestamp="" uid="4579407" user="KAMI" version="99999">
    <tag k="addr:postcode" v="6100"/>
    <tag k="amenity" v="fuel"/>
    <tag k="payment:debit_cards" v="yes"/>
    <tag k="source" v="website"/>
    <tag k="payment:cash" v="yes"/>
    <tag k="addr:conscriptionnumber" v="0465/28"/>
    <tag k="name" v="OMV"/>
    <tag k="brand" v="OMV"/>
    <tag k="addr:city" v="Kiskunfélegyháza"/>
    <tag k="opening_hours" v="24/7"/>
    <tag k="fuel:diesel" v="yes"/>
    <tag k="fuel:octane_95" v="yes"/>
    <tag k="operator" v="OMV Hungária Kft."/>
    <tag k="website" v="https://www.omv.hu"/>
  </node>
  <!-- Original coordinates: POINT (47.19392 19.81123) -->
  <!-- Original tags: None -->
  <node action="modify" changeset="99999" id="-129" lat="47.19392" lon="19.81123" timestamp="" uid="4579407" user="KAMI" version="99999">
    <tag k="addr:postcode" v="2700"/>
    <tag k="amenity" v="fuel"/>
    <tag k="payment:debit_cards" v="yes"/>
    <tag k="source" v="website"/>
    <tag k="payment:cash" v="yes"/>
    <tag k="addr:conscriptionnumber" v="0825/263"/>
    <tag k="name" v="OMV"/>
    <tag k="operator" v="OMV Hungária Kft."/>
    <tag k="brand" v="OMV"/>
    <tag k="addr:city" v="Cegléd"/>
    <tag k="opening_hours" v="Fr,Mo,Sa,Su,Th,Tu,We 05:00-23:00"/>
    <tag k="fuel:diesel" v="yes"/>
    <tag k="fuel:octane_95" v="yes"/>
    <tag k="addr:street" v="Külső Jászberényi út"/>
    <tag k="website" v="https://www.omv.hu"/>
  </node>
  <!-- Original coordinates: POINT (46.71348 20.13382) -->
  <!-- Original tags: None -->
  <node action="modify" changeset="99999" id="-130" lat="46.71348" lon="20.13382" timestamp="" uid="4579407" user="KAMI" version="99999">
    <tag k="addr:postcode" v="6640"/>
    <tag k="payment:debit_cards" v="yes"/>
    <tag k="brand" v="OMV"/>
    <tag k="opening_hours" v="24/7"/>
    <tag k="fuel:diesel" v="yes"/>
    <tag k="addr:street" v="Fő utca"/>
    <tag k="amenity" v="fuel"/>
    <tag k="source" v="website"/>
    <tag k="payment:cash" v="yes"/>
    <tag k="name" v="OMV"/>
    <tag k="addr:housenumber" v="65"/>
    <tag k="operator" v="OMV Hungária Kft."/>
    <tag k="addr:city" v="Csongrád"/>
    <tag k="phone" v="+302256539"/>
    <tag k="fuel:octane_95" v="yes"/>
    <tag k="website" v="https://www.omv.hu"/>
  </node>
  <!-- Original coordinates: POINT (48.1391 20.77871) -->
  <!-- Original tags: None -->
  <node action="modify" changeset="99999" id="-131" lat="48.1391" lon="20.77871" timestamp="" uid="4579407" user="KAMI" version="99999">
    <tag k="addr:postcode" v="3711"/>
    <tag k="amenity" v="fuel"/>
    <tag k="payment:debit_cards" v="yes"/>
    <tag k="source" v="website"/>
    <tag k="payment:cash" v="yes"/>
    <tag k="name" v="OMV"/>
    <tag k="brand" v="OMV"/>
    <tag k="addr:city" v="Szirmabesenyő"/>
    <tag k="fuel:diesel" v="yes"/>
    <tag k="fuel:octane_95" v="yes"/>
    <tag k="operator" v="OMV Hungária Kft."/>
    <tag k="website" v="https://www.omv.hu"/>
  </node>
  <!-- Original coordinates: POINT (46.52598 20.19284) -->
  <!-- Original tags: None -->
  <node action="modify" changeset="99999" id="-132" lat="46.52598" lon="20.19284" timestamp="" uid="4579407" user="KAMI" version="99999">
    <tag k="addr:postcode" v="6630"/>
    <tag k="payment:debit_cards" v="yes"/>
    <tag k="brand" v="OMV"/>
    <tag k="opening_hours" v="24/7"/>
    <tag k="fuel:diesel" v="yes"/>
    <tag k="addr:street" v="Napkelet utca"/>
    <tag k="amenity" v="fuel"/>
    <tag k="source" v="website"/>
    <tag k="payment:cash" v="yes"/>
    <tag k="name" v="OMV"/>
    <tag k="addr:housenumber" v="3/b"/>
    <tag k="operator" v="OMV Hungária Kft."/>
    <tag k="addr:city" v="Mindszent"/>
    <tag k="phone" v="+302256551"/>
    <tag k="fuel:octane_95" v="yes"/>
    <tag k="website" v="https://www.omv.hu"/>
  </node>
  <!-- Original coordinates: POINT (47.74106 19.87001) -->
  <!-- Original tags: None -->
  <node action="modify" changeset="99999" id="-133" lat="47.74106" lon="19.87001" timestamp="" uid="4579407" user="KAMI" version="99999">
    <tag k="addr:postcode" v="3214"/>
    <tag k="amenity" v="fuel"/>
    <tag k="payment:debit_cards" v="yes"/>
    <tag k="source" v="website"/>
    <tag k="payment:cash" v="yes"/>
    <tag k="addr:conscriptionnumber" v="237/3"/>
    <tag k="name" v="OMV"/>
    <tag k="brand" v="OMV"/>
    <tag k="addr:city" v="Nagyréde"/>
    <tag k="opening_hours" v="Fr,Mo,Sa,Su,Th,Tu,We 05:00-21:00"/>
    <tag k="fuel:diesel" v="yes"/>
    <tag k="fuel:octane_95" v="yes"/>
    <tag k="operator" v="OMV Hungária Kft."/>
    <tag k="website" v="https://www.omv.hu"/>
  </node>
  <!-- Original coordinates: POINT (47.47372 18.83273) -->
  <!-- Original tags: None -->
  <node action="modify" changeset="99999" id="-134" lat="47.47372" lon="18.83273" timestamp="" uid="4579407" user="KAMI" version="99999">
    <tag k="addr:postcode" v="2051"/>
    <tag k="amenity" v="fuel"/>
    <tag k="payment:debit_cards" v="yes"/>
    <tag k="source" v="website"/>
    <tag k="payment:cash" v="yes"/>
    <tag k="name" v="OMV"/>
    <tag k="addr:housenumber" v="1/a"/>
    <tag k="operator" v="OMV Hungária Kft."/>
    <tag k="brand" v="OMV"/>
    <tag k="addr:city" v="Biatorbágy"/>
    <tag k="fuel:diesel" v="yes"/>
    <tag k="fuel:octane_95" v="yes"/>
    <tag k="addr:street" v="Kossuth Lajos utca"/>
    <tag k="website" v="https://www.omv.hu"/>
  </node>
  <!-- Original coordinates: POINT (46.44381 16.98909) -->
  <!-- Original tags: None -->
  <node action="modify" changeset="99999" id="-135" lat="46.44381" lon="16.98909" timestamp="" uid="4579407" user="KAMI" version="99999">
    <tag k="addr:postcode" v="8800"/>
    <tag k="amenity" v="fuel"/>
    <tag k="payment:debit_cards" v="yes"/>
    <tag k="source" v="website"/>
    <tag k="payment:cash" v="yes"/>
    <tag k="name" v="OMV"/>
    <tag k="addr:housenumber" v="82/a"/>
    <tag k="operator" v="OMV Hungária Kft."/>
    <tag k="brand" v="OMV"/>
    <tag k="addr:city" v="Nagykanizsa"/>
    <tag k="opening_hours" v="Fr,Mo,Sa,Su,Th,Tu,We 06:00-21:00"/>
    <tag k="fuel:diesel" v="yes"/>
    <tag k="fuel:octane_95" v="yes"/>
    <tag k="addr:street" v="Csengery utca"/>
    <tag k="website" v="https://www.omv.hu"/>
  </node>
  <!-- Original coordinates: POINT (46.60429 17.40282) -->
  <!-- Original tags: None -->
  <node action="modify" changeset="99999" id="-136" lat="46.60429" lon="17.40282" timestamp="" uid="4579407" user="KAMI" version="99999">
    <tag k="addr:postcode" v="8700"/>
    <tag k="amenity" v="fuel"/>
    <tag k="payment:debit_cards" v="yes"/>
    <tag k="source" v="website"/>
    <tag k="payment:cash" v="yes"/>
    <tag k="name" v="OMV"/>
    <tag k="addr:housenumber" v="120"/>
    <tag k="operator" v="OMV Hungária Kft."/>
    <tag k="brand" v="OMV"/>
    <tag k="addr:city" v="Marcali"/>
    <tag k="opening_hours" v="Fr,Mo,Sa,Su,Th,Tu,We 05:30-21:00"/>
    <tag k="fuel:diesel" v="yes"/>
    <tag k="fuel:octane_95" v="yes"/>
    <tag k="addr:street" v="Noszlopy utca"/>
    <tag k="website" v="https://www.omv.hu"/>
  </node>
  <!-- Original coordinates: POINT (46.77124 18.62553) -->
  <!-- Original tags: None -->
  <node action="modify" changeset="99999" id="-137" lat="46.77124" lon="18.62553" timestamp="" uid="4579407" user="KAMI" version="99999">
    <tag k="addr:postcode" v="7013"/>
    <tag k="amenity" v="fuel"/>
    <tag k="payment:debit_cards" v="yes"/>
    <tag k="source" v="website"/>
    <tag k="payment:cash" v="yes"/>
    <tag k="name" v="OMV"/>
    <tag k="addr:housenumber" v="2"/>
    <tag k="operator" v="OMV Hungária Kft."/>
    <tag k="brand" v="OMV"/>
    <tag k="addr:city" v="Cece"/>
    <tag k="opening_hours" v="Fr,Mo,Sa,Su,Th,Tu,We 05:00-22:00"/>
    <tag k="fuel:diesel" v="yes"/>
    <tag k="fuel:octane_95" v="yes"/>
    <tag k="addr:street" v="Vasút utca"/>
    <tag k="website" v="https://www.omv.hu"/>
  </node>
  <!-- Original coordinates: POINT (46.79482 18.91842) -->
  <!-- Original tags: None -->
  <node action="modify" changeset="99999" id="-138" lat="46.79482" lon="18.91842" timestamp="" uid="4579407" user="KAMI" version="99999">
    <tag k="addr:postcode" v="7020"/>
    <tag k="amenity" v="fuel"/>
    <tag k="payment:debit_cards" v="yes"/>
    <tag k="source" v="website"/>
    <tag k="payment:cash" v="yes"/>
    <tag k="name" v="OMV"/>
    <tag k="addr:housenumber" v="125/a"/>
    <tag k="operator" v="OMV Hungária Kft."/>
    <tag k="brand" v="OMV"/>
    <tag k="addr:city" v="Dunaföldvár"/>
    <tag k="opening_hours" v="Fr,Mo,Sa,Su,Th,Tu,We 06:00-22:00"/>
    <tag k="fuel:diesel" v="yes"/>
    <tag k="fuel:octane_95" v="yes"/>
    <tag k="addr:street" v="Paksi út"/>
    <tag k="website" v="https://www.omv.hu"/>
  </node>
  <!-- Original coordinates: POINT (45.96454 17.46605) -->
  <!-- Original tags: None -->
  <node action="modify" changeset="99999" id="-139" lat="45.96454" lon="17.46605" timestamp="" uid="4579407" user="KAMI" version="99999">
    <tag k="addr:postcode" v="7570"/>
    <tag k="amenity" v="fuel"/>
    <tag k="payment:debit_cards" v="yes"/>
    <tag k="source" v="website"/>
    <tag k="payment:cash" v="yes"/>
    <tag k="addr:conscriptionnumber" v="2671/26"/>
    <tag k="name" v="OMV"/>
    <tag k="brand" v="OMV"/>
    <tag k="addr:city" v="Barcs"/>
    <tag k="opening_hours" v="Fr,Mo,Sa,Su,Th,Tu,We 06:00-21:00"/>
    <tag k="fuel:diesel" v="yes"/>
    <tag k="fuel:octane_95" v="yes"/>
    <tag k="operator" v="OMV Hungária Kft."/>
    <tag k="website" v="https://www.omv.hu"/>
  </node>
  <!-- Original coordinates: POINT (46.25987 17.09593) -->
  <!-- Original tags: None -->
  <node action="modify" changeset="99999" id="-140" lat="46.25987" lon="17.09593" timestamp="" uid="4579407" user="KAMI" version="99999">
    <tag k="addr:postcode" v="8840"/>
    <tag k="amenity" v="fuel"/>
    <tag k="payment:debit_cards" v="yes"/>
    <tag k="source" v="website"/>
    <tag k="payment:cash" v="yes"/>
    <tag k="addr:conscriptionnumber" v="571/2"/>
    <tag k="name" v="OMV"/>
    <tag k="operator" v="OMV Hungária Kft."/>
    <tag k="brand" v="OMV"/>
    <tag k="addr:city" v="Csurgó"/>
    <tag k="opening_hours" v="Fr,Mo,Sa,Su,Th,Tu,We 07:00-19:00"/>
    <tag k="fuel:diesel" v="yes"/>
    <tag k="fuel:octane_95" v="yes"/>
    <tag k="addr:street" v="Rákóczi út"/>
    <tag k="website" v="https://www.omv.hu"/>
  </node>
  <!-- Original coordinates: POINT (46.24083 17.35629) -->
  <!-- Original tags: None -->
  <node action="modify" changeset="99999" id="-141" lat="46.24083" lon="17.35629" timestamp="" uid="4579407" user="KAMI" version="99999">
    <tag k="addr:postcode" v="7500"/>
    <tag k="amenity" v="fuel"/>
    <tag k="payment:debit_cards" v="yes"/>
    <tag k="source" v="website"/>
    <tag k="payment:cash" v="yes"/>
    <tag k="name" v="OMV"/>
    <tag k="brand" v="OMV"/>
    <tag k="addr:city" v="Nagyatád"/>
    <tag k="opening_hours" v="24/7"/>
    <tag k="fuel:diesel" v="yes"/>
    <tag k="fuel:octane_95" v="yes"/>
    <tag k="operator" v="OMV Hungária Kft."/>
    <tag k="website" v="https://www.omv.hu"/>
  </node>
  <!-- Original coordinates: POINT (46.38774 17.52099) -->
  <!-- Original tags: None -->
  <node action="modify" changeset="99999" id="-142" lat="46.38774" lon="17.52099" timestamp="" uid="4579407" user="KAMI" version="99999">
    <tag k="addr:postcode" v="7561"/>
    <tag k="amenity" v="fuel"/>
    <tag k="payment:debit_cards" v="yes"/>
    <tag k="source" v="website"/>
    <tag k="payment:cash" v="yes"/>
    <tag k="name" v="OMV"/>
    <tag k="addr:housenumber" v="1"/>
    <tag k="operator" v="OMV Hungária Kft."/>
    <tag k="brand" v="OMV"/>
    <tag k="addr:city" v="Nagybajom"/>
    <tag k="opening_hours" v="Fr,Mo,Sa,Su,Th,Tu,We 06:00-21:00"/>
    <tag k="fuel:diesel" v="yes"/>
    <tag k="fuel:octane_95" v="yes"/>
    <tag k="addr:street" v="Jákói utca"/>
    <tag k="website" v="https://www.omv.hu"/>
  </node>
  <!-- Original coordinates: POINT (46.45109 17.01919) -->
  <!-- Original tags: None -->
  <node action="modify" changeset="99999" id="-143" lat="46.45109" lon="17.01919" timestamp="" uid="4579407" user="KAMI" version="99999">
    <tag k="addr:postcode" v="8800"/>
    <tag k="amenity" v="fuel"/>
    <tag k="payment:debit_cards" v="yes"/>
    <tag k="source" v="website"/>
    <tag k="payment:cash" v="yes"/>
    <tag k="name" v="OMV"/>
    <tag k="addr:housenumber" v="27"/>
    <tag k="operator" v="OMV Hungária Kft."/>
    <tag k="brand" v="OMV"/>
    <tag k="addr:city" v="Nagykanizsa"/>
    <tag k="opening_hours" v="24/7"/>
    <tag k="fuel:diesel" v="yes"/>
    <tag k="fuel:octane_95" v="yes"/>
    <tag k="addr:street" v="Teleki utca"/>
    <tag k="website" v="https://www.omv.hu"/>
  </node>
  <!-- Original coordinates: POINT (46.85612 16.80501) -->
  <!-- Original tags: None -->
  <node action="modify" changeset="99999" id="-144" lat="46.85612" lon="16.80501" timestamp="" uid="4579407" user="KAMI" version="99999">
    <tag k="addr:postcode" v="8900"/>
    <tag k="amenity" v="fuel"/>
    <tag k="payment:debit_cards" v="yes"/>
    <tag k="source" v="website"/>
    <tag k="payment:cash" v="yes"/>
    <tag k="name" v="OMV"/>
    <tag k="addr:housenumber" v="746"/>
    <tag k="operator" v="OMV Hungária Kft."/>
    <tag k="brand" v="OMV"/>
    <tag k="addr:city" v="Zalaegerszeg"/>
    <tag k="opening_hours" v="Fr,Mo,Sa,Su,Th,Tu,We 05:30-22:00"/>
    <tag k="fuel:diesel" v="yes"/>
    <tag k="fuel:octane_95" v="yes"/>
    <tag k="addr:street" v="Hock János utca"/>
    <tag k="website" v="https://www.omv.hu"/>
  </node>
  <!-- Original coordinates: POINT (47.2617 19.5971) -->
  <!-- Original tags: None -->
  <node action="modify" changeset="99999" id="-145" lat="47.2617" lon="19.5971" timestamp="" uid="4579407" user="KAMI" version="99999">
    <tag k="addr:postcode" v="2730"/>
    <tag k="amenity" v="fuel"/>
    <tag k="payment:debit_cards" v="yes"/>
    <tag k="source" v="website"/>
    <tag k="payment:cash" v="yes"/>
    <tag k="name" v="OMV"/>
    <tag k="addr:housenumber" v="51-52"/>
    <tag k="operator" v="OMV Hungária Kft."/>
    <tag k="brand" v="OMV"/>
    <tag k="addr:city" v="Albertirsa"/>
    <tag k="opening_hours" v="24/7"/>
    <tag k="fuel:diesel" v="yes"/>
    <tag k="fuel:octane_95" v="yes"/>
    <tag k="addr:street" v="4. sz. főút"/>
    <tag k="website" v="https://www.omv.hu"/>
  </node>
  <!-- Original coordinates: POINT (47.30777 18.74463) -->
  <!-- Original tags: None -->
  <node action="modify" changeset="99999" id="-146" lat="47.30777" lon="18.74463" timestamp="" uid="4579407" user="KAMI" version="99999">
    <tag k="addr:postcode" v="2472"/>
    <tag k="payment:debit_cards" v="yes"/>
    <tag k="brand" v="OMV"/>
    <tag k="opening_hours" v="24/7"/>
    <tag k="fuel:diesel" v="yes"/>
    <tag k="addr:street" v="M7 autópálya"/>
    <tag k="amenity" v="fuel"/>
    <tag k="source" v="website"/>
    <tag k="payment:cash" v="yes"/>
    <tag k="name" v="OMV"/>
    <tag k="addr:housenumber" v="33"/>
    <tag k="operator" v="OMV Hungária Kft."/>
    <tag k="addr:city" v="Kajászó"/>
    <tag k="phone" v="+3622454464"/>
    <tag k="fuel:octane_95" v="yes"/>
    <tag k="website" v="https://www.omv.hu"/>
  </node>
  <!-- Original coordinates: POINT (47.2272 16.652) -->
  <!-- Original tags: None -->
  <node action="modify" changeset="99999" id="-147" lat="47.2272" lon="16.652" timestamp="" uid="4579407" user="KAMI" version="99999">
    <tag k="addr:postcode" v="9700"/>
    <tag k="payment:debit_cards" v="yes"/>
    <tag k="brand" v="OMV"/>
    <tag k="opening_hours" v="Fr,Mo,Sa,Su,Th,Tu,We 06:00-22:00"/>
    <tag k="fuel:diesel" v="yes"/>
    <tag k="addr:street" v="Csaba út"/>
    <tag k="amenity" v="fuel"/>
    <tag k="source" v="website"/>
    <tag k="payment:cash" v="yes"/>
    <tag k="name" v="OMV"/>
    <tag k="addr:housenumber" v="15"/>
    <tag k="operator" v="OMV Hungária Kft."/>
    <tag k="addr:city" v="Szombathely"/>
    <tag k="phone" v="+3694328809"/>
    <tag k="fuel:octane_95" v="yes"/>
    <tag k="website" v="https://www.omv.hu"/>
  </node>
  <!-- Original coordinates: POINT (47.35991 16.89799) -->
  <!-- Original tags: None -->
  <node action="modify" changeset="99999" id="-148" lat="47.35991" lon="16.89799" timestamp="" uid="4579407" user="KAMI" version="99999">
    <tag k="addr:postcode" v="9631"/>
    <tag k="amenity" v="fuel"/>
    <tag k="payment:debit_cards" v="yes"/>
    <tag k="source" v="website"/>
    <tag k="payment:cash" v="yes"/>
    <tag k="name" v="OMV"/>
    <tag k="operator" v="OMV Hungária Kft."/>
    <tag k="brand" v="OMV"/>
    <tag k="addr:city" v="Hegyfalu"/>
    <tag k="opening_hours" v="24/7"/>
    <tag k="fuel:diesel" v="yes"/>
    <tag k="phone" v="+3695340267"/>
    <tag k="fuel:octane_95" v="yes"/>
    <tag k="addr:street" v="84. sz. főút"/>
    <tag k="website" v="https://www.omv.hu"/>
  </node>
  <!-- Original coordinates: POINT (47.68723 16.58835) -->
  <!-- Original tags: None -->
  <node action="modify" changeset="99999" id="-149" lat="47.68723" lon="16.58835" timestamp="" uid="4579407" user="KAMI" version="99999">
    <tag k="addr:postcode" v="9400"/>
    <tag k="payment:debit_cards" v="yes"/>
    <tag k="brand" v="OMV"/>
    <tag k="opening_hours" v="24/7"/>
    <tag k="fuel:diesel" v="yes"/>
    <tag k="addr:street" v="Lackner Kristóf utca"/>
    <tag k="amenity" v="fuel"/>
    <tag k="source" v="website"/>
    <tag k="payment:cash" v="yes"/>
    <tag k="name" v="OMV"/>
    <tag k="addr:housenumber" v="29"/>
    <tag k="operator" v="OMV Hungária Kft."/>
    <tag k="addr:city" v="Sopron"/>
    <tag k="phone" v="+3699510565"/>
    <tag k="fuel:octane_95" v="yes"/>
    <tag k="website" v="https://www.omv.hu"/>
  </node>
  <!-- Original coordinates: POINT (47.5276 19.0757) -->
  <!-- Original tags: None -->
  <node action="modify" changeset="99999" id="-150" lat="47.5276" lon="19.0757" timestamp="" uid="4579407" user="KAMI" version="99999">
    <tag k="addr:postcode" v="1135"/>
    <tag k="payment:debit_cards" v="yes"/>
    <tag k="brand" v="OMV"/>
    <tag k="opening_hours" v="24/7"/>
    <tag k="fuel:diesel" v="yes"/>
    <tag k="addr:street" v="Róbert Károly körút"/>
    <tag k="amenity" v="fuel"/>
    <tag k="source" v="website"/>
    <tag k="payment:cash" v="yes"/>
    <tag k="name" v="OMV"/>
    <tag k="addr:housenumber" v="64-66"/>
    <tag k="operator" v="OMV Hungária Kft."/>
    <tag k="addr:city" v="Budapest"/>
    <tag k="phone" v="+36"/>
    <tag k="fuel:octane_95" v="yes"/>
    <tag k="website" v="https://www.omv.hu"/>
  </node>
  <!-- Original coordinates: POINT (47.5898 17.0094) -->
  <!-- Original tags: None -->
  <node action="modify" changeset="99999" id="-151" lat="47.5898" lon="17.0094" timestamp="" uid="4579407" user="KAMI" version="99999">
    <tag k="addr:postcode" v="9330"/>
    <tag k="payment:debit_cards" v="yes"/>
    <tag k="brand" v="OMV"/>
    <tag k="opening_hours" v="24/7"/>
    <tag k="fuel:diesel" v="yes"/>
    <tag k="addr:street" v="Petőfi major"/>
    <tag k="amenity" v="fuel"/>
    <tag k="source" v="website"/>
    <tag k="payment:cash" v="yes"/>
    <tag k="name" v="OMV"/>
    <tag k="addr:housenumber" v="1"/>
    <tag k="operator" v="OMV Hungária Kft."/>
    <tag k="addr:city" v="Kapuvár"/>
    <tag k="phone" v="+3696245141"/>
    <tag k="fuel:octane_95" v="yes"/>
    <tag k="website" v="https://www.omv.hu"/>
  </node>
  <!-- Original coordinates: POINT (48.08304 20.7864) -->
  <!-- Original tags: None -->
  <node action="modify" changeset="99999" id="-152" lat="48.08304" lon="20.7864" timestamp="" uid="4579407" user="KAMI" version="99999">
    <tag k="addr:postcode" v="3529"/>
    <tag k="payment:debit_cards" v="yes"/>
    <tag k="brand" v="OMV"/>
    <tag k="opening_hours" v="Fr,Mo,Sa,Su,Th,Tu,We 06:00-22:00"/>
    <tag k="fuel:diesel" v="yes"/>
    <tag k="addr:street" v="Soltész Nagy Kálmán utca"/>
    <tag k="amenity" v="fuel"/>
    <tag k="source" v="website"/>
    <tag k="payment:cash" v="yes"/>
    <tag k="name" v="OMV"/>
    <tag k="addr:housenumber" v="175"/>
    <tag k="operator" v="OMV Hungária Kft."/>
    <tag k="addr:city" v="Miskolc"/>
    <tag k="phone" v="+3646313959"/>
    <tag k="fuel:octane_95" v="yes"/>
    <tag k="website" v="https://www.omv.hu"/>
  </node>
  <!-- Original coordinates: POINT (47.276 19.32361) -->
  <!-- Original tags: None -->
  <node action="modify" changeset="99999" id="-153" lat="47.276" lon="19.32361" timestamp="" uid="4579407" user="KAMI" version="99999">
    <tag k="addr:postcode" v="2365"/>
    <tag k="payment:debit_cards" v="yes"/>
    <tag k="brand" v="OMV"/>
    <tag k="opening_hours" v="24/7"/>
    <tag k="fuel:diesel" v="yes"/>
    <tag k="addr:street" v="M5 autópálya"/>
    <tag k="amenity" v="fuel"/>
    <tag k="source" v="website"/>
    <tag k="payment:cash" v="yes"/>
    <tag k="name" v="OMV"/>
    <tag k="addr:housenumber" v="82"/>
    <tag k="operator" v="OMV Hungária Kft."/>
    <tag k="addr:city" v="Inárcs"/>
    <tag k="phone" v="+3629371095"/>
    <tag k="fuel:octane_95" v="yes"/>
    <tag k="website" v="https://www.omv.hu"/>
  </node>
  <!-- Original coordinates: POINT (47.18216 20.18402) -->
  <!-- Original tags: None -->
  <node action="modify" changeset="99999" id="-154" lat="47.18216" lon="20.18402" timestamp="" uid="4579407" user="KAMI" version="99999">
    <tag k="addr:postcode" v="5000"/>
    <tag k="payment:debit_cards" v="yes"/>
    <tag k="brand" v="OMV"/>
    <tag k="opening_hours" v="24/7"/>
    <tag k="fuel:diesel" v="yes"/>
    <tag k="addr:street" v="Dráva utca"/>
    <tag k="amenity" v="fuel"/>
    <tag k="source" v="website"/>
    <tag k="payment:cash" v="yes"/>
    <tag k="name" v="OMV"/>
    <tag k="addr:housenumber" v="42"/>
    <tag k="operator" v="OMV Hungária Kft."/>
    <tag k="addr:city" v="Szolnok"/>
    <tag k="phone" v="+3656342766"/>
    <tag k="fuel:octane_95" v="yes"/>
    <tag k="website" v="https://www.omv.hu"/>
  </node>
  <!-- Original coordinates: POINT (47.30212 19.17968) -->
  <!-- Original tags: None -->
  <node action="modify" changeset="99999" id="-155" lat="47.30212" lon="19.17968" timestamp="" uid="4579407" user="KAMI" version="99999">
    <tag k="addr:postcode" v="2351"/>
    <tag k="amenity" v="fuel"/>
    <tag k="payment:debit_cards" v="yes"/>
    <tag k="source" v="website"/>
    <tag k="payment:cash" v="yes"/>
    <tag k="addr:conscriptionnumber" v="2553"/>
    <tag k="name" v="OMV"/>
    <tag k="brand" v="OMV"/>
    <tag k="addr:city" v="Alsónémedi"/>
    <tag k="opening_hours" v="24/7"/>
    <tag k="fuel:diesel" v="yes"/>
    <tag k="phone" v="+3629337164"/>
    <tag k="fuel:octane_95" v="yes"/>
    <tag k="operator" v="OMV Hungária Kft."/>
    <tag k="website" v="https://www.omv.hu"/>
  </node>
  <!-- Original coordinates: POINT (47.91957 19.12223) -->
  <!-- Original tags: None -->
  <node action="modify" changeset="99999" id="-156" lat="47.91957" lon="19.12223" timestamp="" uid="4579407" user="KAMI" version="99999">
    <tag k="addr:postcode" v="2651"/>
    <tag k="payment:debit_cards" v="yes"/>
    <tag k="brand" v="OMV"/>
    <tag k="opening_hours" v="Fr,Mo,Sa,Su,Th,Tu,We 05:00-22:00"/>
    <tag k="fuel:diesel" v="yes"/>
    <tag k="addr:street" v="Pusztaszántói út"/>
    <tag k="amenity" v="fuel"/>
    <tag k="source" v="website"/>
    <tag k="payment:cash" v="yes"/>
    <tag k="name" v="OMV"/>
    <tag k="addr:housenumber" v="1"/>
    <tag k="operator" v="OMV Hungária Kft."/>
    <tag k="addr:city" v="Rétság"/>
    <tag k="phone" v="+3635351982"/>
    <tag k="fuel:octane_95" v="yes"/>
    <tag k="website" v="https://www.omv.hu"/>
  </node>
  <!-- Original coordinates: POINT (47.5501 19.1385) -->
  <!-- Original tags: None -->
  <node action="modify" changeset="99999" id="-157" lat="47.5501" lon="19.1385" timestamp="" uid="4579407" user="KAMI" version="99999">
    <tag k="addr:postcode" v="1152"/>
    <tag k="payment:debit_cards" v="yes"/>
    <tag k="brand" v="OMV"/>
    <tag k="opening_hours" v="24/7"/>
    <tag k="fuel:diesel" v="yes"/>
    <tag k="addr:street" v="Szentmihályi út"/>
    <tag k="amenity" v="fuel"/>
    <tag k="source" v="website"/>
    <tag k="payment:cash" v="yes"/>
    <tag k="name" v="OMV"/>
    <tag k="addr:housenumber" v="131"/>
    <tag k="operator" v="OMV Hungária Kft."/>
    <tag k="addr:city" v="Budapest"/>
    <tag k="phone" v="+36"/>
    <tag k="fuel:octane_95" v="yes"/>
    <tag k="website" v="https://www.omv.hu"/>
  </node>
  <!-- Original coordinates: POINT (47.10307 17.55168) -->
  <!-- Original tags: None -->
  <node action="modify" changeset="99999" id="-158" lat="47.10307" lon="17.55168" timestamp="" uid="4579407" user="KAMI" version="99999">
    <tag k="addr:postcode" v="8400"/>
    <tag k="amenity" v="fuel"/>
    <tag k="payment:debit_cards" v="yes"/>
    <tag k="source" v="website"/>
    <tag k="payment:cash" v="yes"/>
    <tag k="name" v="OMV"/>
    <tag k="operator" v="OMV Hungária Kft."/>
    <tag k="brand" v="OMV"/>
    <tag k="addr:city" v="Ajka"/>
    <tag k="opening_hours" v="Fr,Mo,Sa,Su,Th,Tu,We 06:00-22:00"/>
    <tag k="fuel:diesel" v="yes"/>
    <tag k="phone" v="+3688311354"/>
    <tag k="fuel:octane_95" v="yes"/>
    <tag k="addr:street" v="Pefőfi utca"/>
    <tag k="website" v="https://www.omv.hu"/>
  </node>
  <!-- Original coordinates: POINT (47.19533 18.46482) -->
  <!-- Original tags: None -->
  <node action="modify" changeset="99999" id="-159" lat="47.19533" lon="18.46482" timestamp="" uid="4579407" user="KAMI" version="99999">
    <tag k="addr:postcode" v="8000"/>
    <tag k="amenity" v="fuel"/>
    <tag k="payment:debit_cards" v="yes"/>
    <tag k="source" v="website"/>
    <tag k="payment:cash" v="yes"/>
    <tag k="name" v="OMV"/>
    <tag k="operator" v="OMV Hungária Kft."/>
    <tag k="brand" v="OMV"/>
    <tag k="addr:city" v="Székesfehérvár"/>
    <tag k="opening_hours" v="24/7"/>
    <tag k="fuel:diesel" v="yes"/>
    <tag k="phone" v="+3622306562"/>
    <tag k="fuel:octane_95" v="yes"/>
    <tag k="addr:street" v="Budai út"/>
    <tag k="website" v="https://www.omv.hu"/>
  </node>
  <!-- Original coordinates: POINT (47.4614 19.05211) -->
  <!-- Original tags: None -->
  <node action="modify" changeset="99999" id="-160" lat="47.4614" lon="19.05211" timestamp="" uid="4579407" user="KAMI" version="99999">
    <tag k="addr:postcode" v="1117"/>
    <tag k="payment:debit_cards" v="yes"/>
    <tag k="brand" v="OMV"/>
    <tag k="opening_hours" v="24/7"/>
    <tag k="fuel:diesel" v="yes"/>
    <tag k="addr:street" v="Budafoki út"/>
    <tag k="amenity" v="fuel"/>
    <tag k="source" v="website"/>
    <tag k="payment:cash" v="yes"/>
    <tag k="name" v="OMV"/>
    <tag k="addr:housenumber" v="111-113"/>
    <tag k="operator" v="OMV Hungária Kft."/>
    <tag k="addr:city" v="Budapest"/>
    <tag k="phone" v="+36"/>
    <tag k="fuel:octane_95" v="yes"/>
    <tag k="website" v="https://www.omv.hu"/>
  </node>
  <!-- Original coordinates: POINT (46.92766 20.81804) -->
  <!-- Original tags: None -->
  <node action="modify" changeset="99999" id="-161" lat="46.92766" lon="20.81804" timestamp="" uid="4579407" user="KAMI" version="99999">
    <tag k="addr:postcode" v="5500"/>
    <tag k="payment:debit_cards" v="yes"/>
    <tag k="brand" v="OMV"/>
    <tag k="opening_hours" v="Fr,Mo,Sa,Su,Th,Tu,We 05:00-22:00"/>
    <tag k="fuel:diesel" v="yes"/>
    <tag k="addr:street" v="Fő út"/>
    <tag k="amenity" v="fuel"/>
    <tag k="source" v="website"/>
    <tag k="payment:cash" v="yes"/>
    <tag k="name" v="OMV"/>
    <tag k="addr:housenumber" v="133"/>
    <tag k="operator" v="OMV Hungária Kft."/>
    <tag k="addr:city" v="Gyomaendrőd"/>
    <tag k="phone" v="+3666581740"/>
    <tag k="fuel:octane_95" v="yes"/>
    <tag k="website" v="https://www.omv.hu"/>
  </node>
  <!-- Original coordinates: POINT (47.37887 19.35756) -->
  <!-- Original tags: None -->
  <node action="modify" changeset="99999" id="-162" lat="47.37887" lon="19.35756" timestamp="" uid="4579407" user="KAMI" version="99999">
    <tag k="addr:postcode" v="2225"/>
    <tag k="payment:debit_cards" v="yes"/>
    <tag k="brand" v="OMV"/>
    <tag k="opening_hours" v="Fr,Mo,Sa,Su,Th,Tu,We 04:00-22:00"/>
    <tag k="fuel:diesel" v="yes"/>
    <tag k="addr:street" v="Pesti út"/>
    <tag k="amenity" v="fuel"/>
    <tag k="source" v="website"/>
    <tag k="payment:cash" v="yes"/>
    <tag k="name" v="OMV"/>
    <tag k="addr:housenumber" v="1"/>
    <tag k="operator" v="OMV Hungária Kft."/>
    <tag k="addr:city" v="Üllő"/>
    <tag k="phone" v="+3629322464"/>
    <tag k="fuel:octane_95" v="yes"/>
    <tag k="website" v="https://www.omv.hu"/>
  </node>
  <!-- Original coordinates: POINT (47.39925 19.24829) -->
  <!-- Original tags: None -->
  <node action="modify" changeset="99999" id="-163" lat="47.39925" lon="19.24829" timestamp="" uid="4579407" user="KAMI" version="99999">
    <tag k="addr:postcode" v="2220"/>
    <tag k="payment:debit_cards" v="yes"/>
    <tag k="brand" v="OMV"/>
    <tag k="opening_hours" v="24/7"/>
    <tag k="fuel:diesel" v="yes"/>
    <tag k="addr:street" v="Gyáli út"/>
    <tag k="amenity" v="fuel"/>
    <tag k="source" v="website"/>
    <tag k="payment:cash" v="yes"/>
    <tag k="name" v="OMV"/>
    <tag k="addr:housenumber" v="20-22"/>
    <tag k="operator" v="OMV Hungária Kft."/>
    <tag k="addr:city" v="Vecsés"/>
    <tag k="phone" v="+3629350051"/>
    <tag k="fuel:octane_95" v="yes"/>
    <tag k="website" v="https://www.omv.hu"/>
  </node>
  <!-- Original coordinates: POINT (48.41323 21.64772) -->
  <!-- Original tags: None -->
  <node action="modify" changeset="99999" id="-164" lat="48.41323" lon="21.64772" timestamp="" uid="4579407" user="KAMI" version="99999">
    <tag k="addr:postcode" v="3980"/>
    <tag k="payment:debit_cards" v="yes"/>
    <tag k="brand" v="OMV"/>
    <tag k="opening_hours" v="Fr,Mo,Sa,Su,Th,Tu,We 06:00-22:00"/>
    <tag k="fuel:diesel" v="yes"/>
    <tag k="addr:street" v="Kazinczy utca"/>
    <tag k="amenity" v="fuel"/>
    <tag k="source" v="website"/>
    <tag k="payment:cash" v="yes"/>
    <tag k="addr:conscriptionnumber" v="7602"/>
    <tag k="name" v="OMV"/>
    <tag k="operator" v="OMV Hungária Kft."/>
    <tag k="addr:city" v="Sátoraljaújhely"/>
    <tag k="phone" v="+3647321460"/>
    <tag k="fuel:octane_95" v="yes"/>
    <tag k="website" v="https://www.omv.hu"/>
  </node>
  <!-- Original coordinates: POINT (47.55106 19.26814) -->
  <!-- Original tags: None -->
  <node action="modify" changeset="99999" id="-165" lat="47.55106" lon="19.26814" timestamp="" uid="4579407" user="KAMI" version="99999">
    <tag k="addr:postcode" v="2144"/>
    <tag k="payment:debit_cards" v="yes"/>
    <tag k="brand" v="OMV"/>
    <tag k="opening_hours" v="24/7"/>
    <tag k="fuel:diesel" v="yes"/>
    <tag k="addr:street" v="Szabadság utca"/>
    <tag k="amenity" v="fuel"/>
    <tag k="source" v="website"/>
    <tag k="payment:cash" v="yes"/>
    <tag k="name" v="OMV"/>
    <tag k="addr:housenumber" v="56"/>
    <tag k="operator" v="OMV Hungária Kft."/>
    <tag k="addr:city" v="Kistarcsa"/>
    <tag k="phone" v="+3628470098"/>
    <tag k="fuel:octane_95" v="yes"/>
    <tag k="website" v="https://www.omv.hu"/>
  </node>
  <!-- Original coordinates: POINT (47.4942 19.2417) -->
  <!-- Original tags: None -->
  <node action="modify" changeset="99999" id="-166" lat="47.4942" lon="19.2417" timestamp="" uid="4579407" user="KAMI" version="99999">
    <tag k="addr:postcode" v="1172"/>
    <tag k="payment:debit_cards" v="yes"/>
    <tag k="brand" v="OMV"/>
    <tag k="opening_hours" v="Fr,Mo,Sa,Su,Th,Tu,We 05:00-22:00"/>
    <tag k="fuel:diesel" v="yes"/>
    <tag k="addr:street" v="Cinkotai út"/>
    <tag k="amenity" v="fuel"/>
    <tag k="source" v="website"/>
    <tag k="payment:cash" v="yes"/>
    <tag k="name" v="OMV"/>
    <tag k="addr:housenumber" v="51"/>
    <tag k="operator" v="OMV Hungária Kft."/>
    <tag k="addr:city" v="Budapest"/>
    <tag k="phone" v="+3612570325"/>
    <tag k="fuel:octane_95" v="yes"/>
    <tag k="website" v="https://www.omv.hu"/>
  </node>
  <!-- Original coordinates: POINT (47.04238 19.78436) -->
  <!-- Original tags: None -->
  <node action="modify" changeset="99999" id="-167" lat="47.04238" lon="19.78436" timestamp="" uid="4579407" user="KAMI" version="99999">
    <tag k="addr:postcode" v="2750"/>
    <tag k="payment:debit_cards" v="yes"/>
    <tag k="brand" v="OMV"/>
    <tag k="opening_hours" v="Fr,Mo,Sa,Su,Th,Tu,We 06:00-22:00"/>
    <tag k="fuel:diesel" v="yes"/>
    <tag k="addr:street" v="Ceglédi út"/>
    <tag k="amenity" v="fuel"/>
    <tag k="source" v="website"/>
    <tag k="payment:cash" v="yes"/>
    <tag k="name" v="OMV"/>
    <tag k="addr:housenumber" v="256"/>
    <tag k="operator" v="OMV Hungária Kft."/>
    <tag k="addr:city" v="Nagykőrös"/>
    <tag k="phone" v="+3653348119"/>
    <tag k="fuel:octane_95" v="yes"/>
    <tag k="website" v="https://www.omv.hu"/>
  </node>
  <!-- Original coordinates: POINT (46.3804 17.7815) -->
  <!-- Original tags: None -->
  <node action="modify" changeset="99999" id="-168" lat="46.3804" lon="17.7815" timestamp="" uid="4579407" user="KAMI" version="99999">
    <tag k="addr:postcode" v="7400"/>
    <tag k="amenity" v="fuel"/>
    <tag k="payment:debit_cards" v="yes"/>
    <tag k="source" v="website"/>
    <tag k="payment:cash" v="yes"/>
    <tag k="name" v="OMV"/>
    <tag k="operator" v="OMV Hungária Kft."/>
    <tag k="brand" v="OMV"/>
    <tag k="addr:city" v="Kaposvár"/>
    <tag k="opening_hours" v="24/7"/>
    <tag k="fuel:diesel" v="yes"/>
    <tag k="phone" v="+3682313776"/>
    <tag k="fuel:octane_95" v="yes"/>
    <tag k="addr:street" v="Füredi út"/>
    <tag k="website" v="https://www.omv.hu"/>
  </node>
  <!-- Original coordinates: POINT (47.5384 19.0698) -->
  <!-- Original tags: None -->
  <node action="modify" changeset="99999" id="-169" lat="47.5384" lon="19.0698" timestamp="" uid="4579407" user="KAMI" version="99999">
    <tag k="addr:postcode" v="1139"/>
    <tag k="payment:debit_cards" v="yes"/>
    <tag k="brand" v="OMV"/>
    <tag k="opening_hours" v="24/7"/>
    <tag k="fuel:diesel" v="yes"/>
    <tag k="addr:street" v="Váci út"/>
    <tag k="amenity" v="fuel"/>
    <tag k="source" v="website"/>
    <tag k="payment:cash" v="yes"/>
    <tag k="name" v="OMV"/>
    <tag k="addr:housenumber" v="95"/>
    <tag k="operator" v="OMV Hungária Kft."/>
    <tag k="addr:city" v="Budapest"/>
    <tag k="phone" v="+36"/>
    <tag k="fuel:octane_95" v="yes"/>
    <tag k="website" v="https://www.omv.hu"/>
  </node>
  <!-- Original coordinates: POINT (47.6805 17.97597) -->
  <!-- Original tags: None -->
  <node action="modify" changeset="99999" id="-170" lat="47.6805" lon="17.97597" timestamp="" uid="4579407" user="KAMI" version="99999">
    <tag k="addr:postcode" v="2941"/>
    <tag k="payment:debit_cards" v="yes"/>
    <tag k="brand" v="OMV"/>
    <tag k="opening_hours" v="24/7"/>
    <tag k="fuel:diesel" v="yes"/>
    <tag k="addr:street" v="M1 autópálya"/>
    <tag k="amenity" v="fuel"/>
    <tag k="source" v="website"/>
    <tag k="payment:cash" v="yes"/>
    <tag k="name" v="OMV"/>
    <tag k="addr:housenumber" v="39"/>
    <tag k="operator" v="OMV Hungária Kft."/>
    <tag k="addr:city" v="Bábolna"/>
    <tag k="phone" v="+3634385589"/>
    <tag k="fuel:octane_95" v="yes"/>
    <tag k="website" v="https://www.omv.hu"/>
  </node>
  <!-- Original coordinates: POINT (47.1904 18.4207) -->
  <!-- Original tags: None -->
  <node action="modify" changeset="99999" id="-171" lat="47.1904" lon="18.4207" timestamp="" uid="4579407" user="KAMI" version="99999">
    <tag k="addr:postcode" v="8000"/>
    <tag k="amenity" v="fuel"/>
    <tag k="payment:debit_cards" v="yes"/>
    <tag k="source" v="website"/>
    <tag k="payment:cash" v="yes"/>
    <tag k="name" v="OMV"/>
    <tag k="operator" v="OMV Hungária Kft."/>
    <tag k="brand" v="OMV"/>
    <tag k="addr:city" v="Székesfehérvár"/>
    <tag k="opening_hours" v="24/7"/>
    <tag k="fuel:diesel" v="yes"/>
    <tag k="phone" v="+3622310750"/>
    <tag k="fuel:octane_95" v="yes"/>
    <tag k="addr:street" v="Lövölde utca"/>
    <tag k="website" v="https://www.omv.hu"/>
  </node>
  <!-- Original coordinates: POINT (46.8882 19.6338) -->
  <!-- Original tags: None -->
  <node action="modify" changeset="99999" id="-172" lat="46.8882" lon="19.6338" timestamp="" uid="4579407" user="KAMI" version="99999">
    <tag k="addr:postcode" v="6000"/>
    <tag k="payment:debit_cards" v="yes"/>
    <tag k="brand" v="OMV"/>
    <tag k="opening_hours" v="24/7"/>
    <tag k="fuel:diesel" v="yes"/>
    <tag k="addr:street" v="Dunaföldvári út"/>
    <tag k="amenity" v="fuel"/>
    <tag k="source" v="website"/>
    <tag k="payment:cash" v="yes"/>
    <tag k="name" v="OMV"/>
    <tag k="addr:housenumber" v="4"/>
    <tag k="operator" v="OMV Hungária Kft."/>
    <tag k="addr:city" v="Kecskemét"/>
    <tag k="phone" v="+3676494688"/>
    <tag k="fuel:octane_95" v="yes"/>
    <tag k="website" v="https://www.omv.hu"/>
  </node>
  <!-- Original coordinates: POINT (47.2738 19.3298) -->
  <!-- Original tags: None -->
  <node action="modify" changeset="99999" id="-173" lat="47.2738" lon="19.3298" timestamp="" uid="4579407" user="KAMI" version="99999">
    <tag k="addr:postcode" v="2365"/>
    <tag k="payment:debit_cards" v="yes"/>
    <tag k="brand" v="OMV"/>
    <tag k="opening_hours" v="24/7"/>
    <tag k="fuel:diesel" v="yes"/>
    <tag k="addr:street" v="M5 autópálya"/>
    <tag k="amenity" v="fuel"/>
    <tag k="source" v="website"/>
    <tag k="payment:cash" v="yes"/>
    <tag k="name" v="OMV"/>
    <tag k="addr:housenumber" v="82"/>
    <tag k="operator" v="OMV Hungária Kft."/>
    <tag k="addr:city" v="Iinárcs"/>
    <tag k="phone" v="+3629370697"/>
    <tag k="fuel:octane_95" v="yes"/>
    <tag k="website" v="https://www.omv.hu"/>
  </node>
  <!-- Original coordinates: POINT (47.42116 18.92221) -->
  <!-- Original tags: None -->
  <node action="modify" changeset="99999" id="-174" lat="47.42116" lon="18.92221" timestamp="" uid="4579407" user="KAMI" version="99999">
    <tag k="addr:postcode" v="2045"/>
    <tag k="amenity" v="fuel"/>
    <tag k="payment:debit_cards" v="yes"/>
    <tag k="source" v="website"/>
    <tag k="payment:cash" v="yes"/>
    <tag k="name" v="OMV"/>
    <tag k="brand" v="OMV"/>
    <tag k="addr:city" v="M0 Körgyűrű 6 Km"/>
    <tag k="opening_hours" v="24/7"/>
    <tag k="fuel:diesel" v="yes"/>
    <tag k="phone" v="+3623339920"/>
    <tag k="fuel:octane_95" v="yes"/>
    <tag k="operator" v="OMV Hungária Kft."/>
    <tag k="website" v="https://www.omv.hu"/>
  </node>
  <!-- Original coordinates: POINT (47.50882 19.10087) -->
  <!-- Original tags: None -->
  <node action="modify" changeset="99999" id="-175" lat="47.50882" lon="19.10087" timestamp="" uid="4579407" user="KAMI" version="99999">
    <tag k="addr:postcode" v="1143"/>
    <tag k="payment:debit_cards" v="yes"/>
    <tag k="brand" v="OMV"/>
    <tag k="opening_hours" v="24/7"/>
    <tag k="fuel:diesel" v="yes"/>
    <tag k="addr:street" v="Hungária körút"/>
    <tag k="amenity" v="fuel"/>
    <tag k="source" v="website"/>
    <tag k="payment:cash" v="yes"/>
    <tag k="name" v="OMV"/>
    <tag k="addr:housenumber" v="116-118"/>
    <tag k="operator" v="OMV Hungária Kft."/>
    <tag k="addr:city" v="Budapest"/>
    <tag k="phone" v="+36"/>
    <tag k="fuel:octane_95" v="yes"/>
    <tag k="website" v="https://www.omv.hu"/>
  </node>
  <!-- Original coordinates: POINT (47.46455 19.01388) -->
  <!-- Original tags: None -->
  <node action="modify" changeset="99999" id="-176" lat="47.46455" lon="19.01388" timestamp="" uid="4579407" user="KAMI" version="99999">
    <tag k="addr:postcode" v="1112"/>
    <tag k="amenity" v="fuel"/>
    <tag k="payment:debit_cards" v="yes"/>
    <tag k="source" v="website"/>
    <tag k="payment:cash" v="yes"/>
    <tag k="addr:conscriptionnumber" v="756/17"/>
    <tag k="name" v="OMV"/>
    <tag k="brand" v="OMV"/>
    <tag k="addr:city" v="Budapest"/>
    <tag k="opening_hours" v="24/7"/>
    <tag k="fuel:diesel" v="yes"/>
    <tag k="phone" v="+36"/>
    <tag k="fuel:octane_95" v="yes"/>
    <tag k="operator" v="OMV Hungária Kft."/>
    <tag k="website" v="https://www.omv.hu"/>
  </node>
  <!-- Original coordinates: POINT (46.96324 18.89292) -->
  <!-- Original tags: None -->
  <node action="modify" changeset="99999" id="-177" lat="46.96324" lon="18.89292" timestamp="" uid="4579407" user="KAMI" version="99999">
    <tag k="addr:postcode" v="2400"/>
    <tag k="payment:debit_cards" v="yes"/>
    <tag k="brand" v="OMV"/>
    <tag k="opening_hours" v="24/7"/>
    <tag k="fuel:diesel" v="yes"/>
    <tag k="addr:street" v="M6 autópálya"/>
    <tag k="amenity" v="fuel"/>
    <tag k="source" v="website"/>
    <tag k="payment:cash" v="yes"/>
    <tag k="name" v="OMV"/>
    <tag k="addr:housenumber" v="70"/>
    <tag k="operator" v="OMV Hungária Kft."/>
    <tag k="addr:city" v="Dunaújváros"/>
    <tag k="phone" v="+3625281445"/>
    <tag k="fuel:octane_95" v="yes"/>
    <tag k="website" v="https://www.omv.hu"/>
  </node>
  <!-- Original coordinates: POINT (47.71047 18.74306) -->
  <!-- Original tags: None -->
  <node action="modify" changeset="99999" id="-178" lat="47.71047" lon="18.74306" timestamp="" uid="4579407" user="KAMI" version="99999">
    <tag k="addr:postcode" v="2510"/>
    <tag k="amenity" v="fuel"/>
    <tag k="payment:debit_cards" v="yes"/>
    <tag k="source" v="website"/>
    <tag k="payment:cash" v="yes"/>
    <tag k="addr:conscriptionnumber" v="0279/8"/>
    <tag k="name" v="OMV"/>
    <tag k="brand" v="OMV"/>
    <tag k="addr:city" v="Dorog"/>
    <tag k="opening_hours" v="Fr,Mo,Sa,Su,Th,Tu,We 04:00-22:00"/>
    <tag k="fuel:diesel" v="yes"/>
    <tag k="phone" v="+3633599101"/>
    <tag k="fuel:octane_95" v="yes"/>
    <tag k="operator" v="OMV Hungária Kft."/>
    <tag k="website" v="https://www.omv.hu"/>
  </node>
  <!-- Original coordinates: POINT (47.3869 19.1102) -->
  <!-- Original tags: None -->
  <node action="modify" changeset="99999" id="-179" lat="47.3869" lon="19.1102" timestamp="" uid="4579407" user="KAMI" version="99999">
    <tag k="addr:postcode" v="1239"/>
    <tag k="payment:debit_cards" v="yes"/>
    <tag k="brand" v="OMV"/>
    <tag k="opening_hours" v="Fr,Mo,Sa,Su,Th,Tu,We 05:00-22:00"/>
    <tag k="fuel:diesel" v="yes"/>
    <tag k="addr:street" v="Haraszti út"/>
    <tag k="amenity" v="fuel"/>
    <tag k="source" v="website"/>
    <tag k="payment:cash" v="yes"/>
    <tag k="name" v="OMV"/>
    <tag k="addr:housenumber" v="32/a"/>
    <tag k="operator" v="OMV Hungária Kft."/>
    <tag k="addr:city" v="Budapest"/>
    <tag k="phone" v="+3612843314"/>
    <tag k="fuel:octane_95" v="yes"/>
    <tag k="website" v="https://www.omv.hu"/>
  </node>
  <!-- Original coordinates: POINT (46.18889 19.99583) -->
  <!-- Original tags: None -->
  <node action="modify" changeset="99999" id="-180" lat="46.18889" lon="19.99583" timestamp="" uid="4579407" user="KAMI" version="99999">
    <tag k="addr:postcode" v="6758"/>
    <tag k="payment:debit_cards" v="yes"/>
    <tag k="brand" v="OMV"/>
    <tag k="opening_hours" v="24/7"/>
    <tag k="fuel:diesel" v="yes"/>
    <tag k="addr:street" v="M5 autópálya"/>
    <tag k="amenity" v="fuel"/>
    <tag k="source" v="website"/>
    <tag k="payment:cash" v="yes"/>
    <tag k="addr:conscriptionnumber" v="0112/25"/>
    <tag k="name" v="OMV"/>
    <tag k="addr:housenumber" v="172"/>
    <tag k="operator" v="OMV Hungária Kft."/>
    <tag k="addr:city" v="Röszke"/>
    <tag k="phone" v="+3662273990"/>
    <tag k="fuel:octane_95" v="yes"/>
    <tag k="website" v="https://www.omv.hu"/>
  </node>
  <!-- Original coordinates: POINT (47.68108 17.6254) -->
  <!-- Original tags: None -->
  <node action="modify" changeset="99999" id="-181" lat="47.68108" lon="17.6254" timestamp="" uid="4579407" user="KAMI" version="99999">
    <tag k="addr:postcode" v="9021"/>
    <tag k="amenity" v="fuel"/>
    <tag k="payment:debit_cards" v="yes"/>
    <tag k="source" v="website"/>
    <tag k="payment:cash" v="yes"/>
    <tag k="name" v="OMV"/>
    <tag k="operator" v="OMV Hungária Kft."/>
    <tag k="brand" v="OMV"/>
    <tag k="addr:city" v="Győr"/>
    <tag k="opening_hours" v="24/7"/>
    <tag k="fuel:diesel" v="yes"/>
    <tag k="phone" v="+3696320100"/>
    <tag k="fuel:octane_95" v="yes"/>
    <tag k="addr:street" v="Szent István út"/>
    <tag k="website" v="https://www.omv.hu"/>
  </node>
  <!-- Original coordinates: POINT (47.5 19.1021) -->
  <!-- Original tags: None -->
  <node action="modify" changeset="99999" id="-182" lat="47.5" lon="19.1021" timestamp="" uid="4579407" user="KAMI" version="99999">
    <tag k="addr:postcode" v="1087"/>
    <tag k="payment:debit_cards" v="yes"/>
    <tag k="brand" v="OMV"/>
    <tag k="opening_hours" v="Fr,Mo,Sa,Su,Th,Tu,We 06:00-23:00"/>
    <tag k="fuel:diesel" v="yes"/>
    <tag k="addr:street" v="Kerepesi út"/>
    <tag k="amenity" v="fuel"/>
    <tag k="source" v="website"/>
    <tag k="payment:cash" v="yes"/>
    <tag k="name" v="OMV"/>
    <tag k="addr:housenumber" v="22"/>
    <tag k="operator" v="OMV Hungária Kft."/>
    <tag k="addr:city" v="Budapest"/>
    <tag k="phone" v="+36"/>
    <tag k="fuel:octane_95" v="yes"/>
    <tag k="website" v="https://www.omv.hu"/>
  </node>
</osm>
