<?xml version='1.0' encoding='UTF-8'?>
<osm generator="JOSM" version="0.6">
  <!-- Original coordinates: POINT (46.2277 19.5359) -->
  <node action="modify" changeset="99999" id="-1" lat="46.2277" lon="19.5359" timestamp="" uid="4579407" user="KAMI" version="99999">
    <tag k="website" v="https://www.shell.hu"/>
    <tag k="phone" v="+0"/>
    <tag k="brand" v="Mobil Petrol"/>
    <tag k="payment:cash" v="yes"/>
    <tag k="payment:debit_cards" v="yes"/>
    <tag k="addr:postcode" v="6422"/>
    <tag k="amenity" v="fuel"/>
    <tag k="branch" v="Tompa"/>
    <tag k="fuel:diesel" v="yes"/>
    <tag k="addr:city" v="Tompa"/>
    <tag k="name" v="Mobil Petrol"/>
    <tag k="source" v="website"/>
    <tag k="fuel:octane_95" v="yes"/>
  </node>
  <!-- Original coordinates: POINT (46.6076 19.8413) -->
  <node action="modify" changeset="99999" id="-2" lat="46.6076" lon="19.8413" timestamp="" uid="4579407" user="KAMI" version="99999">
    <tag k="website" v="https://www.shell.hu"/>
    <tag k="phone" v="+0"/>
    <tag k="brand" v="Mobil Petrol"/>
    <tag k="payment:cash" v="yes"/>
    <tag k="payment:debit_cards" v="yes"/>
    <tag k="addr:postcode" v="6113"/>
    <tag k="amenity" v="fuel"/>
    <tag k="branch" v="Petőfiszállás A"/>
    <tag k="fuel:diesel" v="yes"/>
    <tag k="addr:city" v="Petőfiszállás A"/>
    <tag k="name" v="Mobil Petrol"/>
    <tag k="source" v="website"/>
    <tag k="fuel:octane_95" v="yes"/>
  </node>
  <!-- Original coordinates: POINT (46.8464 19.2978) -->
  <node action="modify" changeset="99999" id="-3" lat="46.8464" lon="19.2978" timestamp="" uid="4579407" user="KAMI" version="99999">
    <tag k="website" v="https://www.shell.hu"/>
    <tag k="phone" v="+0"/>
    <tag k="brand" v="Mobil Petrol"/>
    <tag k="payment:cash" v="yes"/>
    <tag k="payment:debit_cards" v="yes"/>
    <tag k="addr:postcode" v="6085"/>
    <tag k="amenity" v="fuel"/>
    <tag k="branch" v="Fülöpszállás"/>
    <tag k="fuel:diesel" v="yes"/>
    <tag k="addr:city" v="Fülöpszállás"/>
    <tag k="name" v="Mobil Petrol"/>
    <tag k="source" v="website"/>
    <tag k="fuel:octane_95" v="yes"/>
  </node>
  <!-- Original coordinates: POINT (46.9827 16.2801) -->
  <node action="modify" changeset="99999" id="-4" lat="46.9827" lon="16.2801" timestamp="" uid="4579407" user="KAMI" version="99999">
    <tag k="website" v="https://www.shell.hu"/>
    <tag k="brand" v="Mobil Petrol"/>
    <tag k="payment:cash" v="yes"/>
    <tag k="phone" v="+0"/>
    <tag k="addr:postcode" v="9955"/>
    <tag k="addr:conscriptionnumber" v="0232/8"/>
    <tag k="branch" v="Szentgotthárd"/>
    <tag k="fuel:diesel" v="yes"/>
    <tag k="payment:debit_cards" v="yes"/>
    <tag k="addr:city" v="Szentgotthárd"/>
    <tag k="name" v="Mobil Petrol"/>
    <tag k="amenity" v="fuel"/>
    <tag k="source" v="website"/>
    <tag k="fuel:octane_95" v="yes"/>
  </node>
  <!-- Original coordinates: POINT (47.5955 17.6876) -->
  <node action="modify" changeset="99999" id="-5" lat="47.5955" lon="17.6876" timestamp="" uid="4579407" user="KAMI" version="99999">
    <tag k="website" v="https://www.shell.hu"/>
    <tag k="brand" v="Mobil Petrol"/>
    <tag k="payment:cash" v="yes"/>
    <tag k="phone" v="+0"/>
    <tag k="addr:postcode" v="9082"/>
    <tag k="amenity" v="fuel"/>
    <tag k="branch" v="Nyúl"/>
    <tag k="fuel:diesel" v="yes"/>
    <tag k="payment:debit_cards" v="yes"/>
    <tag k="addr:city" v="Nyúl"/>
    <tag k="name" v="Mobil Petrol"/>
    <tag k="source" v="website"/>
    <tag k="addr:street" v="Nyúl 82. sz. főút"/>
    <tag k="fuel:octane_95" v="yes"/>
  </node>
  <!-- Original coordinates: POINT (47.637 19.4718) -->
  <node action="modify" changeset="99999" id="-6" lat="47.637" lon="19.4718" timestamp="" uid="4579407" user="KAMI" version="99999">
    <tag k="website" v="https://www.shell.hu"/>
    <tag k="brand" v="Mobil Petrol"/>
    <tag k="payment:cash" v="yes"/>
    <tag k="phone" v="+0"/>
    <tag k="addr:postcode" v="2191"/>
    <tag k="addr:conscriptionnumber" v="2429/3"/>
    <tag k="branch" v="Bag"/>
    <tag k="fuel:diesel" v="yes"/>
    <tag k="payment:debit_cards" v="yes"/>
    <tag k="addr:city" v="Bag"/>
    <tag k="name" v="Mobil Petrol"/>
    <tag k="amenity" v="fuel"/>
    <tag k="source" v="website"/>
    <tag k="fuel:octane_95" v="yes"/>
  </node>
  <!-- Original coordinates: POINT (47.7565 19.1417) -->
  <node action="modify" changeset="99999" id="-7" lat="47.7565" lon="19.1417" timestamp="" uid="4579407" user="KAMI" version="99999">
    <tag k="website" v="https://www.shell.hu"/>
    <tag k="phone" v="+0"/>
    <tag k="brand" v="Mobil Petrol"/>
    <tag k="payment:cash" v="yes"/>
    <tag k="payment:debit_cards" v="yes"/>
    <tag k="addr:postcode" v="2600"/>
    <tag k="amenity" v="fuel"/>
    <tag k="branch" v="Vác"/>
    <tag k="fuel:diesel" v="yes"/>
    <tag k="addr:city" v="Vác"/>
    <tag k="name" v="Mobil Petrol"/>
    <tag k="source" v="website"/>
    <tag k="fuel:octane_95" v="yes"/>
  </node>
</osm>
