<?xml version='1.0' encoding='UTF-8'?>
<osm generator="JOSM" version="0.6">
  <!-- Original coordinates: POINT (47.503887 21.630595) -->
  <!-- Original tags: None -->
  <node action="modify" changeset="99999" id="-1" lat="47.503887" lon="21.630595" timestamp="" uid="4579407" user="KAMI" version="99999">
    <tag k="addr:postcode" v="4030"/>
    <tag k="brand" v="Tesco"/>
    <tag k="shop" v="supermarket"/>
    <tag k="facebook" v="https://www.facebook.com/tescoaruhazak/"/>
    <tag k="branch" v="Debrecen Repülőtér Extra"/>
    <tag k="payment:debit_cards" v="yes"/>
    <tag k="opening_hours" v="Fr,Mo,Sa,Th,Tu,We 06:00-22:00;Su 07:00-20:00"/>
    <tag k="addr:street" v="Mikepércsi út"/>
    <tag k="source" v="website"/>
    <tag k="payment:cash" v="yes"/>
    <tag k="name" v="Tesco Extra"/>
    <tag k="addr:housenumber" v="73/a"/>
    <tag k="operator" v="Tesco Global Áruházak Zrt."/>
    <tag k="addr:city" v="Debrecen"/>
    <tag k="youtube" v="https://www.youtube.com/user/TescoMagyarorszag"/>
    <tag k="website" v="https://www.tesco.hu/aruhazak/aruhaz/tesco-debrecen-repuloter-extra"/>
  </node>
  <!-- Original coordinates: POINT (47.53037 21.61049) -->
  <!-- Original tags: None -->
  <node action="modify" changeset="99999" id="-2" lat="47.53037" lon="21.61049" timestamp="" uid="4579407" user="KAMI" version="99999">
    <tag k="addr:postcode" v="4031"/>
    <tag k="brand" v="Tesco"/>
    <tag k="shop" v="supermarket"/>
    <tag k="facebook" v="https://www.facebook.com/tescoaruhazak/"/>
    <tag k="branch" v="Extra Debrecen - Kishegyesi út"/>
    <tag k="payment:debit_cards" v="yes"/>
    <tag k="opening_hours" v="Fr,Mo,Sa,Su,Th,Tu,We 00:00-24:00"/>
    <tag k="addr:street" v="Kishegyesi út"/>
    <tag k="source" v="website"/>
    <tag k="payment:cash" v="yes"/>
    <tag k="name" v="Tesco Extra"/>
    <tag k="addr:housenumber" v="1-11"/>
    <tag k="operator" v="Tesco Global Áruházak Zrt."/>
    <tag k="addr:city" v="Debrecen"/>
    <tag k="youtube" v="https://www.youtube.com/user/TescoMagyarorszag"/>
    <tag k="website" v="https://www.tesco.hu/aruhazak/aruhaz/tesco-extra-debrecen-kishegyesi-ut"/>
  </node>
  <!-- Original coordinates: POINT (47.50504 19.11738) -->
  <!-- Original tags: None -->
  <node action="modify" changeset="99999" id="-3" lat="47.50504" lon="19.11738" timestamp="" uid="4579407" user="KAMI" version="99999">
    <tag k="addr:postcode" v="1149"/>
    <tag k="brand" v="Tesco"/>
    <tag k="shop" v="supermarket"/>
    <tag k="facebook" v="https://www.facebook.com/tescoaruhazak/"/>
    <tag k="branch" v="Extra Fogarasi út"/>
    <tag k="payment:debit_cards" v="yes"/>
    <tag k="opening_hours" v="Fr,Mo,Sa,Su,Th,Tu,We 00:00-24:00"/>
    <tag k="addr:street" v="Pillangó utca"/>
    <tag k="source" v="website"/>
    <tag k="payment:cash" v="yes"/>
    <tag k="name" v="Tesco Extra"/>
    <tag k="addr:housenumber" v="15"/>
    <tag k="operator" v="Tesco Global Áruházak Zrt."/>
    <tag k="addr:city" v="Budapest"/>
    <tag k="youtube" v="https://www.youtube.com/user/TescoMagyarorszag"/>
    <tag k="website" v="https://www.tesco.hu/aruhazak/aruhaz/tesco-extra-fogarasi-ut"/>
  </node>
  <!-- Original coordinates: POINT (48.12795 20.78274) -->
  <!-- Original tags: None -->
  <node action="modify" changeset="99999" id="-4" lat="48.12795" lon="20.78274" timestamp="" uid="4579407" user="KAMI" version="99999">
    <tag k="addr:postcode" v="3526"/>
    <tag k="brand" v="Tesco"/>
    <tag k="shop" v="supermarket"/>
    <tag k="facebook" v="https://www.facebook.com/tescoaruhazak/"/>
    <tag k="branch" v="Extra Miskolc - Szentpéteri kapu"/>
    <tag k="payment:debit_cards" v="yes"/>
    <tag k="opening_hours" v="Fr,Mo,Sa,Th,Tu,We 06:00-22:00;Su 07:00-20:00"/>
    <tag k="addr:street" v="Szentpéteri kapu"/>
    <tag k="source" v="website"/>
    <tag k="payment:cash" v="yes"/>
    <tag k="name" v="Tesco Extra"/>
    <tag k="addr:housenumber" v="103"/>
    <tag k="operator" v="Tesco Global Áruházak Zrt."/>
    <tag k="addr:city" v="Miskolc"/>
    <tag k="youtube" v="https://www.youtube.com/user/TescoMagyarorszag"/>
    <tag k="website" v="https://www.tesco.hu/aruhazak/aruhaz/tesco-extra-miskolc-szentpeteri-kapu"/>
  </node>
  <!-- Original coordinates: POINT (47.17615 20.16658) -->
  <!-- Original tags: None -->
  <node action="modify" changeset="99999" id="-5" lat="47.17615" lon="20.16658" timestamp="" uid="4579407" user="KAMI" version="99999">
    <tag k="addr:postcode" v="5000"/>
    <tag k="brand" v="Tesco"/>
    <tag k="shop" v="supermarket"/>
    <tag k="facebook" v="https://www.facebook.com/tescoaruhazak/"/>
    <tag k="branch" v="Extra Szolnok "/>
    <tag k="payment:debit_cards" v="yes"/>
    <tag k="opening_hours" v="Fr,Mo,Sa,Th,Tu,We 06:00-22:00;Su 07:00-20:00"/>
    <tag k="addr:street" v="Téglagyári út"/>
    <tag k="source" v="website"/>
    <tag k="payment:cash" v="yes"/>
    <tag k="name" v="Tesco Extra"/>
    <tag k="addr:housenumber" v="30"/>
    <tag k="operator" v="Tesco Global Áruházak Zrt."/>
    <tag k="addr:city" v="Szolnok"/>
    <tag k="youtube" v="https://www.youtube.com/user/TescoMagyarorszag"/>
    <tag k="website" v="https://www.tesco.hu/aruhazak/aruhaz/tesco-extra-szolnok"/>
  </node>
  <!-- Original coordinates: POINT (47.55583 19.07974) -->
  <!-- Original tags: None -->
  <node action="modify" changeset="99999" id="-6" lat="47.55583" lon="19.07974" timestamp="" uid="4579407" user="KAMI" version="99999">
    <tag k="addr:postcode" v="1138"/>
    <tag k="brand" v="Tesco"/>
    <tag k="shop" v="supermarket"/>
    <tag k="facebook" v="https://www.facebook.com/tescoaruhazak/"/>
    <tag k="branch" v="Extra Váci út "/>
    <tag k="payment:debit_cards" v="yes"/>
    <tag k="opening_hours" v="Fr,Mo,Sa,Su,Th,Tu,We 00:00-24:00"/>
    <tag k="addr:street" v="Gács utca"/>
    <tag k="source" v="website"/>
    <tag k="payment:cash" v="yes"/>
    <tag k="name" v="Tesco Extra"/>
    <tag k="addr:housenumber" v="3"/>
    <tag k="operator" v="Tesco Global Áruházak Zrt."/>
    <tag k="addr:city" v="Budapest"/>
    <tag k="phone" v="+36208274599"/>
    <tag k="youtube" v="https://www.youtube.com/user/TescoMagyarorszag"/>
    <tag k="website" v="https://www.tesco.hu/aruhazak/aruhaz/tesco-extra-vaci-ut"/>
  </node>
  <!-- Original coordinates: POINT (46.26835 20.13889) -->
  <!-- Original tags: None -->
  <node action="modify" changeset="99999" id="-7" lat="46.26835" lon="20.13889" timestamp="" uid="4579407" user="KAMI" version="99999">
    <tag k="addr:postcode" v="6724"/>
    <tag k="brand" v="Tesco"/>
    <tag k="shop" v="supermarket"/>
    <tag k="facebook" v="https://www.facebook.com/tescoaruhazak/"/>
    <tag k="branch" v="Szeged Extra - Rókusi krt."/>
    <tag k="payment:debit_cards" v="yes"/>
    <tag k="opening_hours" v="Fr,Mo,Sa,Su,Th,Tu,We 00:00-24:00"/>
    <tag k="addr:street" v="Rókusi körút"/>
    <tag k="source" v="website"/>
    <tag k="payment:cash" v="yes"/>
    <tag k="name" v="Tesco Extra"/>
    <tag k="addr:housenumber" v="42-64"/>
    <tag k="operator" v="Tesco Global Áruházak Zrt."/>
    <tag k="addr:city" v="Szeged"/>
    <tag k="phone" v="+36208273999"/>
    <tag k="youtube" v="https://www.youtube.com/user/TescoMagyarorszag"/>
    <tag k="website" v="https://www.tesco.hu/aruhazak/aruhaz/tesco-szeged-extra-rokusi-krt"/>
  </node>
</osm>
