<?xml version='1.0' encoding='UTF-8'?>
<osm generator="JOSM" version="0.6">
  <!-- Original coordinates: POINT (47.495165 19.062358) -->
  <!-- Original tags: None -->
  <node action="modify" changeset="99999" id="-1" lat="47.495165" lon="19.062358" timestamp="" uid="4579407" user="KAMI" version="99999">
    <tag k="addr:postcode" v="1072"/>
    <tag k="brand" v="Tesco"/>
    <tag k="shop" v="convenience"/>
    <tag k="facebook" v="https://www.facebook.com/tescoaruhazak/"/>
    <tag k="branch" v="Astoria Expressz"/>
    <tag k="payment:debit_cards" v="yes"/>
    <tag k="opening_hours" v="Fr,Mo,Sa,Th,Tu,We 06:00-22:00;Su 08:00-20:00"/>
    <tag k="addr:street" v="Rákóczi út"/>
    <tag k="source" v="website"/>
    <tag k="payment:cash" v="yes"/>
    <tag k="name" v="Tesco Expressz"/>
    <tag k="addr:housenumber" v="1-3"/>
    <tag k="operator" v="Tesco Global Áruházak Zrt."/>
    <tag k="addr:city" v="Budapest"/>
    <tag k="youtube" v="https://www.youtube.com/user/TescoMagyarorszag"/>
    <tag k="website" v="https://www.tesco.hu/aruhazak/aruhaz/tesco-astoria-expressz"/>
  </node>
  <!-- OSM link: https://osm.org/node/2444299064 -->
  <!-- Original coordinates: POINT (47.481326 19.077352) -->
  <!-- Original tags: {'addr:postcode': '1096', 'wheelchair': 'yes', 'toilets:wheelchair': 'no', 'addr:city': 'Budapest', 'opening_hours': 'Mo-Sa 06:00-22:00', 'source': 'http://tesco.hu/aruhazak/aruhaz/198', 'website': 'http://tesco.hu', 'shop': 'supermarket', 'name': 'Tesco', 'addr:street': 'Thaly Kálmán utca', 'addr:housenumber': '46-48'} -->
  <node action="modify" changeset="1" id="2444299064" lat="47.481326" lon="19.077352" timestamp="2017-09-11T09:4321Z" uid="4579407" user="KAMI" version="5">
    <tag k="addr:postcode" v="1096"/>
    <tag k="brand" v="Tesco"/>
    <tag k="shop" v="convenience"/>
    <tag k="facebook" v="https://www.facebook.com/tescoaruhazak/"/>
    <tag k="source" v="website"/>
    <tag k="payment:cash" v="yes"/>
    <tag k="branch" v="Budapest-Thaly Kálmán Expressz"/>
    <tag k="name" v="Tesco Expressz"/>
    <tag k="payment:debit_cards" v="yes"/>
    <tag k="addr:housenumber" v="46-48"/>
    <tag k="operator" v="Tesco Global Áruházak Zrt."/>
    <tag k="wheelchair" v="yes"/>
    <tag k="toilets:wheelchair" v="no"/>
    <tag k="addr:city" v="Budapest"/>
    <tag k="opening_hours" v="Fr,Mo,Sa,Th,Tu,We 06:00-22:00;Su 08:00-16:00"/>
    <tag k="youtube" v="https://www.youtube.com/user/TescoMagyarorszag"/>
    <tag k="addr:street" v="Thaly Kálmán út"/>
    <tag k="website" v="https://www.tesco.hu/aruhazak/aruhaz/tesco-budapest-thaly-kalman-expressz"/>
  </node>
  <!-- OSM link: https://osm.org/node/2603639147 -->
  <!-- Original coordinates: POINT (47.530466 21.624902) -->
  <!-- Original tags: {'wheelchair': 'yes', 'shop': 'supermarket', 'opening_hours': 'Mo-Su 06:00-22:00', 'name': 'Tesco Express', 'internet_access': 'wlan', 'addr:street': 'Piac utca', 'website': 'http://tesco.hu'} -->
  <node action="modify" changeset="1" id="2603639147" lat="47.530466" lon="21.624902" timestamp="2017-08-02T13:2448Z" uid="4579407" user="KAMI" version="3">
    <tag k="addr:postcode" v="4024"/>
    <tag k="brand" v="Tesco"/>
    <tag k="shop" v="convenience"/>
    <tag k="facebook" v="https://www.facebook.com/tescoaruhazak/"/>
    <tag k="source" v="website"/>
    <tag k="payment:cash" v="yes"/>
    <tag k="branch" v="Debrecen Piac Expressz"/>
    <tag k="name" v="Tesco Expressz"/>
    <tag k="internet_access" v="wlan"/>
    <tag k="addr:housenumber" v="16"/>
    <tag k="operator" v="Tesco Global Áruházak Zrt."/>
    <tag k="wheelchair" v="yes"/>
    <tag k="payment:debit_cards" v="yes"/>
    <tag k="addr:city" v="Debrecen"/>
    <tag k="opening_hours" v="Fr,Mo,Sa,Th,Tu,We 06:00-22:00;Su 07:00-20:00"/>
    <tag k="youtube" v="https://www.youtube.com/user/TescoMagyarorszag"/>
    <tag k="addr:street" v="Piac utca"/>
    <tag k="website" v="https://www.tesco.hu/aruhazak/aruhaz/tesco-debrecen-piac-expressz"/>
  </node>
  <!-- OSM link: https://osm.org/node/2351067330 -->
  <!-- Original coordinates: POINT (47.547841 18.953952) -->
  <!-- Original tags: {'name': 'Tesco Express', 'wheelchair': 'limited', 'shop': 'convenience'} -->
  <node action="modify" changeset="1" id="2351067330" lat="47.547841" lon="18.953952" timestamp="2017-10-03T12:1501Z" uid="4579407" user="KAMI" version="2">
    <tag k="addr:postcode" v="1028"/>
    <tag k="brand" v="Tesco"/>
    <tag k="shop" v="convenience"/>
    <tag k="facebook" v="https://www.facebook.com/tescoaruhazak/"/>
    <tag k="branch" v="Express Bp. - Máriaremetei út"/>
    <tag k="payment:debit_cards" v="yes"/>
    <tag k="opening_hours" v="Fr,Mo,Sa,Th,Tu,We 07:00-22:00;Su 07:00-18:00"/>
    <tag k="addr:street" v="Máriaremetei út"/>
    <tag k="source" v="website"/>
    <tag k="payment:cash" v="yes"/>
    <tag k="name" v="Tesco Expressz"/>
    <tag k="addr:housenumber" v="72"/>
    <tag k="operator" v="Tesco Global Áruházak Zrt."/>
    <tag k="wheelchair" v="limited"/>
    <tag k="addr:city" v="Budapest"/>
    <tag k="youtube" v="https://www.youtube.com/user/TescoMagyarorszag"/>
    <tag k="website" v="https://www.tesco.hu/aruhazak/aruhaz/tesco-express-bp-mariaremetei-ut"/>
  </node>
  <!-- Original coordinates: POINT (47.89598 17.20989) -->
  <!-- Original tags: None -->
  <node action="modify" changeset="99999" id="-5" lat="47.89598" lon="17.20989" timestamp="" uid="4579407" user="KAMI" version="99999">
    <tag k="addr:postcode" v="9221"/>
    <tag k="brand" v="Tesco"/>
    <tag k="shop" v="convenience"/>
    <tag k="facebook" v="https://www.facebook.com/tescoaruhazak/"/>
    <tag k="branch" v="Expressz  Levél - Szövetkezet utca"/>
    <tag k="payment:debit_cards" v="yes"/>
    <tag k="opening_hours" v="Fr,Mo,Sa,Th,Tu,We 06:00-21:00;Su 08:00-16:00"/>
    <tag k="addr:street" v="Szövetkezet utca"/>
    <tag k="source" v="website"/>
    <tag k="payment:cash" v="yes"/>
    <tag k="name" v="Tesco Expressz"/>
    <tag k="addr:housenumber" v="84"/>
    <tag k="operator" v="Tesco Global Áruházak Zrt."/>
    <tag k="addr:city" v="Levél"/>
    <tag k="youtube" v="https://www.youtube.com/user/TescoMagyarorszag"/>
    <tag k="website" v="https://www.tesco.hu/aruhazak/aruhaz/tesco-expressz-level-szovetkezet-utca"/>
  </node>
  <!-- Original coordinates: POINT (46.849821 17.880166) -->
  <!-- Original tags: None -->
  <node action="modify" changeset="99999" id="-6" lat="46.849821" lon="17.880166" timestamp="" uid="4579407" user="KAMI" version="99999">
    <tag k="addr:postcode" v="8623"/>
    <tag k="brand" v="Tesco"/>
    <tag k="shop" v="convenience"/>
    <tag k="facebook" v="https://www.facebook.com/tescoaruhazak/"/>
    <tag k="branch" v="Expressz Balatonföldvár - Budapesti út"/>
    <tag k="payment:debit_cards" v="yes"/>
    <tag k="opening_hours" v="Fr,Mo,Sa,Su,Th,Tu,We 06:00-22:00"/>
    <tag k="addr:street" v="Budapesti út"/>
    <tag k="source" v="website"/>
    <tag k="payment:cash" v="yes"/>
    <tag k="name" v="Tesco Expressz"/>
    <tag k="addr:housenumber" v="1"/>
    <tag k="operator" v="Tesco Global Áruházak Zrt."/>
    <tag k="addr:city" v="Balatonföldvár"/>
    <tag k="youtube" v="https://www.youtube.com/user/TescoMagyarorszag"/>
    <tag k="website" v="https://www.tesco.hu/aruhazak/aruhaz/tesco-expressz-balatonfoldvar-budapesti-ut"/>
  </node>
  <!-- OSM link: https://osm.org/node/4939175128 -->
  <!-- Original coordinates: POINT (47.547407 19.037997) -->
  <!-- Original tags: {'fixme': 'verify', 'name': '44065 Bp Vihar Exp', 'wheelchair': 'no', 'shop': 'supermarket', 'source': 'route4u'} -->
  <node action="modify" changeset="1" id="4939175128" lat="47.547407" lon="19.037997" timestamp="2017-09-19T09:2542Z" uid="4579407" user="KAMI" version="4">
    <tag k="addr:postcode" v="1035"/>
    <tag k="brand" v="Tesco"/>
    <tag k="shop" v="convenience"/>
    <tag k="facebook" v="https://www.facebook.com/tescoaruhazak/"/>
    <tag k="source" v="website"/>
    <tag k="payment:cash" v="yes"/>
    <tag k="branch" v="Expressz Bp. -  Vihar utca"/>
    <tag k="name" v="Tesco Expressz"/>
    <tag k="addr:housenumber" v="18-28"/>
    <tag k="operator" v="Tesco Global Áruházak Zrt."/>
    <tag k="fixme" v="verify"/>
    <tag k="wheelchair" v="no"/>
    <tag k="payment:debit_cards" v="yes"/>
    <tag k="addr:city" v="Budapest"/>
    <tag k="opening_hours" v="Fr,Mo,Sa,Th,Tu,We 07:00-22:00;Su 08:00-16:00"/>
    <tag k="youtube" v="https://www.youtube.com/user/TescoMagyarorszag"/>
    <tag k="addr:street" v="Vihar utca"/>
    <tag k="website" v="https://www.tesco.hu/aruhazak/aruhaz/tesco-expressz-bp-vihar-utca"/>
  </node>
  <!-- OSM link: https://osm.org/node/2926275625 -->
  <!-- Original coordinates: POINT (47.460196 19.132587) -->
  <!-- Original tags: {'name': 'Tesco Express', 'wheelchair': 'yes', 'shop': 'convenience'} -->
  <node action="modify" changeset="1" id="2926275625" lat="47.460196" lon="19.132587" timestamp="2015-12-04T14:2200Z" uid="4579407" user="KAMI" version="2">
    <tag k="addr:postcode" v="1191"/>
    <tag k="brand" v="Tesco"/>
    <tag k="shop" v="convenience"/>
    <tag k="facebook" v="https://www.facebook.com/tescoaruhazak/"/>
    <tag k="branch" v="Expressz Bp. - Ady Endre utca"/>
    <tag k="payment:debit_cards" v="yes"/>
    <tag k="opening_hours" v="Fr,Mo,Sa,Th,Tu,We 07:00-21:00;Su 00:00-00:00"/>
    <tag k="addr:street" v="Ady Endre utca"/>
    <tag k="source" v="website"/>
    <tag k="payment:cash" v="yes"/>
    <tag k="name" v="Tesco Expressz"/>
    <tag k="addr:housenumber" v="42-44"/>
    <tag k="operator" v="Tesco Global Áruházak Zrt."/>
    <tag k="wheelchair" v="yes"/>
    <tag k="addr:city" v="Budapest"/>
    <tag k="youtube" v="https://www.youtube.com/user/TescoMagyarorszag"/>
    <tag k="website" v="https://www.tesco.hu/aruhazak/aruhaz/tesco-expressz-bp-ady-endre-utca"/>
  </node>
  <!-- OSM link: https://osm.org/node/1202347665 -->
  <!-- Original coordinates: POINT (47.456064 19.038883) -->
  <!-- Original tags: {'name': 'Tesco Express', 'wheelchair': 'yes', 'shop': 'supermarket', 'opening_hours': 'Mo-Su 06:30-22:00', 'wheelchair:description': 'nincs mozgássérültek számára kialakított mellékhelyiség\n'} -->
  <node action="modify" changeset="1" id="1202347665" lat="47.456064" lon="19.038883" timestamp="2017-09-12T11:5603Z" uid="4579407" user="KAMI" version="6">
    <tag k="addr:postcode" v="1119"/>
    <tag k="brand" v="Tesco"/>
    <tag k="shop" v="convenience"/>
    <tag k="facebook" v="https://www.facebook.com/tescoaruhazak/"/>
    <tag k="source" v="website"/>
    <tag k="payment:cash" v="yes"/>
    <tag k="branch" v="Expressz Bp. - Andor utca"/>
    <tag k="name" v="Tesco Expressz"/>
    <tag k="addr:housenumber" v="2"/>
    <tag k="operator" v="Tesco Global Áruházak Zrt."/>
    <tag k="wheelchair" v="yes"/>
    <tag k="payment:debit_cards" v="yes"/>
    <tag k="addr:city" v="Budapest"/>
    <tag k="opening_hours" v="Fr,Mo,Sa,Th,Tu,We 06:00-22:00;Su 07:00-18:00"/>
    <tag k="youtube" v="https://www.youtube.com/user/TescoMagyarorszag"/>
    <tag k="addr:street" v="Andor utca"/>
    <tag k="website" v="https://www.tesco.hu/aruhazak/aruhaz/tesco-expressz-bp-andor-utca"/>
    <tag k="wheelchair:description" v="nincs mozgássérültek számára kialakított mellékhelyiség&#10;"/>
  </node>
  <!-- Original coordinates: POINT (47.507174 19.07668) -->
  <!-- Original tags: None -->
  <node action="modify" changeset="99999" id="-10" lat="47.507174" lon="19.07668" timestamp="" uid="4579407" user="KAMI" version="99999">
    <tag k="addr:postcode" v="1071"/>
    <tag k="brand" v="Tesco"/>
    <tag k="shop" v="convenience"/>
    <tag k="facebook" v="https://www.facebook.com/tescoaruhazak/"/>
    <tag k="branch" v="Expressz Bp. - Bajza utca"/>
    <tag k="payment:debit_cards" v="yes"/>
    <tag k="opening_hours" v="Fr,Mo,Sa,Th,Tu,We 07:00-21:00;Su 00:00-00:00"/>
    <tag k="addr:street" v="Bajza utca"/>
    <tag k="source" v="website"/>
    <tag k="payment:cash" v="yes"/>
    <tag k="name" v="Tesco Expressz"/>
    <tag k="addr:housenumber" v="1"/>
    <tag k="operator" v="Tesco Global Áruházak Zrt."/>
    <tag k="addr:city" v="Budapest"/>
    <tag k="youtube" v="https://www.youtube.com/user/TescoMagyarorszag"/>
    <tag k="website" v="https://www.tesco.hu/aruhazak/aruhaz/tesco-expressz-bp-bajza-utca"/>
  </node>
  <!-- OSM link: https://osm.org/node/930054557 -->
  <!-- Original coordinates: POINT (47.472404 19.032417) -->
  <!-- Original tags: {'wheelchair': 'limited', 'shop': 'supermarket', 'opening_hours': 'Mo-Sa 07:00-22:00; Su 08:00-16:00', 'name': 'Tesco Expressz', 'name:pl': 'Tesco Express', 'website': 'http://tesco.hu/aruhazak/aruhaz/tesco-expressz-bp-bartok-bela-utca', 'wheelchair:description': 'nincs mozgássérültek számára kialakított mellékhelyiség'} -->
  <node action="modify" changeset="1" id="930054557" lat="47.472404" lon="19.032417" timestamp="2017-09-24T06:4446Z" uid="4579407" user="KAMI" version="9">
    <tag k="addr:postcode" v="1115"/>
    <tag k="brand" v="Tesco"/>
    <tag k="shop" v="convenience"/>
    <tag k="facebook" v="https://www.facebook.com/tescoaruhazak/"/>
    <tag k="source" v="website"/>
    <tag k="payment:cash" v="yes"/>
    <tag k="branch" v="Expressz Bp. - Bartók Béla utca"/>
    <tag k="name" v="Tesco Expressz"/>
    <tag k="name:pl" v="Tesco Express"/>
    <tag k="addr:housenumber" v="105-113"/>
    <tag k="operator" v="Tesco Global Áruházak Zrt."/>
    <tag k="wheelchair" v="limited"/>
    <tag k="payment:debit_cards" v="yes"/>
    <tag k="addr:city" v="Budapest"/>
    <tag k="opening_hours" v="Fr,Mo,Sa,Th,Tu,We 07:00-22:00;Su 08:00-16:00"/>
    <tag k="youtube" v="https://www.youtube.com/user/TescoMagyarorszag"/>
    <tag k="addr:street" v="Bartók Béla utca"/>
    <tag k="website" v="https://www.tesco.hu/aruhazak/aruhaz/tesco-expressz-bp-bartok-bela-utca"/>
    <tag k="wheelchair:description" v="nincs mozgássérültek számára kialakított mellékhelyiség"/>
  </node>
  <!-- OSM link: https://osm.org/node/2905800795 -->
  <!-- Original coordinates: POINT (47.533789 19.082166) -->
  <!-- Original tags: {'wheelchair': 'yes', 'toilets:wheelchair': 'no', 'shop': 'supermarket', 'opening_hours': 'Mo-Sa 06:00-22:00; Su 07:00-18:00', 'name': 'Tesco Express', 'operator': 'Tesco'} -->
  <node action="modify" changeset="1" id="2905800795" lat="47.533789" lon="19.082166" timestamp="2017-09-18T09:5430Z" uid="4579407" user="KAMI" version="4">
    <tag k="addr:postcode" v="1135"/>
    <tag k="brand" v="Tesco"/>
    <tag k="shop" v="convenience"/>
    <tag k="facebook" v="https://www.facebook.com/tescoaruhazak/"/>
    <tag k="source" v="website"/>
    <tag k="payment:cash" v="yes"/>
    <tag k="branch" v="Expressz Bp. - Béke út "/>
    <tag k="name" v="Tesco Expressz"/>
    <tag k="payment:debit_cards" v="yes"/>
    <tag k="addr:housenumber" v="13-19"/>
    <tag k="operator" v="Tesco Global Áruházak Zrt."/>
    <tag k="wheelchair" v="yes"/>
    <tag k="toilets:wheelchair" v="no"/>
    <tag k="addr:city" v="Budapest"/>
    <tag k="opening_hours" v="Fr,Mo,Sa,Th,Tu,We 06:00-22:00;Su 07:00-18:00"/>
    <tag k="youtube" v="https://www.youtube.com/user/TescoMagyarorszag"/>
    <tag k="addr:street" v="Béke út"/>
    <tag k="website" v="https://www.tesco.hu/aruhazak/aruhaz/tesco-expressz-bp-beke-ut"/>
  </node>
  <!-- OSM link: https://osm.org/way/353281883 -->
  <!-- Original coordinates: POINT (47.521018 19.00635) -->
  <!-- Original tags: {'addr:postcode': '1026', 'addr:city': 'Budapest', 'opening_hours': '06:00-22:00; PH closed', 'shop': 'supermarket', 'name': 'Tesco Express', 'building': 'retail', 'addr:street': 'Bimbó út', 'addr:housenumber': '133'} -->
  <way action="modify" changeset="1" id="353281883" timestamp="2017-12-25T16:1803Z" uid="4579407" user="KAMI" version="3">
    <nd ref="3590662686"/>
    <nd ref="3590662687"/>
    <nd ref="3590662688"/>
    <nd ref="3590662689"/>
    <nd ref="3590662686"/>
    <tag k="addr:postcode" v="1026"/>
    <tag k="brand" v="Tesco"/>
    <tag k="shop" v="convenience"/>
    <tag k="facebook" v="https://www.facebook.com/tescoaruhazak/"/>
    <tag k="branch" v="Expressz Bp. - Bimbó út"/>
    <tag k="payment:debit_cards" v="yes"/>
    <tag k="opening_hours" v="Fr,Mo,Sa,Th,Tu,We 07:00-22:00;Su 07:00-18:00"/>
    <tag k="addr:street" v="Bimbó út"/>
    <tag k="source" v="website"/>
    <tag k="payment:cash" v="yes"/>
    <tag k="name" v="Tesco Expressz"/>
    <tag k="addr:housenumber" v="133"/>
    <tag k="operator" v="Tesco Global Áruházak Zrt."/>
    <tag k="addr:city" v="Budapest"/>
    <tag k="building" v="retail"/>
    <tag k="youtube" v="https://www.youtube.com/user/TescoMagyarorszag"/>
    <tag k="website" v="https://www.tesco.hu/aruhazak/aruhaz/tesco-expressz-bp-bimbo-ut"/>
  </way>
  <!-- Original coordinates: POINT (47.510954 19.059487) -->
  <!-- Original tags: None -->
  <node action="modify" changeset="99999" id="-14" lat="47.510954" lon="19.059487" timestamp="" uid="4579407" user="KAMI" version="99999">
    <tag k="addr:postcode" v="1062"/>
    <tag k="brand" v="Tesco"/>
    <tag k="shop" v="convenience"/>
    <tag k="facebook" v="https://www.facebook.com/tescoaruhazak/"/>
    <tag k="branch" v="Expressz Bp. - Eiffel tér"/>
    <tag k="payment:debit_cards" v="yes"/>
    <tag k="opening_hours" v="Fr,Mo,Sa,Th,Tu,We 06:00-22:00;Su 00:00-00:00"/>
    <tag k="addr:street" v="Teréz körút"/>
    <tag k="source" v="website"/>
    <tag k="payment:cash" v="yes"/>
    <tag k="name" v="Tesco Expressz"/>
    <tag k="addr:housenumber" v="55-57"/>
    <tag k="operator" v="Tesco Global Áruházak Zrt."/>
    <tag k="addr:city" v="Budapest"/>
    <tag k="youtube" v="https://www.youtube.com/user/TescoMagyarorszag"/>
    <tag k="website" v="https://www.tesco.hu/aruhazak/aruhaz/tesco-expressz-bp-eiffel-ter"/>
  </node>
  <!-- Original coordinates: POINT (47.535106 19.113143) -->
  <!-- Original tags: None -->
  <node action="modify" changeset="99999" id="-15" lat="47.535106" lon="19.113143" timestamp="" uid="4579407" user="KAMI" version="99999">
    <tag k="addr:postcode" v="1142"/>
    <tag k="brand" v="Tesco"/>
    <tag k="shop" v="convenience"/>
    <tag k="facebook" v="https://www.facebook.com/tescoaruhazak/"/>
    <tag k="branch" v="Expressz Bp. - Erzsébet Királyné útja"/>
    <tag k="payment:debit_cards" v="yes"/>
    <tag k="opening_hours" v="Fr,Mo,Sa,Th,Tu,We 06:00-22:00;Su 07:00-18:00"/>
    <tag k="addr:street" v="Erzsébet Királyné út"/>
    <tag k="source" v="website"/>
    <tag k="payment:cash" v="yes"/>
    <tag k="name" v="Tesco Expressz"/>
    <tag k="addr:housenumber" v="125"/>
    <tag k="operator" v="Tesco Global Áruházak Zrt."/>
    <tag k="addr:city" v="Budapest"/>
    <tag k="youtube" v="https://www.youtube.com/user/TescoMagyarorszag"/>
    <tag k="website" v="https://www.tesco.hu/aruhazak/aruhaz/tesco-expressz-bp-erzsebet-kiralyne-utja"/>
  </node>
  <!-- Original coordinates: POINT (47.469967 19.044831) -->
  <!-- Original tags: None -->
  <node action="modify" changeset="99999" id="-16" lat="47.469967" lon="19.044831" timestamp="" uid="4579407" user="KAMI" version="99999">
    <tag k="addr:postcode" v="1119"/>
    <tag k="brand" v="Tesco"/>
    <tag k="shop" v="convenience"/>
    <tag k="facebook" v="https://www.facebook.com/tescoaruhazak/"/>
    <tag k="branch" v="Expressz Bp. - Fehérvári út"/>
    <tag k="payment:debit_cards" v="yes"/>
    <tag k="opening_hours" v="Fr,Mo,Sa,Th,Tu,We 06:00-22:00;Su 07:00-18:00"/>
    <tag k="addr:street" v="Fehérvári út"/>
    <tag k="source" v="website"/>
    <tag k="payment:cash" v="yes"/>
    <tag k="name" v="Tesco Expressz"/>
    <tag k="addr:housenumber" v="45-47"/>
    <tag k="operator" v="Tesco Global Áruházak Zrt."/>
    <tag k="addr:city" v="Budapest"/>
    <tag k="youtube" v="https://www.youtube.com/user/TescoMagyarorszag"/>
    <tag k="website" v="https://www.tesco.hu/aruhazak/aruhaz/tesco-expressz-bp-fehervari-ut"/>
  </node>
  <!-- OSM link: https://osm.org/node/2351067332 -->
  <!-- Original coordinates: POINT (47.55168 18.964269) -->
  <!-- Original tags: {'name': 'Tesco Express', 'wheelchair': 'yes', 'shop': 'convenience', 'opening_hours': 'Mo-Sa 07:00-22:00, Su 08:00-16:00'} -->
  <node action="modify" changeset="1" id="2351067332" lat="47.55168" lon="18.964269" timestamp="2017-10-02T16:0249Z" uid="4579407" user="KAMI" version="4">
    <tag k="addr:postcode" v="1028"/>
    <tag k="brand" v="Tesco"/>
    <tag k="shop" v="convenience"/>
    <tag k="facebook" v="https://www.facebook.com/tescoaruhazak/"/>
    <tag k="branch" v="Expressz Bp. - Galóca utca"/>
    <tag k="payment:debit_cards" v="yes"/>
    <tag k="opening_hours" v="Fr,Mo,Sa,Th,Tu,We 07:00-22:00;Su 08:00-16:00"/>
    <tag k="addr:street" v="Galóca utca"/>
    <tag k="source" v="website"/>
    <tag k="payment:cash" v="yes"/>
    <tag k="name" v="Tesco Expressz"/>
    <tag k="addr:housenumber" v="22"/>
    <tag k="operator" v="Tesco Global Áruházak Zrt."/>
    <tag k="wheelchair" v="yes"/>
    <tag k="addr:city" v="Budapest"/>
    <tag k="youtube" v="https://www.youtube.com/user/TescoMagyarorszag"/>
    <tag k="website" v="https://www.tesco.hu/aruhazak/aruhaz/tesco-expressz-bp-galoca-utca"/>
  </node>
  <!-- OSM link: https://osm.org/node/1398794949 -->
  <!-- Original coordinates: POINT (47.562743 19.115663) -->
  <!-- Original tags: {'addr:postcode': '1153', 'addr:city': 'Budapest', 'opening_hours': 'Mo-Sa 06:00-22:00', 'website': 'http://tesco.hu/aruhazak/202', 'shop': 'convenience', 'name': 'TESCO Expressz', 'addr:street': 'Hubay Jenő tér', 'addr:housenumber': '6'} -->
  <node action="modify" changeset="1" id="1398794949" lat="47.562743" lon="19.115663" timestamp="2015-04-23T03:2303Z" uid="4579407" user="KAMI" version="6">
    <tag k="addr:postcode" v="1153"/>
    <tag k="brand" v="Tesco"/>
    <tag k="shop" v="convenience"/>
    <tag k="facebook" v="https://www.facebook.com/tescoaruhazak/"/>
    <tag k="branch" v="Expressz Bp. - Hubay Jenő tér"/>
    <tag k="payment:debit_cards" v="yes"/>
    <tag k="opening_hours" v="Fr,Mo,Sa,Th,Tu,We 06:00-22:00;Su 00:00-00:00"/>
    <tag k="addr:street" v="Hubay Jenő tér"/>
    <tag k="source" v="website"/>
    <tag k="payment:cash" v="yes"/>
    <tag k="name" v="Tesco Expressz"/>
    <tag k="addr:housenumber" v="6"/>
    <tag k="operator" v="Tesco Global Áruházak Zrt."/>
    <tag k="addr:city" v="Budapest"/>
    <tag k="youtube" v="https://www.youtube.com/user/TescoMagyarorszag"/>
    <tag k="website" v="https://www.tesco.hu/aruhazak/aruhaz/tesco-expressz-bp-hubay-jeno-ter"/>
  </node>
  <!-- OSM link: https://osm.org/node/1853343421 -->
  <!-- Original coordinates: POINT (47.488512 19.060489) -->
  <!-- Original tags: {'addr:postcode': '1053', 'wheelchair': 'no', 'addr:city': 'Budapest', 'opening_hours': '24/7', 'website': 'http://www.mannaabc.hu/', 'shop': 'convenience', 'name': 'Manna ABC', 'addr:street': 'Vámház körút', 'addr:housenumber': '16'} -->
  <node action="modify" changeset="1" id="1853343421" lat="47.488512" lon="19.060489" timestamp="2016-04-29T08:3630Z" uid="4579407" user="KAMI" version="4">
    <tag k="addr:postcode" v="1092"/>
    <tag k="brand" v="Tesco"/>
    <tag k="shop" v="convenience"/>
    <tag k="facebook" v="https://www.facebook.com/tescoaruhazak/"/>
    <tag k="branch" v="Expressz Bp. - Kálvin tér"/>
    <tag k="payment:debit_cards" v="yes"/>
    <tag k="opening_hours" v="Fr,Mo,Sa,Su,Th,Tu,We 05:00-23:00"/>
    <tag k="addr:street" v="Kálvin tér"/>
    <tag k="source" v="website"/>
    <tag k="payment:cash" v="yes"/>
    <tag k="name" v="Tesco Expressz"/>
    <tag k="addr:housenumber" v="7"/>
    <tag k="operator" v="Tesco Global Áruházak Zrt."/>
    <tag k="wheelchair" v="no"/>
    <tag k="addr:city" v="Budapest"/>
    <tag k="youtube" v="https://www.youtube.com/user/TescoMagyarorszag"/>
    <tag k="website" v="https://www.tesco.hu/aruhazak/aruhaz/tesco-expressz-bp-kalvin-ter"/>
  </node>
  <!-- OSM link: https://osm.org/node/603594037 -->
  <!-- Original coordinates: POINT (47.408668 19.19314) -->
  <!-- Original tags: {'addr:postcode': '1188', 'wheelchair': 'yes', 'addr:city': 'Budapest', 'opening_hours': 'Mo-Sa 06:00-22:00', 'shop': 'convenience', 'name': 'Tesco Express', 'addr:street': 'Kisfaludy utca', 'addr:housenumber': '70', 'operator': 'Tesco'} -->
  <node action="modify" changeset="1" id="603594037" lat="47.408668" lon="19.19314" timestamp="2017-12-17T16:5806Z" uid="4579407" user="KAMI" version="8">
    <tag k="addr:postcode" v="1188"/>
    <tag k="brand" v="Tesco"/>
    <tag k="shop" v="convenience"/>
    <tag k="facebook" v="https://www.facebook.com/tescoaruhazak/"/>
    <tag k="source" v="website"/>
    <tag k="payment:cash" v="yes"/>
    <tag k="branch" v="Expressz Bp. - Kisfaludy utca"/>
    <tag k="name" v="Tesco Expressz"/>
    <tag k="addr:housenumber" v="70"/>
    <tag k="operator" v="Tesco Global Áruházak Zrt."/>
    <tag k="wheelchair" v="yes"/>
    <tag k="payment:debit_cards" v="yes"/>
    <tag k="addr:city" v="Budapest"/>
    <tag k="opening_hours" v="Fr,Mo,Sa,Th,Tu,We 07:00-21:00;Su 00:00-00:00"/>
    <tag k="youtube" v="https://www.youtube.com/user/TescoMagyarorszag"/>
    <tag k="addr:street" v="Kisfaludy utca"/>
    <tag k="website" v="https://www.tesco.hu/aruhazak/aruhaz/tesco-expressz-bp-kisfaludy-utca"/>
  </node>
  <!-- OSM link: https://osm.org/node/2420796265 -->
  <!-- Original coordinates: POINT (47.527793 19.038244) -->
  <!-- Original tags: {'name': 'Tesco Express', 'wheelchair': 'limited', 'shop': 'supermarket'} -->
  <node action="modify" changeset="1" id="2420796265" lat="47.527793" lon="19.038244" timestamp="2016-03-20T12:4541Z" uid="4579407" user="KAMI" version="4">
    <tag k="addr:postcode" v="1036"/>
    <tag k="brand" v="Tesco"/>
    <tag k="shop" v="convenience"/>
    <tag k="facebook" v="https://www.facebook.com/tescoaruhazak/"/>
    <tag k="branch" v="Expressz Bp. - Kolosy tér"/>
    <tag k="payment:debit_cards" v="yes"/>
    <tag k="opening_hours" v="Fr,Mo,Sa,Th,Tu,We 06:00-22:00;Su 08:00-20:00"/>
    <tag k="addr:street" v="Kolosy tér"/>
    <tag k="source" v="website"/>
    <tag k="payment:cash" v="yes"/>
    <tag k="name" v="Tesco Expressz"/>
    <tag k="addr:housenumber" v="4"/>
    <tag k="operator" v="Tesco Global Áruházak Zrt."/>
    <tag k="wheelchair" v="limited"/>
    <tag k="addr:city" v="Budapest"/>
    <tag k="youtube" v="https://www.youtube.com/user/TescoMagyarorszag"/>
    <tag k="website" v="https://www.tesco.hu/aruhazak/aruhaz/tesco-expressz-bp-kolosy-ter"/>
  </node>
  <!-- OSM link: https://osm.org/node/1985469546 -->
  <!-- Original coordinates: POINT (47.42817 19.070211) -->
  <!-- Original tags: {'addr:postcode': '1211', 'shop': 'convenience', 'name': 'TESCO Expressz', 'addr:housenumber': '70', 'addr:street': 'Kossuth Lajos utca', 'wheelchair': 'yes', 'toilets:wheelchair': 'no', 'addr:city': 'Budapest', 'website': 'http://tesco.hu/', 'operator': 'TESCO-GLOBAL Áruházak Zrt.', 'addr:country': 'HU', 'opening_hours': 'Mo-Sa 06:00-22:00'} -->
  <node action="modify" changeset="1" id="1985469546" lat="47.42817" lon="19.070211" timestamp="2017-09-13T08:4738Z" uid="4579407" user="KAMI" version="6">
    <tag k="addr:postcode" v="1211"/>
    <tag k="brand" v="Tesco"/>
    <tag k="shop" v="convenience"/>
    <tag k="facebook" v="https://www.facebook.com/tescoaruhazak/"/>
    <tag k="source" v="website"/>
    <tag k="payment:cash" v="yes"/>
    <tag k="branch" v="Expressz Bp. - Kossuth Lajos utca"/>
    <tag k="name" v="Tesco Expressz"/>
    <tag k="payment:debit_cards" v="yes"/>
    <tag k="addr:housenumber" v="70"/>
    <tag k="addr:street" v="Kossuth Lajos utca"/>
    <tag k="wheelchair" v="yes"/>
    <tag k="toilets:wheelchair" v="no"/>
    <tag k="addr:city" v="Budapest"/>
    <tag k="website" v="https://www.tesco.hu/aruhazak/aruhaz/tesco-expressz-bp-kossuth-lajos-utca"/>
    <tag k="youtube" v="https://www.youtube.com/user/TescoMagyarorszag"/>
    <tag k="operator" v="Tesco Global Áruházak Zrt."/>
    <tag k="addr:country" v="HU"/>
    <tag k="opening_hours" v="Fr,Mo,Sa,Th,Tu,We 07:00-22:00;Su 08:00-16:00"/>
  </node>
  <!-- Original coordinates: POINT (47.601144 19.058229) -->
  <!-- Original tags: None -->
  <node action="modify" changeset="99999" id="-23" lat="47.601144" lon="19.058229" timestamp="" uid="4579407" user="KAMI" version="99999">
    <tag k="addr:postcode" v="1039"/>
    <tag k="brand" v="Tesco"/>
    <tag k="shop" v="convenience"/>
    <tag k="facebook" v="https://www.facebook.com/tescoaruhazak/"/>
    <tag k="branch" v="Expressz Bp. - Madzsar József utca"/>
    <tag k="payment:debit_cards" v="yes"/>
    <tag k="opening_hours" v="Fr,Mo,Sa,Th,Tu,We 06:00-21:00;Su 07:00-18:00"/>
    <tag k="addr:street" v="Madzsar József utca"/>
    <tag k="source" v="website"/>
    <tag k="payment:cash" v="yes"/>
    <tag k="name" v="Tesco Expressz"/>
    <tag k="addr:housenumber" v="9-11"/>
    <tag k="operator" v="Tesco Global Áruházak Zrt."/>
    <tag k="addr:city" v="Budapest"/>
    <tag k="youtube" v="https://www.youtube.com/user/TescoMagyarorszag"/>
    <tag k="website" v="https://www.tesco.hu/aruhazak/aruhaz/tesco-expressz-bp-madzsar-jozsef-utca"/>
  </node>
  <!-- OSM link: https://osm.org/node/2764421663 -->
  <!-- Original coordinates: POINT (47.58605 19.045257) -->
  <!-- Original tags: {'addr:postcode': '1039', 'wheelchair': 'limited', 'addr:city': 'Budapest', 'opening_hours': 'Mo-Su 06:30-22:00', 'shop': 'supermarket', 'name': 'Tesco Express', 'addr:street': 'Mátyás király út', 'addr:housenumber': '1', 'operator': 'Tesco'} -->
  <node action="modify" changeset="1" id="2764421663" lat="47.58605" lon="19.045257" timestamp="2015-12-01T08:2113Z" uid="4579407" user="KAMI" version="4">
    <tag k="addr:postcode" v="1039"/>
    <tag k="brand" v="Tesco"/>
    <tag k="shop" v="convenience"/>
    <tag k="facebook" v="https://www.facebook.com/tescoaruhazak/"/>
    <tag k="source" v="website"/>
    <tag k="payment:cash" v="yes"/>
    <tag k="branch" v="Expressz Bp. - Mátyás király út"/>
    <tag k="name" v="Tesco Expressz"/>
    <tag k="addr:housenumber" v="1"/>
    <tag k="operator" v="Tesco Global Áruházak Zrt."/>
    <tag k="wheelchair" v="limited"/>
    <tag k="payment:debit_cards" v="yes"/>
    <tag k="addr:city" v="Budapest"/>
    <tag k="opening_hours" v="Fr,Mo,Sa,Th,Tu,We 06:00-22:00;Su 08:00-16:00"/>
    <tag k="youtube" v="https://www.youtube.com/user/TescoMagyarorszag"/>
    <tag k="addr:street" v="Mátyás király út"/>
    <tag k="website" v="https://www.tesco.hu/aruhazak/aruhaz/tesco-expressz-bp-matyas-kiraly-ut"/>
  </node>
  <!-- OSM link: https://osm.org/node/2934194830 -->
  <!-- Original coordinates: POINT (47.494665 19.077448) -->
  <!-- Original tags: {'name': 'Tesco Expressz', 'wheelchair': 'no', 'toilets:wheelchair': 'no', 'shop': 'supermarket'} -->
  <node action="modify" changeset="1" id="2934194830" lat="47.494665" lon="19.077448" timestamp="2017-09-11T10:1831Z" uid="4579407" user="KAMI" version="3">
    <tag k="addr:postcode" v="1081"/>
    <tag k="brand" v="Tesco"/>
    <tag k="shop" v="convenience"/>
    <tag k="facebook" v="https://www.facebook.com/tescoaruhazak/"/>
    <tag k="source" v="website"/>
    <tag k="payment:cash" v="yes"/>
    <tag k="branch" v="Expressz Bp. - Népszínház utca"/>
    <tag k="name" v="Tesco Expressz"/>
    <tag k="payment:debit_cards" v="yes"/>
    <tag k="addr:housenumber" v="30"/>
    <tag k="operator" v="Tesco Global Áruházak Zrt."/>
    <tag k="wheelchair" v="no"/>
    <tag k="toilets:wheelchair" v="no"/>
    <tag k="addr:city" v="Budapest"/>
    <tag k="opening_hours" v="Fr,Mo,Sa,Th,Tu,We 06:00-22:00;Su 07:00-18:00"/>
    <tag k="youtube" v="https://www.youtube.com/user/TescoMagyarorszag"/>
    <tag k="addr:street" v="Népszínház utca"/>
    <tag k="website" v="https://www.tesco.hu/aruhazak/aruhaz/tesco-expressz-bp-nepszinhaz-utca"/>
  </node>
  <!-- OSM link: https://osm.org/node/1243092890 -->
  <!-- Original coordinates: POINT (47.596693 19.049937) -->
  <!-- Original tags: {'name': 'Tesco Express', 'wheelchair': 'yes', 'shop': 'supermarket'} -->
  <node action="modify" changeset="1" id="1243092890" lat="47.596693" lon="19.049937" timestamp="2015-10-24T10:1522Z" uid="4579407" user="KAMI" version="2">
    <tag k="addr:postcode" v="1039"/>
    <tag k="brand" v="Tesco"/>
    <tag k="shop" v="convenience"/>
    <tag k="facebook" v="https://www.facebook.com/tescoaruhazak/"/>
    <tag k="branch" v="Expressz Bp. - Pablo Neruda utca"/>
    <tag k="payment:debit_cards" v="yes"/>
    <tag k="opening_hours" v="Fr,Mo,Sa,Th,Tu,We 06:00-21:00;Su 07:00-18:00"/>
    <tag k="addr:street" v="Pablo Neruda utca"/>
    <tag k="source" v="website"/>
    <tag k="payment:cash" v="yes"/>
    <tag k="name" v="Tesco Expressz"/>
    <tag k="addr:housenumber" v="1-2"/>
    <tag k="operator" v="Tesco Global Áruházak Zrt."/>
    <tag k="wheelchair" v="yes"/>
    <tag k="addr:city" v="Budapest"/>
    <tag k="youtube" v="https://www.youtube.com/user/TescoMagyarorszag"/>
    <tag k="website" v="https://www.tesco.hu/aruhazak/aruhaz/tesco-expressz-bp-pablo-neruda-utca"/>
  </node>
  <!-- Original coordinates: POINT (47.494839 19.005004) -->
  <!-- Original tags: None -->
  <node action="modify" changeset="99999" id="-27" lat="47.494839" lon="19.005004" timestamp="" uid="4579407" user="KAMI" version="99999">
    <tag k="addr:postcode" v="1124"/>
    <tag k="brand" v="Tesco"/>
    <tag k="shop" v="convenience"/>
    <tag k="facebook" v="https://www.facebook.com/tescoaruhazak/"/>
    <tag k="branch" v="Expressz Bp. - Pagony utca"/>
    <tag k="payment:debit_cards" v="yes"/>
    <tag k="opening_hours" v="Fr,Mo,Sa,Th,Tu,We 07:00-22:00;Su 07:00-18:00"/>
    <tag k="addr:street" v="Pagony utca"/>
    <tag k="source" v="website"/>
    <tag k="payment:cash" v="yes"/>
    <tag k="name" v="Tesco Expressz"/>
    <tag k="addr:housenumber" v="27-29"/>
    <tag k="operator" v="Tesco Global Áruházak Zrt."/>
    <tag k="addr:city" v="Budapest"/>
    <tag k="youtube" v="https://www.youtube.com/user/TescoMagyarorszag"/>
    <tag k="website" v="https://www.tesco.hu/aruhazak/aruhaz/tesco-expressz-bp-pagony-utca"/>
  </node>
  <!-- OSM link: https://osm.org/node/856442310 -->
  <!-- Original coordinates: POINT (47.495512 19.064717) -->
  <!-- Original tags: {'addr:postcode': '1072', 'wheelchair': 'yes', 'name:en': 'Tesco Express', 'addr:city': 'Budapest', 'opening_hours': 'Mo-Sa 07:00-22:00; Su 08:00-16:00', 'shop': 'supermarket', 'name': 'Tesco Expressz', 'addr:street': 'Rákóczi út', 'addr:housenumber': '20'} -->
  <node action="modify" changeset="1" id="856442310" lat="47.495512" lon="19.064717" timestamp="2018-05-10T05:2938Z" uid="4579407" user="KAMI" version="9">
    <tag k="addr:postcode" v="1088"/>
    <tag k="name:en" v="Tesco Express"/>
    <tag k="shop" v="convenience"/>
    <tag k="facebook" v="https://www.facebook.com/tescoaruhazak/"/>
    <tag k="source" v="website"/>
    <tag k="payment:cash" v="yes"/>
    <tag k="branch" v="Expressz Bp. - Rákóczi út"/>
    <tag k="name" v="Tesco Expressz"/>
    <tag k="payment:debit_cards" v="yes"/>
    <tag k="addr:housenumber" v="20"/>
    <tag k="operator" v="Tesco Global Áruházak Zrt."/>
    <tag k="wheelchair" v="yes"/>
    <tag k="brand" v="Tesco"/>
    <tag k="addr:city" v="Budapest"/>
    <tag k="opening_hours" v="Fr,Mo,Sa,Th,Tu,We 07:00-22:00;Su 08:00-16:00"/>
    <tag k="youtube" v="https://www.youtube.com/user/TescoMagyarorszag"/>
    <tag k="addr:street" v="Rákóczi út"/>
    <tag k="website" v="https://www.tesco.hu/aruhazak/aruhaz/tesco-expressz-bp-rakoczi-ut"/>
  </node>
  <!-- OSM link: https://osm.org/node/2494246958 -->
  <!-- Original coordinates: POINT (47.523441 19.172148) -->
  <!-- Original tags: {'addr:postcode': '1162', 'wheelchair': 'yes', 'addr:city': 'Budapest', 'opening_hours': 'Mo-Sa 06:00-22:00', 'website': 'http://www.tesco.hu', 'shop': 'supermarket', 'name': 'TESCO Express, Rákosi utca', 'addr:street': 'Rákosi út', 'addr:housenumber': '142-146', 'operator': 'tesco'} -->
  <node action="modify" changeset="1" id="2494246958" lat="47.523441" lon="19.172148" timestamp="2017-09-11T06:4236Z" uid="4579407" user="KAMI" version="7">
    <tag k="addr:postcode" v="1162"/>
    <tag k="brand" v="Tesco"/>
    <tag k="shop" v="convenience"/>
    <tag k="facebook" v="https://www.facebook.com/tescoaruhazak/"/>
    <tag k="source" v="website"/>
    <tag k="payment:cash" v="yes"/>
    <tag k="branch" v="Expressz Bp. - Rákosi utca"/>
    <tag k="name" v="Tesco Expressz"/>
    <tag k="addr:housenumber" v="142-146"/>
    <tag k="operator" v="Tesco Global Áruházak Zrt."/>
    <tag k="wheelchair" v="yes"/>
    <tag k="payment:debit_cards" v="yes"/>
    <tag k="addr:city" v="Budapest"/>
    <tag k="opening_hours" v="Fr,Mo,Sa,Th,Tu,We 07:00-22:00;Su 08:00-16:00"/>
    <tag k="youtube" v="https://www.youtube.com/user/TescoMagyarorszag"/>
    <tag k="addr:street" v="Rákosi utca"/>
    <tag k="website" v="https://www.tesco.hu/aruhazak/aruhaz/tesco-expressz-bp-rakosi-utca"/>
  </node>
  <!-- OSM link: https://osm.org/node/1232504673 -->
  <!-- Original coordinates: POINT (47.540223 19.090772) -->
  <!-- Original tags: {'name': 'TESCO expressz', 'wheelchair': 'yes', 'shop': 'supermarket', 'opening_hours': 'Mo-su 06:00-22:00'} -->
  <node action="modify" changeset="1" id="1232504673" lat="47.540223" lon="19.090772" timestamp="2015-11-19T10:3301Z" uid="4579407" user="KAMI" version="3">
    <tag k="addr:postcode" v="1131"/>
    <tag k="brand" v="Tesco"/>
    <tag k="shop" v="convenience"/>
    <tag k="facebook" v="https://www.facebook.com/tescoaruhazak/"/>
    <tag k="branch" v="Expressz Bp. - Reitter Ferenc utca"/>
    <tag k="payment:debit_cards" v="yes"/>
    <tag k="opening_hours" v="Fr,Mo,Sa,Th,Tu,We 06:00-22:00;Su 08:00-16:00"/>
    <tag k="addr:street" v="Reitter Ferenc utca"/>
    <tag k="source" v="website"/>
    <tag k="payment:cash" v="yes"/>
    <tag k="name" v="Tesco Expressz"/>
    <tag k="addr:housenumber" v="132"/>
    <tag k="operator" v="Tesco Global Áruházak Zrt."/>
    <tag k="wheelchair" v="yes"/>
    <tag k="addr:city" v="Budapest"/>
    <tag k="youtube" v="https://www.youtube.com/user/TescoMagyarorszag"/>
    <tag k="website" v="https://www.tesco.hu/aruhazak/aruhaz/tesco-expressz-bp-reitter-ferenc-utca"/>
  </node>
  <!-- Original coordinates: POINT (47.40775 19.079206) -->
  <!-- Original tags: None -->
  <node action="modify" changeset="99999" id="-31" lat="47.40775" lon="19.079206" timestamp="" uid="4579407" user="KAMI" version="99999">
    <tag k="addr:postcode" v="1213"/>
    <tag k="brand" v="Tesco"/>
    <tag k="shop" v="convenience"/>
    <tag k="facebook" v="https://www.facebook.com/tescoaruhazak/"/>
    <tag k="branch" v="Expressz Bp. - Szent László út"/>
    <tag k="payment:debit_cards" v="yes"/>
    <tag k="opening_hours" v="Fr,Mo,Sa,Th,Tu,We 07:00-21:00;Su 08:00-16:00"/>
    <tag k="addr:street" v="Szent László út"/>
    <tag k="source" v="website"/>
    <tag k="payment:cash" v="yes"/>
    <tag k="name" v="Tesco Expressz"/>
    <tag k="addr:housenumber" v="115"/>
    <tag k="operator" v="Tesco Global Áruházak Zrt."/>
    <tag k="addr:city" v="Budapest"/>
    <tag k="youtube" v="https://www.youtube.com/user/TescoMagyarorszag"/>
    <tag k="website" v="https://www.tesco.hu/aruhazak/aruhaz/tesco-expressz-bp-szent-laszlo-ut"/>
  </node>
  <!-- OSM link: https://osm.org/node/4933469047 -->
  <!-- Original coordinates: POINT (46.966954 18.930975) -->
  <!-- Original tags: {'fixme': 'verify', 'name': '44069 Dunauj.Berc.Exp', 'wheelchair': 'yes', 'shop': 'supermarket', 'source': 'route4u'} -->
  <node action="modify" changeset="1" id="4933469047" lat="46.966954" lon="18.930975" timestamp="2017-10-04T20:0533Z" uid="4579407" user="KAMI" version="4">
    <tag k="addr:postcode" v="2400"/>
    <tag k="brand" v="Tesco"/>
    <tag k="shop" v="convenience"/>
    <tag k="facebook" v="https://www.facebook.com/tescoaruhazak/"/>
    <tag k="source" v="website"/>
    <tag k="payment:cash" v="yes"/>
    <tag k="branch" v="Expressz Dunaújváros - Bercsényi utca"/>
    <tag k="name" v="Tesco Expressz"/>
    <tag k="addr:housenumber" v="4"/>
    <tag k="operator" v="Tesco Global Áruházak Zrt."/>
    <tag k="fixme" v="verify"/>
    <tag k="wheelchair" v="yes"/>
    <tag k="payment:debit_cards" v="yes"/>
    <tag k="addr:city" v="Dunaújváros"/>
    <tag k="opening_hours" v="Fr,Mo,Sa,Th,Tu,We 06:00-22:00;Su 08:00-16:00"/>
    <tag k="youtube" v="https://www.youtube.com/user/TescoMagyarorszag"/>
    <tag k="addr:street" v="Bercsényi utca"/>
    <tag k="website" v="https://www.tesco.hu/aruhazak/aruhaz/tesco-expressz-dunaujvaros-bercsenyi-utca"/>
  </node>
  <!-- OSM link: https://osm.org/node/3473673382 -->
  <!-- Original coordinates: POINT (47.68219 17.63823) -->
  <!-- Original tags: {'name': 'COOP', 'shop': 'convenience', 'source:date': '2011-02-20', 'source': 'turistautak.hu', 'url': 'http://turistautak.hu/poi.php?id=37172'} -->
  <node action="modify" changeset="1" id="3473673382" lat="47.68219" lon="17.63823" timestamp="2015-04-23T18:0642Z" uid="4579407" user="KAMI" version="1">
    <tag k="addr:postcode" v="9023"/>
    <tag k="brand" v="Tesco"/>
    <tag k="shop" v="convenience"/>
    <tag k="facebook" v="https://www.facebook.com/tescoaruhazak/"/>
    <tag k="source" v="website"/>
    <tag k="payment:cash" v="yes"/>
    <tag k="branch" v="Expressz Győr - Bartók Béla utca"/>
    <tag k="url" v="http://turistautak.hu/poi.php?id=37172"/>
    <tag k="addr:housenumber" v="13"/>
    <tag k="operator" v="Tesco Global Áruházak Zrt."/>
    <tag k="payment:debit_cards" v="yes"/>
    <tag k="addr:city" v="Győr"/>
    <tag k="opening_hours" v="Fr,Mo,Sa,Th,Tu,We 06:00-21:00;Su 00:00-00:00"/>
    <tag k="source:date" v="2011-02-20"/>
    <tag k="name" v="Tesco Expressz"/>
    <tag k="youtube" v="https://www.youtube.com/user/TescoMagyarorszag"/>
    <tag k="addr:street" v="Bartók Béla utca"/>
    <tag k="website" v="https://www.tesco.hu/aruhazak/aruhaz/tesco-expressz-gyor-bartok-bela-utca"/>
  </node>
  <!-- Original coordinates: POINT (47.69457 17.63028) -->
  <!-- Original tags: None -->
  <node action="modify" changeset="99999" id="-34" lat="47.69457" lon="17.63028" timestamp="" uid="4579407" user="KAMI" version="99999">
    <tag k="addr:postcode" v="9026"/>
    <tag k="brand" v="Tesco"/>
    <tag k="shop" v="convenience"/>
    <tag k="facebook" v="https://www.facebook.com/tescoaruhazak/"/>
    <tag k="branch" v="Expressz Győr - Hédervári út"/>
    <tag k="payment:debit_cards" v="yes"/>
    <tag k="opening_hours" v="Fr,Mo,Sa,Th,Tu,We 06:00-22:00;Su 08:00-16:00"/>
    <tag k="addr:street" v="Hédervári utca"/>
    <tag k="source" v="website"/>
    <tag k="payment:cash" v="yes"/>
    <tag k="name" v="Tesco Expressz"/>
    <tag k="addr:housenumber" v="20"/>
    <tag k="operator" v="Tesco Global Áruházak Zrt."/>
    <tag k="addr:city" v="Győr"/>
    <tag k="youtube" v="https://www.youtube.com/user/TescoMagyarorszag"/>
    <tag k="website" v="https://www.tesco.hu/aruhazak/aruhaz/tesco-expressz-gyor-hedervari-ut"/>
  </node>
  <!-- Original coordinates: POINT (47.68045 17.63266) -->
  <!-- Original tags: None -->
  <node action="modify" changeset="99999" id="-35" lat="47.68045" lon="17.63266" timestamp="" uid="4579407" user="KAMI" version="99999">
    <tag k="addr:postcode" v="9024"/>
    <tag k="brand" v="Tesco"/>
    <tag k="shop" v="convenience"/>
    <tag k="facebook" v="https://www.facebook.com/tescoaruhazak/"/>
    <tag k="branch" v="Expressz Győr - Hunyadi utca"/>
    <tag k="payment:debit_cards" v="yes"/>
    <tag k="opening_hours" v="Fr,Mo,Sa,Th,Tu,We 06:00-21:00;Su 00:00-00:00"/>
    <tag k="addr:street" v="Hunyadi utca"/>
    <tag k="source" v="website"/>
    <tag k="payment:cash" v="yes"/>
    <tag k="name" v="Tesco Expressz"/>
    <tag k="addr:housenumber" v="2"/>
    <tag k="operator" v="Tesco Global Áruházak Zrt."/>
    <tag k="addr:city" v="Győr"/>
    <tag k="youtube" v="https://www.youtube.com/user/TescoMagyarorszag"/>
    <tag k="website" v="https://www.tesco.hu/aruhazak/aruhaz/tesco-expressz-gyor-hunyadi-utca"/>
  </node>
  <!-- Original coordinates: POINT (47.69258 17.66049) -->
  <!-- Original tags: None -->
  <node action="modify" changeset="99999" id="-36" lat="47.69258" lon="17.66049" timestamp="" uid="4579407" user="KAMI" version="99999">
    <tag k="addr:postcode" v="9027"/>
    <tag k="brand" v="Tesco"/>
    <tag k="shop" v="convenience"/>
    <tag k="facebook" v="https://www.facebook.com/tescoaruhazak/"/>
    <tag k="branch" v="Expressz Győr - Ipar utca"/>
    <tag k="payment:debit_cards" v="yes"/>
    <tag k="opening_hours" v="Fr,Mo,Sa,Th,Tu,We 07:00-21:00;Su 00:00-00:00"/>
    <tag k="addr:street" v="Ipar utca"/>
    <tag k="source" v="website"/>
    <tag k="payment:cash" v="yes"/>
    <tag k="name" v="Tesco Expressz"/>
    <tag k="addr:housenumber" v="28"/>
    <tag k="operator" v="Tesco Global Áruházak Zrt."/>
    <tag k="addr:city" v="Győr"/>
    <tag k="youtube" v="https://www.youtube.com/user/TescoMagyarorszag"/>
    <tag k="website" v="https://www.tesco.hu/aruhazak/aruhaz/tesco-expressz-gyor-ipar-utca"/>
  </node>
  <!-- Original coordinates: POINT (47.68635 17.61824) -->
  <!-- Original tags: None -->
  <node action="modify" changeset="99999" id="-37" lat="47.68635" lon="17.61824" timestamp="" uid="4579407" user="KAMI" version="99999">
    <tag k="addr:postcode" v="9025"/>
    <tag k="brand" v="Tesco"/>
    <tag k="shop" v="convenience"/>
    <tag k="facebook" v="https://www.facebook.com/tescoaruhazak/"/>
    <tag k="branch" v="Expressz Győr - Köztelek utca"/>
    <tag k="payment:debit_cards" v="yes"/>
    <tag k="opening_hours" v="Fr,Mo,Sa,Th,Tu,We 06:00-21:00;Su 08:00-16:00"/>
    <tag k="addr:street" v="Köztelek utca"/>
    <tag k="source" v="website"/>
    <tag k="payment:cash" v="yes"/>
    <tag k="name" v="Tesco Expressz"/>
    <tag k="addr:housenumber" v="8"/>
    <tag k="operator" v="Tesco Global Áruházak Zrt."/>
    <tag k="addr:city" v="Győr"/>
    <tag k="youtube" v="https://www.youtube.com/user/TescoMagyarorszag"/>
    <tag k="website" v="https://www.tesco.hu/aruhazak/aruhaz/tesco-expressz-gyor-koztelek-utca"/>
  </node>
  <!-- Original coordinates: POINT (47.320427 18.792617) -->
  <!-- Original tags: None -->
  <node action="modify" changeset="99999" id="-38" lat="47.320427" lon="18.792617" timestamp="" uid="4579407" user="KAMI" version="99999">
    <tag k="addr:postcode" v="2462"/>
    <tag k="brand" v="Tesco"/>
    <tag k="shop" v="convenience"/>
    <tag k="facebook" v="https://www.facebook.com/tescoaruhazak/"/>
    <tag k="branch" v="Expressz Martonvásár"/>
    <tag k="payment:debit_cards" v="yes"/>
    <tag k="opening_hours" v="Fr,Mo,Sa,Th,Tu,We 06:00-22:00;Su 07:00-20:00"/>
    <tag k="addr:street" v="Ady Endre utca"/>
    <tag k="source" v="website"/>
    <tag k="payment:cash" v="yes"/>
    <tag k="name" v="Tesco Expressz"/>
    <tag k="addr:housenumber" v="6"/>
    <tag k="operator" v="Tesco Global Áruházak Zrt."/>
    <tag k="addr:city" v="Martonvásár"/>
    <tag k="youtube" v="https://www.youtube.com/user/TescoMagyarorszag"/>
    <tag k="website" v="https://www.tesco.hu/aruhazak/aruhaz/tesco-expressz-martonvasar"/>
  </node>
  <!-- Original coordinates: POINT (48.109297 20.787642) -->
  <!-- Original tags: None -->
  <node action="modify" changeset="99999" id="-39" lat="48.109297" lon="20.787642" timestamp="" uid="4579407" user="KAMI" version="99999">
    <tag k="addr:postcode" v="3526"/>
    <tag k="brand" v="Tesco"/>
    <tag k="shop" v="convenience"/>
    <tag k="facebook" v="https://www.facebook.com/tescoaruhazak/"/>
    <tag k="branch" v="Expressz Miskolc - Arany János tér"/>
    <tag k="payment:debit_cards" v="yes"/>
    <tag k="opening_hours" v="Fr,Mo,Sa,Th,Tu,We 06:00-22:00;Su 08:00-16:00"/>
    <tag k="addr:street" v="Arany János tér"/>
    <tag k="source" v="website"/>
    <tag k="payment:cash" v="yes"/>
    <tag k="name" v="Tesco Expressz"/>
    <tag k="addr:housenumber" v="1"/>
    <tag k="operator" v="Tesco Global Áruházak Zrt."/>
    <tag k="addr:city" v="Miskolc"/>
    <tag k="youtube" v="https://www.youtube.com/user/TescoMagyarorszag"/>
    <tag k="website" v="https://www.tesco.hu/aruhazak/aruhaz/tesco-expressz-miskolc-arany-janos-ter"/>
  </node>
  <!-- Original coordinates: POINT (48.102623 20.783127) -->
  <!-- Original tags: None -->
  <node action="modify" changeset="99999" id="-40" lat="48.102623" lon="20.783127" timestamp="" uid="4579407" user="KAMI" version="99999">
    <tag k="addr:postcode" v="3525"/>
    <tag k="brand" v="Tesco"/>
    <tag k="shop" v="convenience"/>
    <tag k="facebook" v="https://www.facebook.com/tescoaruhazak/"/>
    <tag k="branch" v="Expressz Miskolc - Széchenyi utca"/>
    <tag k="payment:debit_cards" v="yes"/>
    <tag k="opening_hours" v="Fr,Mo,Sa,Th,Tu,We 06:00-22:00;Su 08:00-16:00"/>
    <tag k="addr:street" v="Széchenyi utca"/>
    <tag k="source" v="website"/>
    <tag k="payment:cash" v="yes"/>
    <tag k="name" v="Tesco Expressz"/>
    <tag k="addr:housenumber" v="29"/>
    <tag k="operator" v="Tesco Global Áruházak Zrt."/>
    <tag k="addr:city" v="Miskolc"/>
    <tag k="youtube" v="https://www.youtube.com/user/TescoMagyarorszag"/>
    <tag k="website" v="https://www.tesco.hu/aruhazak/aruhaz/tesco-expressz-miskolc-szechenyi-utca"/>
  </node>
  <!-- Original coordinates: POINT (47.85557 17.27842) -->
  <!-- Original tags: None -->
  <node action="modify" changeset="99999" id="-41" lat="47.85557" lon="17.27842" timestamp="" uid="4579407" user="KAMI" version="99999">
    <tag k="addr:postcode" v="9200"/>
    <tag k="brand" v="Tesco"/>
    <tag k="shop" v="convenience"/>
    <tag k="facebook" v="https://www.facebook.com/tescoaruhazak/"/>
    <tag k="branch" v="Expressz Móvár - Szent I. kir. utca"/>
    <tag k="payment:debit_cards" v="yes"/>
    <tag k="opening_hours" v="Fr,Mo,Sa,Th,Tu,We 06:00-21:00;Su 08:00-16:00"/>
    <tag k="addr:street" v="Szent I. kir. utca"/>
    <tag k="source" v="website"/>
    <tag k="payment:cash" v="yes"/>
    <tag k="name" v="Tesco Expressz"/>
    <tag k="addr:housenumber" v="96"/>
    <tag k="operator" v="Tesco Global Áruházak Zrt."/>
    <tag k="addr:city" v="Mosonmagyaróvár"/>
    <tag k="youtube" v="https://www.youtube.com/user/TescoMagyarorszag"/>
    <tag k="website" v="https://www.tesco.hu/aruhazak/aruhaz/tesco-expressz-movar-szent-i-kir-utca"/>
  </node>
  <!-- Original coordinates: POINT (47.86276 17.27494) -->
  <!-- Original tags: None -->
  <node action="modify" changeset="99999" id="-42" lat="47.86276" lon="17.27494" timestamp="" uid="4579407" user="KAMI" version="99999">
    <tag k="addr:postcode" v="9200"/>
    <tag k="brand" v="Tesco"/>
    <tag k="shop" v="convenience"/>
    <tag k="facebook" v="https://www.facebook.com/tescoaruhazak/"/>
    <tag k="branch" v="Expressz Móvár - Szent I. kir. utca"/>
    <tag k="payment:debit_cards" v="yes"/>
    <tag k="opening_hours" v="Fr,Mo,Sa,Th,Tu,We 06:00-21:00;Su 08:00-16:00"/>
    <tag k="addr:street" v="Szent I. kir. utca"/>
    <tag k="source" v="website"/>
    <tag k="payment:cash" v="yes"/>
    <tag k="name" v="Tesco Expressz"/>
    <tag k="addr:housenumber" v="44"/>
    <tag k="operator" v="Tesco Global Áruházak Zrt."/>
    <tag k="addr:city" v="Mosonmagyaróvár"/>
    <tag k="youtube" v="https://www.youtube.com/user/TescoMagyarorszag"/>
    <tag k="website" v="https://www.tesco.hu/aruhazak/aruhaz/tesco-expressz-movar-szent-i-kir-utca"/>
  </node>
  <!-- OSM link: https://osm.org/node/2938508503 -->
  <!-- Original coordinates: POINT (47.515252 18.829965) -->
  <!-- Original tags: {'name': 'Tesco Express', 'wheelchair': 'yes', 'shop': 'convenience', 'opening_hours': '6:30-21:00'} -->
  <node action="modify" changeset="1" id="2938508503" lat="47.515252" lon="18.829965" timestamp="2014-12-28T12:4229Z" uid="4579407" user="KAMI" version="2">
    <tag k="addr:postcode" v="2071"/>
    <tag k="brand" v="Tesco"/>
    <tag k="shop" v="convenience"/>
    <tag k="facebook" v="https://www.facebook.com/tescoaruhazak/"/>
    <tag k="branch" v="Expressz Páty - Rákóczi utca"/>
    <tag k="payment:debit_cards" v="yes"/>
    <tag k="opening_hours" v="Fr,Mo,Sa,Th,Tu,We 07:00-21:00;Su 08:00-16:00"/>
    <tag k="addr:street" v="Rákóczi utca"/>
    <tag k="source" v="website"/>
    <tag k="payment:cash" v="yes"/>
    <tag k="name" v="Tesco Expressz"/>
    <tag k="addr:housenumber" v="11"/>
    <tag k="operator" v="Tesco Global Áruházak Zrt."/>
    <tag k="wheelchair" v="yes"/>
    <tag k="addr:city" v="Páty"/>
    <tag k="youtube" v="https://www.youtube.com/user/TescoMagyarorszag"/>
    <tag k="website" v="https://www.tesco.hu/aruhazak/aruhaz/tesco-expressz-paty-rakoczi-utca"/>
  </node>
  <!-- OSM link: https://osm.org/node/1880546349 -->
  <!-- Original coordinates: POINT (46.907659 18.061418) -->
  <!-- Original tags: {'name': 'Tesco expressz', 'shop': 'supermarket'} -->
  <node action="modify" changeset="1" id="1880546349" lat="46.907659" lon="18.061418" timestamp="2012-08-24T09:5538Z" uid="4579407" user="KAMI" version="1">
    <tag k="addr:postcode" v="8600"/>
    <tag k="brand" v="Tesco"/>
    <tag k="shop" v="convenience"/>
    <tag k="facebook" v="https://www.facebook.com/tescoaruhazak/"/>
    <tag k="branch" v="Expressz Siófok-Dózsa György utca"/>
    <tag k="payment:debit_cards" v="yes"/>
    <tag k="opening_hours" v="Fr,Mo,Sa,Su,Th,Tu,We 06:00-22:00"/>
    <tag k="addr:street" v="Dózsa György utca"/>
    <tag k="source" v="website"/>
    <tag k="payment:cash" v="yes"/>
    <tag k="name" v="Tesco Expressz"/>
    <tag k="addr:housenumber" v="20"/>
    <tag k="operator" v="Tesco Global Áruházak Zrt."/>
    <tag k="addr:city" v="Siófok"/>
    <tag k="youtube" v="https://www.youtube.com/user/TescoMagyarorszag"/>
    <tag k="website" v="https://www.tesco.hu/aruhazak/aruhaz/tesco-expressz-siofok-dozsa-gyorgy-utca"/>
  </node>
  <!-- OSM link: https://osm.org/node/1442528046 -->
  <!-- Original coordinates: POINT (47.68343 16.59169) -->
  <!-- Original tags: {'addr:postcode': '9400', 'wheelchair': 'yes', 'addr:city': 'Sopron', 'opening_hours': 'Mo-Fr 06:00-21:00;Sa-Su 06:00-18:00', 'shop': 'supermarket', 'name': 'Tesco Express', 'addr:street': 'Hátsókapu', 'addr:housenumber': '8'} -->
  <node action="modify" changeset="1" id="1442528046" lat="47.68343" lon="16.59169" timestamp="2017-09-11T12:4904Z" uid="4579407" user="KAMI" version="4">
    <tag k="addr:postcode" v="9400"/>
    <tag k="brand" v="Tesco"/>
    <tag k="shop" v="convenience"/>
    <tag k="facebook" v="https://www.facebook.com/tescoaruhazak/"/>
    <tag k="branch" v="Expressz Sopron - Hátsókapu utca"/>
    <tag k="payment:debit_cards" v="yes"/>
    <tag k="opening_hours" v="Fr,Mo,Sa,Th,Tu,We 06:00-21:00;Su 08:00-16:00"/>
    <tag k="addr:street" v="Hátsókapu. utca"/>
    <tag k="source" v="website"/>
    <tag k="payment:cash" v="yes"/>
    <tag k="name" v="Tesco Expressz"/>
    <tag k="addr:housenumber" v="8"/>
    <tag k="operator" v="Tesco Global Áruházak Zrt."/>
    <tag k="wheelchair" v="yes"/>
    <tag k="addr:city" v="Sopron"/>
    <tag k="youtube" v="https://www.youtube.com/user/TescoMagyarorszag"/>
    <tag k="website" v="https://www.tesco.hu/aruhazak/aruhaz/tesco-expressz-sopron-hatsokapu-utca"/>
  </node>
  <!-- OSM link: https://osm.org/node/3057129277 -->
  <!-- Original coordinates: POINT (47.69224 16.5732) -->
  <!-- Original tags: {'addr:postcode': '9400', 'wheelchair': 'limited', 'addr:city': 'Sopron', 'shop': 'convenience', 'name': 'Parola', 'addr:street': 'IV. László király utca', 'addr:housenumber': '36'} -->
  <node action="modify" changeset="1" id="3057129277" lat="47.69224" lon="16.5732" timestamp="2017-10-02T13:0945Z" uid="4579407" user="KAMI" version="2">
    <tag k="addr:postcode" v="9400"/>
    <tag k="brand" v="Tesco"/>
    <tag k="shop" v="convenience"/>
    <tag k="facebook" v="https://www.facebook.com/tescoaruhazak/"/>
    <tag k="branch" v="Expressz Sopron - IV. László utca"/>
    <tag k="payment:debit_cards" v="yes"/>
    <tag k="opening_hours" v="Fr,Mo,Sa,Th,Tu,We 06:00-21:00;Su 08:00-16:00"/>
    <tag k="addr:street" v="IV. László király utca"/>
    <tag k="source" v="website"/>
    <tag k="payment:cash" v="yes"/>
    <tag k="name" v="Tesco Expressz"/>
    <tag k="addr:housenumber" v="39"/>
    <tag k="operator" v="Tesco Global Áruházak Zrt."/>
    <tag k="wheelchair" v="limited"/>
    <tag k="addr:city" v="Sopron"/>
    <tag k="youtube" v="https://www.youtube.com/user/TescoMagyarorszag"/>
    <tag k="website" v="https://www.tesco.hu/aruhazak/aruhaz/tesco-expressz-sopron-iv-laszlo-utca"/>
  </node>
  <!-- OSM link: https://osm.org/node/4940559150 -->
  <!-- Original coordinates: POINT (47.67471 16.58269) -->
  <!-- Original tags: {'fixme': 'verify', 'name': '45012 Sm So 3050', 'shop': 'supermarket', 'source': 'route4u'} -->
  <node action="modify" changeset="1" id="4940559150" lat="47.67471" lon="16.58269" timestamp="2018-02-24T16:4750Z" uid="4579407" user="KAMI" version="3">
    <tag k="addr:postcode" v="9400"/>
    <tag k="brand" v="Tesco"/>
    <tag k="shop" v="convenience"/>
    <tag k="facebook" v="https://www.facebook.com/tescoaruhazak/"/>
    <tag k="branch" v="Expressz Sopron - József Attila utca"/>
    <tag k="payment:debit_cards" v="yes"/>
    <tag k="opening_hours" v="Fr,Mo,Sa,Th,Tu,We 06:00-21:00;Su 08:00-16:00"/>
    <tag k="addr:street" v="József A. utca"/>
    <tag k="source" v="website"/>
    <tag k="payment:cash" v="yes"/>
    <tag k="fixme" v="verify"/>
    <tag k="name" v="Tesco Expressz"/>
    <tag k="addr:housenumber" v="1"/>
    <tag k="operator" v="Tesco Global Áruházak Zrt."/>
    <tag k="addr:city" v="Sopron"/>
    <tag k="youtube" v="https://www.youtube.com/user/TescoMagyarorszag"/>
    <tag k="website" v="https://www.tesco.hu/aruhazak/aruhaz/tesco-expressz-sopron-jozsef-attila-utca"/>
  </node>
  <!-- OSM link: https://osm.org/node/3057051146 -->
  <!-- Original coordinates: POINT (47.67949 16.59297) -->
  <!-- Original tags: {'addr:postcode': '9400', 'addr:city': 'Sopron', 'shop': 'convenience', 'name': 'Turzay és Németh', 'addr:street': 'Király Jenő utca', 'addr:housenumber': '1'} -->
  <node action="modify" changeset="1" id="3057051146" lat="47.67949" lon="16.59297" timestamp="2014-09-03T13:1941Z" uid="4579407" user="KAMI" version="2">
    <tag k="addr:postcode" v="9400"/>
    <tag k="brand" v="Tesco"/>
    <tag k="shop" v="convenience"/>
    <tag k="facebook" v="https://www.facebook.com/tescoaruhazak/"/>
    <tag k="branch" v="Expressz Sopron - Király J. utca"/>
    <tag k="payment:debit_cards" v="yes"/>
    <tag k="opening_hours" v="Fr,Mo,Sa,Th,Tu,We 06:00-21:00;Su 08:00-16:00"/>
    <tag k="addr:street" v="Király J. utca"/>
    <tag k="source" v="website"/>
    <tag k="payment:cash" v="yes"/>
    <tag k="name" v="Tesco Expressz"/>
    <tag k="addr:housenumber" v="3"/>
    <tag k="operator" v="Tesco Global Áruházak Zrt."/>
    <tag k="addr:city" v="Sopron"/>
    <tag k="youtube" v="https://www.youtube.com/user/TescoMagyarorszag"/>
    <tag k="website" v="https://www.tesco.hu/aruhazak/aruhaz/tesco-expressz-sopron-kiraly-j-utca"/>
  </node>
  <!-- Original coordinates: POINT (47.68852 16.58626) -->
  <!-- Original tags: None -->
  <node action="modify" changeset="99999" id="-49" lat="47.68852" lon="16.58626" timestamp="" uid="4579407" user="KAMI" version="99999">
    <tag k="addr:postcode" v="9400"/>
    <tag k="brand" v="Tesco"/>
    <tag k="shop" v="convenience"/>
    <tag k="facebook" v="https://www.facebook.com/tescoaruhazak/"/>
    <tag k="branch" v="Expressz Sopron - Lackner K. utca"/>
    <tag k="payment:debit_cards" v="yes"/>
    <tag k="opening_hours" v="Fr,Mo,Sa,Th,Tu,We 06:00-21:00;Su 00:00-00:00"/>
    <tag k="addr:street" v="Lackner K. utca"/>
    <tag k="source" v="website"/>
    <tag k="payment:cash" v="yes"/>
    <tag k="name" v="Tesco Expressz"/>
    <tag k="addr:housenumber" v="11"/>
    <tag k="operator" v="Tesco Global Áruházak Zrt."/>
    <tag k="addr:city" v="Sopron"/>
    <tag k="youtube" v="https://www.youtube.com/user/TescoMagyarorszag"/>
    <tag k="website" v="https://www.tesco.hu/aruhazak/aruhaz/tesco-expressz-sopron-lackner-k-utca"/>
  </node>
  <!-- OSM link: https://osm.org/node/1406975311 -->
  <!-- Original coordinates: POINT (47.68508 16.5979) -->
  <!-- Original tags: {'addr:postcode': '9400', 'wheelchair': 'limited', 'addr:city': 'Sopron', 'shop': 'supermarket', 'name': 'S-Market', 'addr:street': 'Végfordulat', 'addr:housenumber': '9'} -->
  <node action="modify" changeset="1" id="1406975311" lat="47.68508" lon="16.5979" timestamp="2017-09-27T07:2629Z" uid="4579407" user="KAMI" version="5">
    <tag k="addr:postcode" v="9400"/>
    <tag k="brand" v="Tesco"/>
    <tag k="shop" v="convenience"/>
    <tag k="facebook" v="https://www.facebook.com/tescoaruhazak/"/>
    <tag k="branch" v="Expressz Sopron - Végfordulat utca"/>
    <tag k="payment:debit_cards" v="yes"/>
    <tag k="opening_hours" v="Fr,Mo,Sa,Th,Tu,We 07:00-21:00;Su 00:00-00:00"/>
    <tag k="addr:street" v="Végfordulat utca"/>
    <tag k="source" v="website"/>
    <tag k="payment:cash" v="yes"/>
    <tag k="name" v="Tesco Expressz"/>
    <tag k="addr:housenumber" v="9"/>
    <tag k="operator" v="Tesco Global Áruházak Zrt."/>
    <tag k="wheelchair" v="limited"/>
    <tag k="addr:city" v="Sopron"/>
    <tag k="youtube" v="https://www.youtube.com/user/TescoMagyarorszag"/>
    <tag k="website" v="https://www.tesco.hu/aruhazak/aruhaz/tesco-expressz-sopron-vegfordulat-utca"/>
  </node>
  <!-- OSM link: https://osm.org/node/4747723237 -->
  <!-- Original coordinates: POINT (46.250812 20.143572) -->
  <!-- Original tags: {'addr:postcode': '6722', 'wheelchair': 'yes', 'addr:city': 'Szeged', 'opening_hours': 'Mo-Sa 07:00-22:00; Su 07:00-18:00', 'shop': 'supermarket', 'name': 'Tesco Express', 'addr:street': 'Dugonics tér', 'addr:housenumber': '8-9', 'operator': 'TESCO'} -->
  <node action="modify" changeset="1" id="4747723237" lat="46.250812" lon="20.143572" timestamp="2017-03-21T21:1724Z" uid="4579407" user="KAMI" version="1">
    <tag k="addr:postcode" v="6722"/>
    <tag k="brand" v="Tesco"/>
    <tag k="shop" v="convenience"/>
    <tag k="facebook" v="https://www.facebook.com/tescoaruhazak/"/>
    <tag k="source" v="website"/>
    <tag k="payment:cash" v="yes"/>
    <tag k="branch" v="Expressz Szeged - Dugonics tér"/>
    <tag k="name" v="Tesco Expressz"/>
    <tag k="addr:housenumber" v="8-9"/>
    <tag k="operator" v="Tesco Global Áruházak Zrt."/>
    <tag k="wheelchair" v="yes"/>
    <tag k="payment:debit_cards" v="yes"/>
    <tag k="addr:city" v="Szeged"/>
    <tag k="opening_hours" v="Fr,Mo,Sa,Th,Tu,We 07:00-22:00;Su 07:00-18:00"/>
    <tag k="youtube" v="https://www.youtube.com/user/TescoMagyarorszag"/>
    <tag k="addr:street" v="Dugonics tér"/>
    <tag k="website" v="https://www.tesco.hu/aruhazak/aruhaz/tesco-expressz-szeged-dugonics-ter"/>
  </node>
  <!-- OSM link: https://osm.org/node/2433857106 -->
  <!-- Original coordinates: POINT (46.255891 20.147617) -->
  <!-- Original tags: {'name': 'Tesco Express', 'wheelchair': 'no', 'shop': 'supermarket', 'operator': 'Tesco'} -->
  <node action="modify" changeset="1" id="2433857106" lat="46.255891" lon="20.147617" timestamp="2018-06-19T12:5444Z" uid="4579407" user="KAMI" version="4">
    <tag k="addr:postcode" v="6722"/>
    <tag k="brand" v="Tesco"/>
    <tag k="shop" v="convenience"/>
    <tag k="facebook" v="https://www.facebook.com/tescoaruhazak/"/>
    <tag k="source" v="website"/>
    <tag k="payment:cash" v="yes"/>
    <tag k="branch" v="Expressz Szeged - Tisza Lajos krt. "/>
    <tag k="name" v="Tesco Expressz"/>
    <tag k="addr:housenumber" v="41"/>
    <tag k="operator" v="Tesco Global Áruházak Zrt."/>
    <tag k="wheelchair" v="no"/>
    <tag k="payment:debit_cards" v="yes"/>
    <tag k="addr:city" v="Szeged"/>
    <tag k="opening_hours" v="Fr,Mo,Sa,Su,Th,Tu,We 05:00-23:00"/>
    <tag k="youtube" v="https://www.youtube.com/user/TescoMagyarorszag"/>
    <tag k="addr:street" v="Tisza Lajos körút"/>
    <tag k="website" v="https://www.tesco.hu/aruhazak/aruhaz/tesco-expressz-szeged-tisza-lajos-krt"/>
  </node>
  <!-- OSM link: https://osm.org/node/4940563957 -->
  <!-- Original coordinates: POINT (47.66936 17.63962) -->
  <!-- Original tags: {'fixme': 'verify', 'name': 'Élelmiszer', 'shop': 'convenience', 'source': 'route4u'} -->
  <node action="modify" changeset="1" id="4940563957" lat="47.66936" lon="17.63962" timestamp="2017-08-07T22:0805Z" uid="4579407" user="KAMI" version="2">
    <tag k="addr:postcode" v="9024"/>
    <tag k="brand" v="Tesco"/>
    <tag k="shop" v="convenience"/>
    <tag k="facebook" v="https://www.facebook.com/tescoaruhazak/"/>
    <tag k="branch" v="Győr Expressz - Lajta utca"/>
    <tag k="payment:debit_cards" v="yes"/>
    <tag k="opening_hours" v="Fr,Mo,Sa,Th,Tu,We 06:00-22:00;Su 07:00-18:00"/>
    <tag k="addr:street" v="Lajta utca"/>
    <tag k="source" v="website"/>
    <tag k="payment:cash" v="yes"/>
    <tag k="fixme" v="verify"/>
    <tag k="name" v="Tesco Expressz"/>
    <tag k="addr:housenumber" v="12"/>
    <tag k="operator" v="Tesco Global Áruházak Zrt."/>
    <tag k="addr:city" v="Győr"/>
    <tag k="youtube" v="https://www.youtube.com/user/TescoMagyarorszag"/>
    <tag k="website" v="https://www.tesco.hu/aruhazak/aruhaz/tesco-gyor-expressz-lajta-utca"/>
  </node>
  <!-- OSM link: https://osm.org/way/202144225 -->
  <!-- Original coordinates: POINT (47.440971 19.022408) -->
  <!-- Original tags: {'addr:postcode': '1221', 'wheelchair': 'yes', 'addr:city': 'Budapest', 'addr:country': 'HU', 'shop': 'supermarket', 'name': 'TESCO Express', 'building': 'retail', 'addr:street': 'Ady Endre út', 'addr:housenumber': '99', 'opening_hours': 'Mo-Sa 06:00-22:00'} -->
  <way action="modify" changeset="1" id="202144225" timestamp="2017-12-25T16:1635Z" uid="4579407" user="KAMI" version="5">
    <nd ref="1755334628"/>
    <nd ref="2121203830"/>
    <nd ref="2121203829"/>
    <nd ref="2121203832"/>
    <nd ref="2121203831"/>
    <nd ref="2121203833"/>
    <nd ref="1755334628"/>
    <tag k="addr:postcode" v="1221"/>
    <tag k="youtube" v="https://www.youtube.com/user/TescoMagyarorszag"/>
    <tag k="brand" v="Tesco"/>
    <tag k="shop" v="convenience"/>
    <tag k="facebook" v="https://www.facebook.com/tescoaruhazak/"/>
    <tag k="source" v="website"/>
    <tag k="payment:cash" v="yes"/>
    <tag k="branch" v="Hasadék Expressz"/>
    <tag k="name" v="Tesco Expressz"/>
    <tag k="addr:housenumber" v="99"/>
    <tag k="operator" v="Tesco Global Áruházak Zrt."/>
    <tag k="wheelchair" v="yes"/>
    <tag k="payment:debit_cards" v="yes"/>
    <tag k="addr:city" v="Budapest"/>
    <tag k="opening_hours" v="Fr,Mo,Sa,Th,Tu,We 07:00-21:00;Su 08:00-16:00"/>
    <tag k="website" v="https://www.tesco.hu/aruhazak/aruhaz/tesco-hasadek-expressz"/>
    <tag k="building" v="retail"/>
    <tag k="addr:street" v="Ady Endre utca"/>
    <tag k="addr:country" v="HU"/>
  </way>
  <!-- Original coordinates: POINT (47.5128 19.123942) -->
  <!-- Original tags: None -->
  <node action="modify" changeset="99999" id="-55" lat="47.5128" lon="19.123942" timestamp="" uid="4579407" user="KAMI" version="99999">
    <tag k="addr:postcode" v="1148"/>
    <tag k="brand" v="Tesco"/>
    <tag k="shop" v="convenience"/>
    <tag k="facebook" v="https://www.facebook.com/tescoaruhazak/"/>
    <tag k="branch" v="Nagy Lajos király útja Expressz"/>
    <tag k="payment:debit_cards" v="yes"/>
    <tag k="opening_hours" v="Fr,Mo,Sa,Th,Tu,We 06:00-22:00;Su 07:00-18:00"/>
    <tag k="addr:street" v="Nagy Lajos király út"/>
    <tag k="source" v="website"/>
    <tag k="payment:cash" v="yes"/>
    <tag k="name" v="Tesco Expressz"/>
    <tag k="addr:housenumber" v="73-77"/>
    <tag k="operator" v="Tesco Global Áruházak Zrt."/>
    <tag k="addr:city" v="Budapest"/>
    <tag k="youtube" v="https://www.youtube.com/user/TescoMagyarorszag"/>
    <tag k="website" v="https://www.tesco.hu/aruhazak/aruhaz/tesco-nagy-lajos-kiraly-utja-expressz"/>
  </node>
  <!-- Original coordinates: POINT (47.516139 19.106895) -->
  <!-- Original tags: None -->
  <node action="modify" changeset="99999" id="-56" lat="47.516139" lon="19.106895" timestamp="" uid="4579407" user="KAMI" version="99999">
    <tag k="addr:postcode" v="1146"/>
    <tag k="brand" v="Tesco"/>
    <tag k="shop" v="convenience"/>
    <tag k="facebook" v="https://www.facebook.com/tescoaruhazak/"/>
    <tag k="branch" v="Thököly út Expressz"/>
    <tag k="payment:debit_cards" v="yes"/>
    <tag k="opening_hours" v="Fr,Mo,Sa,Th,Tu,We 06:00-22:00;Su 07:00-18:00"/>
    <tag k="addr:street" v="Thököly út"/>
    <tag k="source" v="website"/>
    <tag k="payment:cash" v="yes"/>
    <tag k="name" v="Tesco Expressz"/>
    <tag k="addr:housenumber" v="151"/>
    <tag k="operator" v="Tesco Global Áruházak Zrt."/>
    <tag k="addr:city" v="Budapest"/>
    <tag k="youtube" v="https://www.youtube.com/user/TescoMagyarorszag"/>
    <tag k="website" v="https://www.tesco.hu/aruhazak/aruhaz/tesco-thokoly-ut-expressz"/>
  </node>
  <!-- Original coordinates: POINT (47.440996 18.914191) -->
  <!-- Original tags: None -->
  <node action="modify" changeset="99999" id="-57" lat="47.440996" lon="18.914191" timestamp="" uid="4579407" user="KAMI" version="99999">
    <tag k="addr:postcode" v="2045"/>
    <tag k="brand" v="Tesco"/>
    <tag k="shop" v="convenience"/>
    <tag k="facebook" v="https://www.facebook.com/tescoaruhazak/"/>
    <tag k="branch" v="Törökbálint Expressz"/>
    <tag k="payment:debit_cards" v="yes"/>
    <tag k="opening_hours" v="Fr,Mo,Sa,Th,Tu,We 06:00-22:00;Su 08:00-16:00"/>
    <tag k="addr:street" v="Bajcsy-Zsilinszky utca"/>
    <tag k="source" v="website"/>
    <tag k="payment:cash" v="yes"/>
    <tag k="name" v="Tesco Expressz"/>
    <tag k="addr:housenumber" v="67"/>
    <tag k="operator" v="Tesco Global Áruházak Zrt."/>
    <tag k="addr:city" v="Törökbálint"/>
    <tag k="youtube" v="https://www.youtube.com/user/TescoMagyarorszag"/>
    <tag k="website" v="https://www.tesco.hu/aruhazak/aruhaz/tesco-torokbalint-expressz"/>
  </node>
</osm>
